AXFH000
HFDTE101224
HFPLTPILOT:Scott O’Brien
HFGTYGLIDERTYPE:Ozone Swift 6
HFDTM100GPSDATUM:WGS84
HFRFWFIRMWAREVERSION:8.2.5
HFRHWHARDWAREVERSION:iPhone 15
HFFTYFRTYPE:Flyskyhy,8.2.5
HFGPS:Internal
HFPRSVARIO:Internal Vario
HFCCLCOMPETITIONCLASS:Paraglider
HFTZNTIMEZONE:-8
HFSITSITE:Ed Levin,US
I053638FXA3941VXA4244GSP4547CCO4850HDT
C101224195745101224000105TASK
C0000000N00000000ETAKEOFF
C3832449N11204411W00000000001000000000360000STARTAREA T04
C3832449N11204411W00030009999999000000360000TURNAREA T04
C3833533N11148217W00000000002000000000360000TURNAREA P30
C3845304N11125100W00000000006000000000360000TURNAREA S08
C3913309N11109083W00000000002000000000360000TURNAREA F04
C3935774N11050460W00000000003000000000360000TURNAREA G14
C3935774N11050460W00000000000400000000360000FINISHAREA G14
C0000000N00000000ELANDING
B1958163728466N12151573WA0069600694005010009191210
B1958173728464N12151574WA0069500693005010010207214
B1958183728462N12151575WA0069400693005010011209205
B1958193728460N12151576WA0069300692005010012196213
B1958203728459N12151576WA0069300692005010014201238
B1958213728457N12151577WA0069200691005010011212211
B1958223728455N12151578WA0069200691005010012224189
B1958233728454N12151580WA0069200691005010013205200
B1958243728452N12151580WA0069200691005010013181187
B1958253728450N12151580WA0069200690005010013169194
B1958263728448N12151579WA0069200690005010014167193
B1958273728446N12151579WA0069100690005010012170187
B1958283728444N12151578WA0069100690005010011161175
B1958293728443N12151577WA0069100690005010011134199
B1958303728441N12151575WA0069100690005010016136199
B1958313728440N12151573WA0069100690005010015146219
B1958323728438N12151572WA0069100690005010011153239
B1958333728437N12151571WA0069100690005010008195258
B1958343728435N12151572WA0069100690005010010218282
B1958353728435N12151575WA0069100690005010018261298
B1958363728435N12151579WA0069100690005010026277322
B1958373728436N12151585WA0069100690005010037291343
B1958383728439N12151591WA0069100689005010041306317
B1958393728442N12151598WA0069100689005010038307298
B1958403728446N12151603WA0069100690005010037318291
B1958413728450N12151608WA0069100690005010036314323
B1958423728454N12151613WA0069100691005010036312293
B1958433728458N12151619WA0069100691005010037311311
B1958443728462N12151624WA0069200692005010036311297
B1958453728465N12151629WA0069200692005010035310310
B1958463728469N12151634WA0069300693005010034310309
B1958473728472N12151639WA0069300694005010034312312
B1958483728476N12151644WA0069300694005010035315320
B1958493728480N12151648WA0069300695005010036316310
B1958503728484N12151653WA0069300695005010036314307
B1958513728488N12151658WA0069400696005010036314292
B1958523728491N12151663WA0069400696005010036315287
B1958533728495N12151668WA0069400696005010035312292
B1958543728498N12151673WA0069400696005010035310295
B1958553728502N12151678WA0069400696005010036308295
B1958563728505N12151683WA0069400697005010037309288
B1958573728509N12151688WA0069400697005010034309288
B1958583728512N12151693WA0069400697005010033307283
B1958593728515N12151698WA0069400698005010034303270
B1959003728518N12151704WA0069400698005010035297262
B1959013728520N12151711WA0069400698005010036293249
B1959023728521N12151717WA0069400698005010030272243
B1959033728520N12151722WA0069400698005010024244241
B1959043728518N12151725WA0069300698005010023215224
B1959053728515N12151726WA0069300698005010019190219
B1959063728513N12151726WA0069200697005010017178193
B1959073728510N12151726WA0069100697005010016167205
B1959083728508N12151725WA0069000697005010017161180
B1959093728505N12151724WA0068900697005010020162192
B1959103728503N12151722WA0068800696005010020160182
B1959113728500N12151721WA0068800696005010017155182
B1959123728498N12151719WA0068800696005010013146181
B1959133728497N12151718WA0068800696005010014144179
B1959143728495N12151716WA0068800695005010017151187
B1959153728493N12151715WA0068800695005010019153188
B1959163728490N12151713WA0068800695005010017153184
B1959173728489N12151712WA0068800695005010011157192
B1959183728487N12151712WA0068800695005010011167180
B1959193728485N12151711WA0068800695005010012173191
B1959203728483N12151711WA0068800695005010015171183
B1959213728481N12151710WA0068800694005010016168191
B1959223728479N12151710WA0068800694005010014167186
B1959233728477N12151709WA0068800694005010013167186
B1959243728475N12151708WA0068800694005010012167176
B1959253728473N12151708WA0068800694005010014164168
B1959263728471N12151707WA0068800694005010015155154
B1959273728469N12151705WA0068800694005010017141151
B1959283728468N12151703WA0068800694005010019121144
B1959293728467N12151700WA0068700694005010022103133
B1959303728466N12151695WA0068700693005010024090128
B1959313728466N12151690WA0068700693005010027082129
B1959323728467N12151685WA0068700693005010027080126
B1959333728468N12151680WA0068700693005010026083122
B1959343728468N12151675WA0068700693005010025087122
B1959353728468N12151670WA0068700693005010025091127
B1959363728468N12151666WA0068700693005010025091134
B1959373728468N12151661WA0068700693005010024092137
B1959383728468N12151657WA0068700693005010022095136
B1959393728467N12151653WA0068700693005010020103138
B1959403728466N12151649WA0068700692005010020114140
B1959413728465N12151646WA0068700692005010019124145
B1959423728463N12151644WA0068800692005010019129153
B1959433728461N12151641WA0068800692005010017129157
B1959443728460N12151639WA0068800693005010016127155
B1959453728458N12151636WA0068800693005010016127157
B1959463728456N12151634WA0068800693005010018129158
B1959473728455N12151631WA0068800693005010019129150
B1959483728453N12151628WA0068800693005010020124151
B1959493728451N12151625WA0068800693005010020118154
B1959503728450N12151622WA0068800693005010019115156
B1959513728449N12151618WA0068800693005010020117153
B1959523728447N12151615WA0068700693005010020117148
B1959533728446N12151612WA0068700693005010021113144
B1959543728445N12151608WA0068700693005010021108149
B1959553728444N12151604WA0068700693005010021105154
B1959563728443N12151601WA0068600692005010020107154
B1959573728442N12151597WA0068600692005010020113156
B1959583728441N12151594WA0068600692005010020119154
B1959593728439N12151591WA0068600692005010019120142
B2000003728438N12151588WA0068600692005010017125166
B2000013728436N12151585WA0068500692005010017131171
B2000023728435N12151583WA0068500692005010017139164
B2000033728433N12151581WA0068500692005010016146169
B2000043728430N12151580WA0068500692005010018147166
B2000053728428N12151578WA0068500692005010018137187
B2000063728426N12151576WA0068500692005010018130179
B2000073728425N12151573WA0068500692005010013136184
B2000083728423N12151572WA0068500692005010010168180
B2000093728421N12151573WA0068500692005010014201201
B2000103728420N12151574WA0068400691005010017219208
B2000113728418N12151577WA0068300691005010019231221
B2000123728416N12151581WA0068300691005010024251227
B2000133728416N12151585WA0068200690005010028263242
B2000143728416N12151591WA0068200690005010035278252
B2000153728417N12151598WA0068100689005010039290268
B2000163728420N12151605WA0068100689005010039295276
B2000173728423N12151612WA0068100688005010038305285
B2000183728426N12151616WA0068100688005010033321294
B2000193728431N12151620WA0068100687005010035323302
B2000203728435N12151625WA0068100686005010040316306
B2000213728440N12151630WA0068000684005010043314305
B2000223728444N12151636WA0068000683005010044314300
B2000233728448N12151641WA0068000682005010032311300
B2000243728451N12151646WA0067900682005010031310298
B2000253728454N12151650WA0067800681005010033307306
B2000263728457N12151656WA0067800680005010037306315
B2000273728460N12151661WA0067800680005010037308312
B2000283728464N12151666WA0067700679005010036311309
B2000293728467N12151671WA0067700679005010036317307
B2000303728472N12151676WA0067700679005010037318306
B2000313728476N12151681WA0067700678005010038318309
B2000323728480N12151685WA0067700678005010039316310
B2000333728484N12151691WA0067700678005010040315312
B2000343728488N12151696WA0067700678005010039315305
B2000353728492N12151701WA0067600678005010038314296
B2000363728496N12151706WA0067600677005010037312293
B2000373728500N12151711WA0067600677005010036308287
B2000383728503N12151717WA0067500677005010037305290
B2000393728506N12151722WA0067500677005010036303296
B2000403728509N12151728WA0067500676005010034303292
B2000413728512N12151733WA0067500676005010034305289
B2000423728515N12151738WA0067400676005010034305286
B2000433728518N12151743WA0067400676005010035302280
B2000443728520N12151749WA0067400676005010036300280
B2000453728523N12151755WA0067400676005010034297278
B2000463728525N12151761WA0067400676005010033295277
B2000473728527N12151766WA0067400676005010032294277
B2000483728529N12151772WA0067400676005010031291278
B2000493728530N12151777WA0067300676005010032292284
B2000503728532N12151783WA0067300677005010033293287
B2000513728534N12151788WA0067300677005010033296280
B2000523728536N12151794WA0067300677005010033299276
B2000533728539N12151799WA0067300677005010033297269
B2000543728541N12151805WA0067300677005010032294266
B2000553728543N12151810WA0067300677005010033291271
B2000563728545N12151816WA0067200677005010034291266
B2000573728547N12151822WA0067200677005010033291264
B2000583728548N12151828WA0067100677005010031289260
B2000593728550N12151834WA0067100677005010030285264
B2001013728551N12151840WA0067100677005010031283257
B2001023728552N12151845WA0067100677005010031282256
B2001033728553N12151851WA0067000677005010031281254
B2001043728553N12151857WA0067000677005010029280252
B2001053728554N12151862WA0067000677005010029278250
B2001063728554N12151867WA0066900677005010029275256
B2001073728555N12151873WA0066900677005010029273271
B2001083728555N12151878WA0066900677005010030274278
B2001093728556N12151884WA0066900677005010031282277
B2001103728557N12151890WA0066900677005010032291252
B2001113728559N12151895WA0066800677005010034295239
B2001123728561N12151901WA0066800676005010033292230
B2001133728563N12151907WA0066800675005010032281231
B2001143728563N12151913WA0066700674005010029264219
B2001153728562N12151917WA0066700673005010023240204
B2001163728560N12151920WA0066700672005010019210188
B2001173728557N12151920WA0066500671005010018171171
B2001183728555N12151919WA0066400670005010021130159
B2001193728553N12151915WA0066300669005010025101141
B2001203728553N12151909WA0066300668005010026092137
B2001213728553N12151905WA0066100667005010024089132
B2001223728553N12151900WA0065900666005010019102131
B2001233728552N12151897WA0065800665005010017120139
B2001243728550N12151895WA0065800664005010019143150
B2001253728547N12151893WA0065600663005010019154159
B2001263728545N12151892WA0065500662005010016163162
B2001273728542N12151891WA0065300661005010016173174
B2001283728540N12151891WA0065300659005010018177180
B2001293728537N12151891WA0065100658005010023177185
B2001303728533N12151891WA0064900657005010025176181
B2001313728529N12151891WA0064700656005010025180171
B2001323728525N12151892WA0064700655005010026182185
B2001333728521N12151892WA0064500654005010026182170
B2001343728517N12151892WA0064400653005010023178184
B2001353728514N12151892WA0064300652005010018173179
B2001363728512N12151891WA0064300652005010016167181
B2001373728510N12151890WA0064300651005010017165177
B2001383728507N12151889WA0064400650005010020163180
B2001393728504N12151888WA0064400650005010024166186
B2001403728501N12151887WA0064400649005010023164159
B2001413728498N12151886WA0064400648005010018149165
B2001423728496N12151884WA0064400648005010015131152
B2001433728495N12151882WA0064400647005010012116156
B2001443728495N12151880WA0064400646005010012115155
B2001453728494N12151877WA0064300646005010014114141
B2001463728493N12151874WA0064300645005010019118157
B2001473728492N12151871WA0064300645005010019114158
B2001483728491N12151868WA0064300644005010019107169
B2001493728490N12151864WA0064300644005010018105163
B2001503728489N12151861WA0064300643005010017111169
B2001513728488N12151859WA0064200642005010021138171
B2001523728485N12151856WA0064200642005010025157179
B2001533728481N12151855WA0064100641005010024168177
B2001543728478N12151855WA0064000641005010019193180
B2001553728475N12151856WA0063900640005010019196195
B2001563728472N12151857WA0063900640005010016201194
B2001573728470N12151858WA0063900639005010015203197
B2001583728469N12151860WA0064000639005010016232195
B2001593728468N12151863WA0064100639005010022255210
B2002003728467N12151868WA0064100638005010028259233
B2002013728466N12151873WA0064100638005010030261239
B2002023728465N12151879WA0064100637005010031267242
B2002033728465N12151885WA0064000636005010034278247
B2002043728467N12151891WA0063900636005010036288261
B2002053728469N12151898WA0063900635005010039293259
B2002063728471N12151905WA0063700633005010038290265
B2002073728472N12151911WA0063500632005010036280264
B2002083728473N12151918WA0063300630005010033269254
B2002093728472N12151924WA0063300629005010031265241
B2002103728472N12151930WA0063000627005010029263238
B2002113728471N12151935WA0062700626005010028262240
B2002123728470N12151940WA0062500625005010027259240
B2002133728469N12151945WA0062500623005010025256233
B2002143728468N12151949WA0062300622005010022257231
B2002153728467N12151952WA0062200621005010020253228
B2002163728466N12151956WA0062100620005010019249220
B2002173728465N12151959WA0062100619005010019241223
B2002183728463N12151961WA0062000618005010020237217
B2002193728461N12151964WA0062000617005010020236217
B2002203728459N12151967WA0062000616005010020235212
B2002213728457N12151970WA0062000615005010018235218
B2002223728455N12151973WA0061900614005010019231223
B2002233728453N12151976WA0061800613005010020231225
B2002243728450N12151979WA0061700613005010022231233
B2002253728448N12151983WA0061700612005010024231220
B2002263728445N12151987WA0061600611005010024231220
B2002273728443N12151990WA0061500610005010023229223
B2002283728441N12151993WA0061500608005010022229222
B2002293728438N12151997WA0061500607005010022233226
B2002303728437N12152000WA0061400606005010022237224
B2002313728435N12152003WA0061300606005010021240226
B2002323728434N12152007WA0061200605005010020246224
B2002333728432N12152010WA0061200604005010020244227
B2002343728431N12152014WA0061100603005010022249227
B2002353728430N12152018WA0061000602005010024247226
B2002363728428N12152023WA0060900601005010026246223
B2002373728426N12152027WA0060900600005010025246213
B2002383728425N12152031WA0060700599005010023244225
B2002393728423N12152035WA0060600599005010022244227
B2002403728422N12152039WA0060500598005010021245227
B2002413728421N12152042WA0060500597005010020248225
B2002423728420N12152046WA0060400597005010020249231
B2002433728419N12152050WA0060400596005010021250235
B2002443728418N12152053WA0060300596005010022252238
B2002453728417N12152057WA0060300595005010024256231
B2002463728416N12152062WA0060200594005010024258222
B2002473728415N12152066WA0060100594005010023255228
B2002483728415N12152070WA0060000593005010022251239
B2002493728414N12152074WA0060000593005010022250246
B2002503728413N12152078WA0059900592005010023255249
B2002513728412N12152082WA0059800591005010025261243
B2002523728412N12152087WA0059700591005010026264248
B2002533728411N12152092WA0059700590005010026265247
B2002543728411N12152097WA0059600589005010026265252
B2002553728411N12152102WA0059500589005010027266242
B2002563728411N12152107WA0059400588005010027267235
B2002573728410N12152112WA0059400588005010028265226
B2002583728410N12152118WA0059300587005010028262236
B2002593728409N12152123WA0059200587005010026258245
B2003003728408N12152128WA0059100586005010025256258
B2003013728407N12152132WA0059100586005010026257258
B2003023728407N12152138WA0059100585005010029260264
B2003033728406N12152143WA0059000585005010031264264
B2003043728406N12152149WA0059000584005010030272259
B2003053728406N12152155WA0059000584005010031280253
B2003063728407N12152160WA0058900584005010031283245
B2003073728408N12152166WA0058900584005010031282236
B2003083728409N12152172WA0058800584005010030278237
B2003093728409N12152177WA0058800584005010028256235
B2003103728408N12152182WA0058800584005010026241228
B2003113728406N12152186WA0058700584005010025239213
B2003123728404N12152190WA0058700584005010024230209
B2003133728401N12152194WA0058700584005010024224205
B2003143728399N12152197WA0058600584005010024215209
B2003153728396N12152199WA0058600584005010023213206
B2003163728392N12152201WA0058600584005010023210205
B2003173728390N12152204WA0058600584005010018215208
B2003183728388N12152206WA0058700584005010016217215
B2003193728386N12152207WA0058800584005010015216234
B2003203728384N12152209WA0058800584005010017224240
B2003213728382N12152212WA0058800583005010021242245
B2003223728381N12152216WA0058900583005010024260255
B2003233728381N12152221WA0059000583005010028276266
B2003243728383N12152226WA0059000583005010036301279
B2003253728386N12152232WA0059000582005010039310306
B2003263728390N12152237WA0059000582005010040311316
B2003273728394N12152243WA0059000582005010037315317
B2003283728399N12152247WA0059000582005010035324321
B2003293728403N12152251WA0059000582005010033326327
B2003303728408N12152251WA0059000581005010036026328
B2003313728413N12152248WA0059000581005010034029045
B2003323728417N12152245WA0059000580005010031032049
B2003333728421N12152241WA0059000579010019024052055
B2003343728423N12152237WA0059100578010019025056082
B2003353728425N12152233WA0059200578010019025060086
B2003363728427N12152229WA0059300577005010025063090
B2003373728428N12152225WA0059300576005010026068091
B2003383728430N12152220WA0059400576005010026070095
B2003393728431N12152215WA0059600575005010021075097
B2003403728432N12152211WA0059700574005010017077105
B2003413728432N12152208WA0059700574005010015089111
B2003423728432N12152205WA0059700573005010009110122
B2003433728431N12152203WA0059800572005010004164141
B2003443728429N12152203WA0059800571005010008237165
B2003453728427N12152205WA0059800571005010016267192
B2003463728426N12152209WA0059800570005010022275224
B2003473728425N12152213WA0059700570005010027278241
B2003483728426N12152218WA0059700569005010028280249
B2003493728427N12152224WA0059700568005010026284252
B2003503728428N12152229WA0059800567010019024291254
B2003513728430N12152234WA0059800566010019026307258
B2003523728433N12152239WA0059800565010019024309279
B2003533728436N12152244WA0059800564010019021314278
B2003543728439N12152248WA0059800563010019016333277
B2003553728442N12152250WA0059800561010019015007292
B2003563728445N12152249WA0059800560010019017035065
B2003573728448N12152247WA0059800558010019019043090
B2003583728451N12152245WA0059800557010019019046093
B2003593728453N12152243WA0059900556010019018051096
B2004003728455N12152240WA0060000554010019018062100
B2004013728456N12152237WA0060200553010019017064108
B2004023728457N12152234WA0060200552010019016081112
B2004033728457N12152231WA0060300550010019014082123
B2004043728458N12152229WA0060500549010019012088125
B2004053728457N12152227WA0060500547010019010114130
B2004063728457N12152226WA0060500546010019012141143
B2004073728455N12152225WA0060600544010019014159153
B2004083728453N12152222WA0060600543010019014167161
B2004093728450N12152220WA0060600542010019012178164
B2004103728449N12152218WA0060600541010019011198169
B2004113728448N12152216WA0060700540010019016223177
B2004123728447N12152217WA0060700539005010018227198
B2004133728446N12152216WA0060700538005010019245203
B2004143728445N12152219WA0060800537005010024266218
B2004153728446N12152223WA0060900536005010026278242
B2004163728447N12152228WA0060900534005010029287260
B2004173728449N12152232WA0061000534005010030294271
B2004183728451N12152237WA0061000533005010031302282
B2004193728453N12152242WA0061100533005010029313293
B2004203728456N12152246WA0061200532005010028320307
B2004213728460N12152248WA0061300531005010035333316
B2004223728470N12152248WA0061300529005010037017335
B2004233728476N12152246WA0061400528005010036023030
B2004253728484N12152240WA0061500526005010036040038
B2004263728488N12152236WA0061500526005010034049056
B2004283728491N12152232WA0061500526005010031058067
B2004293728494N12152227WA0061500527005010028061076
B2004303728496N12152223WA0061500527005010026063082
B2004313728498N12152214WA0061500528005010014068085
B2004323728498N12152211WA0061600528005010006086106
B2004343728498N12152209WA0061600528005010001162134
B2004353728498N12152208WA0061700529005010011217159
B2004363728497N12152208WA0061800530005010013209190
B2004373728495N12152208WA0061800531005010013203191
B2004383728494N12152209WA0061800533005010012199195
B2004393728493N12152209WA0061900534005010012206200
B2004403728492N12152209WA0062000535005010014237204
B2004413728491N12152211WA0062000536005010022258219
B2004423728490N12152215WA0062000537005010030269240
B2004433728490N12152220WA0062100538005010033281254
B2004443728492N12152225WA0062100538005010035290268
B2004453728494N12152231WA0062100539005010035297278
B2004463728497N12152237WA0062100539005010036306286
B2004473728500N12152241WA0062200539005010036316298
B2004483728505N12152245WA0062200539005010038331310
B2004493728511N12152248WA0062200539005010041346330
B2004503728517N12152248WA0062200539005010047007352
B2004513728524N12152246WA0062200539005010042019019
B2004523728530N12152244WA0062300540005010039023034
B2004533728535N12152241WA0062300541005010038036041
B2004543728539N12152236WA0062300541005010037041057
B2004553728543N12152232WA0062300541005010041048064
B2004563728547N12152226WA0062400541005010040050069
B2004573728551N12152221WA0062400542005010040056071
B2004583728554N12152216WA0062400542010019039058077
B2004593728555N12152211WA0062400543010019026082080
B2005003728556N12152206WA0062400543010019026086109
B2005013728555N12152202WA0062500543010019022094113
B2005023728553N12152200WA0062500544005010013127121
B2005033728550N12152201WA0062500546005010011154153
B2005043728547N12152201WA0062500547005010009154166
B2005053728546N12152201WA0062600550005010010146171
B2005063728545N12152200WA0062600552005010012149175
B2005073728543N12152199WA0062600555005010012167178
B2005083728542N12152198WA0062600557005010012201184
B2005093728540N12152199WA0062600559005010015232194
B2005103728538N12152202WA0062600561005010018247208
B2005113728535N12152205WA0062600563005010021258219
B2005123728534N12152209WA0062600563005010024263229
B2005133728534N12152215WA0062600564005010030275237
B2005143728535N12152221WA0062600564005010038291252
B2005153728538N12152227WA0062700564005010039299273
B2005163728541N12152233WA0062700564005010039310282
B2005173728545N12152239WA0062600564005010039322294
B2005183728551N12152243WA0062600565005010040339309
B2005193728556N12152245WA0062600565005010040351334
B2005203728563N12152245WA0062600566005010041003352
B2005213728568N12152247WA0062600568005010041016012
B2005223728573N12152245WA0062600571005010042033031
B2005233728578N12152241WA0062600571005010041037053
B2005243728582N12152236WA0062500572005010038062058
B2005253728585N12152229WA0062500572005010037067087
B2005263728586N12152223WA0062500572005010030078093
B2005273728587N12152218WA0062400572005010026085107
B2005283728587N12152214WA0062400573005010019093116
B2005293728585N12152212WA0062300574005010011117129
B2005303728584N12152211WA0062300574005010009152150
B2005313728582N12152210WA0062300576005010010201165
B2005323728580N12152212WA0062300577005010016241184
B2005333728579N12152215WA0062200577005010022255206
B2005343728578N12152218WA0062200578005010023260224
B2005363728577N12152226WA0062200580005010021266230
B2005373728577N12152229WA0062200581005010023268239
B2005383728576N12152234WA0062200582005010026267237
B2005393728576N12152238WA0062200582005010026263231
B2005403728575N12152243WA0062200583005010024262210
B2005413728574N12152248WA0062200583005010021254205
B2005423728573N12152251WA0062200584005010017234197
B2005433728571N12152255WA0062200586005010016223186
B2005443728569N12152257WA0062200588005010014194179
B2005453728566N12152257WA0062100588005010015177170
B2005463728563N12152257WA0062100589005010015161169
B2005473728561N12152257WA0062100592005010014148162
B2005483728559N12152256WA0062100593005010013139166
B2005493728557N12152255WA0062000594005010013135167
B2005503728555N12152254WA0062000595005010013135172
B2005513728554N12152253WA0062000596005010013140183
B2005523728552N12152252WA0062000597005010013149187
B2005533728550N12152251WA0061900598005010012162184
B2005543728548N12152251WA0061900598005010011174191
B2005553728546N12152251WA0061900599005010010185199
B2005563728545N12152252WA0061900600005010011200203
B2005573728543N12152253WA0061800600005010013222206
B2005583728542N12152255WA0061800600005010017235207
B2005593728540N12152258WA0061800601005010019236201
B2006003728538N12152261WA0061700601005010019228191
B2006013728535N12152263WA0061600602005010018202183
B2006023728532N12152263WA0061600602005010020187185
B2006033728529N12152264WA0061600602005010020184185
B2006043728526N12152265WA0061500602005010019190175
B2006053728523N12152265WA0061400603005010018192165
B2006063728520N12152266WA0061400603005010017189172
B2006073728517N12152266WA0061300602005010019172165
B2006083728514N12152265WA0061200602005010019164174
B2006093728511N12152264WA0061100602005010019167169
B2006103728509N12152264WA0061100602005010019171171
B2006113728506N12152263WA0061100602005010020169163
B2006123728502N12152262WA0061000602005010021163172
B2006133728499N12152261WA0060900601005010021162178
B2006143728497N12152260WA0060900601005010019168181
B2006153728494N12152260WA0060800601005010017176188
B2006163728491N12152260WA0060700601005010016182184
B2006173728489N12152260WA0060600600005010015186203
B2006183728487N12152261WA0060600600005010013198219
B2006193728485N12152262WA0060600599005010014211223
B2006203728484N12152264WA0060500599005010017233220
B2006213728483N12152267WA0060500599005010023251218
B2006223728482N12152272WA0060500598005010025260220
B2006233728481N12152278WA0060400597005010022255210
B2006243728481N12152282WA0060400597005010019241205
B2006253728479N12152286WA0060300597005010017226195
B2006263728478N12152288WA0060300597005010016211187
B2006273728475N12152290WA0060200598005010015196181
B2006283728473N12152291WA0060200598005010014177173
B2006293728471N12152291WA0060100599005010015162172
B2006303728469N12152291WA0060100599005010015154169
B2006313728467N12152290WA0060100599005010015148166
B2006323728465N12152288WA0060000599005010015143163
B2006333728463N12152287WA0060000599005010015141164
B2006343728461N12152285WA0059900599005010016143160
B2006353728459N12152284WA0059900599005010017153162
B2006363728456N12152282WA0059900598005010018155168
B2006373728454N12152281WA0059800598005010017152173
B2006383728452N12152279WA0059700598005010016146162
B2006393728450N12152277WA0059700597005010016143164
B2006403728448N12152275WA0059700597005010017147175
B2006413728446N12152274WA0059600597005010019155168
B2006423728443N12152273WA0059600596005010019160168
B2006433728441N12152272WA0059600596005010018164169
B2006443728438N12152271WA0059500596005010018167174
B2006453728435N12152271WA0059500595005010018170172
B2006463728432N12152271WA0059400595005010019173174
B2006473728429N12152270WA0059400595005010019175174
B2006483728426N12152270WA0059300595005010019176170
B2006493728424N12152270WA0059200594005010019178171
B2006503728420N12152270WA0059100594005010020179168
B2006513728417N12152270WA0059100594005010021179167
B2006523728414N12152270WA0059000593005010021179161
B2006533728411N12152270WA0058900593005010020180161
B2006543728408N12152270WA0058800592005010019178161
B2006553728405N12152270WA0058800592005010019175161
B2006563728402N12152270WA0058800591005010019172164
B2006573728400N12152269WA0058700591005010021171159
B2006583728396N12152269WA0058600591005010022173169
B2006593728393N12152268WA0058600590005010023174174
B2007003728389N12152268WA0058500590005010023173171
B2007013728386N12152267WA0058500590005010022174175
B2007023728383N12152267WA0058400589005010021176168
B2007033728379N12152267WA0058400589005010021176169
B2007043728376N12152267WA0058300589005010021173167
B2007053728373N12152266WA0058200588005010019167171
B2007063728371N12152265WA0058200588005010018164176
B2007073728368N12152265WA0058200587005010018169177
B2007083728365N12152264WA0058200587005010019176176
B2007093728362N12152264WA0058100586005010020180172
B2007103728360N12152264WA0058100586005010019180171
B2007113728357N12152264WA0058100586005010016177172
B2007123728355N12152264WA0058000585005010016175172
B2007133728352N12152264WA0057900585005010016175175
B2007143728350N12152263WA0057800584005010018175173
B2007153728347N12152263WA0057800583005010018174164
B2007163728344N12152263WA0057800583005010016170171
B2007173728342N12152262WA0057700582005010014166172
B2007183728340N12152262WA0057600582005010015168175
B2007193728338N12152261WA0057600581005010017174176
B2007203728335N12152261WA0057500581005010018180173
B2007213728333N12152261WA0057400580005010015189172
B2007223728331N12152262WA0057300579005010011199176
B2007233728330N12152263WA0057300579005010008201172
B2007243728329N12152263WA0057200578005010009196167
B2007253728327N12152264WA0057000578005010012184173
B2007263728325N12152264WA0056900577005010016175165
B2007273728322N12152263WA0056900576005010016173170
B2007283728320N12152263WA0056700576005010014168167
B2007293728318N12152262WA0056500575005010014164168
B2007303728316N12152262WA0056400574005010015168172
B2007313728314N12152261WA0056400573005010018175177
B2007323728310N12152261WA0056300573005010021183178
B2007333728307N12152261WA0056100572005010020185168
B2007343728304N12152262WA0056000571005010017183173
B2007353728302N12152262WA0056000570005010016182173
B2007363728300N12152262WA0056000570005010017186176
B2007373728297N12152263WA0055800569005010018192177
B2007383728294N12152263WA0055700568005010019194169
B2007393728292N12152264WA0055700566005010019189166
B2007403728289N12152264WA0055600565005010017180160
B2007413728286N12152264WA0055500565005010017171159
B2007423728284N12152263WA0055300563005010017164160
B2007433728282N12152262WA0055300562005010017161160
B2007443728279N12152262WA0055200561005010017163166
B2007453728277N12152261WA0055000560005010017167163
B2007463728274N12152260WA0054800558005010017169164
B2007473728272N12152260WA0054800557005010017169163
B2007483728269N12152259WA0054600556005010017170161
B2007493728267N12152259WA0054400554005010016174169
B2007503728264N12152259WA0054200553005010016178160
B2007513728262N12152259WA0054200551005010016181166
B2007523728259N12152258WA0054000550005010017178169
B2007533728257N12152258WA0053700548005010019176169
B2007543728254N12152258WA0053500546005010021182173
B2007553728250N12152259WA0053500545005010020191179
B2007563728248N12152260WA0053300543005010018196169
B2007573728245N12152261WA0053000542005010015194170
B2007583728243N12152261WA0052800540005010016186164
B2007593728240N12152262WA0052800539005010019183167
B2008003728237N12152262WA0052600537005010021179148
B2008013728234N12152261WA0052400536005010021177164
B2008023728231N12152261WA0052200534005010020175149
B2008033728228N12152261WA0052100533005010021177170
B2008043728225N12152260WA0052100531005010024177169
B2008053728222N12152260WA0051900530005010019175159
B2008063728219N12152260WA0051800529005010013171157
B2008073728218N12152259WA0051700528005010011164150
B2008083728216N12152258WA0051700527005010013156149
B2008093728214N12152257WA0051600525005010016149143
B2008103728212N12152255WA0051500524005010018142153
B2008113728210N12152253WA0051400523005010016138156
B2008123728209N12152251WA0051400522005010013139166
B2008133728207N12152250WA0051300521005010010151158
B2008143728206N12152249WA0051200519005010010155159
B2008153728205N12152248WA0051100518005010013171157
B2008163728202N12152248WA0051100517005010016170161
B2008173728200N12152247WA0051000516005010018167153
B2008183728197N12152247WA0050800515005010019168164
B2008193728194N12152246WA0050700513005010020170161
B2008203728191N12152245WA0050500512005010020169163
B2008213728188N12152245WA0050500511005010018168157
B2008223728186N12152244WA0050400510005010015166156
B2008233728184N12152243WA0050300509005010013167154
B2008243728182N12152243WA0050200508005010012170171
B2008253728180N12152243WA0050200506005010013169164
B2008263728178N12152242WA0050100505005010017167162
B2008273728175N12152241WA0050000504005010021170168
B2008293728172N12152241WA0049900503005010023174154
B2008303728165N12152239WA0049700500005010021158153
B2008323728162N12152238WA0049500499005010018152168
B2008333728158N12152235WA0049400497005010015163161
B2008343728156N12152235WA0049200496005010016170157
B2008353728153N12152234WA0049100495005010018170161
B2008363728150N12152234WA0049000494005010020169155
B2008383728147N12152233WA0049000493005010022168149
B2008393728144N12152232WA0048800491005010021165148
B2008403728141N12152231WA0048600490005010020163155
B2008413728138N12152230WA0048400489005010019160156
B2008423728136N12152229WA0048400488005010019158151
B2008433728133N12152227WA0048300487005010020157161
B2008443728130N12152226WA0048100486005010020154148
B2008453728128N12152224WA0048000485005010018152152
B2008463728126N12152222WA0048000484005010016151153
B2008473728124N12152221WA0047900483005010014152153
B2008483728122N12152220WA0047800482005010015152159
B2008493728120N12152218WA0047700481005010018151157
B2008503728117N12152217WA0047700480005010019152157
B2008513728115N12152215WA0047500478005010019155156
B2008523728112N12152214WA0047400477005010016165150
B2008533728110N12152214WA0047200476005010015171143
B2008543728108N12152213WA0047000475005010014168146
B2008553728105N12152212WA0047000474005010014161156
B2008563728103N12152211WA0046900473005010020153164
B2008573728100N12152209WA0046700471005010021153146
B2008583728097N12152208WA0046400470005010020155147
B2008593728094N12152206WA0046400469005010018157142
B2009003728092N12152205WA0046300468005010016158129
B2009013728090N12152204WA0046100466005010016155140
B2009023728087N12152202WA0045900465005010019150147
B2009033728085N12152200WA0045900463005010021147148
B2009043728082N12152198WA0045700462005010023144147
B2009053728079N12152195WA0045600460005010024143148
B2009063728076N12152192WA0045400459005010025143155
B2009073728073N12152190WA0045400458005010025147147
B2009083728070N12152187WA0045100457005010024148141
B2009093728067N12152185WA0044900455005010023146144
B2009103728064N12152182WA0044800454005010022140145
B2009113728062N12152179WA0044800453005010022134154
B2009123728059N12152176WA0044600452005010022133148
B2009133728057N12152173WA0044500450005010022134152
B2009143728055N12152170WA0044300449005010024138148
B2009153728052N12152167WA0044300448005010027143145
B2009163728048N12152165WA0044100446005010027146149
B2009173728045N12152162WA0044000445005010025147149
B2009183728042N12152159WA0043800444005010024149142
B2009193728038N12152157WA0043800443005010025150136
B2009203728035N12152155WA0043700441005010026148138
B2009213728032N12152152WA0043500440005010027143140
B2009223728025N12152146WA0043400438005010028142150
B2009233728022N12152143WA0043400437005010029149149
B2009243728018N12152140WA0043300435005010031156131
B2009253728014N12152138WA0043200435005010029153154
B2009263728010N12152135WA0043100435005010026142150
B2009273728007N12152132WA0043100434005010026140164
B2009283728004N12152129WA0043000434005010025140154
B2009293728001N12152126WA0042900434005010025143150
B2009303727998N12152123WA0042800433005010025148131
B2009313727994N12152121WA0042800433005010027147131
B2009323727991N12152118WA0042800433005010027144136
B2009333727988N12152115WA0042700432005010024144152
B2009343727985N12152113WA0042600432005010020147137
B2009353727983N12152111WA0042600432005010018148150
B2009363727981N12152109WA0042600432005010019145156
B2009373727978N12152107WA0042500432005010021146138
B2009383727976N12152105WA0042500431005010021148156
B2009393727973N12152103WA0042400431005010021152137
B2009403727970N12152101WA0042400430005010020152148
B2009413727967N12152100WA0042300430005010021152150
B2009423727964N12152098WA0042200429005010021151154
B2009433727961N12152096WA0042000429005010023151133
B2009443727958N12152094WA0042000428005010025149150
B2009453727955N12152091WA0041800428005010024151135
B2009463727951N12152089WA0041600427005010023153150
B2009473727948N12152088WA0041500427005010022151138
B2009483727945N12152085WA0041500426005010022148148
B2009493727943N12152083WA0041400426005010024145134
B2009503727940N12152080WA0041300425005010026143135
B2009513727936N12152077WA0041200424005010026141141
B2009523727933N12152074WA0041100424005010028136141
B2009533727931N12152070WA0041100423005010028133147
B2009543727928N12152066WA0041000423005010028135131
B2009553727925N12152063WA0040900422005010027138144
B2009563727922N12152059WA0040800422005010027139132
B2009573727919N12152056WA0040800421005010027138141
B2009583727915N12152052WA0040700420005010029138140
B2009593727912N12152049WA0040600420005010030140149
B2010003727909N12152045WA0040500419005010029141136
B2010023727905N12152042WA0040500418005010029142132
B2010033727902N12152039WA0040400417005010031142138
B2010043727898N12152035WA0040300417005010033139140
B2010053727894N12152031WA0040200416005010033138140
B2010063727891N12152027WA0040000415005010031140137
B2010073727887N12152023WA0040000414005010029142130
B2010083727883N12152020WA0039900413005010030141130
B2010093727880N12152016WA0039800412005010031137132
B2010103727877N12152012WA0039700411005010031131130
B2010113727874N12152008WA0039700410005010029132144
B2010123727871N12152004WA0039600410005010027130128
B2010133727869N12152000WA0039600409005010027130139
B2010143727866N12151996WA0039500409005010030133134
B2010153727863N12151992WA0039500408005010031133133
B2010163727860N12151987WA0039500408005010031132118
B2010173727857N12151983WA0039500407005010027126129
B2010183727855N12151979WA0039400407005010026126132
B2010193727853N12151975WA0039400406005010025124132
B2010203727850N12151971WA0039400406005010027123140
B2010213727848N12151966WA0039300405005010031118133
B2010223727846N12151961WA0039300405005010033120142
B2010233727841N12151951WA0039300405005010030123136
B2010253727835N12151942WA0039100404005010032129136
B2010273727829N12151932WA0039000403005010032127133
B2010283727826N12151928WA0039000402005010030129122
B2010293727824N12151923WA0038900402005010029129127
B2010303727821N12151919WA0038800401005010030124125
B2010313727818N12151914WA0038700400005010032120131
B2010323727816N12151909WA0038700399005010034122131
B2010333727813N12151903WA0038600398005010034127138
B2010343727810N12151898WA0038500398005010033128121
B2010353727807N12151894WA0038400397005010030127122
B2010363727804N12151889WA0038400396005010027121123
B2010373727803N12151885WA0038300395005010027117129
B2010383727801N12151880WA0038300395005010027117121
B2010393727799N12151876WA0038200394005010029119118
B2010403727797N12151871WA0038200393005010030119121
B2010413727795N12151866WA0038100393005010029118124
B2010423727793N12151861WA0038100392005010028118131
B2010433727791N12151857WA0038000391005010026119122
B2010443727789N12151852WA0038000391005010027119120
B2010453727787N12151848WA0037900390005010027117123
B2010463727786N12151843WA0037800389005010028114131
B2010473727784N12151838WA0037700389005010028115137
B2010483727782N12151834WA0037700388005010028119137
B2010493727780N12151829WA0037600387005010028128130
B2010503727777N12151825WA0037400387005010027128129
B2010513727774N12151821WA0037300386005010026128134
B2010523727772N12151817WA0037300385005010026129133
B2010533727769N12151814WA0037200384005010026129134
B2010543727767N12151810WA0037100384005010027129131
B2010553727764N12151805WA0037000383005010031127147
B2010563727761N12151801WA0037000382005010032127143
B2010573727758N12151796WA0036900381005010032128156
B2010583727755N12151792WA0036700381005010031129151
B2010593727752N12151787WA0036600380005010030130146
B2011003727749N12151783WA0036600379005010029129148
B2011013727747N12151779WA0036500378005010029131148
B2011023727743N12151775WA0036500378005010034139168
B2011033727739N12151770WA0036400377005010035138147
B2011043727735N12151766WA0036400376005010033139171
B2011053727732N12151762WA0036300376005010028143157
B2011063727728N12151759WA0036300375005010024146165
B2011073727725N12151757WA0036300374005010024145142
B2011083727722N12151754WA0036300374005010028141152
B2011093727719N12151751WA0036300373005010031139143
B2011103727716N12151747WA0036300372005010030131149
B2011113727713N12151743WA0036300372005010028124138
B2011123727711N12151738WA0036300372005010028121146
B2011133727708N12151734WA0036300372005010029126144
B2011143727705N12151729WA0036200371005010030132138
B2011153727702N12151725WA0036100371005010031131122
B2011163727699N12151721WA0036100370005010031130141
B2011173727696N12151716WA0036100370005010030128137
B2011183727694N12151712WA0036100369005010030128136
B2011193727691N12151707WA0036000369005010030131139
B2011203727688N12151703WA0036000368005010031128137
B2011213727685N12151698WA0035900367005010035124140
B2011223727682N12151692WA0035800366005010036124145
B2011233727679N12151687WA0035700365005010036128140
B2011243727676N12151682WA0035700364005010030132144
B2011253727673N12151678WA0035500363005010026133146
B2011263727670N12151674WA0035400362005010026131141
B2011273727667N12151670WA0035300361005010029129148
B2011283727664N12151666WA0035300360005010032129142
B2011293727661N12151661WA0035100359005010033129138
B2011303727659N12151657WA0035000358005010029122137
B2011313727656N12151652WA0034900357005010029122140
B2011323727654N12151648WA0034900356005010029126146
B2011333727651N12151643WA0034900355005010033124144
B2011343727648N12151637WA0034700355005010036126174
B2011353727645N12151632WA0034700354005010035127150
B2011363727642N12151628WA0034700353005010027125166
B2011373727640N12151623WA0034600353005010026122154
B2011383727638N12151619WA0034600353005010026122161
B2011393727636N12151615WA0034600352005010026121170
B2011403727634N12151611WA0034600352005010026123181
B2011413727631N12151607WA0034500351005010026129187
B2011423727629N12151604WA0034500351005010023138193
B2011433727627N12151602WA0034500351005010015155194
B2011443727625N12151601WA0034500350005010009173201
B2011453727624N12151602WA0034400350005010009195203
B2011463727623N12151603WA0034300349005010009215206
B2011473727622N12151605WA0034200348005010016250205
B2011483727620N12151610WA0034200348005010020262223
B2011493727620N12151615WA0034100347005010022265232
B2011503727619N12151621WA0033900346005010024266235
B2011513727619N12151627WA0033800345005010024266236
B2011523727618N12151632WA0033700345005010024269236
B2011533727618N12151637WA0033700344005010025273238
B2011543727618N12151643WA0033600343005010026275241
B2011553727619N12151648WA0033500343005010027276243
B2011563727619N12151654WA0033500342005010028285246
B2011573727620N12151659WA0033400341005010027287253
B2011583727622N12151664WA0033300341005010025290252
B2011593727623N12151669WA0033200340005010023294252
B2012003727624N12151673WA0033200340005010023297253
B2012013727626N12151677WA0033200339005010023299255
B2012023727628N12151681WA0033200339005010023302256
B2012033727629N12151685WA0033100338005010024303258
B2012043727631N12151689WA0033000338005010025303259
B2012053727633N12151694WA0033000337005010027301263
B2012063727635N12151699WA0032900337005010027299268
B2012073727637N12151703WA0032800336005010027301265
B2012083727639N12151708WA0032800336005010025303266
B2012093727642N12151712WA0032800335005010025305265
B2012103727644N12151716WA0032700335005010025306266
B2012113727646N12151720WA0032700334005010027305267
B2012123727648N12151725WA0032700334005010029299269
B2012133727651N12151729WA0032700334005010028298266
B2012143727653N12151734WA0032700333005010026299266
B2012153727654N12151738WA0032800333005010024300265
B2012163727656N12151742WA0032800333005010024301261
B2012173727658N12151746WA0032800333005010024300264
B2012183727660N12151750WA0032900333005010025299263
B2012193727662N12151755WA0033100334005010023292262
B2012203727663N12151759WA0033200334005010020279233
B2012213727663N12151762WA0033200334005010019265228
B2012223727662N12151765WA0033400334005010017237207
B2012233727660N12151768WA0033400334005010019213175
B2012243727657N12151769WA0033400334005010022193163
B2012253727653N12151769WA0033400334005010021165152
B2012263727650N12151768WA0033400334005010023146140
B2012273727647N12151764WA0033200333005010029132137
B2012283727645N12151758WA0033000333005010035096129
B2012293727644N12151752WA0033000333005010033092109
B2012303727644N12151745WA0032800333005010032087111
B2012313727645N12151739WA0032700333005010032080110
B2012323727646N12151733WA0032700333005010033077110
B2012333727647N12151727WA0032700332005010034074116
B2012343727648N12151720WA0032600332005010034075115
B2012353727649N12151714WA0032600332005010029082121
B2012363727650N12151709WA0032500332005010028090132
B2012373727648N12151705WA0032500331005010020153140
B2012383727645N12151704WA0032400330005010018159184
B2012393727642N12151703WA0032300329005010017176189
B2012403727639N12151703WA0032200328010019017189197
B2012413727636N12151704WA0032200327010019014192204
B2012423727634N12151705WA0032100325010019010205204
B2012433727632N12151705WA0032000324010019006218210
B2012443727631N12151707WA0031900322010019005249213
B2012453727631N12151709WA0031900321010019011278223
B2012463727632N12151712WA0031800319010019013280244
B2012473727633N12151716WA0031700317005010016280249
B2012483727633N12151719WA0031600315005010017281253
B2012493727634N12151724WA0031600314005010019282255
B2012503727635N12151728WA0031600313005010021278260
B2012513727636N12151734WA0031500312005010024278261
B2012523727638N12151741WA0031500311005010023273261
B2012533727638N12151746WA0031500311005010023272263
B2012543727640N12151752WA0031400310005010023269269
B2012553727641N12151758WA0031300310005010023264273
B2012563727640N12151764WA0031200310005010027262272
B2012573727640N12151771WA0031200310005010028265269
B2012583727641N12151778WA0031100310005010028268267
B2012593727642N12151785WA0030900309005010025282268
B2013003727643N12151791WA0030800309005010025285272
B2013013727644N12151798WA0030800309005010025290276
B2013023727646N12151803WA0030600309005010024296277
B2013033727648N12151809WA0030600309005010023301279
B2013043727650N12151814WA0030500310005010023305280
B2013053727652N12151818WA0030500310005010024306282
B2013063727655N12151824WA0030500310005010031308287
B2013073727659N12151830WA0030500311005010036310285
B2013083727662N12151836WA0030500311005010035308307
B2013093727665N12151840WA0030500312005010021309285
B2013103727667N12151844WA0030500313005010015302288
B2013113727668N12151847WA0030600313005010017295277
B2013123727669N12151851WA0030700314005010025284268
B2013133727670N12151856WA0030700314005010029280266
B2013143727671N12151861WA0030800314005010026273263
B2013153727671N12151866WA0030800314005010022261258
B2013163727671N12151870WA0030800314005010020256264
B2013173727670N12151874WA0030800314005010024247268
B2013183727669N12151878WA0030700314005010025256282
B2013193727668N12151883WA0030500314005010023264279
B2013203727668N12151887WA0030300314005010022280276
B2013213727669N12151892WA0030300314005010023290276
B2013223727671N12151896WA0030200314005010024307281
B2013233727673N12151899WA0030000314005010022312290
B2013243727675N12151902WA0029900314005010019312286
B2013253727678N12151905WA0029900314005010019308269
B2013263727679N12151908WA0029800313005010019278264
B2013273727679N12151912WA0029800313005010024257233
B2013283727678N12151916WA0029700313005010026236212
B2013293727675N12151920WA0029700312005010027207199
B2013303727671N12151920WA0029700312005010031176176
B2013313727666N12151919WA0029700312005010033154159
B2013323727662N12151915WA0029600312005010032131146
B2013333727660N12151910WA0029600312005010034107129
B2013343727659N12151903WA0029600312005010036094112
B2013353727659N12151896WA0029600311005010036084094
B2013363727660N12151890WA0029600311005010033068084
B2013373727663N12151885WA0029600310005010033045066
B2013383727667N12151882WA0029500310005010038016038
B2013393727673N12151881WA0029500309005010039355001
B2013403727678N12151884WA0029300308005010036308337
B2013413727680N12151889WA0029300307005010031278291
B2013423727680N12151895WA0029200306005010025257264
B2013433727678N12151899WA0029100306005010021232242
B2013443727676N12151902WA0029000305005010022213230
B2013453727673N12151904WA0029000304005010021214229
B2013463727670N12151907WA0029000304005010021219227
B2013473727668N12151910WA0029000303005010022226239
B2013483727665N12151914WA0029000303005010025228245
B2013493727663N12151917WA0029000302005010026231248
B2013503727660N12151922WA0029000301005010027241249
B2013513727658N12151927WA0029000301005010028249252
B2013523727656N12151932WA0029000300005010029250258
B2013533727655N12151938WA0029000300005010029249261
B2013543727653N12151943WA0029000299005010028256266
B2013553727653N12151948WA0028900299005010027266259
B2013563727653N12151953WA0028900298005010026273268
B2013573727654N12151958WA0028900298005010024285268
B2013583727655N12151962WA0028800297005010023289276
B2013593727656N12151966WA0028800297005010024288281
B2014003727657N12151970WA0028800296005010027288280
B2014013727659N12151975WA0028700295005010028291282
B2014023727660N12151980WA0028700295005010027291283
B2014033727662N12151984WA0028500294005010024292285
B2014043727663N12151988WA0028400294005010020288288
B2014053727664N12151992WA0028200293005010019288286
B2014063727665N12151995WA0028200293005010019281283
B2014073727665N12151999WA0028100292005010024266276
B2014083727665N12152004WA0028000290005010027270281
B2014093727665N12152009WA0027800290005010027276274
B2014103727665N12152014WA0027800289005010025277271
B2014113727666N12152018WA0027500288005010022272274
B2014123727666N12152022WA0027300286005010022265264
B2014133727665N12152027WA0027000285005010025261268
B2014143727665N12152032WA0027000284005010027262265
B2014153727665N12152037WA0026700283005010026260274
B2014163727665N12152041WA0026500282005010021267282
B2014173727665N12152045WA0026400281005010018267280
B2014183727665N12152049WA0026400281005010019270276
B2014193727665N12152053WA0026300280005010022273271
B2014203727665N12152057WA0026300279005010024275270
B2014213727666N12152062WA0026300278005010024275262
B2014223727666N12152066WA0026300278005010022273248
B2014233727666N12152070WA0026300277005010021260238
B2014243727665N12152074WA0026300277005010022245234
B2014253727663N12152077WA0026300276005010026229230
B2014263727660N12152081WA0026300276005010030220241
B2014273727656N12152084WA0026300275005010029219226
B2014283727653N12152088WA0026300275005010027220235
B2014293727649N12152091WA0026200274005010027219216
B2014303727646N12152094WA0026200274005010027214223
B2014313727643N12152097WA0026100273005010028213211
B2014323727639N12152099WA0026100272005010029211218
B2014333727635N12152102WA0026000271005010030206212
B2014343727631N12152104WA0026000270005010029202218
B2014353727627N12152106WA0025900270005010026201208
B2014363727624N12152108WA0025800269005010024202224
B2014373727620N12152110WA0025700268005010023198206
B2014383727617N12152111WA0025700268005010024198213
B2014393727614N12152113WA0025500267005010026201205
B2014403727610N12152114WA0025400266005010026199202
B2014413727606N12152116WA0025300265005010027194194
B2014423727602N12152117WA0025300265005010028188199
B2014433727598N12152117WA0025100263005010028184200
B2014443727594N12152118WA0024900262005010027185190
B2014453727590N12152118WA0024600260005010027184174
B2014463727585N12152118WA0024600259005010028178159
B2014473727581N12152117WA0024400257005010027159156
B2014483727577N12152115WA0024200256005010030149148
B2014493727574N12152111WA0024000254005010031138138
B2014503727571N12152107WA0024000253005010032122127
B2014513727569N12152101WA0023700251005010033110119
B2014523727567N12152095WA0023500249005010033103110
B2014533727566N12152088WA0023400248005010034101104
B2014543727566N12152082WA0023400247005010035097118
B2014553727565N12152075WA0023200246005010035094116
B2014563727565N12152069WA0023100244005010034095128
B2014573727564N12152062WA0022900243005010033099120
B2014583727563N12152056WA0022900242005010032103119
B2014593727562N12152050WA0022800241005010034105118
B2015003727561N12152044WA0022700240005010035103117
B2015013727560N12152038WA0022600239005010032099119
B2015023727559N12152032WA0022600238005010030100121
B2015033727558N12152026WA0022500238005010028102117
B2015043727557N12152021WA0022400238005010029105112
B2015053727556N12152016WA0022400237005010030105113
B2015063727555N12152010WA0022400236005010033108110
B2015073727553N12152004WA0022400235005010035106115
B2015083727552N12151997WA0022400234005010036103123
B2015093727550N12151991WA0022300234005010034104131
B2015103727549N12151985WA0022300233005010033108147
B2015113727547N12151979WA0022200232005010033116160
B2015123727544N12151974WA0022100231005010031133172
B2015133727541N12151971WA0021900230005010029153185
B2015143727537N12151969WA0021900229005010026171202
B2015153727533N12151970WA0021800228005010025202214
B2015163727530N12151973WA0021600227005010025224234
B2015173727528N12151976WA0021500226005010024247249
B2015183727528N12151981WA0021500225005010027273262
B2015193727529N12151986WA0021400224005010023294278
B2015203727532N12151989WA0021200223005010024329291
B2015213727536N12151991WA0021200222005010029348316
B2015223727541N12151992WA0021200221005010027348331
B2015233727546N12151994WA0021100219005010027342323
B2015243727550N12151996WA0021100218005010026327317
B2015253727554N12151999WA0021000217005010029321295
B2015263727558N12152003WA0021000216005010028313288
B2015273727560N12152007WA0020900215005010025298278
B2015283727561N12152011WA0020800214005010023274268
B2015293727561N12152015WA0020600213005010021248252
B2015303727559N12152019WA0020600212005010023223234
B2015313727556N12152021WA0020500211005010026198210
B2015323727552N12152022WA0020300209005010028175195
B2015333727548N12152020WA0020200208005010032154161
B2015343727544N12152017WA0020200207005010033145165
B2015353727540N12152013WA0020100206005010034132155
B2015363727537N12152008WA0019900205005010033122140
B2015373727535N12152002WA0019700204005010031116125
B2015383727533N12151997WA0019700203005010032114133
B2015393727531N12151991WA0019500202005010033111117
B2015403727529N12151985WA0019400201005010033112120
B2015413727527N12151979WA0019300200005010032113137
B2015423727525N12151974WA0019300200005010030117146
B2015433727523N12151970WA0019200199005010029135158
B2015443727520N12151966WA0019100198005010026147174
B2015453727517N12151965WA0019100197005010020165187
B2015463727514N12151965WA0019100196005010016187205
B2015473727512N12151966WA0019000195005010013209220
B2015483727510N12151967WA0018800194005010013228234
B2015493727510N12151970WA0018700193005010013248241
B2015503727510N12151972WA0018700192005010015272250
B2015513727510N12151976WA0018600191005010017273259
B2015523727511N12151981WA0018400191005010018262256
B2015533727512N12151985WA0018300189005010018253249
B2015543727512N12151990WA0018200188005010018248235
B2015553727511N12151994WA0018200187005010018237224
B2015563727509N12151998WA0018100186005010020218215
B2015573727506N12152001WA0018000186005010026195198
B2015583727502N12152002WA0018000185005010027180187
B2015593727498N12152002WA0017800184005010024171179
B2016003727495N12152002WA0017700184005010022165187
B2016013727491N12152001WA0017600183005010022166194
B2016023727488N12152000WA0017400182005010022167199
B2016033727485N12152000WA0017400181005010023180204
B2016053727481N12152001WA0017200180005010026190213
B2016063727474N12152004WA0016900178005010022202223
B2016073727471N12152006WA0016900177005010021205230
B2016083727469N12152008WA0016600176005010021210235
B2016093727466N12152011WA0016400175005010021217226
B2016103727464N12152013WA0016200174005010018220347
B2016113727463N12152015WA0016200173005010009202141
B2016123727462N12152015WA0016000172005010004209135
B2016133727462N12152015WA0015900171005010002264167
B2016153727462N12152015WA0015900171005010002255186
B2016163727462N12152015WA0015900171005010002266198
B2016173727462N12152015WA0015900171005010001278207
B2016183727462N12152015WA0015900171005010001070222
B2016203727462N12152015WA0015900171005010001050271
B2016223727462N12152015WA0015900171005010001030233
B2016233727462N12152015WA0015900171005010001347259
B2016243727462N12152015WA0015900171005010000000240
B2016263727462N12152015WA0015900171005010000295242
B2016273727462N12152015WA0015900171005010001328244
B2016283727462N12152015WA0015900171005010001335245
B2016303727462N12152015WA0015900171005010001330246
B2016313727462N12152015WA0015900171005010000000246
B2016323727462N12152015WA0015900171005010000346250
B2016343727462N12152015WA0015900171005010001341250
B2016353727462N12152015WA0015900171005010000000249
B2016363727462N12152015WA0015900171005010001010250
B2016373727462N12152015WA0015900171005010001053248
B2016393727462N12152015WA0015900171005010001064249
B2016403727462N12152015WA0015900171005010001063248
B2016413727462N12152015WA0015900171005010001077248
B2016433727462N12152015WA0015900171005010002069249
GelKkbn0L3s9paxew3Ffexwe69FZqj+SV3v2EQtmq2VrB5FRZgZo3T77ta7Tm7HGR
GDzrSyAlf9567T7oP9Rh4zX1mROaXr+DZXBlGl/I6xV3HlaYkb9qBrKV8uFU4sTvC
Gw7yhUMkVOlHFbx8oLQJWbj1fEuZWh6LqllLw8Q6sfJk=

