AXFH000
HFDTE210326
HFPLTPILOT:Scott O’Brien
HFGTYGLIDERTYPE:Ozone Swift 6
HFDTM100GPSDATUM:WGS84
HFRFWFIRMWAREVERSION:9.5
HFRHWHARDWAREVERSION:iPhone 15
HFFTYFRTYPE:Flyskyhy,9.5
HFGPS:Bluetooth vario
HFPRSVARIO:Bluetooth vario
HFCCLCOMPETITIONCLASS:Paraglider
HFTZNTIMEZONE:-7
HFSITSITE:Ed Levin 600ft,US
I053638FXA3941VXA4244GSP4547CCO4850HDT
C210326182631210326000102TASK
C0000000N00000000ETAKEOFF
C1956332N10339238W00010009999999000000360000STARTAREA Tapalpa
C2003837N10343513W00000000001000000000360000TURNAREA ATV
C1958948N10346610W00000000001000000000360000TURNAREA Rocks
C1956335N10336845W00000000001000000000360000FINISHAREA TapalpaLZ
C0000000N00000000ELANDING
E182701PEVBackground
B1827013727671N12151635WA0035100351001010001349180
B1827023727671N12151635WA0035100351001010000349173
B1827033727671N12151636WA0035100351001010001349189
B1827043727671N12151636WA0035100351001010001349182
B1827053727671N12151636WA0035100351001010001349177
B1827063727671N12151636WA0035100351001010001349167
B1827073727671N12151636WA0035100351001010000349232
B1827083727671N12151636WA0035100351001010001349334
B1827093727671N12151636WA0035100351001010000349025
B1827103727671N12151636WA0035100351001010001349352
B1827113727671N12151636WA0035100351001010000349346
B1827123727671N12151636WA0035100351001010000349011
B1827133727671N12151636WA0035100351001010000349009
B1827143727671N12151636WA0035100351001010000349062
B1827153727671N12151636WA0035100351001010000349015
B1827163727671N12151636WA0035100351001010000349014
B1827173727671N12151636WA0035100351001010000349019
B1827183727671N12151636WA0035100351001010000349021
B1827193727671N12151636WA0035100351001010000349023
B1827203727671N12151636WA0035100351001010000349040
B1827213727671N12151636WA0035100351001010001276089
B1827223727671N12151637WA0035000351001010006279082
B1827233727671N12151638WA0035000351001010005270052
B1827243727671N12151639WA0034900351001010006266045
B1827253727671N12151640WA0034800351001010008250248
B1827263727671N12151642WA0034700351001010008250242
B1827273727670N12151643WA0034400350001010008258263
B1827283727670N12151646WA0034300350001010012259250
B1827293727669N12151649WA0034400350001010016259244
B1827303727669N12151652WA0034800350001010017260254
B1827313727668N12151655WA0035000350001010017251286
B1827323727667N12151659WA0035000350001010016256282
B1827333727666N12151663WA0034800350001010018260304
B1827343727665N12151669WA0034800350001010022265301
B1827353727664N12151675WA0034900350001010025264318
B1827363727664N12151679WA0035000350001010022263329
B1827373727664N12151683WA0035000350001010019274337
B1827383727664N12151687WA0034800350001010018283347
B1827393727665N12151690WA0034700349001010019281347
B1827403727666N12151694WA0034500348001010023291351
B1827413727668N12151698WA0034500348001010022299350
B1827423727669N12151702WA0034500347001010021294351
B1827433727670N12151706WA0034200346001010022287351
B1827443727671N12151710WA0033900345001010022277350
B1827453727668N12151714WA0033600343001010027239350
B1827463727664N12151717WA0033500342001010022216008
B1827473727660N12151717WA0033300341001010022206005
B1827483727655N12151716WA0033300340001010023189004
B1827493727651N12151711WA0033300339001010023151002
B1827503727648N12151705WA0033300338001010024132002
B1827513727645N12151699WA0033200336001010029120002
B1827523727642N12151691WA0033000334001010033120001
B1827533727638N12151684WA0033000332001010038119001
B1827543727635N12151677WA0033100332001010041118001
B1827553727632N12151669WA0033300331001010043118000
B1827563727628N12151662WA0033400331001010040118000
B1827573727626N12151656WA0033400330001010036123000
B1827583727622N12151650WA0033200329001010035125000
B1827593727619N12151645WA0033000328001010035129000
B1828003727615N12151641WA0032800327001010034134359
B1828013727610N12151640WA0032700326001010030145359
B1828023727606N12151642WA0032600325001010025174359
B1828033727606N12151646WA0032600323001010012206359
B1828043727608N12151651WA0032600323001010012307359
B1828053727610N12151654WA0032600322001010016319359
B1828063727614N12151659WA0032600321001010023325354
B1828073727617N12151662WA0032500320001010025323354
B1828083727620N12151666WA0032500319001010026319356
B1828093727623N12151670WA0032500318001010027316355
B1828103727626N12151675WA0032600317001010027315357
B1828113727629N12151679WA0032600317001010026308357
B1828123727631N12151684WA0032700316001010025300357
B1828133727632N12151688WA0032700316001010023294358
B1828143727634N12151692WA0032600314001010025290358
B1828153727635N12151697WA0032500313001010025291358
B1828163727637N12151702WA0032300312001010029297358
B1828173727639N12151707WA0032300311001010029304359
B1828183727642N12151711WA0032400311001010027309359
B1828193727644N12151715WA0032500311001010022309359
B1828203727645N12151718WA0032400310001010021295359
B1828213727647N12151722WA0032200310001010023292359
B1828223727648N12151726WA0032000309001010024287359
B1828233727649N12151731WA0031800307001010027285359
B1828243727650N12151736WA0031800306001010025286359
B1828253727650N12151741WA0031600305001010024279359
B1828263727651N12151745WA0031400303001010025274359
B1828273727652N12151750WA0031100302001010027277359
B1828283727652N12151756WA0030900300001010029279359
B1828293727653N12151761WA0030800298001010028277359
B1828303727653N12151767WA0030700297001010025274359
B1828313727653N12151771WA0030500295001010025273359
B1828323727653N12151777WA0030200293001010028276359
B1828333727654N12151783WA0030100291001010032278359
B1828343727654N12151789WA0030100290001010032279359
B1828353727655N12151795WA0030300289001010032283359
B1828363727656N12151802WA0030600289001010028284359
B1828373727657N12151806WA0030700289001010026282359
B1828383727657N12151810WA0030700289001010020285359
B1828393727658N12151814WA0030600289001010022286359
B1828403727659N12151818WA0030500289001010024285359
B1828413727660N12151823WA0030500288001010028279359
B1828423727660N12151828WA0030600288001010026283359
B1828433727661N12151833WA0030800289001010024283359
B1828443727663N12151836WA0030700290001010019293359
B1828453727663N12151839WA0030500289001010018289359
B1828463727664N12151842WA0030200289001010016286359
B1828473727665N12151846WA0029800288001010020288359
B1828483727666N12151850WA0029600287001010026284359
B1828493727668N12151856WA0029600286001010027290359
B1828503727669N12151861WA0029600285001010027292359
B1828513727671N12151866WA0029600285001010024289359
B1828523727672N12151870WA0029400284001010024287359
B1828533727673N12151874WA0029300283001010025282359
B1828543727674N12151879WA0029100281001010026282359
B1828553727675N12151884WA0028900280001100024280359
B1828563727676N12151889WA0028900279001100023275359
B1828573727676N12151893WA0028700278001100023261359
B1828583727675N12151897WA0028300276001100022251359
B1828593727673N12151900WA0027900275001100022238000
B1829003727670N12151902WA0027900274001100021229000
B1829013727666N12151902WA0028000273001100019195000
B1829023727662N12151899WA0028200270001100019164000
B1829033727658N12151895WA0028100266001100020146000
B1829043727655N12151890WA0028000265001100024128000
B1829053727652N12151884WA0027600262001100029123000
B1829063727648N12151877WA0027500261001100035127000
B1829073727644N12151871WA0027500261001100037128000
B1829083727640N12151864WA0027500261001100040127000
B1829093727636N12151858WA0027600260001100038125000
B1829103727633N12151852WA0027600258001100034123000
B1829113727630N12151846WA0027400257001100031114000
B1829123727628N12151840WA0027200254001100034116000
B1829133727625N12151835WA0027100254001100035125000
B1829143727622N12151830WA0026900253001100034132000
B1829153727617N12151827WA0026800251001100029154359
B1829163727612N12151828WA0026700249001100031180359
B1829173727609N12151829WA0026600248001100024191359
B1829183727607N12151833WA0026600247001100020213359
B1829193727605N12151837WA0026500246001100019234359
B1829203727605N12151841WA0026300245001100019258359
B1829213727606N12151846WA0026100243001100022277359
B1829223727607N12151851WA0025900241001100026285359
B1829233727608N12151856WA0025800240001100026289359
B1829243727610N12151861WA0025700239001100026293359
B1829253727611N12151865WA0025600239001100024296359
B1829263727613N12151869WA0025500238001100024292359
B1829273727614N12151874WA0025400237001100025280359
B1829283727614N12151879WA0025300235001100024264359
B1829293727613N12151884WA0025100235001100025254359
B1829303727612N12151888WA0025100233001100022248359
B1829313727609N12151890WA0025000232001100021235000
B1829323727604N12151889WA0025100231001100019188000
B1829333727599N12151885WA0025100230001100025155000
B1829343727595N12151882WA0025000229001100027146000
B1829353727591N12151879WA0024900228001100029142000
B1829363727587N12151874WA0024800228001100034139000
B1829373727582N12151870WA0024900227001100036140000
B1829383727578N12151865WA0024900227001100033141000
B1829393727574N12151861WA0024900226001100028142000
B1829403727571N12151858WA0024800225001100028144000
B1829413727567N12151854WA0024600224001100029145000
B1829423727563N12151851WA0024400224001100032147000
B1829433727558N12151847WA0024200223001100034147000
B1829443727554N12151843WA0024100222001100033147000
B1829453727550N12151840WA0024000221001100032151000
B1829463727545N12151838WA0023900219001100032160000
B1829473727540N12151836WA0023700218001100031169359
B1829483727536N12151836WA0023600216001100030178359
B1829493727531N12151836WA0023400216001100030185359
B1829503727527N12151838WA0023200214001100032197359
B1829513727523N12151841WA0023000213001100032205359
B1829523727519N12151845WA0022900212001100031211359
B1829533727517N12151850WA0022800211001100028225359
B1829543727515N12151856WA0022700210001100027240359
B1829553727514N12151862WA0022500209001100029252359
B1829563727513N12151868WA0022400207001100030254359
B1829573727512N12151873WA0022300206001100030253359
B1829583727511N12151879WA0022200205001100029252359
B1829593727509N12151885WA0022100204001100030257359
B1830003727509N12151890WA0022000204001100029263359
B1830013727508N12151896WA0022000203001100029269359
B1830023727508N12151902WA0021900203001100030269359
B1830033727508N12151907WA0021900202001100029263359
B1830043727507N12151913WA0021800201001100029259359
B1830053727507N12151918WA0021800200001100028262359
B1830063727506N12151923WA0021800200001100027267359
B1830073727506N12151928WA0021700199001100027267359
B1830083727506N12151933WA0021600199001100027258359
B1830093727505N12151938WA0021600198001100027251359
B1830103727503N12151943WA0021500198001100025248359
B1830113727502N12151947WA0021400197001100024250359
B1830123727501N12151951WA0021200196001100026249359
B1830133727500N12151956WA0021000195001100028251359
B1830143727498N12151961WA0020800193001100029252359
B1830153727497N12151967WA0020800193001100028252359
B1830163727496N12151972WA0020800193001100026254359
B1830173727495N12151976WA0020800192001100025254359
B1830183727494N12151981WA0020600191001100025252359
B1830193727492N12151985WA0020400190001100027250359
B1830203727491N12151990WA0020100188001100029253359
B1830213727490N12151995WA0019900187001100030258359
B1830223727489N12152001WA0019900186001100029257359
B1830233727488N12152006WA0019800186001100027252359
B1830243727487N12152010WA0019800185001100026250359
B1830253727486N12152015WA0019600184001100027253359
B1830263727485N12152020WA0019500183001100028257359
B1830273727484N12152025WA0019500182001100027256359
B1830283727483N12152030WA0019400181001100026254359
B1830293727482N12152035WA0019200180001100026252359
B1830303727481N12152040WA0019000178001100028252359
B1830313727480N12152045WA0018900176001100029251359
B1830323727478N12152050WA0018800175001100027250359
B1830333727476N12152055WA0018700174001100027247359
B1830343727475N12152059WA0018500173001100025246359
B1830353727474N12152063WA0018300172001100024249359
B1830363727472N12152068WA0018100171001100026250359
B1830373727471N12152073WA0018100170001100029247359
B1830383727469N12152078WA0018100169001100030247359
B1830393727468N12152082WA0018100169001100027246359
B1830403727467N12152086WA0018200168001100023246000
B1830413727465N12152090WA0018200167001100020245000
B1830423727464N12152093WA0018100166001100019245000
B1830433727463N12152096WA0018100166001100017248000
B1830443727463N12152098WA0018100165001100016250000
B1830453727462N12152100WA0018200164001100013243000
B1830463727462N12152100WA0018200164001100007228002
B1830473727462N12152101WA0018200164001100005228000
B1830483727461N12152101WA0018200164001100004228006
B1830493727461N12152102WA0018200163001100003228356
B1830503727461N12152102WA0018200163001100002228348
B1830513727461N12152102WA0018200163001100000228018
B1830523727461N12152101WA0018200165001100000228347
B1830533727461N12152101WA0018200165001100000228347
B1830543727461N12152101WA0018200165001100000228348
B1830553727461N12152101WA0018200165001100000228348
B1830563727461N12152101WA0018200165001100000228342
B1830573727461N12152101WA0018200165001100000228343
B1830583727461N12152101WA0018200165001100000228344
B1830593727461N12152101WA0018200165001100000228347
B1831003727461N12152101WA0018200165001100000228348
B1831013727461N12152101WA0018200165001100000228006
B1831023727461N12152101WA0018200165001100000228000
B1831033727461N12152101WA0018200164001100003228000
B1831043727461N12152101WA0018200164001100002228000
B1831053727462N12152100WA0018200164001100001228359
B1831063727462N12152100WA0018200164001100002228003
B1831073727462N12152100WA0018200164001100000228352
B1831083727462N12152100WA0018200164001100000228345
B1831093727462N12152100WA0018200164001100000228347
B1831103727462N12152100WA0018200164001100000228350
B1831113727462N12152100WA0018200164001100000228349
B1831123727462N12152100WA0018200164001100000228346
B1831133727462N12152100WA0018200164001100000228342
B1831143727462N12152100WA0018200164001100000228346
B1831153727462N12152100WA0018200164001100000228339
B1831163727462N12152100WA0018200164001100000228316
B1831173727462N12152100WA0018200164001100000228000
B1831183727462N12152100WA0018200164001100000228000
B1831193727461N12152101WA0018200164001100004228000
GADp+xHEQpWiJ9sS4XL5RY9nBpoCo08In+orYulhZ3FpgZy7fY/TaUIjU47DxH3Ss
GV51X8FnhvkPRJQP7DTq4e20Kxp4IwR6EWYwZxGDH1v6LKcAvDuR5l66fq/In0wwA
G9UcwfWNbC99Wf/M7w6BxbkLM89FWgeQes+Jp+wDGpdA=

