AXFH000
HFDTE200924
HFPLTPILOT:Scott O’Brien
HFGTYGLIDERTYPE:Phi Maestro 2
HFDTM100GPSDATUM:WGS84
HFRFWFIRMWAREVERSION:8.2.4
HFRHWHARDWAREVERSION:Unknown device (iPhone15,4)
HFFTYFRTYPE:Flyskyhy,8.2.4
HFGPS:Internal
HFPRSVARIO:Internal Vario
HFCCLCOMPETITIONCLASS:Paraglider
HFTZNTIMEZONE:-6
HFSITSITE:Cove (Richfield- Monroe),US
I053638FXA3941VXA4244GSP4547CCO4850HDT
C200924193552200924000108TASK
C0000000N00000000ETAKEOFF
C3920440N12241116W00015009999999000000360000STARTAREA POTLAU
C3922249N12241405W00000000001000000000360000TURNAREA SNOWVL
C3920978N12239724W00000000000400000000360000TURNAREA POTLZ
C3920095N12241882W00000000000400000000360000TURNAREA TOP
C3922264N12241989W00000000001000000000360000TURNAREA SNOWLO
C3920983N12238798W00000000001000000000360000TURNAREA TROUGH
C3920095N12241882W00000000000400000000360000TURNAREA TOP
C3925826N12241497W00000000005000000000360000TURNAREA STJOHN
C3920440N12241116W00000000001500000000360000TURNAREA POTLAU
C3920978N12239724W00000000000400000000360000FINISHAREA POTLZ
C0000000N00000000ELANDING
B1936233838046N11203630WA0266302662005010001275083
B1936243838046N11203630WA0266302662005010001117095
B1936253838046N11203630WA0266302662005010001304134
B1936263838046N11203630WA0266202662005010002264161
B1936273838045N11203630WA0266202662005010003201166
B1936283838045N11203630WA0266202662005010002181142
B1936293838045N11203630WA0266202662005010001034132
B1936303838045N11203630WA0266202662005010000000123
B1936313838045N11203630WA0266202662005010001324118
B1936323838046N11203630WA0266202662005010002358046
B1936333838046N11203631WA0266202662005010002356301
B1936343838046N11203631WA0266202663005010005332306
B1936353838047N11203631WA0266202662005010003277309
B1936363838047N11203632WA0266202662005010006263297
B1936373838047N11203634WA0266202662005010011264300
B1936383838047N11203636WA0266102662005010011269295
B1936393838047N11203638WA0266202661005010012285329
B1936403838048N11203641WA0266102662005010012289343
B1936413838048N11203643WA0266102661005010011285304
B1936423838049N11203645WA0266102661005010011292276
B1936433838050N11203647WA0266102661005010014298255
B1936443838051N11203649WA0266102660005010018300212
B1936453838052N11203653WA0266102660005010018286217
B1936463838052N11203656WA0266102660005010023258206
B1936473838051N11203661WA0266002660005010029237247
B1936483838048N11203666WA0266002660005010034224248
B1936493838044N11203670WA0266002660005010037216266
B1936503838039N11203675WA0266002660005010038217256
B1936513838035N11203679WA0266002660005010039224160
B1936523838030N11203685WA0266002660005010041224160
B1936533838026N11203690WA0265902660005010041222255
B1936543838021N11203695WA0265902660005010040217211
B1936553838017N11203700WA0265802659005010039217217
B1936563838012N11203704WA0265602659005010040217192
B1936573838007N11203709WA0265602658005010042218207
B1936583837997N11203719WA0265502657005010043214173
B1936593837992N11203724WA0265302656005010040214247
B1937003837987N11203728WA0265202656005010038212203
B1937013837982N11203732WA0265102655005010037211222
B1937023837978N11203736WA0265002654005010038210213
B1937033837973N11203740WA0265002653005010041216188
B1937043837968N11203745WA0264902652005010042220223
B1937053837963N11203750WA0264802651005010044222178
B1937063837959N11203756WA0264602649005010044221250
B1937073837954N11203761WA0264402648005010044221252
B1937083837949N11203767WA0264302647005010042225250
B1937093837945N11203773WA0264102645005010040231219
B1937103837942N11203779WA0264002644005010040235228
B1937113837938N11203786WA0263802643005010042234233
B1937123837934N11203792WA0263702642005010046231175
B1937133837930N11203799WA0263602640005010047230221
B1937143837926N11203806WA0263402639005010046229219
B1937153837921N11203812WA0263302638005010041228218
B1937163837917N11203818WA0263202637005010037227217
B1937173837914N11203823WA0263102635005010037226215
B1937183837910N11203829WA0263102634005010039238225
B1937193837907N11203835WA0263002633005010041238235
B1937203837904N11203842WA0262902631005010042236228
B1937213837901N11203849WA0262802630005010041235202
B1937223837897N11203855WA0262702629005010038234222
B1937233837894N11203861WA0262502628005010035238221
B1937243837892N11203867WA0262502627005010034242222
B1937253837889N11203873WA0262402626005010036243229
B1937263837887N11203879WA0262402625005010039243234
B1937273837884N11203886WA0262302624005010039244234
B1937283837882N11203893WA0262202623005010039248232
B1937293837880N11203900WA0262102622005010037251234
B1937303837878N11203906WA0262002622005010036251241
B1937313837877N11203912WA0262002621005010033251233
B1937323837875N11203918WA0262002621005010029251233
B1937333837874N11203923WA0262002621005010027248230
B1937343837873N11203928WA0262102622005010022256227
B1937353837872N11203931WA0262202623005010017263228
B1937363837872N11203934WA0262202624005010013287227
B1937373837874N11203936WA0262402626005010013331230
B1937383837875N11203936WA0262602627005010012007232
B1937393837877N11203935WA0262802628010019017035203
B1937403837880N11203932WA0263002629010019019050175
B1937413837882N11203929WA0263102630010019020056178
B1937423837883N11203925WA0263202631010019021065185
B1937433837882N11203918WA0263202632010019022104185
B1937443837880N11203913WA0263202633010019020096190
B1937453837879N11203910WA0263202632010019018119174
B1937463837875N11203912WA0263202631010019015185215
B1937473837873N11203913WA0263302631010019014194243
B1937483837870N11203917WA0263402630010019005326253
B1937493837866N11203916WA0263702629010019006055301
B1937503837865N11203917WA0264002629010019018031321
B1937513837869N11203917WA0264202628010019021039352
B1937523837870N11203915WA0264402628010019027049003
B1937533837872N11203913WA0264402628010019030073020
B1937543837871N11203906WA0264502628010019047111043
B1937553837867N11203897WA0264602627010019050125095
B1937563837861N11203890WA0264602627010019057153113
B1937573837852N11203886WA0264702627010019055173154
B1937583837842N11203884WA0264702627010019054189183
B1937593837833N11203885WA0264702627010019054210205
B1938003837826N11203890WA0264802626010019051220231
B1938013837820N11203896WA0264802626010019041232245
B1938023837816N11203902WA0264902626010019034237263
B1938033837813N11203907WA0265002626010019030233273
B1938043837811N11203910WA0265202626010019017240276
B1938053837809N11203914WA0265402626010019009285302
B1938063837809N11203916WA0265702626010019007322328
B1938073837811N11203917WA0265902627010019011359343
B1938083837815N11203918WA0266202628010019019018353
B1938093837819N11203916WA0266402629010019026050004
B1938103837821N11203913WA0266502630010019025066023
B1938113837823N11203908WA0266502630010019025080031
B1938123837824N11203904WA0266702630010019020119038
B1938133837822N11203899WA0266902630010019028115038
B1938143837820N11203892WA0267002630010019030123059
B1938153837816N11203888WA0267102630010019033149070
B1938163837808N11203882WA0267102630010019027172122
B1938173837802N11203882WA0267102630010019034214197
B1938183837797N11203887WA0267202630010019044224255
B1938193837789N11203892WA0267202629010019037239254
B1938203837787N11203897WA0267302630010019026256272
B1938213837783N11203902WA0267402630010019020262300
B1938223837781N11203907WA0267602630010019016271315
B1938233837780N11203911WA0267802631010019013297327
B1938243837780N11203913WA0268102632010019011327333
B1938253837781N11203913WA0268402633010019011341357
B1938263837783N11203915WA0268602634010019012355004
B1938273837786N11203916WA0268702636010019017021021
B1938283837789N11203914WA0268702636010019026024030
B1938293837792N11203911WA0268702637010019031039043
B1938303837794N11203904WA0268702637010019052094052
B1938313837792N11203895WA0268602637010019055115093
B1938323837788N11203886WA0268502638010019061134113
B1938333837781N11203878WA0268402638010019060147133
B1938343837773N11203873WA0268402638010019054166150
B1938353837764N11203870WA0268402638010019056186176
B1938363837756N11203872WA0268502639010019054200205
B1938373837749N11203877WA0268602639010019051217224
B1938383837743N11203883WA0268702640010019049223244
B1938393837738N11203889WA0268702640010019041232251
B1938403837735N11203895WA0268802641010019032247266
B1938413837734N11203900WA0268902643010019020271282
B1938423837734N11203905WA0269002644010019017264308
B1938433837733N11203908WA0269102646010019016252310
B1938443837733N11203911WA0269302648010019017251312
B1938453837733N11203915WA0269302650010019018253322
B1938463837733N11203917WA0269502651010019014268321
B1938473837733N11203920WA0269702652010019011274331
B1938483837733N11203921WA0269802653010019006298338
B1938493837734N11203922WA0269902654010019007053352
B1938503837737N11203919WA0269902656010019025053008
B1938513837740N11203915WA0270002658010019030053031
B1938523837743N11203909WA0270102659010019040079033
B1938533837743N11203901WA0270202660010019044098057
B1938543837741N11203892WA0270302660010019047119075
B1938553837738N11203885WA0270302660010019044121100
B1938563837734N11203877WA0270302660010019039128100
B1938573837729N11203871WA0270302660010019036137106
B1938583837724N11203867WA0270202660010019030155106
B1938593837718N11203869WA0270102660010019057211160
B1939003837711N11203875WA0269902660010019057215237
B1939013837704N11203881WA0269902660010019054214240
B1939023837698N11203887WA0269902660010019047214240
B1939033837693N11203892WA0269902660010019041216244
B1939043837689N11203895WA0270002660010019034210251
B1939053837688N11203897WA0270102661010019010353252
B1939063837691N11203898WA0270302662010019012348340
B1939073837695N11203899WA0270502664010019011352316
B1939083837699N11203900WA0270802665010019006350340
B1939093837701N11203900WA0271102667010019003178342
B1939103837701N11203901WA0271402669010019005194338
B1939113837703N11203902WA0271602670010019004071329
B1939123837705N11203901WA0271702671010019008011323
B1939133837707N11203901WA0271702672010019012016342
B1939143837710N11203900WA0271602672010019014018347
B1939153837712N11203899WA0271602673010019013020355
B1939163837714N11203899WA0271502673010019013022355
B1939173837718N11203897WA0271402674010019016025008
B1939183837721N11203896WA0271402675010019019033321
B1939193837724N11203893WA0271302676010019025037327
B1939203837728N11203889WA0271302677010019023039328
B1939213837731N11203887WA0271202678010019019004340
B1939223837734N11203888WA0271202678010019018342336
B1939233837737N11203890WA0271102678010019018325333
B1939243837740N11203892WA0271002679010019019308324
B1939253837743N11203894WA0271002679010019020321301
B1939263837746N11203897WA0270902680010019019323299
B1939273837748N11203899WA0270802680010019020315306
B1939283837750N11203903WA0270602681010019023288306
B1939293837751N11203907WA0270502681010019028269299
B1939303837750N11203913WA0270302681010019030256301
B1939313837749N11203918WA0270102682010019030255282
B1939323837748N11203923WA0269902682010019028250284
B1939333837747N11203928WA0269802682010019027249276
B1939343837746N11203933WA0269602682010019029248268
B1939353837744N11203938WA0269502682010019033249284
B1939363837742N11203944WA0269402682010019035247274
B1939373837740N11203950WA0269402682010019034248280
B1939383837739N11203956WA0269302681010019033250274
B1939393837737N11203962WA0269102681010019031252266
B1939403837736N11203967WA0269002681010019032252263
B1939413837734N11203973WA0269002681010019033251251
B1939423837733N11203979WA0268902681010019035249247
B1939433837731N11203985WA0268802681005010035246285
B1939443837729N11203991WA0268802681005010033244272
B1939453837727N11203996WA0268802682005010031244271
B1939463837725N11204002WA0268802682005010030245272
B1939473837723N11204007WA0268802682005010031246256
B1939483837721N11204012WA0268902683005010033246258
B1939493837719N11204018WA0268902683005010033242236
B1939503837716N11204023WA0268902684005010035227291
B1939513837713N11204028WA0269002684005010032226290
B1939523837709N11204032WA0269002685005010031227283
B1939533837707N11204037WA0269102686005010027241280
B1939543837705N11204041WA0269202686005010025251264
B1939553837705N11204046WA0269202687005010024256274
B1939563837704N11204050WA0269202687005010025253286
B1939573837703N11204055WA0269102688005010026250245
B1939583837701N11204059WA0269002688005010028249260
B1939593837700N11204065WA0269002689005010032241280
B1940003837697N11204070WA0268902689005010033236272
B1940013837695N11204074WA0268902690005010016245267
B1940023837695N11204076WA0269002691005010012260284
B1940033837694N11204079WA0269102692005010014247294
B1940043837694N11204081WA0269202693005010009272286
B1940053837694N11204083WA0269202694005010016276298
B1940063837694N11204087WA0269202694005010026248293
B1940073837692N11204091WA0269002694005010030232273
B1940083837689N11204096WA0268702694005010031219261
B1940093837685N11204099WA0268402694005010034207254
B1940103837681N11204102WA0268202692005010036204248
B1940113837676N11204105WA0268002691005010034212248
B1940123837673N11204109WA0267802690005010032226245
B1940133837670N11204114WA0267502688005010032237245
B1940143837667N11204120WA0267502686010019035239250
B1940153837664N11204126WA0267302684005010037235256
B1940163837661N11204132WA0267002682005010034232271
B1940173837658N11204137WA0266802680005010030236266
B1940183837656N11204141WA0266502678005010027241270
B1940193837654N11204146WA0266302676005010028249286
B1940203837653N11204151WA0266102673005010029256279
B1940213837652N11204157WA0266002671005010030262277
B1940223837652N11204163WA0265702668005010030266261
B1940233837651N11204168WA0265502666005010031261288
B1940243837651N11204174WA0265202663005010029259288
B1940253837650N11204180WA0265002661005010027261290
B1940263837649N11204185WA0264802659005010026263275
B1940273837649N11204190WA0264602656005010028268280
B1940283837649N11204195WA0264302654005010029266278
B1940293837648N11204201WA0264102652005010031264277
B1940303837648N11204206WA0263902649005010030265256
B1940313837648N11204212WA0263902646005010029266210
B1940323837648N11204218WA0263602644005010029267234
B1940333837647N11204223WA0263402642005010029268247
B1940343837647N11204229WA0263102639005010030267260
B1940353837647N11204235WA0262902637005010031266275
B1940363837647N11204241WA0262702634005010030265272
B1940373837646N11204246WA0262502632005010030266274
B1940383837646N11204252WA0262202629005010029267275
B1940393837646N11204258WA0262002627005010029267283
B1940403837646N11204263WA0261802624005010030264282
B1940413837645N11204269WA0261602622005010031262282
B1940423837644N11204275WA0261302619005010033262287
B1940433837644N11204282WA0261102616005010039265286
B1940443837644N11204290WA0260802613005010039271279
B1940453837644N11204297WA0260402611005010038275260
B1940473837644N11204305WA0260102608005010038276262
B1940483837645N11204319WA0259602602005010036275261
B1940493837646N11204326WA0259602599005010036276250
B1940503837646N11204332WA0259302596005010036275249
B1940513837646N11204339WA0259102593005010037268248
B1940533837646N11204347WA0258902591005010038266262
B1940543837646N11204354WA0258602588005010039265269
B1940553837645N11204361WA0258302585005010039270255
B1940573837646N11204376WA0257802579005010037271249
B1940583837645N11204383WA0257502577005010037265249
B1940593837645N11204390WA0257302573005010039261258
B1941003837644N11204397WA0257002570005010039263262
B1941013837643N11204405WA0256702567005010039267253
B1941023837643N11204412WA0256302564005010039267224
B1941033837643N11204419WA0256002560005010038262210
B1941043837641N11204426WA0255702557005010037258239
B1941053837640N11204433WA0255402554005010034257240
B1941063837639N11204439WA0255102551005010030257240
B1941073837638N11204445WA0255102548005010030260241
B1941083837638N11204451WA0254902545005010037261252
B1941093837636N11204458WA0254602542005010040260248
B1941103837635N11204465WA0254202538005010039260252
B1941113837635N11204472WA0253802535005010035265243
B1941123837634N11204479WA0253502532005010031267247
B1941133837634N11204485WA0253202528005010031265248
B1941143837633N11204490WA0252902525005010030261252
B1941153837632N11204496WA0252602521005010032258266
B1941163837631N11204502WA0252402518005010034257262
B1941173837630N11204508WA0252102514005010035255262
B1941183837629N11204515WA0251702511005010034254263
B1941193837627N11204521WA0251402508005010031257261
B1941203837626N11204526WA0251102504005010029260261
B1941213837626N11204532WA0250802501005010028263262
B1941223837625N11204537WA0250602498005010029265263
B1941233837625N11204542WA0250302495005010029265253
B1941243837624N11204548WA0250102492005010031263261
B1941253837624N11204554WA0250102489005010031262260
B1941263837623N11204560WA0249802486005010030261255
B1941273837622N11204565WA0249602483005010029261272
B1941283837621N11204570WA0249302481005010028260269
B1941293837621N11204576WA0249102478005010028265254
B1941303837620N11204581WA0248902476005010030262257
B1941313837620N11204587WA0248702473005010031260259
B1941323837619N11204593WA0248402471005010031262259
B1941333837618N11204599WA0248202468005010031262242
B1941343837618N11204604WA0248002466005010031259256
B1941353837617N11204610WA0247802464005010032254269
B1941363837615N11204616WA0247602462005010034251264
B1941373837613N11204623WA0247402460005010035250262
B1941383837612N11204629WA0247202458005010036253264
B1941393837610N11204636WA0247002456005010037258241
B1941403837609N11204642WA0246902454005010036261269
B1941413837609N11204649WA0246702452005010034264254
B1941423837608N11204656WA0246502450005010036265276
B1941433837608N11204663WA0246502448005010038262270
B1941443837607N11204670WA0246402447005010041258249
B1941453837606N11204678WA0246202445005010040258287
B1941463837604N11204685WA0246202445005010036258279
B1941473837604N11204692WA0246202444005010034262299
B1941483837603N11204698WA0246202443005010030266304
B1941493837603N11204703WA0246302443005010029268303
B1941503837603N11204709WA0246402442005010030278297
B1941513837604N11204715WA0246502442005010033285322
B1941523837606N11204721WA0246602441005010033287329
B1941533837607N11204726WA0246602440005010031292347
B1941543837610N11204731WA0246702440005010033321353
B1941553837614N11204734WA0246702439005010032340008
B1941563837619N11204736WA0246702439005010034349021
B1941573837624N11204735WA0246602438005010033022033
B1941583837629N11204731WA0246602437010019039052049
B1941593837632N11204724WA0246502435010019046074067
B1942003837634N11204715WA0246502433010019047075083
B1942013837635N11204706WA0246302432010019047075083
B1942023837637N11204698WA0246102430010019046076081
B1942033837639N11204689WA0246002428010019042074078
B1942043837640N11204682WA0245902428010019040075072
B1942153837596N11204760WA0245702464004003022270058
B1942163837596N11204765WA0245702465004003024264301
B1942173837592N11204765WA0246002441010019023264295
B1942183837593N11204769WA0246002442010019026259286
B1942193837592N11204774WA0246202443010019028257285
B1942203837591N11204780WA0246302444010019029254265
B1942213837590N11204786WA0246402445010019033247278
B1942223837588N11204791WA0246402446010019033235280
B1942233837585N11204796WA0246402447010019030227279
B1942243837582N11204800WA0246402448010019026230268
B1942253837581N11204804WA0246402449010019024254264
B1942263837580N11204809WA0246402450010019029263264
B1942273837579N11204815WA0246402450010019035253270
B1942283837577N11204821WA0246402450010019037241273
B1942293837574N11204827WA0246402451010019035236278
B1942303837572N11204832WA0246302451010019032238269
B1942313837570N11204837WA0246302451010019029247268
B1942323837568N11204843WA0246302452010019029261281
B1942333837568N11204848WA0246302452010019029270285
B1942343837569N11204853WA0246302452010019028274294
B1942353837569N11204859WA0246302452010019026277289
B1942363837570N11204863WA0246202452005010025276292
B1942373837570N11204868WA0246202453005010025272296
B1942383837571N11204873WA0246202453005010025274289
B1942393837571N11204878WA0246202453005010025279277
B1942403837572N11204883WA0246102453005010026284270
B1942413837573N11204887WA0246102453005010026279268
B1942423837573N11204892WA0246102453005010027267280
B1942433837573N11204897WA0246002453005010026266271
B1942443837572N11204902WA0246002453005010023255300
B1942453837572N11204906WA0246102454005010019256288
B1942463837571N11204909WA0246102454005010017256304
B1942473837571N11204913WA0246102454005010017274299
B1942483837572N11204916WA0246202454005010021295299
B1942493837573N11204920WA0246202454005010025305300
B1942503837576N11204924WA0246202454005010026306288
B1942513837578N11204928WA0246202455010019026300319
B1942523837580N11204932WA0246302455010019025299325
B1942533837582N11204936WA0246302456010019025305350
B1942543837585N11204939WA0246402456010019027327355
B1942553837589N11204942WA0246502457010019031343008
B1942563837594N11204942WA0246702457010019030011013
B1942573837598N11204940WA0246802457010019027027027
B1942583837601N11204937WA0246902457010019029046035
B1942593837603N11204930WA0246902456010019046086051
B1943003837602N11204922WA0246802455010019049108091
B1943013837599N11204912WA0246702454010019049112115
B1943023837594N11204907WA0246402453010019049161119
B1943033837587N11204905WA0246202452010019050181175
B1943043837580N11204906WA0246002451010019046200197
B1943053837573N11204910WA0245802451010019046213218
B1943063837569N11204916WA0245702450010019041229230
B1943073837565N11204921WA0245702450010019032241245
B1943083837564N11204927WA0245702450010019026256264
B1943093837563N11204931WA0245902450010019025257285
B1943103837563N11204936WA0246002450010019029267290
B1943113837563N11204942WA0246002449010019029274295
B1943123837564N11204947WA0246202449005010028297298
B1943133837566N11204951WA0246302449005010026313309
B1943143837569N11204954WA0246402450005010024326324
B1943153837572N11204956WA0246502450010019023332334
B1943163837575N11204958WA0246702451010019023338339
B1943173837579N11204960WA0246802451010019025348343
B1943183837583N11204960WA0246902452010019027002350
B1943193837588N11204959WA0247002452010019029017359
B1943203837592N11204957WA0247102453010019031023011
B1943213837595N11204953WA0247202453010019034069015
B1943223837596N11204946WA0247202453010019039090054
B1943233837595N11204938WA0247102453010019044113078
B1943243837591N11204931WA0247102452010019050134107
B1943253837585N11204924WA0247002452010019051143135
B1943263837578N11204919WA0246802451010019053151146
B1943273837572N11204919WA0246702451010019043209157
B1943283837566N11204924WA0246702450010019048222226
B1943293837563N11204931WA0246602449010019041244238
B1943303837560N11204938WA0246602449010019039248262
B1943313837558N11204945WA0246602448010019036251269
B1943323837557N11204951WA0246602448010019033248276
B1943333837556N11204957WA0246702448010019027268274
B1943343837556N11204963WA0246902448010019026282291
B1943353837558N11204967WA0247002448010019026308301
B1943363837561N11204971WA0247002448010019024322316
B1943373837564N11204974WA0247102448010019027334328
B1943383837568N11204976WA0247202448010019023340340
B1943393837572N11204977WA0247202449010019023350345
B1943403837577N11204978WA0247302449010019025003350
B1943413837581N11204977WA0247402450010019027019358
B1943423837585N11204975WA0247502450010019026039009
B1943433837588N11204971WA0247502450010019027059022
B1943443837589N11204966WA0247502450010019031094039
B1943453837588N11204959WA0247402450010019043119075
B1943463837584N11204952WA0247402450010019047134111
B1943473837579N11204946WA0247402450010019046141131
B1943483837573N11204941WA0247302450010019040150140
B1943493837567N11204940WA0247202450010019041198152
B1943503837561N11204943WA0247102449010019053212215
B1943513837554N11204949WA0247102449010019052214226
B1943523837547N11204955WA0247102449010019048216228
B1943533837543N11204960WA0247102448010019032236231
B1943543837541N11204965WA0247202448010019030245262
B1943553837539N11204971WA0247402448010019034251281
B1943563837538N11204978WA0247502447010019035255282
B1943573837537N11204985WA0247602447010019035266285
B1943583837538N11204991WA0247602447010019031274291
B1943593837538N11204997WA0247802447010019027287294
B1944003837541N11205002WA0247902448005010025314309
B1944013837543N11205005WA0248102448005010024317326
B1944023837546N11205009WA0248202448005010024326332
B1944033837550N11205011WA0248202449005010027340340
B1944043837555N11205012WA0248402449010019030353351
B1944053837561N11205013WA0248502450010019034005359
B1944063837567N11205011WA0248602450010019036019009
B1944073837572N11205009WA0248602450010019032031020
B1944083837576N11205005WA0248602450010019030041027
B1944093837576N11204999WA0248602450010019043104032
B1944103837575N11204991WA0248602450010019045118094
B1944113837564N11204980WA0248602450010019046165112
B1944123837557N11204979WA0248602450010019045195172
B1944143837551N11204984WA0248502450010019056219211
B1944153837540N11205000WA0248502450010019049240235
B1944173837538N11205008WA0248402449010019035260256
B1944183837540N11205014WA0248402449010019027303278
B1944193837543N11205018WA0248402450010019024319318
B1944203837546N11205021WA0248502450010019022318334
B1944213837549N11205023WA0248502450010019022322337
B1944223837552N11205025WA0248502451010019022331347
B1944233837555N11205027WA0248602451010019020349355
B1944243837560N11205027WA0248702451010019023004356
B1944253837563N11205026WA0248702452010019024026009
B1944263837569N11205019WA0248802452010019023070022
B1944273837569N11205015WA0248902453010019026090049
B1944283837569N11205009WA0249002453010019035114069
B1944293837567N11205003WA0249102453010019048124107
B1944313837563N11204996WA0249302453010019051136125
B1944323837550N11204986WA0249302454010019037191135
B1944333837544N11204987WA0249302454010019040215211
B1944343837540N11204993WA0249302454010019046236239
B1944353837537N11205001WA0249202454010019047249258
B1944363837535N11205009WA0249102453010019042256270
B1944373837533N11205016WA0249002453010019036256276
B1944393837533N11205022WA0248902453010019025279278
B1944403837537N11205029WA0248902452010019022318301
B1944413837540N11205032WA0248902453010019018332328
B1944423837543N11205034WA0249002453010019018339339
B1944443837550N11205038WA0249202455010019019356343
B1944453837554N11205037WA0249302456010019020005002
B1944463837557N11205037WA0249402457010019019004003
B1944473837561N11205036WA0249402458010019020008351
B1944483837565N11205035WA0249502460010019020013001
B1944493837568N11205034WA0249502461010019020013357
B1944503837571N11205033WA0249602462010019017013009
B1944513837574N11205032WA0249702463010019016017025
B1944523837576N11205031WA0249702464010019019024031
B1944533837580N11205029WA0249902464010019025019036
B1944543837583N11205026WA0250002465010019029041046
B1944553837584N11205019WA0250002465010019048096060
B1944563837582N11205011WA0250002465010019050121103
B1944573837577N11205003WA0250002465010019052133126
B1944583837570N11204996WA0250102466010019049155141
B1944593837563N11204993WA0250102465010019051176167
B1945003837555N11204993WA0250102465010019053193194
B1945013837548N11204996WA0250202465010019047209214
B1945023837542N11205000WA0250302465010019047214234
B1945033837536N11205006WA0250402465030057051220240
B1945043837530N11205012WA0250402465050095048212225
B1945053837525N11205018WA0250502465050095041208220
B1945103837545N11204982WA0251202520012016000359236
B1945113837536N11204986WA0251202516008012000359243
B1945123837535N11204995WA0251302520004004036264240
B1945133837537N11205002WA0251502519004003034291294
B1945143837538N11205007WA0251602522004003034314310
B1945153837540N11205012WA0251702525004003030301334
B1945173837540N11205016WA0251802527004003019255324
B1945183837540N11205019WA0252002528004003019280303
B1945193837542N11205022WA0252102527004003017331325
B1945203837544N11205021WA0252202525004003017020348
B1945213837548N11205016WA0252202522004003019052011
B1945223837550N11205007WA0252202520004003058076031
B1945233837528N11205016WA0252102462010019040039029
B1945243837532N11205009WA0252002462010019039062035
B1945253837534N11205001WA0251902462010019043094052
B1945303837516N11204982WA0252202529004003051269073
B1945323837516N11204988WA0252202529004003025279283
B1945333837517N11204993WA0252302527004003025286306
B1945343837517N11204998WA0252502526004003025273298
B1945353837517N11205003WA0252602525004003028260296
B1945363837516N11205008WA0252702525004003028265303
B1945373837517N11205014WA0252702526004003021288296
B1945383837518N11205018WA0252702525004003025294302
B1945393837519N11205023WA0252602524004003025284292
B1945403837520N11205028WA0252602524004003029271286
B1945413837519N11205034WA0252502522004003029261284
B1945423837518N11205039WA0252402520004003028253276
B1945433837517N11205045WA0252402518004003030248270
B1945443837513N11205049WA0252202506010019034248257
B1945453837512N11205056WA0252002505010019038246265
B1945463837509N11205063WA0251802504010019040242268
B1945473837506N11205070WA0251602504005010041236248
B1945483837503N11205076WA0251502503005010038233267
B1945493837500N11205081WA0251302503005010034240276
B1945503837497N11205087WA0251202502005010033242260
B1945513837495N11205093WA0251102502005010035238236
B1945523837492N11205098WA0251102501005010035238261
B1945533837490N11205104WA0251002499005010033242261
B1945543837488N11205109WA0250902498005010031250267
B1945553837487N11205115WA0250702496005010030258258
B1945563837486N11205121WA0250502494005010031255250
B1945573837484N11205127WA0250302492005010032256277
B1945583837483N11205133WA0250002490005010033254292
B1945593837482N11205139WA0249802488005010031255279
B1946003837481N11205144WA0249502485005010030260286
B1946013837480N11205150WA0249302483005010030271272
B1946023837481N11205156WA0249002481005010031272274
B1946033837481N11205162WA0248802479005010030270275
B1946043837481N11205167WA0248602477005010030269278
B1946053837481N11205173WA0248402475005010030271278
B1946063837481N11205179WA0248102473005010030273282
B1946073837481N11205184WA0247902471005010030272254
B1946083837481N11205190WA0247702468005010029272285
B1946093837482N11205195WA0247502466005010028273269
B1946103837482N11205201WA0247302464005010027278278
B1946113837483N11205206WA0247302462005010028279278
B1946123837483N11205211WA0247202460005010028277280
B1946133837484N11205217WA0247002458005010030276276
B1946143837484N11205222WA0246802456005010031276279
B1946153837485N11205228WA0246502454005010031272270
B1946163837485N11205234WA0246302452005010030267285
B1946173837484N11205240WA0246102449005010027264283
B1946183837484N11205244WA0245902447005010025264277
B1946193837484N11205249WA0245702445005010027266284
B1946203837483N11205255WA0245502443005010031266279
B1946213837483N11205261WA0245302441005010033269290
B1946223837483N11205267WA0245102439005010031269291
B1946233837483N11205273WA0244902438005010026268273
B1946243837484N11205277WA0244802438005010025288295
B1946253837485N11205281WA0244802438005010021308334
B1946263837487N11205284WA0244902437005010020318345
B1946273837490N11205286WA0245102437005010018321352
B1946283837492N11205288WA0245302437005010018336019
B1946293837495N11205289WA0245302437005010023353027
B1946303837499N11205289WA0245602437005010036008040
B1946313837503N11205284WA0245802436010019049078052
B1946323837503N11205273WA0246002435010019061100098
B1946333837501N11205261WA0246002434010019063100118
B1946343837500N11205254WA0245902433010019013107122
B1946353837499N11205253WA0245802433010019011164017
B1946363837497N11205255WA0245802433010019021219322
B1946373837494N11205258WA0245802433010019028226274
B1946383837490N11205262WA0246002433010019024236272
B1946393837489N11205265WA0246202433030057018238282
B1946403837487N11205267WA0246502433030057014237292
B1946413837486N11205270WA0246702433030057013246300
B1946423837485N11205272WA0246902432030057007333303
B1946433837488N11205273WA0247002433010019024038341
B1946443837492N11205270WA0247002433010019035055020
B1946453837495N11205265WA0247202433010019039078039
B1946463837496N11205257WA0247202433010019044104060
B1946473837495N11205247WA0247302434010019046128090
B1946483837491N11205241WA0247402433010019050143122
B1946493837484N11205236WA0247402433010019055157144
B1946503837476N11205232WA0247402433010019055159163
B1946513837469N11205228WA0247302433030057056157165
B1946523837464N11205229WA0247302433010019021292158
B1946533837465N11205235WA0247402433010019018306309
B1946543837466N11205241WA0247502433010019019316318
B1946553837467N11205245WA0247702434010019019326324
B1946563837468N11205249WA0247902434010019026343330
B1946573837473N11205250WA0248102435010019038006341
B1946583837481N11205250WA0248202436010019042027359
B1946593837486N11205245WA0248302436010019044040015
B1947003837491N11205240WA0248402436010019046043026
B1947013837493N11205233WA0248502436010019041109029
B1947023837491N11205222WA0248602437010019050137095
B1947033837485N11205216WA0248702436010019050157135
B1947043837479N11205212WA0248702437010019036183163
B1947053837474N11205212WA0248802437010019028207204
B1947063837470N11205214WA0248902438010019026227239
B1947073837469N11205217WA0249002439010019024246258
B1947083837467N11205221WA0249202440010019023267273
B1947093837467N11205225WA0249402440010019023269288
B1947103837467N11205230WA0249702441010019023276288
B1947113837468N11205234WA0249902441010019022313293
B1947123837473N11205237WA0250102441010019028002315
B1947133837478N11205236WA0250302442010019036020347
B1947143837483N11205233WA0250402442010019037028003
B1947153837489N11205230WA0250602442010019026030010
B1947163837493N11205226WA0250802442010019028067005
B1947173837494N11205219WA0251002441010019025070037
B1947183837495N11205213WA0251102441030057020117035
B1947193837493N11205208WA0251202441010019019162080
B1947203837489N11205207WA0251302441030057025208209
B1947213837486N11205208WA0251402441010019025206240
B1947223837482N11205209WA0251602442010019024204239
B1947233837475N11205209WA0251702441010019016258239
B1947243837474N11205212WA0251702441010019017263284
B1947263837471N11205219WA0252102442010019013340286
B1947273837469N11205224WA0252402443010019024019325
B1947283837471N11205222WA0252402443010019034033355
B1947293837481N11205224WA0252602444010019036036012
B1947353837478N11205181WA0254202527004006000359015
B1947363837475N11205191WA0254102540004004029241015
B1947373837478N11205195WA0254102549004003029293262
B1947383837483N11205197WA0254202551004003033343299
B1947393837487N11205199WA0254402557004003033350338
B1947413837490N11205201WA0254702562004003033344348
B1947423837495N11205202WA0255102565004003030356344
B1947433837500N11205200WA0255502566004003041020353
B1947443837506N11205195WA0255502566004003054043014
B1947453837510N11205185WA0255902568004003054069038
B1947463837509N11205175WA0256102572004003061097062
B1947473837509N11205166WA0256302577004003061094093
B1947483837507N11205162WA0256402579004003028131089
B1947493837511N11205163WA0256602550010019039098066
B1947503837510N11205157WA0256802551010019025109089
B1947513837509N11205152WA0257102552010019025113098
B1947523837506N11205148WA0257302553010019032138105
B1947533837492N11205139WA0257402554010019059169154
B1947543837483N11205139WA0257402554010019058185184
B1947553837474N11205141WA0257302554010019062192201
B1947563837469N11205145WA0257202554010019025243207
B1947573837469N11205149WA0257202555010019018261265
B1947583837470N11205153WA0257402555010019015281282
B1947593837471N11205156WA0257702556010019017281297
B1948003837472N11205161WA0258102557010019024287310
B1948013837474N11205166WA0258502558010019033298315
B1948023837476N11205172WA0258702559010019034309325
B1948033837480N11205177WA0259002559010019033317332
B1948053837489N11205182WA0259402562010019032013325
B1948063837494N11205181WA0259602565010019037018001
B1948073837501N11205180WA0259902567010019037022008
B1948083837505N11205177WA0259902569010019030036010
B1948093837510N11205174WA0260102572010019030054016
B1948103837513N11205169WA0260302572010019030049032
B1948113837515N11205162WA0260402573010019048089027
B1948123837514N11205154WA0260402573010019049106082
B1948133837511N11205145WA0260302573010019050129103
B1948143837506N11205139WA0260202573010019042143134
B1948153837500N11205135WA0260102573010019040171153
B1948163837494N11205134WA0259902573010019043185190
B1948173837488N11205134WA0259902574010019041185204
B1948183837482N11205136WA0259902575010019035200205
B1948193837478N11205139WA0260102576010019028205228
B1948203837474N11205141WA0260402577010019026208241
B1948213837471N11205143WA0260802579010019028206243
B1948223837467N11205147WA0261102580010019036218255
B1948233837463N11205152WA0261402581010019040233260
B1948243837459N11205159WA0261602582010019041243272
B1948253837458N11205166WA0261702583010019034261279
B1948263837458N11205172WA0261802584010019025282286
B1948273837459N11205177WA0261902586010019020314294
B1948283837460N11205180WA0262102588010019019312313
B1948293837462N11205184WA0262102589010019021316322
B1948303837465N11205187WA0262402591005010027328324
B1948313837470N11205189WA0262602593010019029355332
B1948323837474N11205188WA0262802594010019034011350
B1948333837479N11205187WA0263002595010019034015003
B1948343837483N11205183WA0263102596010019032074005
B1948353837483N11205177WA0263202597010019038094056
B1948363837482N11205169WA0263302598010019044110084
B1948373837480N11205162WA0263402598010019052120107
B1948383837476N11205154WA0263402599010019058132122
B1948393837470N11205146WA0263402600010019060139136
B1948403837463N11205138WA0263402601010019054153146
B1948413837456N11205133WA0263402603010019046165163
B1948423837449N11205131WA0263502606010019044172178
B1948433837443N11205129WA0263702609010019036178188
B1948443837438N11205129WA0264002612010019034190198
B1948453837433N11205131WA0264202616010019036206212
B1948463837428N11205135WA0264502618010019037222226
B1948473837425N11205141WA0264802620010019036236241
B1948483837423N11205146WA0264802623010019032263253
B1948493837423N11205152WA0265002625010019029266275
B1948503837423N11205157WA0265102626010019021287278
B1948513837425N11205160WA0265302629005010014313294
B1948523837428N11205162WA0265402632010019016014309
B1948533837432N11205161WA0265602634010019033034344
B1948543837437N11205157WA0265702636010019032038013
B1948553837439N11205151WA0265902638010019035080015
B1948563837439N11205144WA0266202640010019041100060
B1948573837438N11205136WA0266402641010019044100089
B1948583837437N11205127WA0266602643010019046103091
B1948593837435N11205117WA0266902645010019037132095
B1949003837431N11205112WA0267102646010019035150135
B1949013837424N11205109WA0267302647010019047196163
B1949023837418N11205112WA0267502649010019045201212
B1949033837413N11205114WA0267702651010019037212218
B1949043837408N11205118WA0267802653010019030229232
B1949053837405N11205122WA0268002655010019030249250
B1949063837403N11205128WA0268102657010019032257265
B1949073837403N11205133WA0268302659010019027265271
B1949093837403N11205138WA0268402660010019025296278
B1949103837405N11205142WA0268402662010019027326300
B1949113837408N11205144WA0268402663010019028344320
B1949123837411N11205146WA0268502665005010020346333
B1949133837414N11205147WA0268602668005010016353331
B1949143837416N11205148WA0268802671005010017003332
B1949153837420N11205148WA0269002675005010022019339
B1949163837423N11205146WA0269202677005010034029354
B1949173837428N11205142WA0269502680005010038066010
B1949183837429N11205134WA0269702682005010042087047
B1949193837428N11205126WA0269802685010019047108073
B1949203837425N11205117WA0269902687010019053123101
B1949213837420N11205108WA0270102688010019057134122
B1949223837415N11205101WA0270202690010019049143136
B1949233837409N11205096WA0270402692010019033159147
B1949243837405N11205095WA0270702694010019027182175
B1949253837401N11205096WA0270902696010019033210211
B1949263837396N11205100WA0271102697010019036221232
B1949273837392N11205105WA0271202699010019035234240
B1949283837390N11205111WA0271302701010019035246252
B1949293837388N11205117WA0271302702010019033261261
B1949303837388N11205123WA0271402704010019030268274
B1949313837388N11205128WA0271502705010019027291280
B1949323837390N11205133WA0271602707010019025305296
B1949333837392N11205137WA0271702708010019024324307
B1949343837395N11205139WA0271802710010019028342319
B1949353837400N11205140WA0272002711010019036357332
B1949363837405N11205139WA0272102713010019036029345
B1949373837409N11205134WA0272202715010019039062011
B1949383837411N11205127WA0272402717010019045085043
B1949393837410N11205119WA0272502719010019045109071
B1949403837407N11205111WA0272702721010019049128101
B1949413837402N11205104WA0272902723010019050139128
B1949423837396N11205097WA0273102725010019045149143
B1949433837390N11205093WA0273302726010019040163156
B1949443837384N11205090WA0273502728010019036175176
B1949453837378N11205091WA0273602729010019039198193
B1949463837366N11205100WA0273702732010019045218217
B1949483837361N11205105WA0273802734010019038219234
B1949493837357N11205110WA0273802736010019030229237
B1949503837355N11205114WA0273902737010019029251250
B1949513837354N11205120WA0274002738010019029264268
B1949523837354N11205126WA0274102739010019029290277
B1949533837356N11205131WA0274202740010019030291295
B1949543837357N11205136WA0274202741010019026297296
B1949553837360N11205140WA0274002742010019021325301
B1949563837363N11205141WA0273902743010019019356319
B1949573837367N11205137WA0273902743010019026045337
B1949583837368N11205129WA0273902742010019027093019
B1949593837367N11205119WA0274002741010019032114070
B1950003837365N11205112WA0274202741010019043123105
B1950013837361N11205104WA0274302741010019043125121
B1950023837356N11205097WA0274402741010019051139124
B1950033837350N11205090WA0274402741010019044161143
B1950043837342N11205085WA0274502741010019043195171
B1950053837335N11205086WA0274502741010019036208211
B1950063837325N11205091WA0274502741010019029222227
B1950083837321N11205100WA0274802741010019031260247
B1950093837320N11205106WA0274802741010019034265275
B1950103837320N11205113WA0274802741010019032276284
B1950113837322N11205119WA0274702741010019033293289
B1950133837329N11205129WA0274302740010019039326297
B1950153837334N11205133WA0273802740010019039325317
B1950163837338N11205137WA0273502740005010035316318
B1950173837342N11205141WA0273302739005010031311315
B1950183837345N11205145WA0273102738005010027310306
B1950193837350N11205152WA0272902737005010025313306
B1950203837352N11205155WA0272702736005010027310315
B1950223837355N11205159WA0272302735005010029307312
B1950233837357N11205164WA0272002733005010029300310
B1950243837359N11205168WA0272002731005010027296307
B1950253837363N11205178WA0271802727005010027298307
B1950273837367N11205187WA0271202723005010029300302
B1950283837369N11205192WA0271002721005010031299309
B1950293837371N11205197WA0270702718005010034299315
B1950303837374N11205203WA0270502716005010035304330
B1950313837377N11205208WA0270202713005010036309311
B1950323837380N11205213WA0269902711005010036310301
B1950333837384N11205218WA0269602708005010034306297
B1950343837386N11205224WA0269302705005010033300295
B1950353837389N11205229WA0269102703005010033296308
B1950363837391N11205235WA0268802700005010033299320
B1950373837393N11205240WA0268602698005010034305316
B1950383837397N11205245WA0268402696005010036313308
B1950393837400N11205250WA0268202693005010038314298
B1950403837404N11205255WA0267902690005010039310308
B1950413837408N11205261WA0267702688005010037307301
B1950423837411N11205266WA0267402686005010033305294
B1950433837413N11205271WA0267202684005010032306295
B1950443837416N11205276WA0267002682005010032303288
B1950453837419N11205281WA0267002679005010034301291
B1950463837421N11205287WA0266902677005010035296290
B1950473837423N11205293WA0266702674005010034290297
B1950483837425N11205299WA0266502672005010033288299
B1950493837426N11205305WA0266202669005010034291299
B1950503837428N11205312WA0265902667005010035294293
B1950513837430N11205318WA0265702664005010037293294
B1950523837432N11205324WA0265402662005010037289293
B1950533837434N11205331WA0265102659005010036285302
B1950543837435N11205338WA0264802656005010035287305
B1950553837437N11205344WA0264602654005010035292305
B1950563837440N11205350WA0264402652005010037298291
B1950573837442N11205356WA0264202649005010037301289
B1950583837445N11205362WA0263902647005010037300286
B1950593837448N11205369WA0263702644005010037297290
B1951003837450N11205375WA0263502641005010037294292
B1951013837453N11205381WA0263202639005010037292278
B1951023837455N11205388WA0263002636005010037290290
B1951033837456N11205395WA0262802633005010036288274
B1951043837458N11205401WA0262502631005010036284273
B1951053837459N11205408WA0262502628005010036278279
B1951063837459N11205415WA0262302626005010036274277
B1951073837460N11205421WA0262102623005010036272268
B1951083837460N11205428WA0261902621005010035273275
B1951093837460N11205435WA0261702618005010034272270
B1951103837460N11205442WA0261502616005010035271271
B1951113837460N11205448WA0261302614005010036268279
B1951123837460N11205455WA0261002611005010036265285
B1951133837459N11205462WA0260802609005010034266278
B1951143837459N11205469WA0260502607005010032271284
B1951153837460N11205475WA0260302604005010033276278
B1951163837460N11205481WA0260002602005010034274281
B1951173837460N11205488WA0259802600005010035272285
B1951183837461N11205495WA0259602598005010034271294
B1951193837461N11205501WA0259402596005010033275289
B1951203837462N11205507WA0259202594005010034280286
B1951213837463N11205514WA0259002592005010035284285
B1951223837464N11205520WA0258802590005010036283295
B1951243837465N11205527WA0258602587005010037283294
B1951263837468N11205540WA0258202583005010035283290
B1951273837469N11205547WA0258102582005010035284288
B1951283837470N11205553WA0258102580005010033286289
B1951293837472N11205559WA0257902579005010031292283
B1951303837474N11205564WA0257802578005010032294282
B1951313837476N11205570WA0257702577005010034291287
B1951323837477N11205576WA0257602575005010034287294
B1951333837479N11205582WA0257602574005010034285298
B1951343837480N11205588WA0257502573005010034288292
B1951353837482N11205595WA0257402572005010035291295
B1951363837484N11205601WA0257202570005010036290286
B1951373837486N11205608WA0257202569005010039286285
B1951383837487N11205615WA0257002568005010038278287
B1951393837488N11205621WA0256802567005010035278293
B1951403837489N11205628WA0256702566005010034284291
B1951413837490N11205634WA0256702565005010034284299
B1951423837492N11205641WA0256602564005010036289304
B1951433837494N11205647WA0256502563005010037291315
B1951443837496N11205653WA0256302562005010037297308
B1951453837499N11205659WA0256302561005010037306300
B1951463837503N11205665WA0256202560005010037312299
B1951473837506N11205670WA0256002558005010038311299
B1951483837510N11205675WA0255802557005010038307315
B1951493837513N11205681WA0255802556005010038304319
B1951503837516N11205687WA0255502554005010037306312
B1951513837520N11205692WA0255302553005010038309303
B1951523837523N11205698WA0255102552005010038309291
B1951533837527N11205703WA0255102550005010038304310
B1951543837530N11205709WA0254902548005010037300306
B1951553837533N11205715WA0254702547005010037300316
B1951563837536N11205721WA0254502545005010037305301
B1951573837543N11205732WA0254302542005010037312303
B1951583837547N11205737WA0254302540005010037309297
B1951593837550N11205743WA0254102538005010036304301
B1952013837555N11205754WA0253602535010019034299300
B1952023837558N11205760WA0253602533010019034299295
B1952033837560N11205766WA0253402531010019035298296
B1952043837563N11205772WA0253202529010019037295291
B1952053837565N11205778WA0252902528010019038291295
B1952063837567N11205785WA0252902526010019038288297
B1952073837569N11205792WA0252702524010019038286287
B1952083837570N11205799WA0252502523005010037286285
B1952093837572N11205806WA0252302521005010037285300
B1952103837573N11205813WA0252302519005010039281279
B1952113837575N11205821WA0252002518005010044281263
B1952123837575N11205829WA0251802516005010041272320
B1952133837575N11205837WA0251602515005010039264274
B1952143837575N11205844WA0251402514005010031264300
B1952153837575N11205849WA0251402513005010029276280
B1952163837575N11205855WA0251302513005010028269282
B1952173837575N11205860WA0251202512005010032280282
B1952183837576N11205867WA0251102511005010038279284
B1952193837577N11205874WA0251102510005010041276296
B1952203837578N11205882WA0250902509005010039272289
B1952213837578N11205889WA0250602508005010035272282
B1952223837578N11205896WA0250402507005010033273278
B1952233837579N11205902WA0250402506005010034275265
B1952243837579N11205909WA0250102505005010035269267
B1952253837579N11205916WA0249902504005010038260259
B1952263837577N11205923WA0249702502005010040250257
B1952273837575N11205930WA0249702501005010040245258
B1952283837572N11205937WA0249602499005010039239257
B1952293837569N11205943WA0249502498005010040239260
B1952303837566N11205950WA0249302497005010041240256
B1952313837563N11205957WA0249302495005010042241255
B1952323837560N11205965WA0249102494005010043240243
B1952333837557N11205972WA0249002493005010039242250
B1952343837555N11205978WA0248902492005010031240260
B1952353837553N11205983WA0248902490005010026243254
B1952363837551N11205987WA0248802489005010027244267
B1952373837549N11205992WA0248802488005010030257261
B1952383837548N11205998WA0248702486005010035258262
B1952393837547N11206005WA0248702485005010035257255
B1952403837546N11206011WA0248502484005010032256244
B1952413837545N11206017WA0248302483005010030254253
B1952423837544N11206023WA0248202481005010032249254
B1952433837541N11206029WA0248202480005010042247286
B1952443837539N11206037WA0248002478005010050243265
B1952453837535N11206046WA0247702477005010049242277
B1952463837532N11206054WA0247602476005010040245261
B1952473837530N11206060WA0247502476005010035247251
B1952483837528N11206066WA0247502475005010032245276
B1952493837526N11206072WA0247502474005010033253285
B1952503837525N11206078WA0247502473005010036262292
B1952513837525N11206085WA0247502472005010038270277
B1952523837526N11206092WA0247502471005010037278273
B1952533837526N11206099WA0247502470005010037279258
B1952543837527N11206106WA0247402469005010037271258
B1952563837527N11206113WA0247202468005010037263245
B1952573837526N11206120WA0247202467005010036254251
B1952583837524N11206126WA0247102466005010036246254
B1952593837522N11206132WA0246902465005010036241248
B1953003837519N11206139WA0246702464005010037241241
B1953013837516N11206145WA0246702462005010040238218
B1953023837513N11206152WA0246502461005010043236246
B1953033837509N11206158WA0246302460005010043235238
B1953043837506N11206165WA0246102458005010043234242
B1953053837502N11206172WA0246102456005010045236255
B1953063837498N11206180WA0245902455005010046236233
B1953073837494N11206187WA0245702453005010049234246
B1953083837490N11206195WA0245502452005010051233252
B1953093837486N11206202WA0245502451005010041231250
B1953103837482N11206208WA0245502451005010037229272
B1953113837479N11206213WA0245602451005010029242281
B1953123837478N11206218WA0245802451005010028255305
B1953133837478N11206223WA0245802451005010033273309
B1953143837478N11206230WA0246002451005010037281323
B1953153837481N11206236WA0246302451005010038305337
B1953163837486N11206241WA0246502451005010049337358
B1953173837493N11206243WA0246502452005010047358019
B1953183837501N11206243WA0246602452005010052356039
B1953193837508N11206244WA0246802452010019046351045
B1953203837512N11206241WA0246802453010019031091356
B1953213837509N11206229WA0246802452010019028134102
B1953223837505N11206226WA0246802452010019028152123
B1953233837501N11206226WA0246802452050095028210134
B1953243837498N11206229WA0246802452010019030238169
B1953253837496N11206236WA0246802452010019031274197
B1953263837495N11206244WA0246802451010019035291258
B1953273837497N11206252WA0247002451010019039307299
B1953283837502N11206258WA0247202450010019045326324
B1953293837508N11206260WA0247202450010019043011347
B1953303837514N11206260WA0247202450030057038013038
B1953313837517N11206257WA0247302449010019029082044
B1953323837517N11206252WA0247302449010019029089100
B1953333837517N11206246WA0247102448010019028088104
B1953343837516N11206240WA0247002447010019017123105
B1953353837512N11206237WA0246902447010019033189128
B1953363837507N11206238WA0246902446010019038222172
B1953373837502N11206243WA0246802446010019039243201
B1953383837499N11206250WA0246802446010019042257221
B1953393837498N11206258WA0246902446010019044270238
B1953403837498N11206267WA0246902445010019044283254
B1953413837499N11206275WA0247002446010019041296270
B1953423837501N11206283WA0247102446010019038309288
B1953433837504N11206289WA0247202446010019040320305
B1953443837509N11206294WA0247202446010019043331323
B1953453837515N11206298WA0247202446005010040346337
B1953463837520N11206298WA0247202446010019037009358
B1953473837525N11206296WA0247102445010019034039028
B1953483837529N11206292WA0247102444010019031050059
B1953493837529N11206286WA0246902443010019040105069
B1953503837527N11206278WA0246702442010019044111110
B1953513837524N11206271WA0246502441010019044126115
B1953523837518N11206265WA0246502440010019047149127
B1953533837512N11206264WA0246402439010019038181145
B1953543837506N11206267WA0246302438010019042211171
B1953563837501N11206272WA0246302438010019046218201
B1953573837496N11206278WA0246302438010019044221214
B1953583837491N11206283WA0246302438010019042223218
B1953593837486N11206289WA0246402438010019041221218
B1954003837481N11206294WA0246502438010019042216224
B1954013837475N11206298WA0246502438010019043210217
B1954023837469N11206302WA0246702438010019042208216
B1954033837463N11206307WA0246802438010019040213211
B1954043837458N11206311WA0247002439010019039221213
B1954053837454N11206316WA0247202439010019039226219
B1954063837449N11206322WA0247202439010019040223221
B1954073837444N11206327WA0247302440010019042218205
B1954083837439N11206333WA0247502441005010045209193
B1954093837432N11206337WA0247702443005010046197181
B1954103837426N11206339WA0247702445005010045182166
B1954113837419N11206339WA0247902447005010041164151
B1954123837415N11206335WA0248102449005010036135135
B1954133837412N11206330WA0248302451010019034102111
B1954143837413N11206324WA0248302452010019034063083
B1954153837416N11206320WA0248402453010019035032052
B1954163837421N11206318WA0248502454010019033005027
B1954173837426N11206320WA0248602456010019035337003
B1954183837430N11206324WA0248602457010019039308338
B1954193837433N11206331WA0248802458010019045285309
B1954203837434N11206340WA0248902459010019049264285
B1954213837431N11206349WA0249002460010019047239262
B1954223837427N11206355WA0249002461010019038218235
B1954233837422N11206356WA0249102462010019041159212
B1954243837416N11206352WA0249302464010019039130151
B1954253837414N11206346WA0249402465010019034100122
B1954263837414N11206340WA0249402466010019030068093
B1954273837417N11206335WA0249602467010019033028066
B1954283837421N11206334WA0249702468010019033359031
B1954293837426N11206335WA0249902469010019036328005
B1954303837430N11206341WA0249902471010019039301335
B1954313837432N11206349WA0250002473010019042281308
B1954323837432N11206357WA0250202475010019041265286
B1954333837431N11206364WA0250402477010019041250268
B1954343837427N11206372WA0250402479010019044231251
B1954353837423N11206377WA0250602481010019046214231
B1954363837416N11206381WA0250802483010019044203211
B1954373837411N11206383WA0251002486010019030181199
B1954383837407N11206381WA0251002488010019022143172
B1954393837406N11206378WA0251302491010019021103129
B1954403837406N11206373WA0251502493010019032082094
B1954413837407N11206367WA0251602495010019028080078
B1954423837409N11206362WA0251602497010019031046076
B1954433837417N11206358WA0251702500010019032351047
B1954443837422N11206360WA0251802502010019033333356
B1954453837427N11206364WA0251902504010019034321334
B1954463837430N11206369WA0251902506010019032309321
B1954473837433N11206374WA0252002507010019035296306
B1954483837435N11206381WA0252202508010019043280294
B1954493837435N11206390WA0252302509010019054258277
B1954503837432N11206400WA0252302510010019057245252
B1954513837428N11206410WA0252402510010019059243244
B1954523837424N11206418WA0252402511010019041231219
B1954533837420N11206423WA0252402512010019031225214
B1954543837417N11206426WA0252502514010019030204203
B1954553837412N11206428WA0252502514010019035185183
B1954563837406N11206427WA0252602515010019042170165
B1954573837401N11206424WA0252702515010019041145147
B1954583837397N11206419WA0252902516010019035114125
B1954593837396N11206412WA0252902517010019033082097
B1955003837398N11206406WA0253002518010019034054071
B1955013837402N11206401WA0253002518010019034028048
B1955023837407N11206400WA0252902519010019037359027
B1955033837413N11206402WA0252902519010019042329002
B1955043837418N11206407WA0252902520010019044307334
B1955053837421N11206415WA0253002521010019044282312
B1955063837421N11206423WA0253002522010019045260286
B1955073837419N11206431WA0253002523010019046244262
B1955083837415N11206438WA0253002523010019047213244
B1955093837409N11206441WA0253102525010019043188208
B1955103837402N11206440WA0253102526010019038160180
B1955113837398N11206437WA0253102527010019034141149
B1955123837395N11206431WA0253202527010019037095130
B1955133837396N11206424WA0253202527010019038068089
B1955143837400N11206417WA0253202527010019038044066
B1955153837404N11206413WA0253202528010019037023046
B1955163837410N11206411WA0253202528010019035006027
B1955173837415N11206411WA0253202528010019035356008
B1955183837420N11206412WA0253202529010019034349358
B1955193837425N11206413WA0253202530010019032339354
B1955203837430N11206416WA0253202530010019036329338
B1955213837435N11206420WA0253202530010019039320330
B1955223837439N11206426WA0253302529010019043310310
B1955233837443N11206433WA0253302528010019046298293
B1955243837445N11206441WA0253302528010019045284284
B1955253837446N11206449WA0253302527010019040271263
B1955263837446N11206457WA0253202526010019036261253
B1955273837444N11206463WA0253202526010019034250248
B1955283837442N11206469WA0253102525010019036236236
B1955293837438N11206475WA0253002524010019039225228
B1955303837434N11206479WA0252902524010019036216206
B1955313837430N11206483WA0252802523010019032207194
B1955323837425N11206485WA0252802522010019030198207
B1955333837421N11206486WA0252702521010019030188196
B1955343837416N11206487WA0252602520010019033184203
B1955353837411N11206488WA0252402518010019037191211
B1955363837405N11206490WA0252402517010019039205214
B1955373837401N11206494WA0252302516010019039218225
B1955383837396N11206499WA0252202515010019040229232
B1955393837393N11206505WA0252002514010019039236238
B1955403837390N11206512WA0252002512010019039243243
B1955413837388N11206519WA0251902511010019040253252
B1955423837387N11206526WA0251802510010019041259259
B1955433837386N11206534WA0251802509010019043267267
B1955443837386N11206543WA0251802508010019043274274
B1955453837387N11206551WA0251702507010019042282284
B1955463837389N11206558WA0251702506010019040288294
B1955473837391N11206565WA0251702505010019039292299
B1955483837394N11206572WA0251702504010019036295295
B1955493837396N11206578WA0251802503010019035295308
B1955503837399N11206584WA0251802502010019039295299
B1955513837402N11206591WA0251802500010019044296305
B1955523837405N11206599WA0251802499010019045297312
B1955533837408N11206606WA0251802498010019043299303
B1955543837411N11206613WA0251702497010019040299302
B1955553837414N11206620WA0251702497010019039296303
B1955563837416N11206627WA0251702496010019041292296
B1955573837419N11206634WA0251602495010019041287293
B1955583837420N11206642WA0251602495010019039283305
B1955593837422N11206649WA0251602495010019037285307
B1956003837423N11206655WA0251602494010019035288290
B1956013837425N11206662WA0251602494010019036286300
B1956023837427N11206669WA0251602494010019039283292
B1956033837428N11206676WA0251502493010019042281297
B1956043837429N11206684WA0251502493010019044281294
B1956053837430N11206692WA0251402492010019043283285
B1956063837432N11206700WA0251302492010019042284276
B1956073837433N11206708WA0251102491010019043282278
B1956083837434N11206716WA0251102490010019043277278
B1956093837435N11206724WA0250902490010019044274294
B1956103837436N11206733WA0250702489010019044276306
B1956113837437N11206741WA0250402488010019043282298
B1956123837439N11206749WA0250402487010019043286296
B1956133837440N11206757WA0250202486010019044285284
B1956143837442N11206765WA0249902484010019044283288
B1956153837443N11206773WA0249602483010019042279289
B1956163837444N11206781WA0249602481010019041280285
B1956173837446N11206789WA0249302480010019041280278
B1956183837447N11206796WA0249102478010019042279280
B1956193837448N11206805WA0248802476010019044276262
B1956203837448N11206813WA0248802474010019043273267
B1956213837448N11206821WA0248502472010019041266268
B1956223837448N11206828WA0248202470010019034263260
B1956233837447N11206834WA0248002469010019033264276
B1956243837447N11206841WA0248002467010019034264265
B1956253837446N11206848WA0247702465010019038262273
B1956263837445N11206855WA0247502463010019040260284
B1956273837444N11206863WA0247202461010019042263273
B1956283837444N11206871WA0247202459010019041269284
B1956293837444N11206878WA0246902457010019038274279
B1956303837444N11206886WA0246602455010019038275271
B1956313837445N11206893WA0246402453010019039273275
B1956323837445N11206901WA0246402451010019041269282
B1956333837445N11206909WA0246102449010019041268291
B1956343837445N11206916WA0245902446010019041272268
B1956353837445N11206924WA0245602444010019041274259
B1956363837445N11206932WA0245602441010019039271259
B1956373837445N11206939WA0245402439010019040266263
B1956383837445N11206947WA0245002436010019041263287
B1956393837444N11206955WA0244602434010019042266273
B1956403837444N11206963WA0244602431010019041271268
B1956413837444N11206970WA0244202428010019040271269
B1956423837444N11206978WA0243802426010019041268273
B1956433837444N11206986WA0243402423010019042266284
B1956443837443N11206994WA0243402420010019044266286
B1956453837443N11207003WA0243002417010019043270286
B1956463837443N11207011WA0242602414010019041276286
B1956473837444N11207018WA0242202411010019040277289
B1956483837445N11207026WA0242202409010019038280289
B1956493837446N11207033WA0241902406010019041288299
B1956503837449N11207040WA0241502403010019042289284
B1956513837451N11207048WA0241202400010019041290287
B1956523837453N11207055WA0241202397010019039289279
B1956533837455N11207062WA0240902394010019037286272
B1956543837456N11207068WA0240602391010019035282274
B1956553837457N11207075WA0240302389010019036281272
B1956563837458N11207082WA0240302386010019039277278
B1956573837459N11207089WA0240002383010019041274266
B1956583837459N11207097WA0239702380010019042269279
B1956593837459N11207105WA0239402378010019040266262
B1957003837459N11207113WA0239102375010019037266263
B1957013837459N11207119WA0239102373010019033267244
B1957023837458N11207126WA0238902370010019032265241
B1957033837457N11207132WA0238702367010019032256240
B1957043837456N11207138WA0238502365010019036245237
B1957053837453N11207144WA0238502362010019037243238
B1957063837450N11207151WA0238202359010019036238239
B1957073837447N11207156WA0238002356010019035231242
B1957083837444N11207161WA0237702354010019032233237
B1957093837440N11207165WA0237702351010019031235241
B1957103837438N11207170WA0237502349010019033238238
B1957113837435N11207176WA0237202346010019036237236
B1957123837432N11207182WA0236902343010019037234234
B1957133837428N11207187WA0236902341010019036230232
B1957143837425N11207192WA0236602338010019034228233
B1957153837421N11207197WA0236402336010019034226230
B1957163837417N11207202WA0236102333010019036228229
B1957173837414N11207207WA0236102330010019038229237
B1957183837410N11207213WA0235802328010019039229246
B1957193837406N11207218WA0235502325010019039231234
B1957203837403N11207224WA0235202322010019037234229
B1957223837400N11207230WA0235202320010019036235225
B1957233837396N11207236WA0234802317010019036233219
B1957243837393N11207241WA0234502314010019037228222
B1957253837389N11207246WA0234202312010019041224218
B1957263837384N11207252WA0234202309010019042221210
B1957273837379N11207257WA0233902307010019040220209
B1957283837375N11207261WA0233602304010019038218207
B1957293837370N11207266WA0233302302010019036216209
B1957303837366N11207270WA0233302300010019035216210
B1957313837362N11207274WA0233102297010019036217211
B1957323837357N11207278WA0232802295010019038215206
B1957333837353N11207282WA0232602293010019038214205
B1957343837348N11207286WA0232602290010019040211205
B1957353837343N11207290WA0232302288010019036209202
B1957363837338N11207293WA0232002286010019033209208
B1957373837334N11207296WA0231702283010019034209214
B1957383837329N11207300WA0231702281010019035211231
B1957393837325N11207303WA0231502279010019036215236
B1957403837321N11207307WA0231202277010019037219231
B1957413837316N11207312WA0231002275010019038224238
B1957423837312N11207317WA0231002272010019038226238
B1957433837309N11207323WA0230702270010019038225232
B1957443837305N11207328WA0230502268010019039225239
B1957453837301N11207333WA0230202266010019039226221
B1957463837296N11207339WA0230202263010019039225214
B1957473837292N11207344WA0229902261010019037221210
B1957483837288N11207348WA0229702259010019036215202
B1957493837284N11207351WA0229402257010019035209201
B1957503837279N11207355WA0229402255010019036206190
B1957513837274N11207357WA0229102253010019036203184
B1957523837269N11207360WA0228902251010019037197175
B1957533837264N11207362WA0228702249010019037190188
B1957543837258N11207363WA0228702247010019037185198
B1957553837253N11207363WA0228402245010019037187201
B1957563837247N11207365WA0228202243010019038192195
B1957573837241N11207366WA0228002241010019039196190
B1957583837236N11207368WA0228002240010019039194172
B1957593837230N11207370WA0227802238010019037185183
B1958003837225N11207370WA0227602237010019036176168
B1958013837220N11207369WA0227402235010019032171176
B1958023837215N11207368WA0227402234010019029172177
B1958033837211N11207368WA0227202233010019030173163
B1958043837207N11207367WA0227102232010019029171161
B1958053837202N11207365WA0226902230010019035162167
B1958063837197N11207363WA0226902229010019037157168
B1958073837192N11207360WA0226702227010019035157159
B1958083837187N11207358WA0226402225010019034157165
B1958093837183N11207355WA0226102224010019032154161
B1958103837178N11207353WA0226102223010019032152171
B1958113837174N11207350WA0225902221010019030158173
B1958123837170N11207348WA0225602219010019030166171
B1958133837165N11207347WA0225302217010019031170174
B1958143837161N11207346WA0225302215010019032170181
B1958153837156N11207345WA0225002213010019033171188
B1958163837150N11207344WA0224702210005010035176204
B1958173837145N11207344WA0224402208005010037183206
B1958183837139N11207345WA0224402205005010039191201
B1958193837134N11207347WA0224002203005010041197209
B1958203837128N11207350WA0223702200005010043205203
B1958213837122N11207354WA0223302198005010046210218
B1958223837116N11207359WA0223302195005010048213220
B1958233837110N11207364WA0223002193005010045216218
B1958243837105N11207370WA0222702191010019042220225
B1958253837101N11207375WA0222502189010019038224222
B1958263837097N11207380WA0222502187010019038225231
B1958273837093N11207386WA0222402185010019040225226
B1958283837088N11207391WA0222202183010019043223231
B1958293837084N11207397WA0222202181010019043222246
B1958303837079N11207402WA0222202180010019038221240
B1958313837076N11207406WA0222102178010019030221231
B1958323837072N11207410WA0222102176010019026221226
B1958333837070N11207413WA0222102174010019024225231
B1958343837067N11207416WA0222102172010019029226218
B1958353837063N11207421WA0222102170010019044223216
B1958363837058N11207427WA0222102169010019045221203
B1958373837053N11207432WA0222002167010019041216185
B1958383837048N11207437WA0222002166010019037207180
B1958393837043N11207440WA0222002166010019035193176
B1958403837038N11207441WA0221902166010019037179163
B1958413837032N11207440WA0221802166010019040166157
B1958423837027N11207438WA0221802166010019038151141
B1958433837022N11207434WA0221802166010019034134133
B1958443837020N11207429WA0221802167010019026115119
B1958453837018N11207425WA0221902168010019024102103
B1958463837018N11207420WA0221902169005010026076097
B1958473837019N11207415WA0222002170005010031079085
B1958483837020N11207409WA0222002170005010036087094
B1958493837020N11207402WA0222002171005010037090100
B1958503837020N11207395WA0222002171005010036091112
B1958513837020N11207389WA0222002172010019032090110
B1958523837020N11207383WA0222002172010019031096109
B1958533837019N11207377WA0221902172010019032104106
B1958543837018N11207371WA0221902173010019031104115
B1958553837017N11207366WA0221702173010019031110116
B1958563837014N11207360WA0221702173010019036127118
B1958573837011N11207355WA0221602173010019031131129
B1958583837008N11207351WA0221602174010019028136130
B1958593837005N11207348WA0221502174010019027142132
B1959003837002N11207345WA0221402174010019030147142
B1959013836998N11207342WA0221402174010019033149143
B1959023836993N11207339WA0221402175010019037149154
B1959033836989N11207335WA0221302176010019036149144
B1959043836984N11207332WA0221302177010019033148146
B1959053836980N11207329WA0221302178010019034151138
B1959063836976N11207326WA0221302179010019035151125
B1959073836971N11207322WA0221302179010019035139108
B1959083836968N11207317WA0221402180010019035116101
B1959093836967N11207311WA0221502181010019037092089
B1959103836968N11207304WA0221502181010019041073074
B1959113836970N11207296WA0221502182010019042061056
B1959123836974N11207290WA0221502182005010041050040
B1959133836978N11207285WA0221502182005010041036033
B1959143836984N11207281WA0221502182005010044022027
B1959153836990N11207279WA0221502182010019047009013
B1959163836997N11207279WA0221302182010019046356004
B1959173837004N11207281WA0221202182010019041340354
B1959183837009N11207284WA0221002183010019038323338
B1959193837013N11207289WA0221002183010019037307321
B1959203837016N11207296WA0220902183010019037293299
B1959213837018N11207303WA0220802183010019038285285
B1959223837019N11207310WA0220802183010019038275265
B1959233837018N11207317WA0220802182010019038261254
B1959243837016N11207324WA0220702182005010038244223
B1959253837013N11207331WA0220602182005010039233214
B1959263837009N11207336WA0220402181005010036217204
B1959273837005N11207339WA0220402181005010035199187
B1959283836999N11207340WA0220302180005010036181179
B1959293836994N11207339WA0220202180005010035166166
B1959303836989N11207337WA0220202180005010035149153
B1959313836985N11207332WA0220202180005010037131143
B1959323836981N11207326WA0220202179005010040119126
B1959333836979N11207319WA0220202180005010042108119
B1959343836977N11207311WA0220202180005010039100107
B1959353836977N11207304WA0220202180005010037090098
B1959363836977N11207297WA0220202180005010034084099
B1959373836977N11207291WA0220302181005010032082093
B1959383836978N11207285WA0220402181005010033079085
B1959393836979N11207278WA0220402181005010035076075
B1959403836981N11207272WA0220402180005010037072059
B1959413836983N11207265WA0220402180005010040068065
B1959423836985N11207258WA0220402180005010039064050
B1959433836988N11207252WA0220402180005010038055035
B1959443836992N11207246WA0220302180005010037045030
B1959453836996N11207242WA0220202179005010039032019
B1959463837002N11207239WA0220102179005010042014009
B1959473837008N11207238WA0220102178005010044356002
B1959483837014N11207240WA0219902177005010041341343
B1959493837019N11207243WA0219802176005010039327335
B1959503837024N11207248WA0219602176005010038318317
B1959513837028N11207253WA0219602175005010038312312
B1959523837031N11207259WA0219402174005010041305294
B1959533837035N11207266WA0219202172005010043300272
B1959543837038N11207274WA0219002171005010046289265
B1959553837039N11207283WA0219002170005010044276257
B1959563837039N11207291WA0218802168005010043268248
B1959573837037N11207298WA0218602167005010040229247
B1959583837032N11207304WA0218302166005010039217209
B1959593837027N11207307WA0218302164005010036206202
B2000003837022N11207310WA0218102163005010033195195
B2000013837017N11207311WA0218002162005010035180183
B2000023837011N11207310WA0217802160010019038170171
B2000033837005N11207308WA0217802158010019040163162
B2000043836999N11207305WA0217702157010019039154157
B2000053836994N11207301WA0217502156010019035144146
B2000063836990N11207297WA0217402154010019032137140
B2000073836987N11207293WA0217402153010019032135132
B2000083836983N11207288WA0217302152010019036133134
B2000093836979N11207282WA0217202151010019042129126
B2000103836975N11207275WA0217202150010019044125143
B2000113836972N11207268WA0217202149010019039117149
B2000123836970N11207262WA0217102148010019032114140
B2000133836967N11207257WA0217002147010019026121130
B2000143836965N11207253WA0217002146010019026123138
B2000153836962N11207248WA0217002145010019032133131
B2000163836959N11207244WA0216902144010019037133153
B2000173836955N11207239WA0216802143010019036132154
B2000183836951N11207234WA0216602141010019034135162
B2000193836948N11207230WA0216602140010019031139149
B2000203836944N11207227WA0216502139010019030143159
B2000213836940N11207224WA0216402138010019031145146
B2000223836936N11207220WA0216302136010019031142158
B2000233836932N11207217WA0216302135010019032141149
B2000243836928N11207213WA0216202133010019035142153
B2000253836924N11207209WA0216102132010019036142157
B2000263836920N11207204WA0215902130010019037140141
B2000273836915N11207200WA0215902129010019038141143
B2000283836911N11207196WA0215702128010019038143123
B2000293836906N11207191WA0215602126010019035140112
B2000303836903N11207187WA0215502125010019032130106
B2000313836900N11207182WA0215502125010019034115105
B2000323836898N11207175WA0215402123005010039104094
B2000333836897N11207168WA0215402123005010040092083
B2000343836898N11207160WA0215302122005010039077076
B2000353836900N11207154WA0215302121005010038059067
B2000363836903N11207148WA0215302121005010040042056
B2000373836908N11207143WA0215302120005010039033036
B2000383836913N11207140WA0215302120005010037024027
B2000393836918N11207138WA0215302120010019036010019
B2000403836924N11207138WA0215302119010019034353006
B2000413836929N11207140WA0215302119010019036336351
B2000423836933N11207144WA0215302119010019039319333
B2000433836937N11207150WA0215302118010019040306314
B2000443836940N11207156WA0215202118010019038289301
B2000453836941N11207163WA0215102117010019036269283
B2000463836940N11207170WA0215102117010019035250260
B2000473836937N11207176WA0215102117005010035235242
B2000483836934N11207181WA0215002116005010035218226
B2000493836929N11207184WA0214902116005010035198210
B2000503836923N11207184WA0214702115005010039175192
B2000513836918N11207182WA0214702115005010038157171
B2000523836913N11207179WA0214602115005010037145154
B2000533836909N11207174WA0214502114005010036136139
B2000543836905N11207169WA0214302113005010038125130
B2000553836902N11207162WA0214302113005010044115122
B2000563836900N11207153WA0214202112005010048107114
B2000573836898N11207145WA0214002112005010047099104
B2000583836897N11207136WA0214002112005010041094099
B2000593836897N11207129WA0214002112005010035085091
B2001003836898N11207122WA0214002113005010032079079
B2001013836899N11207116WA0214002113005010031077073
B2001023836900N11207110WA0214102113005010035074063
B2001033836902N11207104WA0214102112005010039068047
B2001043836904N11207097WA0214202112005010036063045
B2001053836907N11207092WA0214202112005010031037050
B2001063836911N11207090WA0214202111005010032015030
B2001073836916N11207089WA0214202111005010035005015
B2001083836922N11207088WA0214002111005010036001004
B2001093836927N11207089WA0213902110005010039350020
B2001103836933N11207091WA0213702109005010039349007
B2001113836939N11207092WA0213702109005010040354000
B2001123836945N11207092WA0213602108005010041002357
B2001133836951N11207091WA0213402107005010037011004
B2001143836956N11207090WA0213202107005010037005011
B2001153836962N11207090WA0213202106005010037358025
B2001163836967N11207090WA0213102104005010036358012
B2001173836972N11207090WA0213002103005010036002005
B2001183836977N11207089WA0212802102005010036003003
B2001193836983N11207089WA0212802101005010037359017
B2001203836988N11207089WA0212702100005010037355013
B2001213836994N11207090WA0212602099005010037355018
B2001223836999N11207090WA0212502098005010036355008
B2001233837005N11207091WA0212502097005010035354015
B2001243837010N11207091WA0212402096005010033355356
B2001253837014N11207092WA0212302095005010031352000
B2001263837019N11207093WA0212102094005010031348357
B2001273837023N11207095WA0212102092005010031344344
B2001283837028N11207096WA0212002090005010032341350
B2001293837032N11207099WA0211802088005010034336358
B2001303837037N11207102WA0211502086005010035330007
B2001313837041N11207105WA0211502084005010036328355
B2001323837046N11207109WA0211302083005010035328357
B2001333837050N11207112WA0211002081005010034334347
B2001343837055N11207114WA0210802079005010031343342
B2001353837059N11207116WA0210802077010019032347354
B2001363837069N11207118WA0210602073010019032353359
B2001373837073N11207118WA0210302071010019033354001
B2001383837078N11207118WA0210102069010019031359009
B2001393837083N11207118WA0210102067010019031005015
B2001403837087N11207117WA0209902065010019032009011
B2001413837092N11207116WA0209702063010019034009013
B2001423837097N11207115WA0209502061010019034009014
B2001433837102N11207114WA0209502059010019033008019
B2001443837107N11207113WA0209202057010019032007025
B2001453837111N11207112WA0209002055010019030003025
B2001463837115N11207112WA0208802053010019026356016
B2001473837119N11207113WA0208802052010019026352013
B2001483837123N11207114WA0208602050010019027350011
B2001493837127N11207115WA0208402048010019031351357
B2001503837132N11207116WA0208202046010019034344006
B2001513837136N11207118WA0208002044010019032336008
B2001523837141N11207121WA0208002041010019032335012
B2001533837145N11207123WA0207702039010019033344014
B2001543837150N11207123WA0207402037010019034008025
B2001553837155N11207122WA0207102035010019035011032
B2001563837159N11207119WA0207102032010019031048025
B2001573837162N11207115WA0206802030010019029052045
B2001583837164N11207110WA0206502027010019030051049
B2001593837167N11207105WA0206302025010019032050047
B2002003837170N11207100WA0206302022010019033054053
B2002013837173N11207094WA0206002020010019033061043
B2002023837175N11207088WA0205802017010019032065060
B2002033837177N11207083WA0205602015010019032063053
B2002043837179N11207077WA0205602012010019033061067
B2002053837181N11207071WA0205302010010019035061060
B2002063837184N11207065WA0205102007010019036063081
B2002073837186N11207058WA0204802005010019037067082
B2002083837188N11207052WA0204802002010019037071078
B2002093837189N11207045WA0204502000010019036072088
B2002103837191N11207038WA0204201997010019035072071
B2002113837192N11207032WA0203901995010019032075097
B2002123837194N11207026WA0203901993010019027069104
B2002133837195N11207022WA0203601990010019026072106
B2002143837196N11207017WA0203301988010019026079100
B2002153837196N11207012WA0203101986010019027090106
B2002163837196N11207007WA0203101984005010028100111
B2002173837194N11207001WA0202901982005010030115120
B2002183837192N11206996WA0202701979010019031126137
B2002193837188N11206991WA0202501977010019032137143
B2002203837184N11206987WA0202501975010019034148161
B2002213837179N11206983WA0202301974005010034152153
B2002223837174N11206979WA0202101973005010034154147
B2002233837169N11206975WA0201801971005010033153153
B2002243837164N11206972WA0201801969005010034150139
B2002253837160N11206969WA0201601967005010035148132
B2002263837155N11206965WA0201401965005010037143119
B2002273837151N11206960WA0201101963005010037133124
B2002283837147N11206955WA0201101961005010035122120
B2002293837145N11206949WA0200901960005010033112109
B2002303837143N11206943WA0200701958005010031103103
B2002313837142N11206937WA0200401956005010031096095
B2002323837142N11206931WA0200401954005010031088085
B2002333837142N11206926WA0200101952005010031084079
B2002343837142N11206920WA0199801950005010032083070
B2002353837143N11206913WA0199401947005010034074063
B2002363837145N11206907WA0199401945005010034065067
B2002373837147N11206901WA0199001942005010033065063
B2002383837149N11206896WA0198601940005010031061063
B2002393837151N11206891WA0198201938005010029057064
B2002403837153N11206886WA0198201935005010030054057
B2002413837156N11206881WA0197801933005010031053057
B2002423837159N11206876WA0197401930005010033050053
B2002433837162N11206872WA0197101928005010032047044
B2002443837165N11206868WA0197101925005010029041039
B2002453837169N11206864WA0196701923005010027034049
B2002463837172N11206862WA0196401920005010026030059
B2002473837176N11206859WA0196101918005010028030046
B2002483837179N11206856WA0196101915005010030033037
B2002493837183N11206853WA0195701913005010032036022
B2002503837187N11206849WA0195401910005010031037031
B2002513837191N11206846WA0195001907005010030025031
B2002523837195N11206844WA0195001904005010030018030
B2002533837199N11206842WA0194601902005010030014022
B2002543837204N11206841WA0194201899005010030007001
B2002553837209N11206841WA0193801896005010031354343
B2002563837214N11206843WA0193801893005010034341345
B2002573837219N11206846WA0193501890005010037333350
B2002583837224N11206849WA0193101886005010039331348
B2002593837229N11206853WA0192701883005010038331327
B2003003837233N11206857WA0192701880005010034324322
B2003013837237N11206861WA0192401877005010033322326
B2003023837241N11206865WA0192001873005010032311326
B2003033837244N11206870WA0191601870005010037313324
B2003043837248N11206875WA0191601866005010037315328
B2003053837252N11206881WA0191201862005010041313341
B2003063837256N11206886WA0190801860005010038317330
B2003073837260N11206891WA0190401857005010034326330
B2003083837265N11206894WA0190401855005010032333316
B2003093837269N11206897WA0190001852005010033331316
B2003103837274N11206900WA0189701850005010034327325
B2003113837278N11206905WA0189401847005010039323334
B2003123837283N11206909WA0189401845005010038323326
B2003133837288N11206914WA0189201843005010035325320
B2003143837292N11206918WA0188901840005010032319307
B2003153837296N11206922WA0188701838005010032310306
B2003163837299N11206928WA0188701836005010035301316
B2003173837302N11206934WA0188401834005010038298327
B2003183837304N11206940WA0188201832005010039297325
B2003193837307N11206947WA0187901830005010039299314
B2003203837310N11206953WA0187901828005010037304309
B2003213837313N11206959WA0187701826005010036308300
B2003223837317N11206965WA0187401824005010038305304
B2003233837320N11206971WA0187101822005010041299300
B2003243837323N11206978WA0187101819005010041297318
B2003253837326N11206984WA0186801817005010037302302
B2003263837329N11206990WA0186501815005010033306285
B2003273837331N11206995WA0186201813005010032297271
B2003283837333N11207001WA0186201811005010035284278
B2003293837334N11207008WA0186001808005010040275277
B2003303837334N11207016WA0185601805005010041275289
B2003313837334N11207024WA0185301803005010040273275
B2003323837335N11207031WA0185301801005010036277267
B2003333837335N11207038WA0185001798005010033276256
B2003343837335N11207044WA0184601796005010033269262
B2003353837335N11207050WA0184301794005010037259264
B2003363837334N11207057WA0184301791005010038259255
B2003373837332N11207064WA0183901789005010038245256
B2003383837329N11207070WA0183601786005010036241240
B2003393837326N11207076WA0183301784005010035238247
B2003403837323N11207082WA0183301782005010036237244
B2003413837320N11207088WA0183101780005010039236249
B2003423837316N11207094WA0182901778005010040235251
B2003433837312N11207100WA0182701777005010040234230
B2003443837309N11207106WA0182701775005010041228202
B2003453837304N11207112WA0182601774005010043213184
B2003463837298N11207115WA0182501772005010045194163
B2003473837291N11207116WA0182401771005010046171152
B2003483837284N11207113WA0182401770005010049150135
B2003493837279N11207107WA0182401770005010044133122
B2003503837275N11207101WA0182301770005010036122108
B2003513837272N11207095WA0182301770005010035113104
B2003523837271N11207089WA0182301770005010030091102
B2003533837271N11207084WA0182301770005010033087078
B2003543837272N11207077WA0182301770005010034085082
B2003553837272N11207071WA0182301769005010036089078
B2003563837272N11207064WA0182301768005010036091073
B2003573837272N11207057WA0182301768005010035088073
B2003583837273N11207050WA0182101767005010033083077
B2003593837273N11207044WA0181901766005010032080082
B2004003837274N11207038WA0181901766005010033080073
B2004013837275N11207032WA0181601765005010034083073
B2004023837275N11207025WA0181301763005010034084078
B2004033837276N11207019WA0181101762005010034084087
B2004043837276N11207012WA0181101761005010033086096
B2004053837276N11207006WA0180801760005010032087090
B2004063837276N11206999WA0180601759005010031089086
B2004073837276N11206993WA0180301757005010032089088
B2004083837276N11206987WA0180301756005010032089088
B2004093837276N11206981WA0180101755005010033089089
B2004103837276N11206975WA0179801753005010030090092
B2004113837275N11206969WA0179501752005010029094091
B2004123837275N11206964WA0179301750005010028094090
B2004133837275N11206958WA0179301749005010028095099
B2004143837274N11206953WA0179101747005010028098124
B2004153837273N11206948WA0178801746005010029106123
B2004163837271N11206943WA0178801744005010032119107
B2004173837269N11206938WA0178601742005010030121137
B2004183837266N11206934WA0178401740005010026125128
B2004193837264N11206930WA0178101738005010022129143
B2004203837262N11206928WA0178101736005010020143146
B2004213837259N11206927WA0177801734005010027169161
B2004223837255N11206926WA0177501732005010031176189
B2004233837251N11206928WA0177201730005010035215199
B2004243837247N11206933WA0177201728005010036233223
B2004253837244N11206940WA0176801725005010037238244
B2004263837242N11206946WA0176501723005010038238255
B2004273837239N11206953WA0176101720005010038241255
B2004283837237N11206960WA0176101718005010039247261
B2004293837234N11206967WA0175801716005010039245259
B2004303837232N11206974WA0175501714005010039240242
B2004313837229N11206980WA0175201712005010035232257
B2004323837225N11206985WA0175201709005010033222239
B2004333837221N11206989WA0175001707005010033211232
B2004343837217N11206992WA0174901705005010032201195
B2004353837212N11206993WA0174801703005010032185175
B2004363837207N11206993WA0174801700005010036163159
B2004373837202N11206989WA0174601697005010041142139
B2004383837197N11206983WA0174401694005010045126119
B2004393837193N11206976WA0174101691005010044123117
B2004403837190N11206969WA0174101689005010041126125
B2004413837186N11206963WA0173801686005010039140138
B2004423837180N11206959WA0173401683005010039154147
B2004433837175N11206956WA0173101680005010040160155
B2004443837169N11206954WA0173101677005010039161167
B2004453837164N11206952WA0172901675005010037166176
B2004463837158N11206951WA0172701672005010033176192
B2004473837154N11206951WA0172601670005010031183193
B2004483837149N11206951WA0172501667005010031183190
B2004493837144N11206951WA0172501665005010027181171
B2004503837141N11206951WA0172401662005010022179213
B2004513837138N11206951WA0172301660005010012166192
B2004523837137N11206951WA0172301658005010009170215
B2004533837136N11206951WA0172301656005010008172234
B2004543837135N11206951WA0172301654005010005162240
B2004553837134N11206951WA0172301652005010004164249
B2004563837133N11206951WA0172301650005010004170252
B2004573837133N11206951WA0172301648005010003173254
B2004583837133N11206951WA0172301646005010003179255
B2004593837134N11206952WA0172301645005010002192255
B2005003837134N11206952WA0172301645005010002249257
B2005013837134N11206952WA0172301645005010002260257
B2005023837134N11206952WA0172301645005010001283257
B2005033837134N11206952WA0172301645005010001301257
B2005043837134N11206952WA0172301645005010001270257
B2005053837134N11206952WA0172301645005010001277257
B2005063837134N11206952WA0172301645005010002276257
B2005073837134N11206952WA0172301645005010002286257
B2005083837134N11206952WA0172301645005010001278257
B2005093837134N11206952WA0172301645005010001227257
B2005103837134N11206952WA0172301645005010001172257
B2005113837134N11206952WA0172301645005010000000257
B2005123837134N11206952WA0172301645005010000000257
B2005133837134N11206952WA0172301645005010001188257
B2005143837134N11206952WA0172301645005010001173257
B2005153837134N11206952WA0172301645005010001165257
B2005163837134N11206952WA0172301645005010002140257
B2005173837134N11206952WA0172301645005010002141257
B2005183837134N11206952WA0172301645005010002146257
B2005193837134N11206952WA0172301645005010002156257
B2005203837134N11206952WA0172301645005010001173257
B2005213837134N11206952WA0172301645005010002207257
B2005223837134N11206952WA0172401645005010002189257
B2005233837134N11206952WA0172401645005010002186257
B2005243837134N11206952WA0172401645005010002199257
B2005253837134N11206952WA0172401645005010002196257
B2005263837134N11206952WA0172401645005010002196257
B2005273837134N11206952WA0172301645005010001213257
GSufZw33VlYvyOtXSWnhtJKyMj+tgHOw9n8z3WIMSM2YVYYqR5EJTer+wOpyXYzb3
GDXuB54NwuxUwE3wl9gmLaGGUsYz4N+o/wYKtC8dqOQU0fgjOfdoYi2qwvLV9jjxl
GBIR9TmMx1oHNkRXlPoUrlc+wxU3HL9LxpcqHWtlhSeM=

