AXFH000
HFDTE010826
HFPLTPILOT:Scott O’Brien
HFGTYGLIDERTYPE:Ozone Swift 6
HFDTM100GPSDATUM:WGS84
HFRFWFIRMWAREVERSION:9.7
HFRHWHARDWAREVERSION:iPhone 15
HFFTYFRTYPE:Flyskyhy,9.7
HFGPS:Internal
HFPRSVARIO:Internal Vario
HFCCLCOMPETITIONCLASS:Paraglider
HFTZNTIMEZONE:-7
HFSITSITE:Mission Ridge (Fremont- San Jose),US
I053638FXA3941VXA4244GSP4547CCO4850HDT
B1933533731050N12153511WA0058200583005010001357030
B1933543731050N12153511WA0058300583005010001054041
B1933553731051N12153511WA0058300583005010000000027
B1933563731051N12153511WA0058300583005010002244041
B1933573731051N12153511WA0058300583005010002062034
B1933583731051N12153511WA0058300583005010002041018
B1933593731051N12153511WA0058300584005010000000023
B1934003731051N12153511WA0058300583005010001065016
B1934013731051N12153511WA0058300583005010000000012
B1934023731051N12153511WA0058300583005010001007013
B1934033731051N12153511WA0058300583005010001035027
B1934043731051N12153511WA0058300583005010002017356
B1934053731051N12153511WA0058300583005010000000030
B1934063731052N12153511WA0058300583005010001217013
B1934073731052N12153511WA0058300583005010001340012
B1934083731052N12153511WA0058300583005010000000026
B1934093731052N12153511WA0058300583005010001216353
B1934103731051N12153511WA0058300583005010004220024
B1934113731051N12153511WA0058300583005010001200047
B1934123731051N12153511WA0058300583005010002005058
B1934143731051N12153511WA0058300583005010000000058
B1934153731051N12153511WA0058300583005010001246314
B1934163731051N12153511WA0058300583005010003266216
B1934173731051N12153512WA0058300583005010004226215
B1934183731050N12153513WA0058300583005010009205030
B1934203731048N12153514WA0058300583005010011193256
B1934213731046N12153514WA0058200583005010014201287
B1934223731044N12153516WA0058200583005010016203239
B1934243731039N12153519WA0058200583005010018206160
B1934253731037N12153520WA0058200583005010018212206
B1934263731035N12153522WA0058100583005010016218210
B1934273731033N12153524WA0058100583005010015210214
B1934283731031N12153525WA0058100583005010018204208
B1934293731028N12153526WA0058200583005010021204204
B1934303731025N12153528WA0058300583005010020211202
B1934313731023N12153531WA0058300583005010020230208
B1934323731022N12153534WA0058300583005010019252224
B1934333731022N12153538WA0058300583005010023282244
B1934343731023N12153542WA0058300582005010029296269
B1934353731026N12153547WA0058200582005010030312274
B1934363731030N12153550WA0058200583005010030326304
B1934373731034N12153553WA0058100582005010033333319
B1934383731039N12153556WA0058000581005010035333325
B1934393731044N12153559WA0058000581005010035329320
B1934403731048N12153563WA0057900580005010036325317
B1934413731053N12153567WA0057800579005010036324314
B1934423731057N12153571WA0057600578005010036324308
B1934433731062N12153575WA0057500577005010036326304
B1934443731066N12153579WA0057400577005010036320303
B1934453731070N12153583WA0057400576005010034315302
B1934463731074N12153588WA0057300575005010030316299
B1934473731077N12153592WA0057300574005010029316302
B1934483731080N12153596WA0057300574005010031315299
B1934493731083N12153600WA0057200573005010034309308
B1934503731086N12153605WA0057200572005010033306304
B1934513731089N12153610WA0057200572005010028307307
B1934523731092N12153613WA0057200571005010025320304
B1934533731095N12153616WA0057100571005010026323304
B1934543731098N12153619WA0057100570005010029317304
B1934553731101N12153623WA0057000570005010031313320
B1934563731104N12153628WA0057000569005010035316300
B1934573731108N12153632WA0057000569005010036319299
B1934583731113N12153636WA0057000569005010034327316
B1934593731117N12153639WA0057000568005010030327303
B1935003731120N12153642WA0057000568005010029325313
B1935013731124N12153646WA0057000567005010030322313
B1935023731128N12153649WA0056900566005010032321324
B1935033731131N12153653WA0056800565005010033324319
B1935043731136N12153656WA0056700565005010034330325
B1935053731140N12153659WA0056500564005010035337321
B1935063731145N12153661WA0056400563005010034339317
B1935073731150N12153664WA0056300563005010034338318
B1935083731155N12153666WA0056300562005010035335320
B1935093731159N12153669WA0056200561005010036333319
B1935103731165N12153672WA0056100560005010038336299
B1935113731170N12153674WA0056100559005010039340312
B1935123731175N12153677WA0056000559005010035341308
B1935133731184N12153680WA0056000558005010030338307
B1935143731189N12153683WA0056000557005010036329304
B1935153731193N12153687WA0055900556005010036323304
B1935163731197N12153691WA0055900556005010029307306
B1935173731199N12153695WA0056000556005010025303298
B1935183731201N12153699WA0056000557005010023310295
B1935193731203N12153702WA0056100557005010025320305
B1935203731206N12153705WA0056300558005010028332308
B1935213731210N12153707WA0056500558005010031342310
B1935223731215N12153708WA0056600559005010033343299
B1935233731219N12153711WA0056800560005010030321290
B1935243731221N12153715WA0057000562005010027288274
B1935253731221N12153720WA0057200563005010029247254
B1935263731218N12153724WA0057400564005010031217228
B1935273731215N12153728WA0057600565005010028218200
B1935283731211N12153730WA0057800566005010025201197
B1935293731208N12153729WA0058000566005010020130184
B1935303731207N12153725WA0058000567005010024106133
B1935313731206N12153719WA0058200567005010038091109
B1935323731208N12153710WA0058300567005010050068091
B1935333731212N12153701WA0058400568005010049050065
B1935343731218N12153695WA0058500568010019046027046
B1935353731224N12153692WA0058500568005010046009022
B1935363731231N12153692WA0058600569005010046342001
B1935373731237N12153694WA0058700569005010036341332
B1935383731241N12153699WA0058900570005010036318329
B1935393731242N12153704WA0059100570005010017268305
B1935403731241N12153707WA0059300570010019010285247
B1935413731241N12153709WA0059400570010019011277240
B1935423731240N12153712WA0059600570010019018259235
B1935433731238N12153715WA0059700571005010019240233
B1935443731235N12153717WA0059700571005010019203218
B1935453731232N12153717WA0059700571005010022172197
B1935463731228N12153715WA0059600572005010026145177
B1935473731225N12153711WA0059600573005010030124156
B1935483731222N12153706WA0059400574005010033112139
B1935493731221N12153701WA0059400574005010032104139
B1935503731220N12153695WA0059400575005010028110145
B1935513731218N12153690WA0059400575005010028124154
B1935523731215N12153686WA0059500575005010029139162
B1935533731211N12153683WA0059500575005010030149171
B1935543731207N12153680WA0059500576005010029152178
B1935553731204N12153679WA0059600576005010021174181
B1935563731201N12153679WA0059600576005010019184197
B1935573731198N12153680WA0059700576005010020205203
B1935583731195N12153683WA0059700576005010021228215
B1935593731194N12153686WA0059700577005010025245229
B1936003731193N12153692WA0059600577005010031266241
B1936013731193N12153698WA0059500577005010036295257
B1936023731197N12153704WA0059400577005010037315281
B1936033731201N12153708WA0059300577005010037335299
B1936043731207N12153711WA0059300577005010038342319
B1936053731213N12153711WA0059200577005010048013327
B1936063731220N12153707WA0059200578005010046022009
B1936073731225N12153701WA0059200578010019044066021
B1936083731226N12153693WA0059200578010019043088080
B1936093731226N12153684WA0059200578010019040096105
B1936103731225N12153677WA0059300578010019039100115
B1936113731222N12153671WA0059400578010019031147120
B1936123731217N12153668WA0059400577010019032155169
B1936133731212N12153665WA0059400577010019030162173
B1936143731208N12153663WA0059400577010019028163182
B1936153731203N12153661WA0059300577010019028163178
B1936163731199N12153659WA0059200577005010031165187
B1936173731194N12153657WA0059200576005010032166182
B1936183731189N12153656WA0059100576005010032165180
B1936193731184N12153654WA0059100577005010029159182
B1936203731180N12153652WA0059100577005010026158189
B1936213731176N12153650WA0059100577005010026155189
B1936223731172N12153648WA0059100577005010028157210
B1936233731169N12153646WA0059200577005010024172214
B1936243731166N12153646WA0059200578005010018199225
B1936253731164N12153649WA0059400578005010018239232
B1936263731163N12153653WA0059500579005010022268240
B1936273731163N12153657WA0059600579005010023272243
B1936283731164N12153661WA0059700579005010022270235
B1936293731163N12153666WA0059700579005010021250230
B1936303731161N12153670WA0059600579005010025238220
B1936313731159N12153674WA0059400580005010030203211
B1936323731154N12153675WA0059200580005010033181195
B1936333731149N12153674WA0059100580005010033164179
B1936343731145N12153671WA0058900580005010030149171
B1936353731141N12153669WA0058700580005010029152177
B1936363731137N12153666WA0058600581005010030149169
B1936373731133N12153663WA0058600581005010029148178
B1936383731130N12153660WA0058500581005010029151173
B1936393731126N12153657WA0058400581005010032153173
B1936403731121N12153655WA0058300581005010038157176
B1936413731115N12153652WA0058300581005010040156182
B1936423731110N12153649WA0058200581005010038153189
B1936433731105N12153646WA0058200581005010031156177
B1936443731101N12153644WA0058200581005010031156178
B1936453731097N12153641WA0058200581005010032153167
B1936463731093N12153639WA0058200581005010032151176
B1936473731088N12153636WA0058200581005010034155162
B1936483731084N12153634WA0058200581005010033159179
B1936493731079N12153631WA0058200580005010031160168
B1936503731075N12153629WA0058100580005010029158173
B1936513731071N12153627WA0058000580005010029158170
B1936523731067N12153625WA0057900579005010030157178
B1936533731062N12153623WA0057800579005010033155172
B1936543731058N12153620WA0057700578005010035155178
B1936553731053N12153618WA0057600577005010035160172
B1936563731048N12153616WA0057400576005010035162170
B1936573731043N12153614WA0057300575005010035160173
B1936583731038N12153612WA0057300575005010037159172
B1936593731033N12153609WA0057200574005010039160159
B1937003731027N12153607WA0057100573005010037154156
B1937013731023N12153603WA0057000573005010033143139
B1937023731019N12153600WA0057000573005010028137146
B1937033731016N12153596WA0057000573005010026139148
B1937043731013N12153593WA0057100573005010028142152
B1937053731010N12153590WA0057100573005010031148138
B1937063731006N12153586WA0057100573005010032143150
B1937073731003N12153583WA0057100572005010028140158
B1937083730999N12153580WA0057000572005010026146164
B1937093730996N12153577WA0056900572005010026147165
B1937103730992N12153575WA0056700571005010029155173
B1937113730988N12153573WA0056600571005010031156176
B1937123730984N12153570WA0056400570005010033158183
B1937133730979N12153568WA0056100570005010035163181
B1937143730975N12153567WA0055900570005010032165186
B1937153730970N12153565WA0055900569005010029166192
B1937163730966N12153564WA0055700569005010028167184
B1937173730962N12153563WA0055600568005010031168192
B1937183730957N12153562WA0055400567005010034168192
B1937193730952N12153561WA0055300567005010033170190
B1937203730947N12153560WA0055200566005010032167188
B1937213730943N12153559WA0055100565005010031168186
B1937223730939N12153558WA0055000564005010028169187
B1937233730935N12153557WA0054900564005010027168197
B1937243730931N12153556WA0054800563005010029169207
B1937253730926N12153555WA0054800562005010036172201
B1937263730920N12153554WA0054700561005010036175205
B1937273730915N12153555WA0054500560005010039188193
B1937283730909N12153556WA0054400560005010036187204
B1937293730904N12153557WA0054400559005010030184206
B1937303730900N12153557WA0054200559005010026176200
B1937313730896N12153556WA0054200558005010024168194
B1937323730893N12153556WA0054100557005010024170201
B1937333730889N12153555WA0054100556005010031174195
B1937353730884N12153555WA0054100556005010035184212
B1937363730879N12153556WA0054000555005010034190205
B1937373730874N12153557WA0053900554005010031194212
B1937383730870N12153559WA0053700553005010030190200
B1937393730865N12153560WA0053700553005010030182220
B1937403730861N12153560WA0053500552005010029175221
B1937413730857N12153559WA0053300551005010026174215
B1937423730853N12153559WA0053200550005010026183214
B1937433730849N12153560WA0053200550005010027197206
B1937443730845N12153562WA0053200549005010031204222
B1937453730841N12153565WA0053100548005010030201216
B1937463730837N12153566WA0053000547005010026199225
B1937473730833N12153568WA0053000547005010025197219
B1937483730829N12153569WA0052900546005010026199216
B1937493730826N12153571WA0052700545005010027205200
B1937503730821N12153574WA0052500543005010037204218
B1937513730816N12153577WA0052500542005010040196219
B1937523730810N12153579WA0052300541005010036194236
B1937533730806N12153581WA0052100540005010030201224
B1937543730802N12153583WA0052000539005010028210224
B1937553730798N12153587WA0052000538005010032223222
B1937563730794N12153592WA0051900536005010034222229
B1937573730791N12153596WA0051800534005010033219222
B1937583730787N12153600WA0051700533005010026214225
B1937593730784N12153603WA0051700532005010026215225
B1938003730781N12153605WA0051600531005010026215218
B1938013730778N12153608WA0051400529005010029212219
B1938023730774N12153612WA0051100527005010039210219
B1938033730769N12153615WA0051100525005010037207228
B1938043730764N12153619WA0050800523005010035206225
B1938053730760N12153621WA0050600520005010031207235
B1938063730756N12153624WA0050300519005010031208220
B1938073730752N12153627WA0050300518005010033208217
B1938083730747N12153630WA0050100515005010038205216
B1938093730742N12153633WA0049900512005010041201215
B1938103730736N12153636WA0049600510005010042200233
B1938113730730N12153639WA0049600507005010041202225
B1938123730724N12153642WA0049400505005010039207217
B1938133730720N12153646WA0049100503005010037213207
B1938143730715N12153650WA0048800501005010035212207
B1938153730711N12153653WA0048800498005010035203213
B1938163730706N12153655WA0048600496005010036200218
B1938173730701N12153658WA0048300494005010036202213
B1938183730696N12153661WA0048300492005010036205204
B1938193730692N12153663WA0048100489005010035204208
B1938203730687N12153666WA0047900487005010034201208
B1938213730682N12153668WA0047700485005010035193208
B1938223730677N12153669WA0047700483005010035193207
B1938233730672N12153671WA0047500481005010034194212
B1938243730668N12153673WA0047300479005010034195202
B1938253730663N12153674WA0047200478005010032195209
B1938263730659N12153676WA0047200477005010028196203
B1938273730655N12153677WA0047100476005010028201213
B1938283730651N12153679WA0047000475005010029200209
B1938293730647N12153681WA0046900474005010034197211
B1938303730642N12153683WA0046900473005010035197224
B1938313730637N12153685WA0046900472005010034201231
B1938323730632N12153687WA0046900471005010031205247
B1938333730629N12153690WA0047000470005010028213253
B1938343730625N12153694WA0047000470005010031221249
B1938353730622N12153698WA0047000469005010029239250
B1938363730621N12153703WA0047000468005010032259252
B1938373730620N12153709WA0047000467005010033264267
B1938383730620N12153715WA0047000466005010032266268
B1938393730620N12153721WA0046900465005010030271268
B1938403730620N12153727WA0046800463005010028278271
B1938413730622N12153732WA0046600463005010029280264
B1938423730622N12153737WA0046600462005010029276251
B1938433730622N12153743WA0046400461005010029262238
B1938443730621N12153748WA0046300460005010028247229
B1938453730619N12153753WA0046200459005010030225218
B1938463730615N12153756WA0046200458005010032209205
B1938473730611N12153759WA0046100457005010034196200
B1938483730605N12153760WA0046000455005010036184191
B1938493730600N12153760WA0045900454005010036175187
B1938503730595N12153759WA0045700452005010036168178
B1938513730590N12153757WA0045700451005010036164175
B1938523730584N12153755WA0045500449005010037164176
B1938533730579N12153753WA0045200447005010041168175
B1938543730573N12153752WA0045000445005010042169173
B1938553730561N12153749WA0045000441005010037167172
B1938573730555N12153748WA0044400439005010036168172
B1938583730550N12153746WA0044200437005010036169169
B1938593730545N12153745WA0044200435005010040172172
B1939003730532N12153742WA0044000431005010042165158
B1939013730527N12153740WA0043700429005010035163184
B1939023730522N12153739WA0043600427005010032163177
B1939033730517N12153737WA0043600426005010032162173
B1939053730508N12153732WA0043200423005010035157177
B1939063730503N12153730WA0043100422005010034162185
B1939073730498N12153728WA0043100420005010035163164
B1939083730493N12153726WA0043000419005010036163177
B1939093730488N12153724WA0042900418005010036161178
B1939103730483N12153722WA0042900417005010033160184
B1939113730478N12153721WA0042900416005010026165205
B1939123730475N12153719WA0042900416005010024166208
B1939133730471N12153719WA0042900415005010024167195
B1939153730464N12153717WA0043000414005010031167190
B1939163730459N12153715WA0043100413005010035166190
B1939173730454N12153714WA0043200412005010037168172
B1939183730448N12153712WA0043300412005010035162189
B1939193730444N12153710WA0043300411005010031157188
B1939203730439N12153708WA0043300411005010029162204
B1939213730435N12153707WA0043400411005010027179222
B1939223730431N12153708WA0043500411005010030201243
B1939233730427N12153712WA0043500410005010032228253
B1939243730424N12153717WA0043600410005010034231269
B1939253730424N12153722WA0043700410005010033291273
B1939273730426N12153728WA0043800410005010028305304
B1939283730432N12153731WA0043800411010019030023309
B1939293730437N12153728WA0043800411010019036034014
B1939303730441N12153724WA0043800412010019038039036
B1939313730445N12153719WA0043800412010019037060043
B1939323730448N12153713WA0043800412010019033062069
B1939333730449N12153707WA0043800412010019037088072
B1939343730448N12153700WA0043800412010019036108102
B1939353730445N12153694WA0043800411010019042122124
B1939363730440N12153689WA0043800411005010040150136
B1939373730435N12153686WA0043700412010019037152164
B1939383730430N12153683WA0043700412010019032163166
B1939393730426N12153683WA0043700412010019023202178
B1939403730423N12153684WA0043800412010019023211215
B1939413730420N12153688WA0043900413010019025223223
B1939423730417N12153691WA0044200413010019027233232
B1939433730415N12153696WA0044200413010019026263240
B1939443730415N12153702WA0044400413010019028285264
B1939453730417N12153707WA0044600414010019029290283
B1939463730419N12153711WA0044700414005010019327287
B1939473730422N12153712WA0044700415005010024339314
B1939483730425N12153712WA0044700415010019020012328
B1939493730429N12153707WA0044700416010019029061355
B1939503730431N12153700WA0044600416010019033103054
B1939513730429N12153693WA0044600416010019034128104
B1939523730425N12153688WA0044600417010019034143136
B1939533730421N12153683WA0044600418010019033149156
B1939543730418N12153679WA0044700419010019030148167
B1939553730414N12153676WA0044700420010019028147169
B1939563730411N12153673WA0044800421010019027155166
B1939573730407N12153670WA0045000422010019025163175
B1939583730404N12153668WA0045200423010019024175185
B1939593730400N12153667WA0045200424005010023196196
B1940003730397N12153669WA0045400425005010023218215
B1940013730394N12153672WA0045600426005010026227233
B1940023730392N12153675WA0045700427005010026257241
B1940033730392N12153680WA0045700428005010025273265
B1940043730392N12153684WA0045800428005010021298279
B1940053730394N12153687WA0045800429005010023328299
B1940063730397N12153687WA0045700430005010028017323
B1940073730402N12153684WA0045700431005010046027007
B1940083730408N12153679WA0045700432005010046033022
B1940093730413N12153674WA0045600433005010041052028
B1940103730416N12153667WA0045600433010019041081046
B1940113730416N12153659WA0045600434010019043088082
B1940123730416N12153651WA0045600435010019041100090
B1940133730414N12153644WA0045600435010019038115104
B1940143730411N12153637WA0045700436010019039121124
B1940153730408N12153631WA0045700438005010039120134
B1940163730404N12153625WA0045800439005010035139134
B1940173730400N12153621WA0045900440005010032161155
B1940183730396N12153620WA0046100442005010029184180
B1940193730392N12153621WA0046100443005010030214202
B1940203730388N12153625WA0046300444005010031233228
B1940213730386N12153630WA0046500445005010028259243
B1940223730385N12153634WA0046600446005010025268264
B1940233730385N12153639WA0046600447005010019270271
B1940243730385N12153641WA0046800448005010009264272
B1940253730385N12153642WA0046900449005010004234268
B1940263730385N12153642WA0047100450010019008087258
B1940273730385N12153638WA0047100451010019029073133
B1940283730388N12153631WA0047200451010019041057071
B1940293730392N12153623WA0047200452010019041061055
B1940303730395N12153616WA0047300453010019042067060
B1940313730397N12153609WA0047300453010019044068067
B1940323730400N12153601WA0047400453010019034083068
B1940333730400N12153595WA0047600453010019023099085
B1940343730398N12153592WA0047800453010019019145109
B1940353730394N12153590WA0047800453010019022173171
B1940363730390N12153590WA0048000453010019024191194
B1940373730386N12153592WA0048200454010019026212208
B1940383730382N12153595WA0048200454010019026217224
B1940393730380N12153599WA0048400454010019023235228
B1940403730378N12153603WA0048600454010019021265242
B1940413730378N12153607WA0048700454010019015290264
B1940423730379N12153609WA0048800454010019008286280
B1940433730379N12153610WA0048800454010019006343273
B1940443730381N12153610WA0048800454005010015008294
B1940453730384N12153609WA0048800454005010020023335
B1940463730388N12153605WA0048800454010019031052358
B1940473730391N12153600WA0048800453010019025059042
B1940483730393N12153595WA0048800453010019018069048
B1940493730393N12153592WA0048900453010019015107057
B1940503730391N12153588WA0048900453010019022136132
B1940513730388N12153585WA0049200453010019026141158
B1940523730384N12153580WA0049400454010019023154159
B1940533730381N12153578WA0049700454005010017169176
B1940543730378N12153577WA0049900454005010017179195
B1940553730375N12153576WA0049900453005010016204204
B1940563730373N12153577WA0050100453005010019219223
B1940573730370N12153578WA0050300453005010021234232
B1940583730368N12153581WA0050400453005010022247242
B1940593730367N12153585WA0050400453005010019261251
B1941003730365N12153588WA0050400453005010019272262
B1941013730365N12153591WA0050400453005010010271269
B1941023730364N12153592WA0050400453005010003261267
B1941033730364N12153592WA0050400453005010006135267
B1941043730363N12153590WA0050300453005010011096218
B1941053730363N12153586WA0050100453005010016091128
B1941063730364N12153581WA0050100454005010031074106
B1941073730365N12153575WA0050100454005010028083081
B1941083730367N12153570WA0050100454005010030096093
B1941093730368N12153564WA0050200454005010025131107
B1941103730366N12153560WA0050200454005010028137154
B1941113730365N12153556WA0050400455005010030144166
B1941123730362N12153552WA0050700455005010030146172
B1941133730363N12153549WA0051000455005010028150174
B1941143730361N12153547WA0051000455005010024157180
B1941153730358N12153546WA0051200455005010024170186
B1941163730356N12153545WA0051300455005010023179196
B1941173730354N12153545WA0051400455005010020192204
B1941183730352N12153546WA0051400455005010020209216
B1941193730350N12153547WA0051500456005010017214228
B1941203730349N12153549WA0051500456005010015255234
B1941213730350N12153552WA0051600457005010009302261
B1941223730351N12153554WA0051600457005010012312286
B1941233730353N12153556WA0051700458005010009335295
B1941243730354N12153556WA0051700459005010008015303
B1941253730355N12153555WA0051600459005010008022319
B1941263730358N12153552WA0051600460005010008045325
B1941273730361N12153549WA0051400461010019014065330
B1941283730363N12153544WA0051200461010019018064048
B1941293730366N12153540WA0051100461010019014073052
B1941303730369N12153537WA0051100461010019015110063
B1941313730370N12153533WA0051100462010019018135133
B1941323730369N12153531WA0051100462010019024149162
B1941333730366N12153528WA0051200462010019028153175
B1941343730362N12153526WA0051200462010019031155173
B1941353730358N12153523WA0051300462010019034158186
B1941363730354N12153520WA0051500463010019034162184
B1941373730350N12153516WA0051600463010019032166195
B1941383730346N12153514WA0051600463005010029172199
B1941393730341N12153513WA0051700463005010028182205
B1941403730337N12153513WA0051800463005010027191217
B1941413730334N12153513WA0052000463005010025197224
B1941423730330N12153514WA0052000463005010021200228
B1941433730328N12153515WA0052100464005010017212234
B1941443730326N12153516WA0052200464005010014220244
B1941453730324N12153516WA0052300465005010013187250
B1941463730322N12153516WA0052300466005010013173209
B1941473730320N12153516WA0052500467005010014163200
B1941483730321N12153513WA0052600467010019016150192
B1941493730322N12153510WA0052700468010019021140178
B1941503730322N12153505WA0052700468010019031119159
B1941513730320N12153499WA0052700468010019029126137
B1941523730318N12153494WA0052800468010019033133144
B1941533730318N12153490WA0052800469010019030134149
B1941543730316N12153486WA0052800469010019029134151
B1941553730314N12153481WA0052800469010019026141150
B1941563730311N12153477WA0052900470010019023160160
B1941573730308N12153475WA0052900470010019023187181
B1941583730305N12153474WA0052900471010019024201211
B1941593730304N12153475WA0053000472010019025209225
B1942003730302N12153476WA0053000472010019024212234
B1942013730300N12153478WA0052900472010019023225236
B1942023730299N12153480WA0052900472010019023234247
B1942033730297N12153483WA0052900472010019025248254
B1942043730297N12153487WA0052800473010019026258263
B1942053730297N12153490WA0052800473010019024272270
B1942063730297N12153494WA0052800473010019022282281
B1942073730299N12153497WA0052700473010019017296288
B1942083730300N12153499WA0052600474005010012313296
B1942093730302N12153499WA0052500475005010008007304
B1942103730302N12153499WA0052500476005010011051327
B1942113730303N12153497WA0052500476005010020077014
B1942123730305N12153491WA0052500477005010029071067
B1942133730306N12153486WA0052500477005010029072073
B1942143730311N12153480WA0052500477005010031069077
B1942153730317N12153473WA0052600478005010035070074
B1942163730319N12153466WA0052700478005010037071081
B1942173730321N12153459WA0052800478005010033075081
B1942183730321N12153453WA0052800478005010026103087
B1942193730320N12153448WA0052900478005010026127114
B1942203730317N12153444WA0053000478005010023149143
B1942213730315N12153442WA0053000479005010024160169
B1942223730313N12153440WA0053000479005010021171179
B1942233730312N12153438WA0053000480005010021180193
B1942243730312N12153437WA0053000481005010021186203
B1942253730311N12153437WA0053000482005010023187197
B1942263730310N12153436WA0053000484005010027185196
B1942273730307N12153434WA0053000484005010031173173
B1942283730303N12153433WA0053000485005010034170185
B1942293730298N12153431WA0053100485005010035170163
B1942303730293N12153429WA0053100487005010034167171
B1942313730288N12153427WA0053100488005010033159160
B1942323730283N12153424WA0053100490005010033150145
B1942333730279N12153422WA0053200493005010035146139
B1942343730275N12153417WA0053200495005010039139129
B1942353730271N12153411WA0053300496005010043130111
B1942363730267N12153404WA0053400496005010044124106
B1942373730264N12153398WA0053400498005010040116105
B1942383730262N12153391WA0053400499005010038111102
B1942393730261N12153384WA0053400501005010042106092
B1942403730260N12153376WA0053400501005010043108086
B1942413730258N12153368WA0053400502005010048102082
B1942423730258N12153359WA0053400502005010046091083
B1942433730258N12153351WA0053300502005010044084073
B1942443730259N12153343WA0053200504005010040082069
B1942453730260N12153336WA0053100505005010035083067
B1942463730261N12153330WA0053100506005010031084067
B1942473730261N12153324WA0053100506005010030083070
B1942483730262N12153319WA0053200507005010033085080
B1942493730262N12153312WA0053400508005010035086081
B1942503730263N12153305WA0053500509005010041090078
B1942513730262N12153297WA0053500509005010042095078
B1942523730262N12153290WA0053600511005010038097064
B1942533730261N12153283WA0053800512005010033092052
B1942543730261N12153277WA0053800513005010034082048
B1942553730263N12153271WA0053900515005010037061040
B1942563730266N12153265WA0054000516005010041038030
B1942573730271N12153262WA0054100518005010040023007
B1942583730276N12153259WA0054100519005010032013355
B1942593730280N12153258WA0054200521005010024000345
B1943003730284N12153259WA0054300522005010020335333
B1943013730286N12153262WA0054400524005010024299310
B1943023730287N12153267WA0054400525005010027291282
B1943033730288N12153272WA0054400527005010028264274
B1943043730286N12153277WA0054400528005010034227257
B1943053730281N12153280WA0054400528005010037204230
B1943063730276N12153283WA0054400528005010037193213
B1943073730269N12153284WA0054300528005010037194205
B1943083730264N12153286WA0054200528005010036196205
B1943093730258N12153287WA0054000528005010036197200
B1943103730253N12153289WA0054000528005010037193194
B1943113730248N12153291WA0053900528005010038192194
B1943123730242N12153292WA0053800528005010039186189
B1943133730236N12153292WA0053800528005010039182189
B1943143730230N12153293WA0053800529005010038179202
B1943153730224N12153292WA0053800529005010038179200
B1943163730219N12153292WA0053800530005010038179202
B1943173730213N12153292WA0053900530005010037182194
B1943183730208N12153293WA0053900530005010036182191
B1943193730202N12153293WA0054000530005010037182189
B1943203730196N12153293WA0054000530005010039179175
B1943213730191N12153293WA0054000530005010040176199
B1943223730185N12153292WA0054000530005010036175206
B1943233730180N12153292WA0054000530005010031186218
B1943243730176N12153293WA0053900530005010030194226
B1943253730171N12153296WA0053900530005010033213234
B1943263730167N12153300WA0053900530005010036218258
B1943273730163N12153304WA0053800530005010034224261
B1943283730160N12153309WA0053700530005010031230265
B1943293730158N12153313WA0053600530005010026249259
B1943303730157N12153318WA0053600529005010026257269
B1943313730156N12153323WA0053500529005010028260274
B1943323730156N12153328WA0053300528005010028267277
B1943333730156N12153333WA0053200527005010023273278
B1943343730157N12153337WA0053200526005010020281276
B1943353730158N12153341WA0053000525005010023292275
B1943363730160N12153345WA0052800525005010026295294
B1943373730162N12153349WA0052600524005010022290285
B1943383730163N12153353WA0052600525005010019290303
B1943393730164N12153356WA0052600524005010015290307
B1943403730165N12153358WA0052600524005010013291304
B1943413730165N12153360WA0052700524005010014290285
B1943423730167N12153363WA0052700523005010021295293
B1943433730168N12153368WA0052800523005010029298280
B1943443730170N12153372WA0052800522005010029295286
B1943453730172N12153377WA0052800522005010024288270
B1943463730173N12153381WA0052800521005010021279308
B1943473730173N12153385WA0052700521005010020273284
B1943483730173N12153389WA0052600520005010024267296
B1943493730173N12153394WA0052500519005010025267264
B1943503730173N12153398WA0052500518005010024272285
B1943513730173N12153403WA0052300518005010025269268
B1943523730173N12153408WA0052200517005010023263266
B1943533730172N12153412WA0052000516005010023259273
B1943543730172N12153416WA0052000515005010024265270
B1943553730171N12153421WA0051800514005010027265270
B1943563730171N12153427WA0051500513005010031270266
B1943573730171N12153432WA0051300512005010030263302
B1943583730171N12153438WA0051300511005010025268308
B1943593730171N12153442WA0051000510005010022274310
B1944003730172N12153446WA0050800509005010022306309
B1944013730175N12153449WA0050600508005010026322314
B1944023730178N12153452WA0050600507005010029334319
B1944033730183N12153453WA0050400505005010029335319
B1944043730187N12153455WA0050200504005010028335317
B1944053730191N12153457WA0050000502005010027331316
B1944063730194N12153459WA0050000501005010028326318
B1944073730198N12153462WA0049800500005010030325314
B1944083730202N12153465WA0049700498005010031326315
B1944093730205N12153468WA0049500497005010030327308
B1944103730209N12153470WA0049500496005010027324311
B1944113730212N12153473WA0049400495005010026321316
B1944123730215N12153476WA0049300494005010026320316
B1944133730218N12153479WA0049100492005010027320322
B1944143730221N12153482WA0049100491005010028322314
B1944153730225N12153486WA0049000490005010028322316
B1944163730228N12153489WA0048800489005010028320323
B1944173730231N12153492WA0048700487005010028322318
B1944183730234N12153495WA0048700486005010029326320
B1944193730238N12153498WA0048500485005010030328311
B1944203730242N12153501WA0048400484005010031325316
B1944213730246N12153505WA0048300483005010032325321
B1944223730250N12153508WA0048300482005010028326320
B1944233730253N12153510WA0048200481005010023330319
B1944243730256N12153512WA0048100480005010021332309
B1944253730258N12153514WA0048100479005010021326316
B1944263730261N12153517WA0048100478005010022323294
B1944273730263N12153519WA0048000477005010024322297
B1944283730266N12153522WA0048000476005010024320303
B1944293730268N12153526WA0047800474005010024318286
B1944303730271N12153529WA0047800473005010028316311
B1944313730274N12153533WA0047600471005010031299284
B1944323730276N12153538WA0047200469005010030281275
B1944333730276N12153544WA0046900468005010028281277
B1944343730276N12153549WA0046900466005010023284298
B1944353730277N12153553WA0046700465005010019293294
B1944363730279N12153556WA0046500463005010018305306
B1944373730281N12153559WA0046300462005010019309286
B1944383730282N12153562WA0046300460005010021309297
B1944393730285N12153565WA0046200459005010024306299
B1944403730287N12153569WA0046100458005010026301283
B1944413730289N12153573WA0046000456005010024298291
B1944423730290N12153577WA0046000455005010022296299
B1944433730292N12153581WA0045900454005010024293278
B1944443730293N12153585WA0045800452005010029291291
B1944453730295N12153591WA0045700451005010029291303
B1944463730296N12153596WA0045700450005010027291295
B1944473730298N12153601WA0045600449005010029282294
B1944483730298N12153606WA0045500447005010029278299
B1944493730299N12153612WA0045400446005010027279292
B1944503730300N12153616WA0045400444005010025285291
B1944513730301N12153621WA0045200443005010025286306
B1944523730302N12153625WA0045100442005010026286306
B1944533730303N12153630WA0045000441005010025290295
B1944543730305N12153634WA0045000439005010024297308
B1944553730307N12153638WA0044800438005010025302300
B1944563730309N12153642WA0044700437005010027304281
B1944573730312N12153646WA0044700436005010028305300
B1944583730315N12153650WA0044700436005010029315310
B1944593730318N12153654WA0044600436005010027322309
B1945003730322N12153656WA0044600436005010026328306
B1945013730325N12153659WA0044600436005010025327303
B1945023730329N12153662WA0044700436005010024321296
B1945033730331N12153664WA0044700437005010024317305
B1945043730334N12153667WA0044700437005010024314301
B1945053730337N12153671WA0044800437005010024312289
B1945063730339N12153674WA0044900438005010024310294
B1945083730341N12153678WA0044900438005010023307291
B1945103730345N12153685WA0044800438005010021299295
B1945113730346N12153688WA0044800438005010020299298
B1945133730349N12153695WA0044700437005010025297292
B1945143730350N12153700WA0044500437005010026297293
B1945153730352N12153704WA0044400437005010025298303
B1945163730354N12153708WA0044400436005010023302295
B1945173730356N12153712WA0044200436005010022305297
B1945183730358N12153715WA0044100436005010023306279
B1945193730360N12153719WA0044000435005010023304284
B1945203730361N12153722WA0044000435005010022298289
B1945213730363N12153726WA0044000435005010023294294
B1945223730364N12153730WA0043900434005010025294283
B1945233730366N12153735WA0043900434005010024296285
B1945243730367N12153739WA0043900434005010023295294
B1945253730369N12153743WA0043800433005010024290281
B1945263730370N12153747WA0043800433005010026286296
B1945273730371N12153752WA0043700433005010023288300
B1945283730372N12153756WA0043700433005010020289288
B1945293730373N12153759WA0043700432005010020291299
B1945303730374N12153763WA0043700432005010023292288
B1945313730375N12153767WA0043600431005010026294293
B1945323730377N12153772WA0043600431005010026295295
B1945333730379N12153776WA0043600431005010022297315
B1945343730380N12153779WA0043600430005010018298325
B1945353730382N12153782WA0043600430005010015307319
B1945363730383N12153784WA0043600430005010016320321
B1945373730386N12153786WA0043600429005010020331317
B1945383730389N12153787WA0043600429005010024337298
B1945393730392N12153789WA0043500428005010025335288
B1945403730396N12153791WA0043500428005010024328288
B1945413730399N12153793WA0043500428005010020313281
B1945423730400N12153796WA0043400427005010019291282
B1945433730401N12153800WA0043300426005010021278270
B1945443730401N12153804WA0043300425005010023272260
B1945453730401N12153808WA0043300425005010022259259
B1945463730400N12153812WA0043200425005010020245252
B1945473730394N12153817WA0043200424005010019211244
B1945483730391N12153819WA0043100423005010021195222
B1945493730384N12153818WA0043100422005010031170209
B1945503730378N12153815WA0043000422005010038153179
B1945513730372N12153810WA0043000421005010041139157
B1945523730367N12153804WA0043000420005010044122141
B1945533730364N12153796WA0043000419005010045106123
B1945543730362N12153787WA0042900418005010044097103
B1945553730362N12153779WA0042800417005010041089093
B1945563730362N12153771WA0042700416005010037079082
B1945573730364N12153765WA0042700415005010035055069
B1945583730368N12153760WA0042500414005010036041040
B1945593730373N12153756WA0042400412005010036026025
B1946003730378N12153754WA0042200411005010036012010
B1946013730383N12153753WA0042200409005010033003356
B1946023730388N12153753WA0042100407005010030349345
B1946033730392N12153755WA0041900406005010023327332
B1946043730394N12153758WA0041800404005010022324308
B1946053730396N12153761WA0041800403005010022315305
B1946063730399N12153765WA0041700402005010025310294
B1946073730401N12153769WA0041500401005010028306295
B1946083730403N12153773WA0041400400005010028302303
B1946093730405N12153778WA0041400399005010025305314
B1946103730408N12153781WA0041300398005010024312315
B1946113730410N12153784WA0041200397005010024319321
B1946123730413N12153787WA0041100396005010027329308
B1946133730417N12153790WA0041100395005010027326295
B1946143730420N12153793WA0041000395005010026318294
B1946153730423N12153796WA0040900394005010027308277
B1946163730425N12153800WA0040900393005010027298266
B1946173730427N12153805WA0040900392005010027293299
B1946183730428N12153810WA0040800391005010029292264
B1946193730430N12153815WA0040800391005010030294277
B1946203730432N12153820WA0040700391005010025286264
B1946213730432N12153824WA0040700390005010024277268
B1946223730432N12153829WA0040600390005010024270272
B1946233730432N12153833WA0040600390005010024269279
B1946243730432N12153838WA0040600390005010026272265
B1946253730433N12153843WA0040600389005010030276271
B1946263730433N12153849WA0040600389005010031274268
B1946273730433N12153855WA0040500388005010031265269
B1946283730433N12153861WA0040300387005010030262269
B1946293730432N12153866WA0040100387005010031260277
B1946303730431N12153872WA0040100386005010031260271
B1946313730431N12153878WA0039900385005010031261267
B1946323730430N12153884WA0039700384005010033263253
B1946333730429N12153890WA0039600384005010031260244
B1946343730428N12153895WA0039600383005010026256244
B1946353730427N12153900WA0039400382005010022248241
B1946363730426N12153903WA0039300381005010020243249
B1946373730425N12153907WA0039200380005010022243245
B1946383730423N12153911WA0039200379005010028244246
B1946393730421N12153916WA0039000378005010035241252
B1946403730418N12153922WA0038700376005010032239261
B1946413730416N12153927WA0038400375005010028245250
B1946423730415N12153932WA0038400373005010026252250
B1946433730414N12153937WA0038000372005010024249240
B1946443730412N12153941WA0037700370005010026246248
B1946453730410N12153946WA0037400368005010030247254
B1946463730408N12153952WA0037400367005010033245257
B1946473730407N12153958WA0037000365005010030252254
B1946483730405N12153963WA0036700363005010029254247
B1946493730404N12153969WA0036400362005010028250238
B1946503730402N12153973WA0036400360005010028241232
B1946513730399N12153978WA0036200358005010030228246
B1946523730396N12153982WA0035900357005010030222247
B1946533730393N12153986WA0035800355005010027229259
B1946543730391N12153990WA0035800353005010027242249
B1946553730389N12153995WA0035600352005010028255253
B1946563730388N12154000WA0035400351005010025254243
B1946573730387N12154004WA0035300349005010024248252
B1946583730386N12154008WA0035300348005010023242253
B1946593730384N12154012WA0035200347005010025240251
B1947003730382N12154016WA0035100346005010025241245
B1947013730381N12154021WA0035100345005010025240250
B1947023730379N12154025WA0035100344005010025239248
B1947043730377N12154029WA0035100343005010025241250
B1947053730375N12154033WA0035100342005010024243256
B1947063730374N12154037WA0035100341005010024243257
B1947073730372N12154041WA0035200340005010024240261
B1947083730371N12154045WA0035200339005010024237258
B1947093730369N12154050WA0035200338005010026244266
B1947103730367N12154054WA0035200337005010027253253
B1947113730367N12154060WA0035100335005010031259244
B1947123730366N12154065WA0035100334005010029257251
B1947133730363N12154075WA0035000333005010026243243
B1947143730361N12154079WA0034900332005010028244257
B1947153730360N12154084WA0034800331005010030249259
B1947163730358N12154090WA0034800330005010032249242
B1947173730356N12154096WA0034700329005010033250246
B1947183730355N12154101WA0034600328005010026246225
B1947193730353N12154105WA0034600328005010023240273
B1947203730352N12154108WA0034600327005010021234235
B1947213730350N12154111WA0034500326005010021232264
B1947223730348N12154115WA0034400325005010024241260
B1947233730346N12154119WA0034300325005010025249268
B1947243730345N12154124WA0034300324005010023259268
B1947253730345N12154128WA0034300324005010020261265
B1947263730344N12154131WA0034200324005010020258259
B1947273730344N12154135WA0034100323005010021254259
B1947283730343N12154139WA0034100322005010023249254
B1947293730341N12154143WA0034000322005010024254254
B1947303730341N12154148WA0033900321005010023256251
B1947313730340N12154151WA0033900320005010020245265
B1947323730338N12154155WA0033900319005010020236259
B1947333730336N12154158WA0033800318005010020233261
B1947343730335N12154161WA0033700318005010022241274
B1947353730333N12154166WA0033500316005010027251264
B1947363730332N12154171WA0033500315005010028256252
B1947373730331N12154176WA0033200314005010026256256
B1947383730330N12154181WA0033000313005010024258250
B1947393730330N12154186WA0032800312005010024260256
B1947403730329N12154190WA0032800311005010024263259
B1947413730329N12154195WA0032500310005010025265250
B1947423730328N12154200WA0032400309005010024262259
B1947433730328N12154204WA0032200308005010020256267
B1947443730327N12154207WA0032200308005010019250260
B1947453730326N12154211WA0032200307005010021250268
B1947463730325N12154215WA0032100306005010021256290
B1947473730324N12154219WA0032100306005010021263287
B1947483730324N12154223WA0032100305005010023274291
B1947493730325N12154227WA0032100304005010024290294
B1947503730327N12154231WA0032100303005010026302289
B1947513730329N12154235WA0032100302005010027308294
B1947523730332N12154239WA0032000301005010028312291
B1947533730335N12154243WA0032000301005010027315279
B1947543730338N12154246WA0031900300005010025315286
B1947553730341N12154250WA0031700300005010023308280
B1947563730342N12154253WA0031700300005010023298283
B1947573730344N12154257WA0031700299005010025284281
B1947583730344N12154263WA0031600299005010031273281
B1947593730344N12154269WA0031600299005010032267267
B1948003730344N12154275WA0031600299005010032277258
B1948013730345N12154280WA0031600300005010024282247
B1948023730345N12154284WA0031700301005010022268257
B1948033730344N12154288WA0031800301005010022239251
B1948043730342N12154291WA0031900302005010025233255
B1948053730340N12154295WA0031900302005010026242256
B1948063730339N12154300WA0032100303005010026255268
B1948073730338N12154304WA0032300304005010026266269
B1948083730338N12154309WA0032400304005010027267280
B1948093730338N12154314WA0032400305005010029273285
B1948103730338N12154320WA0032500306005010028284280
B1948113730340N12154324WA0032600307005010025288267
B1948123730341N12154329WA0032700308005010025277248
B1948133730341N12154334WA0032700310005010027258230
B1948143730339N12154338WA0032800311005010030230221
B1948153730335N12154341WA0033000313005010036199195
B1948163730329N12154342WA0033100313005010046177173
B1948173730322N12154339WA0033100314005010051145159
B1948183730317N12154332WA0033100313005010052118124
B1948193730314N12154323WA0033100313005010050103104
B1948203730314N12154314WA0033100314005010040078089
B1948213730317N12154308WA0033100314010019037050063
B1948223730321N12154303WA0033100315010019038032031
B1948233730327N12154300WA0033100316010019038016011
B1948243730332N12154299WA0033300317010019032354356
B1948253730336N12154302WA0033300318010019029314335
B1948263730338N12154307WA0033500319010019031289305
B1948273730339N12154313WA0033700320005010032274283
B1948283730339N12154318WA0034000321005010025258273
B1948293730337N12154322WA0034000322005010025213265
B1948303730333N12154324WA0034200323005010035190232
B1948313730327N12154325WA0034300324005010043179206
B1948323730320N12154324WA0034300324005010045166190
B1948333730314N12154321WA0034300324005010044154177
B1948343730308N12154317WA0034300324005010045142163
B1948353730303N12154311WA0034200323005010046136145
B1948363730299N12154304WA0034100323005010044131135
B1948373730295N12154298WA0034100323005010041123130
B1948383730293N12154291WA0034000323005010041105116
B1948393730292N12154283WA0034000324005010043083094
B1948403730295N12154276WA0034000324005010040054069
B1948413730299N12154271WA0034000325005010036023036
B1948423730304N12154270WA0034100326005010036357005
B1948433730309N12154272WA0034300327005010030331344
B1948443730312N12154275WA0034500328005010023306321
B1948453730313N12154280WA0034500330005010021284298
B1948463730314N12154284WA0034700331005010024278279
B1948473730314N12154289WA0034900332005010027269269
B1948483730313N12154294WA0035100333005010029239259
B1948493730309N12154298WA0035100334005010036206238
B1948503730304N12154300WA0035300334005010042181210
B1948513730297N12154298WA0035400335005010040161185
B1948523730292N12154295WA0035500336005010037144166
B1948533730288N12154290WA0035500337005010038131148
B1948543730285N12154284WA0035600338005010041120133
B1948553730282N12154277WA0035600339005010044109119
B1948563730281N12154269WA0035600340005010044091104
B1948573730282N12154261WA0035600340005010044067083
B1948583730286N12154254WA0035600341005010043042054
B1948593730290N12154251WA0035600341005010032016029
B1949003730295N12154250WA0035600342005010029009355
B1949013730299N12154250WA0035600343005010025356343
B1949023730303N12154251WA0035700344005010024347328
B1949033730306N12154252WA0035800345005010023336315
B1949043730309N12154255WA0036000345005010024330309
B1949053730312N12154258WA0036000346005010024309301
B1949063730314N12154262WA0036100347005010026289290
B1949073730315N12154267WA0036300349005010027276275
B1949083730315N12154272WA0036400350005010028265253
B1949093730313N12154278WA0036400352005010031245246
B1949103730310N12154282WA0036500353005010036218227
B1949113730305N12154286WA0036500354005010043196208
B1949123730298N12154286WA0036600355010019047171193
B1949133730292N12154283WA0036600355010019047153171
B1949143730286N12154279WA0036600356010019044144153
B1949153730281N12154273WA0036600356010019042134144
B1949163730277N12154266WA0036500356010019044124132
B1949173730273N12154259WA0036500356010019049111120
B1949183730272N12154249WA0036500356010019050095104
B1949193730272N12154240WA0036300356005010049079085
B1949203730275N12154232WA0036200355005010041060067
B1949213730278N12154226WA0036200355005010035045045
B1949223730282N12154222WA0036200355005010034044021
B1949233730286N12154217WA0036200355005010033048020
B1949243730289N12154213WA0036400356005010031042015
B1949253730293N12154210WA0036400357005010027028012
B1949263730297N12154209WA0036600359005010024009000
B1949273730300N12154208WA0036800360005010025358340
B1949283730304N12154209WA0037000361005010024353331
B1949293730307N12154210WA0037000362005010020339322
B1949303730310N12154212WA0037200363005010018312313
B1949313730310N12154216WA0037400364005010025276298
B1949323730310N12154221WA0037500365005010029263274
B1949333730309N12154226WA0037500367005010033243256
B1949343730306N12154231WA0037600368005010034224244
B1949353730301N12154235WA0037600369005010032207227
B1949363730297N12154237WA0037700371005010030195216
B1949373730293N12154238WA0037700372005010031184207
B1949383730288N12154238WA0037900374005010036174198
B1949393730282N12154237WA0038000375005010041167182
B1949403730276N12154234WA0038100376005010041156174
B1949413730271N12154230WA0038100376005010044145159
B1949423730266N12154225WA0038300377005010045131145
B1949433730262N12154217WA0038400378005010047110127
B1949443730261N12154209WA0038400378005010043082101
B1949453730263N12154202WA0038400379005010039058066
B1949463730267N12154196WA0038500380005010033044040
B1949473730270N12154193WA0038500380005010025040018
B1949483730273N12154190WA0038700382005010020033006
B1949493730276N12154188WA0038700382005010020014355
B1949503730280N12154188WA0038800383005010028358338
B1949513730284N12154189WA0039000384005010032347326
B1949523730289N12154191WA0039200384005010030340315
B1949533730292N12154193WA0039200385005010025323303
B1949543730294N12154197WA0039400386005010023303302
B1949553730296N12154201WA0039500387005010022284289
B1949563730296N12154205WA0039700388005010024270268
B1949573730296N12154210WA0039700389005010028265261
B1949583730294N12154215WA0039900390005010032238251
B1949593730291N12154220WA0040000390005010035216232
B1950003730286N12154223WA0040100391005010037195217
B1950013730280N12154224WA0040100392005010034176197
B1950023730275N12154222WA0040100393005010034158181
B1950033730271N12154218WA0040200393005010036138162
B1950043730267N12154213WA0040200394005010038120138
B1950053730265N12154206WA0040200395005010042110111
B1950063730263N12154198WA0040300395005010043099101
B1950073730264N12154191WA0040300395005010038078086
B1950083730265N12154185WA0040400396005010034057061
B1950093730269N12154180WA0040400396005010033039037
B1950103730273N12154177WA0040400397005010031026018
B1950113730277N12154175WA0040500398005010029012005
B1950123730281N12154175WA0040600398005010026344354
B1950133730285N12154177WA0040600399005010028316328
B1950143730287N12154182WA0040700399005010029299310
B1950153730289N12154187WA0040800399005010027279298
B1950163730289N12154192WA0040900400005010027256283
B1950173730287N12154197WA0040900400005010030235267
B1950183730283N12154201WA0040900400005010035220249
B1950193730279N12154205WA0040900400005010037202233
B1950203730273N12154206WA0040900400005010038183215
B1950213730267N12154206WA0040900400005010039165196
B1950223730262N12154203WA0040900400005010040148175
B1950233730257N12154198WA0040800400005010039138155
B1950243730253N12154193WA0040800400005010035124142
B1950253730251N12154187WA0040800400005010036110124
B1950263730250N12154180WA0040800399005010041101105
B1950273730249N12154172WA0040700399005010045092093
B1950283730250N12154163WA0040700398005010043077083
B1950293730252N12154156WA0040700398005010037058066
B1950303730255N12154152WA0040600397005010031037042
B1950313730259N12154149WA0040600397010019029020017
B1950323730264N12154148WA0040600397010019027009358
B1950333730268N12154148WA0040600397005010024357348
B1950343730271N12154149WA0040600397005010022339334
B1950353730274N12154151WA0040600397005010024325317
B1950363730277N12154154WA0040600396005010025313310
B1950373730279N12154158WA0040600396005010026304296
B1950383730281N12154162WA0040600395005010027290283
B1950393730282N12154168WA0040500395005010029275284
B1950403730282N12154173WA0040400394005010029264300
B1950413730281N12154179WA0040400393005010028266300
B1950423730281N12154184WA0040300393005010026278292
B1950433730282N12154189WA0040100392005010026286303
B1950443730284N12154193WA0040000391005010025296303
B1950453730285N12154197WA0040000391005010024298310
B1950463730287N12154201WA0039900390005010024301321
B1950473730289N12154204WA0039700390005010023306324
B1950483730291N12154207WA0039600389005010021318323
B1950493730294N12154210WA0039600388005010022327323
B1950503730297N12154212WA0039500387005010023329324
B1950513730300N12154214WA0039300386005010022328330
B1950523730302N12154216WA0039200385005010023327326
B1950533730305N12154218WA0039200384005010025330324
B1950543730309N12154221WA0039000383005010030331321
B1950553730313N12154223WA0038800381005010033330313
B1950563730317N12154227WA0038600380005010035326316
B1950573730321N12154230WA0038600379005010032319324
B1950583730324N12154234WA0038300377005010027317313
B1950593730326N12154237WA0038200376005010024318322
B1951003730329N12154240WA0038000375005010023315316
B1951013730331N12154243WA0038000373005010026309307
B1951023730334N12154247WA0037800371005010033309325
B1951033730337N12154252WA0037700370005010033315322
B1951043730340N12154256WA0037500369005010032321319
B1951063730344N12154259WA0037500367005010032330315
B1951073730349N12154262WA0037300367005010037336308
B1951093730358N12154268WA0037100366005010032330305
B1951103730362N12154271WA0037100365005010027317320
B1951123730367N12154277WA0037100364005010018322317
B1951143730373N12154282WA0037100363005010033328317
B1951163730382N12154289WA0037100362005010033318340
B1951173730385N12154293WA0037100362005010028322325
B1951183730388N12154296WA0037100361005010024326310
B1951203730394N12154300WA0037000360005010024326313
B1951213730401N12154306WA0037000359005010029327309
B1951233730404N12154309WA0037000359005010028321296
B1951243730407N12154312WA0037000359005010025312308
B1951253730409N12154316WA0036900358005010023307309
B1951263730411N12154319WA0036900357005010021305307
B1951273730413N12154322WA0036800357005010020307297
B1951283730414N12154325WA0036700356005010020303285
B1951293730416N12154329WA0036600355005010025297294
B1951303730417N12154333WA0036600355005010028295293
B1951313730419N12154338WA0036400354005010027294288
B1951323730421N12154343WA0036100353005010025299290
B1951333730423N12154347WA0035900352005010024299275
B1951343730424N12154351WA0035900351005010024293271
B1951353730426N12154356WA0035600350005010025284271
B1951363730426N12154360WA0035400349005010025274260
B1951373730426N12154365WA0035100347005010028268264
B1951383730426N12154371WA0035100346005010030263258
B1951393730426N12154377WA0034900344005010030263261
B1951403730425N12154382WA0034600342005010028264253
B1951413730425N12154387WA0034300340005010026263253
B1951423730424N12154392WA0034300338005010024261251
B1951433730423N12154397WA0034000336005010025257246
B1951443730422N12154402WA0033600334005010029254241
B1951453730420N12154408WA0033300331005010036248237
B1951463730418N12154414WA0033300329005010037242232
B1951473730415N12154420WA0032900326005010035236239
B1951483730412N12154425WA0032400323005010035224249
B1951493730408N12154430WA0032100321005010033223248
B1951503730405N12154434WA0032100318005010030230241
B1951513730402N12154438WA0031700316005010029235248
B1951523730399N12154443WA0031500313005010028235243
B1951533730397N12154447WA0031300311005010027231237
B1951543730394N12154451WA0031300308005010027229236
B1951553730392N12154455WA0031300306005010024230229
B1951563730390N12154458WA0031200304005010024229204
B1951573730387N12154461WA0031200302005010023216198
B1951583730384N12154463WA0031200300005010024199185
B1951593730380N12154463WA0031200299005010035171175
B1952003730374N12154461WA0031200297005010041147154
B1952013730370N12154455WA0031200295005010048127127
B1952023730366N12154447WA0031200294005010048114109
B1952033730364N12154438WA0031200294005010045098096
B1952043730364N12154430WA0031200293005010043083079
B1952053730365N12154422WA0031200292005010041069063
B1952063730368N12154416WA0031200292005010034053049
B1952073730371N12154412WA0031200292005010029033030
B1952083730375N12154410WA0031100291005010025006009
B1952093730379N12154411WA0031100291005010025345345
B1952103730382N12154413WA0031100291005010025326329
B1952113730385N12154416WA0031100290005010024307315
B1952123730386N12154420WA0031100290005010023286301
B1952133730386N12154424WA0031000289005010026260287
B1952143730385N12154430WA0031000289005010031246264
B1952153730383N12154435WA0030900288005010037232248
B1952163730379N12154440WA0030800288005010037221232
B1952173730374N12154445WA0030700288005010036216213
B1952183730369N12154447WA0030700289005010030183213
B1952193730364N12154446WA0030700290005010033162188
B1952203730360N12154442WA0030800290010019039140164
B1952213730356N12154436WA0030800291005010042127136
B1952223730353N12154429WA0030800291005010041111121
B1952233730351N12154421WA0030900292005010040095102
B1952243730352N12154414WA0031000292005010041078083
B1952253730353N12154406WA0031000292005010042065064
B1952263730357N12154400WA0031000292005010039052051
B1952273730361N12154394WA0031000292005010036040036
B1952283730365N12154391WA0031000292005010034032024
B1952293730369N12154388WA0031000292005010029023016
B1952303730373N12154386WA0031000292005010023011006
B1952313730376N12154387WA0030900292005010021341353
B1952323730379N12154389WA0030900292005010026325325
B1952333730382N12154392WA0030800292005010030314314
B1952343730385N12154397WA0030800292005010028299307
B1952353730387N12154402WA0030800291005010025288293
B1952363730388N12154406WA0030700291005010025282284
B1952373730388N12154411WA0030600291005010026278268
B1952383730388N12154416WA0030600290005010030265261
B1952393730387N12154422WA0030500290005010033245254
B1952403730384N12154427WA0030400289005010036224239
B1952413730379N12154431WA0030400289005010036210229
B1952423730374N12154434WA0030400289005010035204221
B1952433730369N12154437WA0030300289005010035203216
B1952443730364N12154440WA0030300289005010036204209
B1952453730359N12154442WA0030300289005010037202201
B1952463730354N12154445WA0030300289005010035195199
B1952473730349N12154446WA0030200289005010033189200
B1952483730344N12154447WA0030200290005010030189204
B1952493730340N12154448WA0030200290005010032196201
B1952503730335N12154450WA0030200290005010030200207
B1952513730331N12154452WA0030200290005010034198212
B1952523730326N12154454WA0030200290005010039196217
B1952533730320N12154456WA0030200289005010035198221
B1952543730316N12154458WA0030200289005010031203206
B1952553730312N12154460WA0030100289005010029204197
B1952563730308N12154462WA0029900288005010031197198
B1952573730303N12154464WA0029800287005010035189191
B1952583730298N12154465WA0029800286005010039183183
B1952593730292N12154465WA0029700285005010039179173
B1953003730286N12154464WA0029500283005010039172154
B1953013730280N12154463WA0029300282005010041163147
B1953023730274N12154459WA0029300280005010044150140
B1953033730269N12154454WA0029000279005010047136129
B1953043730264N12154448WA0028800277005010048124124
B1953053730261N12154439WA0028600275005010047117110
B1953063730258N12154430WA0028600274005010047110107
B1953073730256N12154422WA0028400272005010046109092
B1953083730254N12154414WA0028300271005010047108097
B1953093730252N12154405WA0028200270005010048102068
B1953103730251N12154396WA0028200269005010047094067
B1953113730251N12154388WA0028200269005010041083071
B1953123730252N12154381WA0028200269005010035076071
B1953133730254N12154374WA0028300268005010033077064
B1953143730255N12154368WA0028300268005010037083076
B1953153730255N12154361WA0028300267005010039082057
B1953163730256N12154354WA0028300267005010040075060
B1953173730258N12154347WA0028300266005010038069067
B1953183730260N12154340WA0028300266005010037067057
B1953193730262N12154334WA0028200265005010036070060
B1953203730264N12154327WA0028100264005010037071042
B1953213730266N12154320WA0028000263005010041070030
B1953223730269N12154313WA0028000262005010045065035
B1953233730272N12154305WA0027900261005010045054020
B1953243730277N12154300WA0027700260005010042040025
B1953253730282N12154295WA0027600259005010038033009
B1953263730286N12154292WA0027600258005010031029008
B1953273730290N12154289WA0027500258005010027032012
B1953283730294N12154287WA0027500258005010026035008
B1953293730297N12154284WA0027500258005010029032018
B1953303730301N12154281WA0027500258005010032029032
B1953313730305N12154278WA0027600258005010034033039
B1953323730309N12154274WA0027600258005010035044040
B1953333730312N12154268WA0027600257005010037056021
B1953343730315N12154262WA0027600257005010038057023
B1953353730319N12154257WA0027600256005010038049011
B1953363730323N12154252WA0027500256005010037037016
B1953373730327N12154248WA0027500255005010036033021
B1953383730332N12154244WA0027500254005010036033019
B1953393730336N12154240WA0027400254005010036035020
B1953403730341N12154236WA0027300253005010037036020
B1953413730345N12154232WA0027200252005010037037022
B1953423730350N12154228WA0027200252005010037037033
B1953433730354N12154223WA0027100251005010037039036
B1953443730358N12154219WA0027000250005010036044037
B1953453730362N12154214WA0026900249005010035048029
B1953463730365N12154209WA0026900248005010034049029
B1953473730369N12154204WA0026700247005010032049021
B1953483730372N12154200WA0026600246005010028051014
B1953493730374N12154196WA0026400244005010026050011
B1953503730377N12154192WA0026400243005010025050354
B1953513730380N12154189WA0026200241005010029027342
B1953523730385N12154188WA0025900239005010033004323
B1953533730389N12154189WA0025600237005010031335313
B1953543730393N12154193WA0025600235005010030297295
B1953553730394N12154198WA0025200232005010029271277
B1953563730393N12154203WA0024800230005010027244264
B1953573730390N12154207WA0024500228005010030222249
B1953583730386N12154211WA0024500226005010032208231
B1953593730381N12154213WA0024200223005010033199219
B1954003730376N12154215WA0024000221005010032195212
B1954013730371N12154217WA0023800219005010032197211
B1954023730367N12154219WA0023800216005010033200214
B1954033730362N12154222WA0023600214005010034202226
B1954043730357N12154225WA0023400212005010034209220
B1954053730353N12154228WA0023100209005010036215222
B1954063730348N12154232WA0023100207005010037216221
B1954073730344N12154236WA0022800204005010037212237
B1954083730339N12154240WA0022500202005010036211246
B1954093730335N12154244WA0022300200005010033219238
B1954103730331N12154248WA0022300198005010032230232
B1954113730328N12154252WA0022000196005010031225225
B1954123730324N12154257WA0021700194005010037213223
B1954133730320N12154260WA0021500192005010031200256
B1954143730316N12154262WA0021500190005010027202249
B1954153730312N12154264WA0021300188005010022215247
B1954163730310N12154266WA0021200186005010024221245
B1954173730307N12154270WA0021100185005010023229244
B1954183730305N12154273WA0021100183005010025222243
B1954193730302N12154276WA0021000182005010023217253
B1954203730300N12154278WA0020900180005010023214261
B1954213730297N12154280WA0020800178005010022216261
B1954223730295N12154283WA0020800177005010023224259
B1954233730293N12154286WA0020700176005010022233264
B1954243730291N12154290WA0020700174005010021244268
B1954253730290N12154294WA0020600173005010020259275
B1954263730290N12154297WA0020600172005010016272277
B1954273730290N12154300WA0020600171005010013286284
B1954283730291N12154302WA0020700169005010015277285
B1954293730291N12154306WA0020700168005010020262281
B1954303730290N12154309WA0020700167005010021263267
B1954313730290N12154313WA0020700166005010018264265
B1954323730290N12154317WA0020800165005010016255264
B1954333730289N12154320WA0020800164005010018237270
B1954343730287N12154323WA0020800163005010021234279
B1954353730285N12154326WA0020800162005010021246278
B1954363730284N12154330WA0020800160005010021258291
B1954373730284N12154334WA0020800160005010020270293
B1954383730284N12154337WA0020800159005010016297301
B1954393730286N12154340WA0020800158005010010329313
B1954403730287N12154340WA0020700157005010015008329
B1954413730290N12154339WA0020600156005010019027358
B1954423730293N12154337WA0020600154005010023031005
B1954433730296N12154334WA0020300153005010027042018
B1954443730299N12154330WA0020000152005010035044025
B1954453730303N12154325WA0019700150005010037050031
B1954463730306N12154319WA0019700149005010033049037
B1954473730310N12154313WA0019400147005010036062034
B1954483730312N12154306WA0019100146005010039065036
B1954493730315N12154299WA0018800145005010038061041
B1954503730318N12154293WA0018800143005010038056039
B1954513730321N12154286WA0018600142005010040056039
B1954523730325N12154279WA0018400141005010042062040
B1954533730327N12154272WA0018200140005010039068036
B1954543730329N12154265WA0018200139005010039071035
B1954553730331N12154258WA0018100139005010037072037
B1954563730333N12154252WA0018000138010019033071041
B1954573730335N12154246WA0017900137010019035059040
B1954583730338N12154241WA0017900136010019037051035
B1954593730345N12154232WA0017800135010019029038023
B1955003730348N12154229WA0017600134010019024023011
B1955013730352N12154228WA0017500133010019022357356
B1955023730355N12154229WA0017500132010019024333329
B1955033730358N12154232WA0017300131010019025306313
B1955043730359N12154236WA0017200129010019021275293
B1955053730358N12154240WA0017000128010019019248277
B1955063730357N12154243WA0017000127010019017236267
B1955073730356N12154246WA0016900126010019015235272
B1955083730355N12154248WA0016700124010019015247271
B1955093730354N12154250WA0016600123010019013269276
B1955103730354N12154252WA0016600122010019002293316
B1955113730354N12154252WA0016400122010019003343303
B1955123730354N12154252WA0016300122010019002299297
B1955133730354N12154252WA0016200122010019002295296
B1955143730354N12154252WA0016200122010019002302295
B1955153730354N12154252WA0016100122010019002299257
B1955163730354N12154252WA0016100122010019001300262
B1955173730354N12154252WA0016100122010019001303266
B1955183730354N12154252WA0016100122010019000342267
B1955193730354N12154252WA0016100122010019000000268
B1955203730354N12154252WA0016100122010019000000270
B1955213730354N12154252WA0016100122010019000000271
B1955223730354N12154252WA0016100122010019000000271
B1955233730354N12154252WA0016100122010019000000272
B1955243730354N12154252WA0016100122010019000000273
B1955253730354N12154252WA0016100122010019000000273
B1955263730354N12154252WA0016100122010019000000273
B1955273730354N12154252WA0016100122010019000000274
B1955283730354N12154252WA0016100122010019000063274
B1955293730354N12154252WA0016100122010019000000274
B1955303730354N12154252WA0016100122010019000011274
B1955313730354N12154252WA0016100122010019000356275
B1955323730354N12154252WA0016100122010019000359275
B1955333730354N12154252WA0016100122010019000338275
B1955343730354N12154252WA0016100122010019001329275
B1955353730354N12154252WA0016100122010019000000275
B1955363730354N12154252WA0016100122010019000000275
B1955373730354N12154252WA0016100122010019001294275
B1955383730354N12154252WA0016100122010019000349275
B1955393730354N12154252WA0016100122010019001263275
B1955403730354N12154252WA0016100122010019001013275
B1955413730354N12154252WA0016100122010019001054275
B1955423730354N12154252WA0016100122010019002131275
GzxhryQ5p5PSBms7dy5M24MEI318KWpEMbOpZU2OXvE7wnFuIQ333tbjcozr951VM
GOuGJLzTzcMZPfgS9mnlMkXqDm75qsawdJ0NoxrCZoKuAcm7wPb8QFFx3t3IjtKhI
GgjOb2WApW1qd5GDpn6e69F38Fg1qOQzIaN0nqig/sRQ=

