AXFH000
HFDTE220526
HFPLTPILOT:Scott O’Brien
HFGTYGLIDERTYPE:Ozone Swift 6
HFDTM100GPSDATUM:WGS84
HFRFWFIRMWAREVERSION:9.6
HFRHWHARDWAREVERSION:iPhone 15
HFFTYFRTYPE:Flyskyhy,9.6
HFGPS:Bluetooth vario
HFPRSVARIO:Bluetooth vario
HFCCLCOMPETITIONCLASS:Paraglider
HFTZNTIMEZONE:-7
HFSITSITE:Woodrat Mountain,US
I053638FXA3941VXA4244GSP4547CCO4850HDT
C220526024313210526000102TASK
C0000000N00000000ETAKEOFF
C3645907N11905878W00000000000400000000360000STARTAREA DNLNCH
C3647347N11907139W00000000000400000000360000TURNAREA DELILA
C3645957N11912202W00000000000400000000360000TURNAREA BALDMT
C3644326N11915091W00000000000400000000360000FINISHAREA SQVAL
C0000000N00000000ELANDING
B0243434213894N12300229WA0115401155001100000301250
B0243444213894N12300229WA0115401155001100000301248
B0243454213894N12300229WA0115401155001100000301247
B0243464213894N12300229WA0115401155001100000301248
B0243474213894N12300229WA0115401155001100000301248
B0243484213894N12300229WA0115401155001100000301248
B0243494213894N12300229WA0115401155001100000301248
B0243504213893N12300229WA0115401154001100000301248
B0243514213893N12300229WA0115401154001100000301248
B0243524213894N12300229WA0115401155001100000301229
B0243534213894N12300229WA0115501155001100000301146
B0243544213894N12300229WA0115401155001100000301132
B0243554213894N12300229WA0115501155001100000301089
B0243564213893N12300229WA0115401155001100000301121
B0243574213893N12300229WA0115401155001100000301151
B0243584213893N12300229WA0115401155001100000301157
B0243594213893N12300229WA0115501155001100000301141
B0244004213893N12300230WA0115501155001100000301282
B0244014213893N12300230WA0115401155001100000301299
B0244024213893N12300230WA0115301154001100000301297
B0244034213894N12300231WA0115201154001100000301292
B0244044213893N12300231WA0115301153001100002257318
B0244054213894N12300233WA0115201153001100004272322
B0244064213894N12300234WA0115001153001100007313325
B0244074213895N12300235WA0115201152000100009309313
B0244084213896N12300237WA0115101152000100007306307
B0244094213896N12300239WA0115001151000100010299316
B0244104213897N12300242WA0114901151000100013293315
B0244114213898N12300245WA0114801150000100016290326
B0244124213899N12300248WA0114901150001100017304336
B0244134213901N12300250WA0114801150001100018322348
B0244144213903N12300252WA0115201150001100018340037
B0244154213906N12300254WA0115201150000100021344333
B0244164213909N12300256WA0114901149000100023344335
B0244174213912N12300258WA0114801149000100025331339
B0244184213915N12300262WA0114801148000100027320322
B0244194213918N12300266WA0114801148000100026316337
B0244204213921N12300270WA0115001149000100023315301
B0244214213923N12300273WA0115101149000100018304310
B0244224213924N12300276WA0115101149000100014288313
B0244234213924N12300278WA0115001148000100016289309
B0244244213925N12300282WA0114901147000100021293324
B0244254213926N12300286WA0115001147000100024299315
B0244264213928N12300290WA0115001147000100023307320
B0244274213931N12300294WA0115201148000100022315323
B0244284213933N12300296WA0115301149000100018330323
B0244294213936N12300297WA0115301150000100018338338
B0244304213938N12300298WA0115301150000100020343343
B0244314213942N12300300WA0115201150000100025349346
B0244324213946N12300300WA0115101150000100028353352
B0244334213950N12300301WA0115201150000100027350348
B0244344213954N12300302WA0115201151000100024348348
B0244354213957N12300303WA0115301152000100021348343
B0244364213960N12300304WA0115301152000100020348326
B0244374213963N12300305WA0115301151000100022344314
B0244384213966N12300306WA0115101150000100025339332
B0244394213970N12300309WA0115001149000100027330303
B0244404213973N12300312WA0115001148000100027324335
B0244414213976N12300315WA0115001149000100026322326
B0244424213980N12300318WA0115001149000100025327341
B0244434213983N12300321WA0115001149000100024334347
B0244444213986N12300323WA0115001149000100024333322
B0244454213989N12300325WA0115001149000100025330334
B0244464213992N12300328WA0114901148000100023326301
B0244474213995N12300330WA0114801147000100022315291
B0244484213997N12300334WA0114701146000100022296277
B0244494213997N12300338WA0114501145000100023280287
B0244504213997N12300344WA0114601144000100026266299
B0244514213996N12300350WA0114701143000100025269313
B0244524213996N12300355WA0114601143000100025282319
B0244534213998N12300359WA0114501141000100023294324
B0244544214002N12300360WA0114401140001100026337330
B0244554214009N12300357WA0114401140000100034014347
B0244564214016N12300353WA0114501141000100035018013
B0244574214021N12300351WA0114601143000100032018007
B0244584214026N12300349WA0114601143000100031011005
B0244594214031N12300348WA0114601143000100033004006
B0245004214036N12300347WA0114701143000100035003005
B0245014214041N12300347WA0114801143000100034001340
B0245024214046N12300347WA0114801144000100030356321
B0245034214051N12300348WA0114901144000100027346321
B0245044214054N12300350WA0114801144000100025327325
B0245054214057N12300354WA0114701143000100023310296
B0245064214058N12300359WA0114601143000100022293297
B0245074214059N12300364WA0114501142000100022277298
B0245084214058N12300369WA0114301140000100024271291
B0245094214058N12300374WA0114301139000100024271285
B0245104214058N12300379WA0114101138000100024262276
B0245114214057N12300384WA0113901137000100025249274
B0245124214055N12300389WA0114001136000100028242284
B0245134214053N12300394WA0113901135000100028250282
B0245144214052N12300399WA0113901136000100025261281
B0245154214052N12300404WA0114001136000100020263279
B0245164214051N12300408WA0114001136000100016253278
B0245174214050N12300410WA0113801136000100016249281
B0245184214050N12300414WA0113701135000100019256284
B0245194214049N12300418WA0113501134000100022274291
B0245204214050N12300423WA0113701134000100022287300
B0245214214052N12300427WA0113701134000100024299308
B0245224214055N12300429WA0113801134000100022326313
B0245234214059N12300430WA0113701134000100022344327
B0245244214063N12300431WA0113601133000100024346334
B0245254214067N12300432WA0113501132000100029338343
B0245264214071N12300434WA0113501131000100030334345
B0245274214075N12300436WA0113501132000100028337352
B0245284214079N12300438WA0113601132000100025347345
B0245294214083N12300438WA0113501132000100024350330
B0245304214086N12300439WA0113401130000100025346315
B0245314214090N12300441WA0113201129000100025337316
B0245324214093N12300444WA0113101127000100024323307
B0245334214095N12300448WA0113101127000100024296308
B0245344214096N12300453WA0113101126000100025283306
B0245354214096N12300459WA0113101127000100023275306
B0245364214096N12300463WA0113201127000100021289299
B0245374214097N12300467WA0113101126000100022295287
B0245384214098N12300472WA0113001125000100023289297
B0245394214099N12300477WA0112901124000100025281305
B0245404214100N12300482WA0112801123000100027284310
B0245414214101N12300487WA0112701121000100028295319
B0245424214104N12300492WA0112601120000100030309314
B0245434214107N12300496WA0112501119000100033318322
B0245444214111N12300501WA0112401118000100036317329
B0245454214115N12300506WA0112401118000100033314330
B0245464214118N12300510WA0112401118000100030318338
B0245474214121N12300514WA0112401118000100026323333
B0245484214124N12300516WA0112401117000100024327339
B0245494214127N12300519WA0112201117000100021330327
B0245504214130N12300521WA0111901116001100023327324
B0245514214133N12300524WA0111701114000100027324322
B0245524214136N12300528WA0111501112000100029314333
B0245534214139N12300532WA0111601111000100028315346
B0245544214142N12300536WA0111601110000100024316336
B0245554214144N12300538WA0111501110000100018330322
B0245564214146N12300540WA0111401109000100018341310
B0245574214149N12300541WA0111201107000100020333312
B0245584214151N12300544WA0111101106000100023314331
B0245594214153N12300548WA0111101105000100024309346
B0246004214155N12300552WA0111201105000100019312337
B0246014214157N12300554WA0111101104000100014325325
B0246024214159N12300555WA0110901104000100013326320
B0246034214161N12300557WA0110701102000100016322325
B0246044214163N12300560WA0110401101000100022315347
B0246054214165N12300563WA0110401100000100023320334
B0246064214168N12300566WA0110401099000100021332329
B0246074214171N12300567WA0110301098000100022350336
B0246084214174N12300568WA0110401098000100021345322
B0246094214177N12300570WA0110201097000100019328312
B0246104214179N12300573WA0110201096000100019304306
B0246114214179N12300577WA0110101095000100020279298
B0246124214179N12300581WA0110001094000100022259291
B0246134214178N12300586WA0110001094000100021253287
B0246144214177N12300590WA0110001094000100018262281
B0246154214177N12300593WA0110001094000100018270282
B0246164214177N12300597WA0110001094000100019272294
B0246174214177N12300601WA0110001094001100021272298
B0246184214177N12300606WA0110001094001100021279302
B0246194214178N12300610WA0110001094000100021293301
B0246204214179N12300614WA0110101094000100022309312
B0246214214182N12300617WA0110101094000100021321315
B0246224214184N12300619WA0110101094000100021327332
B0246234214187N12300622WA0110001094000100021328337
B0246244214190N12300624WA0109801093000100023333338
B0246254214193N12300626WA0109701091000100028339333
B0246264214197N12300628WA0109601091001100029336348
B0246274214201N12300630WA0109601090001100026329346
B0246284214204N12300633WA0109601090001100021325344
B0246294214206N12300635WA0109501089001100020329347
B0246304214209N12300637WA0109301088001100023333341
B0246314214213N12300639WA0109201087001100030334334
B0246324214216N12300642WA0109301086001100030329312
B0246334214220N12300646WA0109401086001100030320293
B0246344214222N12300650WA0109501085001100026308324
B0246354214223N12300654WA0109601086001100019298338
B0246364214225N12300657WA0109601086001100016313338
B0246374214227N12300659WA0109501086001100018328341
B0246384214230N12300660WA0109501086001100024346347
B0246394214234N12300660WA0109601087001100024000353
B0246404214238N12300658WA0109601088001100025016359
B0246414214242N12300656WA0109801088001100027022000
B0246424214246N12300653WA0109701089001100028020351
B0246434214250N12300652WA0109601089001100025011343
B0246444214253N12300651WA0109801090001100021001348
B0246454214255N12300651WA0109801090001100016349338
B0246464214257N12300653WA0109901091001100011331332
B0246474214258N12300655WA0110101092001100009289313
B0246484214257N12300657WA0110201093001100012261286
B0246494214256N12300660WA0110301094001100015244274
B0246504214255N12300662WA0110401095001100018226260
B0246514214252N12300665WA0110601096001100022220245
B0246524214249N12300668WA0110601097001100025207227
B0246534214245N12300669WA0110501098001100031193218
B0246544214239N12300670WA0110501098001100036183208
B0246554214233N12300670WA0110501098001100039174179
B0246564214227N12300668WA0110501098001100043166174
B0246574214220N12300665WA0110501099001100047158168
B0246584214213N12300661WA0110701100001100051151145
B0246594214206N12300655WA0110701101001100052141109
B0247004214201N12300647WA0110801101001100052131119
B0247014214197N12300637WA0110801102001100052119106
B0247024214194N12300627WA0110901102001100052108094
B0247034214193N12300616WA0110901103001100050099076
B0247044214193N12300606WA0110901103001100048087065
B0247054214194N12300596WA0110801102001100047079054
B0247064214196N12300587WA0110701101001100043069050
B0247074214198N12300580WA0110601100001100041060028
B0247084214202N12300573WA0110601100001100036053019
B0247094214205N12300568WA0110401100001100031047012
B0247104214209N12300566WA0110301099001100025024005
B0247114214212N12300565WA0110301098001100022013341
B0247124214215N12300565WA0110301098001100017004329
B0247134214218N12300565WA0110401098001100013347328
B0247144214219N12300567WA0110401099001100009324328
B0247154214220N12300567WA0110401099001100007346321
B0247164214221N12300568WA0110401099001100010009321
B0247174214223N12300568WA0110401099001100012355322
B0247184214225N12300568WA0110501099001100011334306
B0247194214226N12300570WA0110601099001100010309287
B0247204214225N12300572WA0110501099001100010248280
B0247214214223N12300574WA0110401098001100014234272
B0247224214220N12300577WA0110401098000100022216273
B0247234214215N12300580WA0110301098000100032208275
B0247244214210N12300583WA0110401099000100029206272
B0247254214205N12300586WA0110501100000100024204269
B0247264214202N12300588WA0110401100000100020208271
B0247274214200N12300590WA0110301099000100017211277
B0247284214198N12300592WA0110101099000100012231280
B0247294214199N12300595WA0110001098000100011295291
B0247304214201N12300596WA0110001097000100015328309
B0247314214204N12300597WA0110101097000100015351317
B0247324214207N12300597WA0110101098000100015008326
B0247334214209N12300596WA0110101097000100013003332
B0247344214211N12300596WA0110001096000100013352330
B0247354214213N12300597WA0109901096000100014337326
B0247364214215N12300598WA0109801095000100013323321
B0247374214216N12300600WA0109701094001100012312320
B0247384214217N12300602WA0109601093001100012305319
B0247394214218N12300604WA0109401091001100014307322
B0247404214220N12300607WA0109301088001100019307324
B0247414214221N12300611WA0109101086001100020302327
B0247424214223N12300614WA0109001085001100018298323
B0247434214224N12300617WA0108901084001100015296319
B0247444214225N12300620WA0108801083001100015298315
B0247454214226N12300623WA0108601080001100017299312
B0247464214228N12300626WA0108401078001100021301318
B0247474214230N12300629WA0108201076001100022304320
B0247484214231N12300633WA0108101075001100018311322
B0247494214233N12300635WA0108001073001100015327322
B0247504214236N12300636WA0107901072001100017341320
B0247514214238N12300637WA0107801071001100021340327
B0247524214241N12300639WA0107901070001100022343329
B0247534214245N12300639WA0107901070001100021352334
B0247544214248N12300639WA0108001069001100020004334
B0247554214251N12300637WA0108101069001100022028338
B0247564214254N12300632WA0108401070001100026040349
B0247574214258N12300627WA0108701072001100029042002
B0247584214262N12300622WA0109001076001100031039001
B0247594214266N12300617WA0109201080001100030037000
B0248004214269N12300613WA0109401083001100025040344
B0248014214272N12300610WA0109601086001100023043340
B0248024214274N12300607WA0109501087001100021042343
B0248034214276N12300605WA0109301088001100020039344
B0248044214278N12300604WA0109201089001100019013334
B0248054214281N12300606WA0109201089001100019343325
B0248064214284N12300608WA0109201090001100019340310
B0248074214286N12300610WA0109401091001100016326303
B0248084214287N12300613WA0109601092001100013295319
B0248094214287N12300616WA0109501093000100013289318
B0248104214288N12300619WA0109501092000100014299312
B0248114214290N12300622WA0109301092000100019314298
B0248124214293N12300626WA0109301091000100023313294
B0248134214295N12300629WA0109401091000100023301296
B0248144214296N12300634WA0109601091000100024284300
B0248154214295N12300639WA0109601092000100021267282
B0248164214295N12300643WA0109701093000100018253273
B0248174214293N12300647WA0109601092000100020249264
B0248184214291N12300651WA0109501091000100027240262
B0248194214289N12300656WA0109601091000100029233250
B0248204214286N12300660WA0109701092000100029226243
B0248214214282N12300664WA0109801092000100029214237
B0248224214277N12300667WA0109801092000100031198235
B0248234214272N12300668WA0109801093000100032193237
B0248244214267N12300670WA0109701092000100033195253
B0248254214262N12300672WA0109701091000100033198254
B0248264214257N12300674WA0109501090000100033203264
B0248274214253N12300677WA0109401090000100031211263
B0248284214249N12300681WA0109301089000100029222266
B0248294214246N12300685WA0109301089000100027234271
B0248304214245N12300690WA0109201088000100024245273
B0248314214243N12300694WA0109201088000100023254278
B0248324214243N12300698WA0109201088000100023262286
B0248334214243N12300703WA0109201088000100020275289
B0248344214243N12300706WA0109201087000100018294296
B0248354214245N12300709WA0109101087000100020318306
B0248374214251N12300713WA0109101085000100022336327
B0248384214255N12300714WA0109101085000100021347339
B0248394214258N12300715WA0109001085000100023000339
B0248404214262N12300714WA0108901084000100028012344
B0248414214267N12300712WA0108901084000100031014344
B0248424214271N12300710WA0108801083000100027008336
B0248434214275N12300710WA0108701082000100022354338
B0248444214277N12300712WA0108601081000100019332314
B0248454214279N12300714WA0108501080000100019308303
B0248464214280N12300718WA0108501080000100019284291
B0248474214280N12300723WA0108401079000100021263298
B0248484214278N12300728WA0108301078000100025243286
B0248494214275N12300733WA0108301078000100029237292
B0248504214273N12300739WA0108201078000100028239285
B0248514214271N12300744WA0108201077000100026242283
B0248524214269N12300748WA0108101077000100024250283
B0248534214268N12300753WA0108001076000100023261288
B0248544214268N12300757WA0108001075000100022269289
B0248554214268N12300762WA0108001074000100021278297
B0248584214272N12300770WA0107701073000100016327297
B0248594214275N12300772WA0107601072000100023340326
B0249004214279N12300773WA0107601071000100026344332
B0249014214283N12300774WA0107701071000100023350339
B0249024214286N12300774WA0107801071000100021000344
B0249034214289N12300774WA0107801072000100020005343
B0249044214293N12300773WA0107701071000100022001337
B0249054214296N12300774WA0107601071000100024347334
B0249064214299N12300775WA0107601070000100024331315
B0249074214302N12300779WA0107601070000100023316308
B0249084214304N12300783WA0107701071000100022301308
B0249094214305N12300787WA0107701071000100021286290
B0249104214305N12300791WA0107801072000100021269251
B0249114214305N12300795WA0107701071000100021262236
B0249124214303N12300800WA0107501070000100021244229
B0249134214299N12300803WA0107101070001100023223233
B0249144214294N12300804WA0107101069001100024193244
B0249154214286N12300801WA0107301070001100030179234
B0249164214280N12300800WA0107501071000100032185225
B0249174214274N12300800WA0107401071000100030195226
B0249184214268N12300801WA0107301069000100032193228
B0249194214262N12300802WA0107201068000100036191237
B0249204214256N12300804WA0107101068000100036198242
B0249214214251N12300806WA0107201067000100035207249
B0249224214247N12300811WA0107001066000100033221254
B0249234214247N12300817WA0107101065001100029247263
B0249244214249N12300823WA0107301066001100026284277
B0249254214251N12300829WA0107501068000100025291298
B0249264214253N12300833WA0107501068000100022290306
B0249274214255N12300838WA0107401068000100023289314
B0249284214256N12300842WA0107101068000100025294315
B0249294214259N12300847WA0107101067001100029307315
B0249304214263N12300851WA0107201067000100030316320
B0249314214266N12300855WA0107301068000100026318321
B0249324214269N12300858WA0107301068001100022320328
B0249334214272N12300861WA0107201068001100022323326
B0249344214275N12300864WA0107101067001100025326335
B0249354214279N12300866WA0107001065001100029328333
B0249364214282N12300869WA0106901064001100029332340
B0249374214286N12300871WA0106901064001100027338337
B0249384214290N12300873WA0106801064001100025344343
B0249394214294N12300874WA0106701062001100027345341
B0249404214298N12300876WA0106601061001100032344355
B0249414214303N12300878WA0106601060001100034349358
B0249424214309N12300878WA0106501060001100036357357
B0249434214314N12300878WA0106501060001100035006355
B0249444214319N12300877WA0106501059001100035008000
B0249454214325N12300876WA0106401059001100036005354
B0249464214330N12300875WA0106301057001100038000350
B0249474214336N12300875WA0106301057001100043357358
B0249484214343N12300876WA0106301056001100045357351
B0249494214350N12300876WA0106401056001100044357345
B0249504214356N12300877WA0106501057001100041351309
B0249514214361N12300878WA0106701058001100036346317
B0249524214366N12300881WA0106801059001100030338326
B0249534214368N12300884WA0106901060001100027325315
B0249544214371N12300888WA0106901061001100026311302
B0249554214373N12300893WA0106901061001100027298290
B0249564214374N12300898WA0106901062001100027281279
B0249574214374N12300903WA0107001063001100027266274
B0249584214373N12300908WA0107101064001100026252274
B0249594214371N12300913WA0107201065001100025239274
B0250004214368N12300917WA0107201066001100025229266
B0250014214366N12300921WA0107301067001100026233279
B0250024214363N12300925WA0107201068001100027243272
B0250034214361N12300931WA0107301068001100028248273
B0250044214359N12300936WA0107301068001100029244265
B0250054214357N12300941WA0107201068001100029236271
B0250064214354N12300946WA0107201068001100030233287
B0250074214352N12300951WA0107201068001100028237282
B0250084214350N12300955WA0107301069001100024244280
B0250094214349N12300960WA0107301069001100022253285
B0250104214348N12300964WA0107201069001100022261295
B0250114214348N12300968WA0107201068001100023269302
B0250124214348N12300973WA0107201068001100025276312
B0250134214349N12300978WA0107201068001100025288318
B0250144214350N12300982WA0107401068001100025298323
B0250164214356N12300986WA0107701070000100020338311
B0250174214359N12300986WA0107801071000100017354327
B0250184214361N12300987WA0107801071000100015343336
B0250194214363N12300988WA0107701070000100016327307
B0250204214365N12300990WA0107701070000100018302298
B0250214214366N12300994WA0107801071000100019279281
B0250224214365N12300998WA0107701071000100020256273
B0250234214362N12301003WA0107701071000100027237264
B0250244214358N12301009WA0107901072000100032223248
B0250254214352N12301012WA0108001072000100034208224
B0250274214342N12301016WA0108001073000100033190209
B0250284214337N12301017WA0107801073000100031186189
B0250294214331N12301014WA0107801072000100041159189
B0250304214325N12301009WA0107701071000100044150154
B0250314214319N12301002WA0107801071000100045137149
B0250324214315N12300994WA0108001071000100042132131
B0250334214312N12300986WA0108301072000100039121124
B0250344214312N12300977WA0108301073000100037091111
B0250354214313N12300968WA0108301075000100037079073
B0250364214316N12300960WA0108301076000100038065054
B0250374214320N12300954WA0108401076000100036050036
B0250384214325N12300949WA0108501078000100035040022
B0250394214330N12300946WA0108501079000100032027013
B0250404214334N12300944WA0108501079000100029018002
B0250414214338N12300944WA0108401079000100025004353
B0250424214341N12300946WA0108401078000100024343342
B0250434214344N12300950WA0108301077000100024323325
B0250454214344N12300963WA0108101077000100025253310
B0250464214339N12300967WA0107901076000100030213264
B0250474214334N12300970WA0107801075000100033199231
B0250484214327N12300971WA0107701074000100040192223
B0250494214320N12300973WA0107701074000100038197216
B0250504214314N12300976WA0107501072000100036200221
B0250514214309N12300979WA0107401070000100037197226
B0250524214303N12300981WA0107101068000100037198228
B0250534214298N12300984WA0106901065000100038205231
B0250544214293N12300988WA0106701063000100036216237
B0250554214290N12300994WA0106601061000100035233243
B0250564214287N12301000WA0106501059000100035232256
B0250574214284N12301005WA0106601059000100033229252
B0250584214281N12301009WA0106501059000100029230251
B0250594214278N12301014WA0106601059000100026238253
B0251004214277N12301018WA0106601058000100024249259
B0251014214276N12301022WA0106701059000100021260268
B0251024214276N12301026WA0106901060000100020263276
B0251034214276N12301030WA0106901061000100019266279
B0251044214276N12301034WA0107001062000100020271282
B0251054214277N12301038WA0107001062000100019274284
B0251064214277N12301042WA0107101063000100019276286
B0251074214277N12301046WA0107101064000100020277287
B0251084214278N12301050WA0107201065000100019279288
B0251094214278N12301054WA0107201066000100019280289
B0251104214279N12301057WA0107301066000100020286291
B0251114214281N12301061WA0107301067000100019298294
B0251124214282N12301064WA0107401067000100019318302
B0251134214285N12301065WA0107401068000100019340315
B0251144214288N12301066WA0107601070000100022358330
B0251154214292N12301065WA0107901071000100020008345
B0251164214294N12301064WA0107901073000100016018350
B0251174214296N12301063WA0107901074000100015019356
B0251184214298N12301062WA0107701075000100015017356
B0251194214301N12301061WA0107501075000100019017000
B0251204214304N12301059WA0107401074000100025018359
B0251214214308N12301057WA0107501074000100023014002
B0251224214311N12301056WA0107501074000100016010356
B0251234214313N12301056WA0107401074000100012001343
B0251244214315N12301056WA0107201072000100013349339
B0251254214317N12301058WA0107001071000100015335337
B0251264214319N12301060WA0106901069000100019321334
B0251274214321N12301063WA0106901068000100019313337
B0251284214323N12301065WA0106901068000100018310343
B0251294214325N12301068WA0106901067000100016308329
B0251304214326N12301071WA0106901066000100016294308
B0251314214327N12301074WA0106701064000100020276298
B0251324214327N12301079WA0106601063000100026265299
B0251334214326N12301085WA0106701063000100029257315
B0251344214325N12301091WA0106801063000100028255308
B0251364214324N12301102WA0107001064000100027277286
B0251374214325N12301107WA0107101064000100029282301
B0251384214326N12301113WA0107201066000100030271288
B0251404214324N12301125WA0107401068000100028256304
B0251414214324N12301130WA0107501069000100023262293
B0251424214323N12301135WA0107401070000100022271298
B0251434214324N12301139WA0107401069000100023281296
B0251444214325N12301144WA0107301069000100025280304
B0251454214325N12301149WA0107301068001100026279310
B0251464214326N12301154WA0107501069000100024285313
B0251474214327N12301158WA0107501069000100021302310
B0251484214329N12301161WA0107401069000100020319321
B0251494214332N12301163WA0107501069000100020333329
B0251504214335N12301164WA0107501069000100018344334
B0251514214337N12301164WA0107501070000100017004340
B0251524214340N12301163WA0107501070000100021021350
B0251534214343N12301161WA0107501070000100025034002
B0251544214346N12301158WA0107601071000100026037016
B0251554214349N12301155WA0107701072000100024034020
B0251564214351N12301152WA0107701073000100020028022
B0251574214354N12301150WA0107701073000100019030019
B0251584214356N12301148WA0107601072000100021039020
B0251594214359N12301144WA0107601072000100026047024
B0252004214361N12301140WA0107601071000100030052032
B0252014214364N12301134WA0107701072000100031059039
B0252024214366N12301128WA0107701072000100033069047
B0252034214367N12301121WA0107801072000100036078055
B0252044214368N12301114WA0107701072000100039089066
B0252054214367N12301105WA0107801072000100041098077
B0252064214365N12301097WA0107701072000100046110092
B0252074214361N12301087WA0107801072000100049119107
B0252094214351N12301071WA0107701071000100051136127
B0252104214345N12301065WA0107601070000100048146144
B0252114214339N12301061WA0107701070001100046160156
B0252124214331N12301060WA0107801070000100044170172
B0252134214325N12301060WA0107801071000100044178187
B0252144214318N12301060WA0107801071000100042183200
B0252154214312N12301061WA0107801072000100039190208
B0252174214303N12301067WA0107601070000100033210216
B0252184214300N12301072WA0107401069000100031226237
B0252204214294N12301084WA0107201068000100034231257
B0252214214292N12301089WA0107201067000100031235259
B0252224214290N12301095WA0107101067000100029246263
B0252234214289N12301101WA0107001066000100030255272
B0252254214287N12301112WA0107201065000100025261278
B0252264214287N12301116WA0107101066000100019266285
B0252274214287N12301120WA0107101065000100017273291
B0252284214288N12301123WA0106901064000100019278298
B0252294214288N12301128WA0106901063000100023278301
B0252304214289N12301132WA0106901062000100024283299
B0252314214290N12301137WA0106901063000100021290301
B0252324214291N12301140WA0107001063000100016295306
B0252334214292N12301143WA0106901063000100015285312
B0252344214293N12301146WA0106901062000100017285312
B0252354214294N12301150WA0106701061000100023289313
B0252364214296N12301154WA0106601061000100025295314
B0252374214297N12301159WA0106901061000100023297318
B0252384214299N12301162WA0107001061000100018298314
B0252394214300N12301164WA0107001062000100013297316
B0252404214301N12301166WA0106901062000100012292319
B0252414214302N12301169WA0106701061000100015294321
B0252424214303N12301172WA0106601060000100019299325
B0252434214304N12301175WA0106501060000100019303325
B0252444214306N12301178WA0106601059000100015298320
B0252454214306N12301181WA0106501058000100012276325
B0252464214306N12301183WA0106401057000100013263313
B0252474214306N12301186WA0106201055000100016273307
B0252484214307N12301189WA0106101054000100021290317
B0252494214308N12301193WA0106001053000100020295314
B0252504214309N12301197WA0106201053000100017294317
B0252514214310N12301199WA0106201053000100014289317
B0252524214311N12301202WA0106101053000100015291312
B0252534214312N12301205WA0106001052000100018294317
B0252544214314N12301209WA0106001051000100026300314
B0252554214316N12301214WA0105701050000100027298316
B0252564214318N12301219WA0105701050000100025290312
B0252574214319N12301224WA0105601049000100021287306
B0252584214320N12301228WA0105501048000100022293310
B0252594214322N12301232WA0105301046000100028299315
B0253004214324N12301237WA0105201045000100032303314
B0253014214327N12301243WA0105301044000100030304316
B0253024214330N12301248WA0105501045000100028306316
B0253034214333N12301251WA0105601046000100024310316
B0253044214335N12301254WA0105601047000100022311321
B0253054214337N12301257WA0105701048000100024318322
B0253064214341N12301260WA0105801050000100027327332
B0253074214344N12301263WA0106101052000100025331333
B0253084214347N12301264WA0106401053000100022337337
B0253094214350N12301265WA0106601055000100019354337
B0253104214353N12301264WA0106601057000100018354343
B0253114214356N12301264WA0106501058000100019357346
B0253124214360N12301264WA0106401058000100026358353
B0253134214364N12301264WA0106601060000100030358356
B0253144214369N12301264WA0106801061000100030359359
B0253164214376N12301263WA0107301065000100019002355
B0253174214379N12301263WA0107301067000100019001355
B0253184214381N12301263WA0107201068000100019357357
B0253194214384N12301263WA0107001068000100020357004
B0253204214388N12301264WA0106901068000100025357001
B0253214214392N12301264WA0106801067000100025351353
B0253224214396N12301266WA0106701066000100024345356
B0253234214399N12301267WA0106601064000100024342000
B0253244214403N12301269WA0106401062000100027341353
B0253254214407N12301271WA0106301060000100030345003
B0253264214411N12301272WA0106201058000100031346350
B0253274214416N12301273WA0106201058000100027347008
B0253284214419N12301274WA0106101057000100019346346
B0253294214421N12301275WA0106101056000100019347348
B0253304214424N12301276WA0105801055000100022345359
B0253314214428N12301277WA0105701053000100027351353
B0253324214432N12301278WA0105501052000100026353355
B0253334214436N12301278WA0105501052000100023347348
B0253344214439N12301279WA0105401051000100020343347
B0253354214442N12301281WA0105301049000100020344357
B0253364214445N12301282WA0105001047000100022350006
B0253374214448N12301282WA0104901045000100025352356
B0253384214452N12301283WA0104801044000100024352005
B0253394214456N12301284WA0104801043000100024352358
B0253404214460N12301284WA0104701042000100024358010
B0253414214463N12301284WA0104501041000100028005011
B0253424214468N12301283WA0104401039000100033011017
B0253434214473N12301281WA0104301038000100034012012
B0253444214478N12301280WA0104301038000100032011012
B0253454214482N12301278WA0104401038000100030013008
B0253464214486N12301277WA0104301037000100029017005
B0253474214491N12301275WA0104201036000100031017007
B0253484214495N12301273WA0104101035000100033012006
B0253494214500N12301272WA0104001034000100034009010
B0253504214505N12301271WA0104001034000100032009013
B0253514214509N12301269WA0104101034000100027011011
B0253524214513N12301268WA0104101034000100024013008
B0253534214516N12301267WA0104101034000100024014358
B0253544214520N12301266WA0104001034000100026014011
B0253554214523N12301264WA0104001033000100026018007
B0253564214527N12301262WA0103901033000100028020009
B0253574214531N12301260WA0103901033000100029020012
B0253584214535N12301258WA0103901033000100031017010
B0253594214540N12301257WA0103901034000100031015011
B0254004214544N12301255WA0104101035000100028012017
B0254014214548N12301255WA0104101035000100027007004
B0254024214552N12301254WA0104101035000100023008012
B0254034214555N12301253WA0104001035000100024014017
B0254044214559N12301251WA0103901034000100027018013
B0254054214563N12301250WA0103801033000100032018003
B0254064214568N12301248WA0103801033000100031014002
B0254074214572N12301247WA0104001033000100031008356
B0254084214576N12301247WA0104201033000100026004014
B0254094214579N12301247WA0104201034000100019000019
B0254104214582N12301247WA0104101033000100021005001
B0254114214585N12301247WA0104101033000100025003001
B0254124214589N12301247WA0103901032000100027354354
B0254134214593N12301248WA0104101032000100027348351
B0254144214597N12301250WA0104301032000100025343354
B0254154214600N12301252WA0104601034000100022342014
B0254164214602N12301253WA0104601034000100016359353
B0254174214604N12301252WA0104501034000100017008357
B0254184214607N12301252WA0104401035000100019003344
B0254194214610N12301252WA0104201035000100023351355
B0254204214613N12301253WA0104201035000100024342358
B0254214214617N12301255WA0104401036000100022348003
B0254224214619N12301255WA0104301036000100016001335
B0254234214621N12301255WA0104201035000100013008335
B0254244214623N12301255WA0104201035000100015359348
B0254254214626N12301256WA0104001035000100022351353
B0254264214629N12301256WA0104201034000100021355006
B0254274214632N12301256WA0104301035000100018003359
B0254284214634N12301255WA0104301036000100012021355
B0254294214636N12301254WA0104301036000100012020355
B0254304214637N12301254WA0104101035000100013007357
B0254314214640N12301254WA0103901034000100020357003
B0254324214643N12301254WA0104001034000100020003015
B0254334214646N12301253WA0104101034000100018016005
B0254344214648N12301251WA0104201035000100016030008
B0254354214650N12301250WA0104201034000100014032355
B0254364214652N12301248WA0104101033000100015023000
B0254374214654N12301247WA0104001033000100018012358
B0254384214657N12301247WA0103901032000100019007001
B0254394214659N12301246WA0104001032000100017002350
B0254404214661N12301246WA0104101033000100013000353
B0254414214663N12301246WA0104201033000100011357341
B0254424214665N12301246WA0104201033000100011352347
B0254434214667N12301247WA0104101033000100012350337
B0254444214669N12301247WA0104001032000100016346345
B0254454214671N12301248WA0104001032000100018343336
B0254464214674N12301249WA0104001032000100018339337
B0254474214676N12301250WA0104101033000100015333345
B0254484214678N12301252WA0104101033000100012333338
B0254494214680N12301253WA0104101033000100012340338
B0254504214681N12301253WA0104001033000100014343342
B0254514214684N12301255WA0103901032000100017338336
B0254524214686N12301256WA0103901032000100017331333
B0254534214688N12301258WA0103901032000100016325340
B0254544214690N12301259WA0103901032000100015328344
B0254554214692N12301261WA0103901032000100015336340
B0254564214694N12301262WA0103801032000100017340344
B0254574214697N12301264WA0103801031000100019334342
B0254584214699N12301265WA0103801032000100019328341
B0254594214702N12301267WA0104001032000100017329354
B0255004214704N12301269WA0104101033000100014341348
B0255014214706N12301269WA0104101033000100013356339
B0255024214708N12301269WA0104001033000100014349331
B0255034214710N12301270WA0104001033000100015333338
B0255044214712N12301271WA0104001032000100015331340
B0255054214714N12301272WA0104001032000100014346345
B0255064214716N12301273WA0104001032000100014355332
B0255074214718N12301273WA0103901032000100014350329
B0255084214720N12301274WA0103901031000100013333320
B0255094214721N12301275WA0103801031000100012324334
B0255104214723N12301277WA0103801031000100011321346
B0255114214724N12301278WA0103701030000100010313330
B0255124214725N12301280WA0103601030000100009306337
B0255134214725N12301281WA0103601029000100010304334
B0255144214726N12301283WA0103401027000100011312317
B0255154214728N12301284WA0103301026000100013316332
B0255164214729N12301286WA0103201024000100015313323
B0255174214731N12301289WA0103101023000100015308324
B0255184214732N12301291WA0103101022000100015297318
B0255194214733N12301294WA0103101022000100015278294
B0255204214732N12301297WA0103001022000100017253270
B0255214214731N12301301WA0102901021000100020237255
B0255224214729N12301305WA0102701020000100025229245
B0255234214724N12301309WA0102601019000100033218247
B0255244214719N12301313WA0102601018000100039207250
B0255254214712N12301316WA0102601018000100041198253
B0255264214706N12301318WA0102601018000100038192241
B0255274214700N12301320WA0102401017000100038194236
B0255284214694N12301322WA0102201016000100039198241
B0255294214688N12301326WA0102101014000100043205241
B0255304214682N12301330WA0102001012000100042204249
B0255314214676N12301333WA0101901011000100040202245
B0255324214671N12301336WA0101701009000100037202240
B0255334214666N12301339WA0101501007000100037205243
B0255344214661N12301342WA0101201004000100039208242
B0255354214655N12301346WA0101101002000100040214249
B0255364214651N12301351WA0100901000000100038219249
B0255374214647N12301356WA0100700999000100039224251
B0255384214642N12301362WA0100600997000100042225253
B0255394214638N12301368WA0100600996000100043224258
B0255404214633N12301374WA0100600996000100044222263
B0255414214628N12301380WA0100700997000100040226262
B0255424214625N12301386WA0100700997000100036235264
B0255434214623N12301392WA0100700997000100033244266
B0255444214620N12301398WA0100600997001100031239274
B0255454214618N12301403WA0100700997000100031231279
B0255464214615N12301408WA0100500995000100028230278
B0255474214613N12301412WA0100200994001100028236278
B0255484214611N12301418WA0100000992001100030247279
B0255494214611N12301425WA0099900991001100033257282
B0255504214610N12301431WA0100000989001100032255282
B0255514214609N12301438WA0100000990001100030251295
B0255524214607N12301443WA0099900990001100026249298
B0255534214606N12301449WA0099800989001100026252299
B0255544214606N12301453WA0099600987001100024262306
B0255554214606N12301458WA0099300985001100023277309
B0255564214608N12301462WA0099100983001100025302315
B0255574214611N12301466WA0099100981001100027315321
B0255584214615N12301469WA0099200981001100024320327
B0255594214618N12301471WA0099200981001100021323329
B0256004214621N12301473WA0099200981001100017330339
B0256014214623N12301475WA0099100980001100018335339
B0256024214627N12301476WA0098900978001100024341333
B0256034214630N12301478WA0098800977001100027333334
B0256044214634N12301480WA0098900976001100026327320
B0256054214636N12301484WA0099000976001100023318322
B0256064214638N12301487WA0098900976001100017301311
B0256074214639N12301490WA0098800975001100016292313
B0256084214640N12301493WA0098600974001100018294290
B0256094214641N12301497WA0098400972001100022293303
B0256104214642N12301502WA0098100970001100027287289
B0256114214643N12301507WA0098000969001100029284283
B0256124214644N12301513WA0098000968001100029280285
B0256134214644N12301519WA0098000967001100029270270
B0256144214643N12301525WA0098000967000100029259271
B0256154214642N12301530WA0097900967000100027255255
B0256164214641N12301536WA0097800967000100027250247
B0256174214639N12301541WA0097700965000100028239247
B0256184214636N12301545WA0097500965000100031228250
B0256194214632N12301550WA0097500964000100033218244
B0256204214628N12301553WA0097400963000100032212224
B0256214214624N12301556WA0097300963000100030209225
B0256224214619N12301559WA0097100961000100031202216
B0256234214615N12301561WA0096900960000100034196216
B0256244214609N12301563WA0096800958000100038190208
B0256254214604N12301564WA0096600957000100038185193
B0256264214598N12301564WA0096600956000100037177187
B0256274214592N12301563WA0096600956000100037170181
B0256284214587N12301561WA0096500955000100036166166
B0256294214581N12301559WA0096500955000100036164164
B0256304214576N12301557WA0096400954000100036158156
B0256314214571N12301554WA0096300953000100038150146
B0256324214566N12301549WA0096300952000100038146158
B0256334214561N12301545WA0096300952000100036146162
B0256344214557N12301541WA0096300952000100035148142
B0256354214552N12301537WA0096400952000100035147148
B0256364214548N12301533WA0096400952000100037141138
B0256374214543N12301528WA0096400953000100036136139
B0256384214539N12301523WA0096500953000100035136151
B0256394214536N12301518WA0096600954000100034137145
B0256404214532N12301513WA0096600955000100033137145
B0256414214528N12301509WA0096600955000100033137151
B0256424214525N12301504WA0096600954000100034135137
B0256434214521N12301499WA0096500954000100036131121
B0256444214518N12301493WA0096600954000100038124112
B0256454214515N12301486WA0096600954000100039117116
B0256464214512N12301479WA0096600954000100039113106
B0256474214510N12301472WA0096800955000100037111122
B0256484214508N12301465WA0096800956000100036109099
B0256494214506N12301458WA0096800956000100037104090
B0256504214505N12301451WA0096700956000100039100094
B0256514214504N12301443WA0096700956000100041096081
B0256524214504N12301435WA0096600956000100041094084
B0256534214503N12301426WA0096600955000100041091084
B0256544214503N12301418WA0096500955000100039086077
B0256554214504N12301411WA0096400954000100037081077
B0256564214505N12301403WA0096400954000100035081087
B0256574214505N12301396WA0096300953000100035083082
B0256584214506N12301389WA0096200952000100035084087
B0256594214506N12301382WA0096200952000100037082079
B0257004214507N12301375WA0096200952000100037079071
B0257014214508N12301368WA0096200952000100033077074
B0257024214509N12301362WA0096300952000100030074071
B0257034214511N12301356WA0096200951000100030073061
B0257044214512N12301350WA0095800950000100031074048
B0257054214514N12301344WA0095600948000100036074067
B0257064214516N12301336WA0095300946000100041069046
B0257074214518N12301328WA0095300945000100041063044
B0257084214522N12301322WA0095300944000100037052040
B0257094214525N12301316WA0095200943000100033045040
B0257104214529N12301312WA0095000941000100030043034
B0257114214532N12301308WA0094800939000100031040021
B0257124214536N12301304WA0094600936000100033030016
B0257134214540N12301301WA0094500934000100033022023
B0257144214545N12301299WA0094400933000100031021042
B0257154214549N12301296WA0094400933000100028028034
B0257164214553N12301294WA0094300932000100028033029
B0257174214556N12301290WA0094200930000100028033029
B0257184214560N12301288WA0094000928000100029027023
B0257194214564N12301285WA0093800926000100032022031
B0257204214568N12301283WA0093600924000100033023033
B0257214214573N12301280WA0093400922000100034028035
B0257224214577N12301276WA0093400921000100035031027
B0257234214582N12301272WA0093300920000100036030023
B0257244214587N12301269WA0093200920000100036026017
B0257254214592N12301266WA0093400919000100033024024
B0257264214596N12301263WA0093500920000100029023015
B0257274214600N12301261WA0093500920000100026021028
B0257284214603N12301260WA0093400920000100027019030
B0257294214608N12301258WA0093300919000100033015020
B0257304214613N12301256WA0093400919000100035014031
B0257314214618N12301254WA0093500920000100034014020
B0257324214622N12301252WA0093600921000100030015022
B0257334214626N12301251WA0093700922000100026020021
B0257344214630N12301249WA0093700922000100028016011
B0257354214634N12301248WA0093600922000100030007008
B0257364214639N12301248WA0093500922000100034358351
B0257374214644N12301248WA0093500923000100035000010
B0257384214650N12301247WA0093700923000100032005013
B0257394214654N12301246WA0093800924000100026011358
B0257404214657N12301245WA0093700925000100023014003
B0257414214660N12301244WA0093500925000100022010353
B0257424214663N12301244WA0093200924000100023007355
B0257434214667N12301244WA0092900922000100026001351
B0257444214672N12301245WA0092700920000100032354349
B0257454214676N12301246WA0092600918000100029347338
B0257464214680N12301247WA0092500916000100026347347
B0257474214684N12301248WA0092300914000100024354349
B0257484214688N12301249WA0092000911001100026357348
B0257494214692N12301249WA0091900909000100030353350
B0257504214697N12301250WA0091800906000100030352340
B0257514214701N12301251WA0091800905000100030349350
B0257524214705N12301253WA0091900904000100027346357
B0257534214709N12301254WA0091900904001100024345351
B0257544214712N12301256WA0091800903000100026345355
B0257554214716N12301258WA0091700902001100031339341
B0257564214721N12301260WA0091700902001100033335343
B0257574214726N12301264WA0091900902000100033331336
B0257584214730N12301267WA0092200902000100032328341
B0257594214733N12301271WA0092400904000100026326323
B0258004214736N12301273WA0092500904000100021331334
B0258014214739N12301275WA0092500905000100021332325
B0258024214741N12301278WA0092300904000100023326326
B0258034214744N12301281WA0092300904000100023313323
B0258044214746N12301284WA0092300905000100019314329
B0258054214748N12301286WA0092200905000100015317319
B0258064214749N12301288WA0092200905000100014314310
B0258074214751N12301291WA0092000904000100018307312
B0258084214752N12301294WA0091900903000100021297309
B0258094214753N12301298WA0091900902000100021297334
B0258104214755N12301302WA0091800903000100018308325
B0258114214757N12301304WA0091800902000100015323338
B0258124214759N12301306WA0091700902000100015323323
B0258134214760N12301308WA0091700902000100015318330
B0258144214762N12301310WA0091600901000100011312320
B0258154214763N12301311WA0091500901000100009319325
B0258164214764N12301313WA0091300900000100010323323
B0258174214765N12301314WA0091200899000100011312314
B0258184214766N12301316WA0091100897000100013298311
B0258194214767N12301318WA0091000896000100014290314
B0258204214767N12301321WA0090900895000100014291318
B0258214214768N12301323WA0090800894000100013297320
B0258224214769N12301326WA0090600893000100012301323
B0258234214770N12301328WA0090500891000100012305326
B0258244214771N12301330WA0090400890000100013315329
B0258254214773N12301331WA0090300889000100014325333
B0258264214775N12301333WA0090100888001100015327319
B0258274214777N12301335WA0090000887001100015319314
B0258284214778N12301337WA0090000886001100014306313
B0258294214779N12301339WA0090000885001100012295314
B0258304214780N12301341WA0089900884001100010295306
B0258314214780N12301343WA0089700883001100012303312
B0258324214782N12301345WA0089600881001100015308311
B0258334214783N12301347WA0089600881001100017310314
B0258344214785N12301350WA0089500880000100019315319
B0258354214787N12301352WA0089400879000100019322323
B0258364214789N12301355WA0089400879000100018321316
B0258374214791N12301357WA0089400878000100017312316
B0258384214793N12301360WA0089300877000100015306329
B0258394214794N12301362WA0089200876000100015308324
B0258404214796N12301364WA0089000875000100017315327
B0258414214797N12301367WA0088900874000100018318325
B0258424214799N12301369WA0088800873000100019317328
B0258434214801N12301372WA0088700872000100019315326
B0258444214803N12301375WA0088700871001100019318330
B0258454214806N12301377WA0088600871001100018322335
B0258464214808N12301379WA0088600870001100016332335
B0258474214810N12301380WA0088600870001100016334321
B0258484214812N12301382WA0088600870001100014328310
B0258494214813N12301384WA0088500869001100014313310
B0258504214814N12301386WA0088400868000100014298307
B0258514214815N12301388WA0088300867000100015291306
B0258524214816N12301391WA0088100866000100017295315
B0258534214818N12301395WA0088100865000100019301310
B0258544214819N12301398WA0088000864000100019304315
B0258554214821N12301401WA0088000864000100019308311
B0258564214823N12301404WA0088000864000100019311321
B0258574214825N12301407WA0088100864000100019307315
B0258584214826N12301410WA0088200864000100016297304
B0258594214827N12301413WA0088200865000100015285311
B0259004214828N12301416WA0088200865000100016280309
B0259014214828N12301419WA0088100864000100019280291
B0259024214828N12301423WA0088100864000100023276288
B0259034214828N12301428WA0088000864000100024264267
B0259044214828N12301433WA0088100863000100027252272
B0259054214826N12301438WA0088000863000100028239270
B0259064214823N12301443WA0088000863000100028233278
B0259074214821N12301447WA0087900863000100026232270
B0259084214818N12301451WA0087900862000100027231262
B0259094214816N12301456WA0087800861000100030226252
B0259104214812N12301460WA0087800861000100033218239
B0259114214808N12301464WA0087700860000100032210247
B0259124214804N12301467WA0087800860000100029203254
B0259134214800N12301469WA0087700859000100026205241
B0259144214797N12301472WA0087400858000100026210241
B0259154214793N12301474WA0087300856000100029210243
B0259164214789N12301478WA0087200855000100031209248
B0259174214785N12301481WA0087100854000100029213251
B0259184214782N12301484WA0087000853000100026219253
B0259194214779N12301487WA0086900853000100023217245
B0259204214776N12301490WA0086800852000100023210242
B0259214214773N12301492WA0086700850000100025202230
B0259224214769N12301494WA0086600849000100027203261
B0259234214765N12301497WA0086300847000100028211249
B0259244214762N12301500WA0086200846000100026226263
B0259254214760N12301504WA0086000844000100024246274
B0259264214759N12301509WA0086100843000100021256287
B0259274214761N12301513WA0086000842000100019288296
B0259284214764N12301515WA0086100842000100019324316
B0259294214768N12301516WA0086000842000100020350332
B0259304214772N12301515WA0085900841000100023007348
B0259314214775N12301513WA0085700841000100025025001
B0259324214779N12301509WA0085700840000100029034014
B0259334214783N12301506WA0085700840000100027035014
B0259344214786N12301503WA0085700840000100024034022
B0259354214789N12301500WA0085700840000100023036023
B0259364214792N12301497WA0085600839000100024043020
B0259374214795N12301493WA0085400838000100026046030
B0259384214797N12301489WA0085300837000100026046036
B0259394214800N12301485WA0085200835000100027052044
B0259404214802N12301480WA0085100834000100029061049
B0259414214804N12301475WA0084900832000100031067046
B0259424214806N12301469WA0084800830000100034069044
B0259434214807N12301462WA0084600827000100036068035
B0259444214810N12301455WA0084400825000100037065048
B0259454214812N12301449WA0084300824000100036059030
B0259464214815N12301443WA0084100822000100034055023
B0259474214818N12301437WA0084000821000100030052011
B0259484214821N12301433WA0084000820000100026045002
B0259494214823N12301430WA0083800819000100022036358
B0259504214826N12301428WA0083700818000100019021356
B0259514214828N12301427WA0083600817000100016004342
B0259524214831N12301428WA0083500816000100015345333
B0259534214833N12301429WA0083400815000100014320318
B0259544214834N12301431WA0083400814000100013297318
B0259554214834N12301434WA0083300814000100013274306
B0259564214835N12301437WA0083200813000100014271300
B0259574214835N12301440WA0083100812000100016282306
B0259584214836N12301443WA0083000810001100018288310
B0259594214836N12301446WA0082900810000100017290313
B0300004214837N12301450WA0082900810000100015289308
B0300014214838N12301452WA0082900810000100012294312
B0300024214839N12301454WA0082800809000100011313323
B0300034214841N12301456WA0082700809000100013328320
B0300044214843N12301457WA0082700808000100015337323
B0300054214845N12301458WA0082700808000100016337322
B0300064214847N12301460WA0082700808000100016336326
B0300074214849N12301461WA0082600809001100015339329
B0300084214851N12301462WA0082600808001100015348332
B0300094214854N12301462WA0082600808001100016354328
B0300104214856N12301463WA0082600808001100017353330
B0300114214858N12301463WA0082500808001100015345330
B0300124214860N12301464WA0082400808001100012330323
B0300134214862N12301466WA0082400807001100013316338
B0300144214863N12301468WA0082300806001100015311329
B0300154214864N12301470WA0082200805001100014316325
B0300164214866N12301472WA0082100803001100014315330
B0300174214867N12301474WA0082000803001100013308323
B0300184214868N12301476WA0081800801001100011299320
B0300194214869N12301478WA0081700799001100012309339
B0300204214870N12301480WA0081400797001100015329340
B0300214214873N12301481WA0081200795001100019337349
B0300224214875N12301483WA0081100793001100019337356
B0300234214878N12301484WA0081100792001100018345003
B0300244214880N12301484WA0081000791001100017357354
B0300254214883N12301484WA0080800790001100017357347
B0300264214885N12301485WA0080700788001100015339328
B0300274214887N12301487WA0080600786001100017321323
B0300284214889N12301489WA0080400785001100018311321
B0300294214891N12301492WA0080300784001100017311319
B0300304214892N12301494WA0080300783001100016308312
B0300314214893N12301497WA0080100782001100016292298
B0300324214894N12301500WA0080000780001100018275300
B0300334214894N12301504WA0079800779001100021263302
B0300344214894N12301509WA0079700778001100022265310
B0300354214893N12301513WA0079700777001100019265299
B0300364214893N12301517WA0079700777001100016265304
B0300374214893N12301520WA0079800777001100016256284
B0300384214892N12301523WA0079800776001100017251287
B0300394214891N12301527WA0079600775001100020255296
B0300404214890N12301531WA0079600775001100022256294
B0300414214890N12301535WA0079500774001100022257292
B0300424214889N12301539WA0079500774001100020263303
B0300434214889N12301543WA0079400774001100019281312
B0300444214891N12301547WA0079300773001100022298313
B0300454214893N12301551WA0079200773001100028306317
B0300464214896N12301556WA0079200772001100030303329
B0300474214898N12301562WA0079200772001100029297332
B0300484214899N12301567WA0079300772000100023291310
B0300494214901N12301570WA0079200772000100019293299
B0300504214902N12301574WA0079100771000100022291283
B0300514214903N12301579WA0078900771000100026285267
B0300524214903N12301585WA0078900770000100033273266
B0300534214903N12301593WA0079000770000100033266266
B0300544214902N12301600WA0079300769000100033265267
B0300554214899N12301606WA0079400770000100029248276
B0300564214896N12301611WA0079400772000100025240258
B0300574214894N12301615WA0079200772000100026242253
B0300584214892N12301620WA0079100772000100029239234
B0300594214888N12301626WA0079100771000100036231254
B0301004214884N12301631WA0079300771000100036228251
B0301014214880N12301636WA0079400772000100034225266
B0301024214876N12301641WA0079500773000100028223249
B0301034214873N12301644WA0079500774000100025221249
B0301044214870N12301648WA0079200774000100026219224
B0301054214866N12301651WA0078900773000100030219242
B0301064214862N12301656WA0078900773000100038219238
B0301074214856N12301662WA0079000773000100039216245
B0301084214851N12301666WA0079100773000100036210222
B0301094214846N12301669WA0079100773000100033200225
B0301104214841N12301671WA0078900772000100033194209
B0301114214836N12301672WA0078700771000100035191208
B0301124214830N12301673WA0078600769000100039187208
B0301134214824N12301673WA0078700769000100038184219
B0301144214818N12301674WA0078700769000100035184214
B0301154214813N12301674WA0078600768000100033189209
B0301164214808N12301676WA0078500767000100035194214
B0301174214803N12301677WA0078300765000100038194199
B0301184214797N12301679WA0078300764000100040192206
B0301194214791N12301681WA0078400763000100039191216
B0301204214785N12301682WA0078400764000100035190210
B0301214214780N12301683WA0078500764000100035192217
B0301224214775N12301685WA0078400765000100036192210
B0301234214770N12301686WA0078500765000100037193219
B0301244214764N12301688WA0078600765000100037192196
B0301254214759N12301689WA0078600765000100037188206
B0301264214753N12301690WA0078700766000100036185199
B0301274214748N12301690WA0078700767000100035183189
B0301284214743N12301691WA0078800768000100034180202
B0301294214737N12301690WA0078800768000100034176187
B0301304214732N12301690WA0078800768000100034176196
B0301314214727N12301690WA0078700767000100036179190
B0301324214721N12301690WA0078700767000100039180200
B0301334214715N12301689WA0078800768000100039180186
B0301344214710N12301689WA0079000769000100038176195
B0301354214704N12301688WA0079000770000100035168188
B0301364214700N12301686WA0079000770000100032160174
B0301374214695N12301684WA0079000770000100034154185
B0301384214690N12301680WA0079000769000100040154178
B0301394214685N12301677WA0078900769000100040157181
B0301404214679N12301674WA0079100770000100038160200
B0301414214674N12301672WA0079100771000100034160176
B0301424214670N12301669WA0079100772000100031157171
B0301434214666N12301667WA0079100772000100032154168
B0301444214661N12301664WA0079000771000100035152156
B0301454214656N12301660WA0079000771000100040150173
B0301464214651N12301656WA0079000771000100042146152
B0301474214646N12301651WA0079100771000100040140161
B0301484214642N12301645WA0079000771000100040136136
B0301494214637N12301640WA0079000771000100041135144
B0301504214633N12301633WA0079000771000100043131130
B0301514214628N12301626WA0079100771000100045130145
B0301524214624N12301620WA0079200772000100044131151
B0301534214619N12301613WA0079200772000100044134151
B0301544214615N12301607WA0079300773000100043135146
B0301554214610N12301601WA0079400773000100045138145
B0301564214605N12301595WA0079100772000100046142156
B0301574214599N12301590WA0078900771000100046146144
B0301584214593N12301585WA0078700769000100045143125
B0301594214588N12301579WA0078400767000100044137118
B0302004214584N12301572WA0078100765000100047129112
B0302014214580N12301564WA0078000763000100049122127
B0302024214576N12301555WA0077900761000100049121121
B0302034214572N12301547WA0077900761000100045119101
B0302044214569N12301539WA0077800759000100043117082
B0302054214567N12301531WA0077500757000100042113072
B0302064214565N12301523WA0077200755000100040106062
B0302074214565N12301515WA0076900752000100039093049
B0302084214567N12301508WA0076600749000100035072034
B0302094214572N12301504WA0076400747000100026035018
B0302104214578N12301504WA0076200745000100027349359
B0302114214582N12301506WA0076100743000100025343342
B0302124214585N12301509WA0076000741000100019334335
B0302134214588N12301511WA0075800738000100013324317
B0302144214590N12301513WA0075500735000100012310298
B0302154214590N12301516WA0075000732000100012287281
B0302164214590N12301520WA0074700728000100017256270
B0302174214587N12301525WA0074500725000100026229243
B0302184214582N12301529WA0074500722001100030206223
B0302194214575N12301530WA0074500721001100031177208
B0302204214568N12301524WA0074500719001100039147184
B0302214214563N12301517WA0074500718001100039132145
B0302224214559N12301510WA0074400717001100038121127
B0302234214556N12301502WA0074200715001100040117113
B0302244214556N12301494WA0073900713001100038099108
B0302254214556N12301485WA0073700712001100041084085
B0302264214558N12301476WA0073600711001100041074062
B0302274214561N12301468WA0073500711000100038064055
B0302284214564N12301462WA0073500710000100035056045
B0302294214567N12301457WA0073500709000100033046035
B0302304214571N12301453WA0073400709000100032042034
B0302314214575N12301448WA0073300708000100034042030
B0302324214579N12301444WA0073200707000100037040032
B0302334214584N12301439WA0073100707000100040038034
B0302344214588N12301434WA0073100707000100040037035
B0302354214593N12301429WA0073100707000100038039042
B0302364214597N12301424WA0073100708000100036040037
B0302374214601N12301419WA0073100708000100035041034
B0302384214605N12301415WA0073000708000100036038031
B0302394214610N12301410WA0073000707000100039036035
B0302404214615N12301405WA0072900707000100042035032
B0302414214620N12301400WA0072900707000100044034020
B0302424214626N12301395WA0072900707000100045031018
B0302434214631N12301391WA0073000707000100042030003
B0302444214636N12301386WA0073100708000100040033021
B0302454214641N12301382WA0073000708000100040038012
B0302464214646N12301377WA0072900707000100042038021
B0302474214651N12301372WA0072900707000100043033020
B0302484214657N12301367WA0073000707000100043032034
B0302494214662N12301362WA0072900707000100043038050
B0302504214667N12301356WA0072900706000100043045044
B0302514214671N12301349WA0072900706000100042046039
B0302524214675N12301343WA0072800705000100043043026
B0302534214681N12301337WA0072700704000100044038033
B0302544214686N12301332WA0072700704000100044035036
B0302554214691N12301327WA0072700703000100043035036
B0302564214696N12301322WA0072600703000100039034027
B0302574214701N12301318WA0072600702000100038033028
B0302584214706N12301314WA0072400701000100044032011
B0302594214712N12301309WA0072500700000100048030020
B0303004214719N12301304WA0072500701000100047028012
B0303014214725N12301300WA0072700702000100043027010
B0303024214730N12301296WA0072800704000100039027011
B0303034214735N12301292WA0072800704000100038028006
B0303044214740N12301289WA0072800704000100039026004
B0303054214746N12301285WA0072700704000100042021359
B0303064214752N12301283WA0072700704000100042016003
B0303074214758N12301280WA0072700705000100042014358
B0303084214764N12301278WA0072800705000100042016004
B0303094214770N12301276WA0073000706000100040018008
B0303104214775N12301273WA0073100707000100036019344
B0303114214780N12301271WA0073200708000100033019345
B0303124214785N12301269WA0073200709000100033017347
B0303134214789N12301267WA0073100709000100031012340
B0303144214793N12301267WA0073000708000100029005341
B0303154214798N12301267WA0072800707000100028357343
B0303164214802N12301267WA0072700706000100029000350
B0303174214806N12301267WA0072500704000100032004342
B0303184214811N12301267WA0072400702000100033003357
B0303194214816N12301267WA0072200701000100030355330
B0303204214820N12301268WA0072100699000100027349346
B0303214214824N12301269WA0071800696000100028345330
B0303224214828N12301270WA0071600694000100032344333
B0303234214833N12301272WA0071400693000100035342325
B0303244214838N12301275WA0071300692000100034339332
B0303254214842N12301277WA0071300691000100028336322
B0303264214846N12301279WA0071200690000100024333311
B0303274214849N12301281WA0071000688000100021330310
B0303284214851N12301284WA0070800686000100024324307
B0303294214854N12301287WA0070500683000100027314329
B0303304214857N12301291WA0070400681000100027317343
B0303314214860N12301294WA0070300679000100027330001
B0303324214865N12301296WA0069900676000100030347343
B0303334214871N12301293WA0069600674000100041009326
B0303344214878N12301292WA0069600673000100039003318
B0303354214882N12301293WA0069200670000100032348304
B0303364214885N12301297WA0068800667000100022306298
B0303374214884N12301304WA0068700664000100023274273
B0303384214882N12301310WA0068700662000100023254262
B0303394214877N12301315WA0068700662000100020230258
B0303404214873N12301317WA0068400659000100019212240
B0303414214869N12301318WA0068100657000100023206238
B0303424214865N12301320WA0067800654000100028207253
B0303434214861N12301324WA0067600651000100028222259
B0303444214859N12301329WA0067400649000100025254268
B0303454214859N12301335WA0067400647000100023266279
B0303464214861N12301340WA0067400646000100021282275
B0303474214864N12301344WA0067300646000100022297280
B0303484214866N12301349WA0067200644000100022286286
B0303494214868N12301354WA0067100643000100025281290
B0303504214869N12301359WA0067000643000100026285286
B0303514214870N12301364WA0066900642000100024284282
B0303524214871N12301368WA0066900641000100022275282
B0303534214872N12301373WA0066700640000100024274293
B0303544214872N12301378WA0066500638000100026281299
B0303554214874N12301383WA0066300636000100029291298
B0303564214876N12301389WA0066300634000100032296292
B0303574214878N12301395WA0066300634000100033295301
B0303584214881N12301401WA0066400633000100030293300
B0303594214882N12301406WA0066400633001100025290296
B0304004214884N12301410WA0066400633001100021295299
B0304014214885N12301414WA0066300633001100023299295
B0304024214887N12301418WA0066200632001100025296290
B0304034214888N12301423WA0066100631001100025291290
B0304044214890N12301427WA0066100631001100023286292
B0304054214891N12301432WA0066100631001100022288293
B0304064214892N12301436WA0066000631001100021291291
B0304074214893N12301440WA0065900630001100021288287
B0304084214894N12301444WA0065700629000100023282284
B0304094214895N12301449WA0065500627000100026280285
B0304104214895N12301454WA0065400626000100026285308
B0304114214897N12301459WA0065300626000100025291298
B0304124214898N12301463WA0065300626000100024301313
B0304134214900N12301467WA0065200625001100024311304
B0304144214903N12301471WA0065000624001100026315296
B0304154214906N12301475WA0064800622001100027310293
B0304164214908N12301479WA0064700621001100029303295
B0304174214910N12301484WA0064700620001100028299297
B0304184214913N12301488WA0064600619000100027303301
B0304194214915N12301493WA0064500619000100026307296
B0304204214917N12301497WA0064500618000100026306297
B0304214214920N12301501WA0064500617000100028305311
B0304224214922N12301506WA0064400616000100029308309
B0304234214925N12301510WA0064300616000100029311315
B0304244214928N12301514WA0064300615000100028310302
B0304254214930N12301519WA0064300614000100027304314
B0304264214932N12301523WA0064100613000100027299297
B0304274214934N12301528WA0064000612000100028296308
B0304284214936N12301533WA0063900611000100028296310
B0304294214938N12301538WA0063800610000100029299305
B0304304214941N12301544WA0063800609000100030302317
B0304314214943N12301549WA0063800609000100030303313
B0304324214946N12301553WA0063900610000100028307316
B0304334214948N12301557WA0063800611000100025312314
B0304344214951N12301561WA0063800611000100024314314
B0304354214953N12301564WA0063600611000100024308302
B0304364214955N12301569WA0063600610000100028302307
B0304374214958N12301574WA0063600609000100031302313
B0304384214960N12301579WA0063800608000100030301310
B0304394214962N12301584WA0063900609000100027302312
B0304404214964N12301587WA0063900609000100021303298
B0304414214966N12301591WA0063800610000100022302307
B0304424214967N12301595WA0063500610000100023301304
B0304434214969N12301599WA0063500609000100029298306
B0304444214972N12301604WA0063600609000100030300295
B0304454214974N12301609WA0063700609000100026299288
B0304464214975N12301613WA0063700609000100021293290
B0304474214976N12301617WA0063600609000100019287288
B0304484214977N12301621WA0063400608000100019289299
B0304494214978N12301625WA0063300606000100024294297
B0304504214980N12301629WA0063100605000100027298300
B0304514214982N12301634WA0063200605001100026296286
B0304524214983N12301639WA0063300605001100022292281
B0304534214985N12301643WA0063200605001100019293285
B0304544214986N12301646WA0063200604001100019294284
B0304554214987N12301649WA0063100603001100019291277
B0304564214988N12301653WA0063000603001100020280273
B0304574214988N12301658WA0062900602001100022272275
B0304584214988N12301662WA0062800601001100023273282
B0304594214989N12301667WA0062700599001100023282286
B0305004214990N12301671WA0062700599001100022284267
B0305014214990N12301675WA0062600598001100020276262
B0305024214990N12301679WA0062500597001100022261253
B0305034214989N12301684WA0062400596001100023246250
B0305044214987N12301688WA0062500595001100020238258
B0305054214986N12301691WA0062400595001100018236260
B0305064214984N12301694WA0062300594001100017240255
B0305074214983N12301697WA0062200592001100019236237
B0305084214981N12301700WA0062000590001100022222219
B0305094214978N12301703WA0061900589001100025211225
B0305104214974N12301705WA0061900588001100026201224
B0305114214970N12301706WA0061900589001100025194216
B0305124214967N12301707WA0061900589001100023188209
B0305134214963N12301708WA0061900589001100024181198
B0305144214959N12301707WA0061800588001100027172182
B0305154214955N12301706WA0061600587001100030164176
B0305164214950N12301704WA0061500586001100032153159
B0305174214946N12301700WA0061500585001100036146169
B0305184214941N12301695WA0061400585001100036141168
B0305194214937N12301691WA0061300584001100034141164
B0305204214933N12301687WA0061300584001100033141153
B0305214214929N12301682WA0061100583001100033136150
B0305224214925N12301677WA0061000582001100037133148
B0305234214921N12301672WA0061000582001100039131149
B0305244214917N12301665WA0061000581001100040129152
B0305254214914N12301659WA0060900581001100039126147
B0305264214910N12301652WA0060800580001100040122132
B0305274214907N12301645WA0060800579001100042119133
B0305284214904N12301637WA0060700578001100045114109
B0305294214902N12301628WA0060600578001100045108111
B0305304214900N12301619WA0060600578001100046097108
B0305314214900N12301610WA0060600578001100046092120
B0305324214899N12301600WA0060600578001100045092104
B0305334214899N12301591WA0060500577001100046090094
B0305344214899N12301581WA0060400576001100048086083
B0305354214901N12301571WA0060300575001100047077088
B0305364214903N12301560WA0060300575001100054075106
B0305374214905N12301550WA0060400576001100051079099
B0305384214906N12301540WA0060400576001100047086100
B0305394214906N12301530WA0060500577001100045087103
B0305404214906N12301521WA0060500577001100043086110
B0305414214907N12301513WA0060500577001100042088109
B0305424214907N12301505WA0060400576001100041094140
B0305434214906N12301496WA0060300576001100042101141
B0305444214904N12301488WA0060200575001100044108131
B0305454214902N12301480WA0060100575001100043111159
B0305464214899N12301472WA0060200575001100040116129
B0305474214896N12301466WA0060200575001100036123140
B0305484214892N12301461WA0060200575001100032134150
B0305494214889N12301456WA0060100574001100031135155
B0305504214885N12301452WA0060000572001100033130153
B0305514214882N12301447WA0060000572001100034125149
B0305524214879N12301441WA0060100572001100033122148
B0305534214877N12301436WA0060000572001100032121150
B0305544214874N12301431WA0060000571001100031120162
B0305554214872N12301426WA0059900570001100030128179
B0305564214869N12301422WA0059700569001100025142192
B0305574214866N12301421WA0059400567001100019168213
B0305584214864N12301423WA0059100565001100017222233
B0305594214863N12301429WA0058900563001100018261262
B0306004214866N12301435WA0059000562001100024308278
B0306014214870N12301440WA0059100562001100026317298
B0306024214874N12301443WA0059200561001100020318293
B0306034214876N12301446WA0059000560001100016316279
B0306044214877N12301449WA0058800558001100014294270
B0306054214875N12301452WA0058600557001100017227257
B0306064214871N12301454WA0058600557001100021190225
B0306074214866N12301453WA0058600556001100029156203
B0306084214861N12301449WA0058600555001100034142171
B0306094214858N12301443WA0058600555001100032127158
B0306104214855N12301438WA0058600555001100030123148
B0306114214853N12301433WA0058500553001100031122149
B0306124214850N12301427WA0058400552001100037121140
B0306134214847N12301420WA0058200551001100039121140
B0306144214844N12301413WA0058300551001100039121146
B0306154214841N12301407WA0058400550001100032125166
B0306164214838N12301402WA0058300550001100029135181
B0306174214835N12301400WA0058100548001100023151200
B0306184214832N12301402WA0057900547001100018211219
B0306194214831N12301405WA0057800546001100017239253
B0306204214831N12301410WA0057600544001100018275265
B0306214214835N12301414WA0057700543001100022309277
B0306224214838N12301417WA0057700543001100023322292
B0306234214841N12301421WA0057700543001100019310296
B0306244214843N12301424WA0057500542001100020294291
B0306254214845N12301428WA0057500542001100022298285
B0306264214847N12301432WA0057500543001100020303293
B0306274214848N12301435WA0057400542001100015307297
B0306284214850N12301437WA0057400541001100016316310
B0306294214852N12301439WA0057200540001100019322310
B0306304214855N12301442WA0057000538001100026327309
B0306314214859N12301445WA0056800537001100030322299
B0306324214862N12301449WA0056800536001100028313277
B0306334214864N12301453WA0056700535001100023298257
B0306344214863N12301457WA0056700535001100017259248
B0306354214860N12301459WA0056600534001100016209234
B0306364214856N12301458WA0056600533001100019175215
B0306374214853N12301456WA0056600533001100020154198
B0306384214849N12301454WA0056600533001100021153197
B0306394214846N12301452WA0056400532001100023156200
B0306404214843N12301451WA0056200530001100022173204
B0306414214839N12301452WA0056000529001100025198220
B0306424214835N12301455WA0056000528001100024216237
B0306434214833N12301459WA0056000527001100023234252
B0306444214832N12301463WA0055900527001100019246261
B0306454214832N12301467WA0055800526001100015267262
B0306464214832N12301470WA0055700525001100014264260
B0306474214832N12301473WA0055400523001100017255259
B0306484214831N12301477WA0055100521001100023253260
B0306494214830N12301482WA0054900519001100028260261
B0306504214830N12301488WA0054800517001100030261259
B0306514214829N12301494WA0055000516001100029256259
B0306524214828N12301499WA0055200515001100024249245
B0306534214826N12301501WA0055200515001100016222235
B0306544214824N12301502WA0055100515001100015211241
B0306554214823N12301504WA0054900514001100015226245
B0306564214821N12301506WA0054700513001100018238244
B0306574214820N12301509WA0054600512001100020240247
B0306584214819N12301512WA0054500512001100020239240
B0306594214817N12301516WA0054500512001100018237241
B0307004214816N12301518WA0054500511001100015233244
B0307014214815N12301520WA0054400511001100010235250
B0307024214814N12301521WA0054400511001100006249329
B0307034214814N12301522WA0054400510001100000249028
B0307044214814N12301522WA0054400510001100000249136
B0307054214814N12301522WA0054400510001100000249169
B0307064214814N12301521WA0054400510001100000249316
B0307074214814N12301521WA0054400510001100000249303
B0307084214815N12301520WA0054500510001100000249297
B0307094214815N12301520WA0054400510001100000249207
B0307104214815N12301520WA0054400510001100000249277
B0307114214815N12301520WA0054400510001100000249272
B0307124214815N12301520WA0054400510001100000249271
B0307134214815N12301520WA0054500510001100000249267
B0307144214815N12301520WA0054400510001100000249234
B0307154214815N12301520WA0054400510001100000249237
B0307164214815N12301520WA0054400510001100000249239
B0307174214815N12301520WA0054400510001100000249241
B0307184214815N12301520WA0054500510001100000249242
B0307194214815N12301520WA0054400510001100000249243
B0307204214815N12301520WA0054500510001100000249244
B0307214214815N12301520WA0054400510001100000249245
B0307224214815N12301520WA0054500510001100000249246
B0307234214815N12301520WA0054400510001100000249251
B0307244214815N12301520WA0054400510001100000249250
B0307254214815N12301520WA0054400510001100000249250
B0307264214815N12301520WA0054500510001100000249250
B0307274214815N12301520WA0054400510001100000249250
B0307284214815N12301520WA0054400510001100000249250
B0307294214815N12301520WA0054500510001100000249250
B0307304214815N12301520WA0054400510001100000249249
B0307314214815N12301520WA0054500510001100000249248
B0307324214815N12301519WA0054400513001100001249248
GtQLmiWEKdtEhcjvg8H+0s1S8qeo9cCQCfMiImlNSFtwacQlM4bNtCIjef2M4alR3
GqNVd6+3uhNYcyeczfelEax7Sv7sjDrCe7j7DPXvH5QElD5d3PVW6RHliLvKK4+7g
GvTwAEfkMyj4rHxRTsZWjrtmSKqHWNdSSRKLhQQ3Yopg=

