AXFH000
HFDTE050125
HFPLTPILOT:Scott O’Brien
HFGTYGLIDERTYPE:Ozone Swift 6
HFDTM100GPSDATUM:WGS84
HFRFWFIRMWAREVERSION:8.2.5
HFRHWHARDWAREVERSION:iPhone 15
HFFTYFRTYPE:Flyskyhy,8.2.5
HFGPS:Internal
HFPRSVARIO:Internal Vario
HFCCLCOMPETITIONCLASS:Paraglider
HFTZNTIMEZONE:-8
HFSITSITE:Ed Levin 300ft,US
I053638FXA3941VXA4244GSP4547CCO4850HDT
C050125201222050125000105TASK
C0000000N00000000ETAKEOFF
C3832449N11204411W00000000001000000000360000STARTAREA T04
C3832449N11204411W00030009999999000000360000TURNAREA T04
C3833533N11148217W00000000002000000000360000TURNAREA P30
C3845304N11125100W00000000006000000000360000TURNAREA S08
C3913309N11109083W00000000002000000000360000TURNAREA F04
C3935774N11050460W00000000003000000000360000TURNAREA G14
C3935774N11050460W00000000000400000000360000FINISHAREA G14
C0000000N00000000ELANDING
B2012523727662N12151866WA0028100281004003000276050
B2012533727662N12151866WA0028100281004003000276049
B2012543727662N12151866WA0028100281004003000276049
B2012553727662N12151866WA0028100281004003000276055
B2012563727662N12151866WA0028100281004003000279086
B2012573727662N12151867WA0028100280004003007260092
B2012583727662N12151868WA0028100281004003000260097
B2012593727661N12151867WA0028100281004003000260096
B2013003727661N12151867WA0028100281004003000260088
B2013013727661N12151867WA0028100281004003000263034
B2013023727662N12151867WA0028100281004003002055062
B2013033727662N12151867WA0028100281004003002055058
B2013043727662N12151867WA0028100282004003002055048
B2013053727662N12151867WA0028100282004003001055066
B2013063727662N12151867WA0028200282004003002055349
B2013073727662N12151868WA0028200281004003008232243
B2013083727661N12151870WA0028200281004003009231227
B2013093727660N12151871WA0028100280004003009225225
B2013103727659N12151872WA0028100280004003009220235
B2013113727658N12151873WA0028000278004003011210230
B2013123727656N12151874WA0028000278004003012209225
B2013133727655N12151875WA0027800278004003012216246
B2013143727653N12151878WA0027700276004003012214227
B2013153727651N12151880WA0027600274004003017210222
B2013163727646N12151882WA0027500273004003032199231
B2013173727643N12151883WA0027300274004003032194230
B2013183727640N12151884WA0027200274004003025188306
B2013193727637N12151885WA0027100273004003020196262
B2013203727634N12151885WA0027100271004003020193226
B2013213727629N12151887WA0027000267004003035195250
B2013223727625N12151889WA0027000265004003032196275
B2013233727622N12151891WA0026900266004003032225275
B2013243727622N12151895WA0026700267004003018264285
B2013253727620N12151898WA0026700269004003020260292
B2013263727621N12151901WA0026600270004003018278283
B2013273727621N12151904WA0026600268004003016278291
B2013283727621N12151909WA0026600267004003025263284
B2013293727621N12151914WA0026600267004003030271287
B2013303727622N12151918WA0026700266004003025276286
B2013313727623N12151921WA0026700270004003023308288
B2013323727624N12151923WA0026700271004003016317304
B2013333727626N12151925WA0026700272004003017309297
B2013343727628N12151932WA0026700270004003030287311
B2013353727629N12151936WA0026800273004003028292320
B2013363727631N12151939WA0026800275004003028304314
B2013373727632N12151942WA0026900278004003020308316
B2013383727634N12151944WA0027000280004003016313295
B2013393727636N12151947WA0027100280004003020311304
B2013403727638N12151950WA0027300280004003020309337
B2013413727640N12151954WA0027400280004003023303298
B2013423727641N12151958WA0027600282004003025296325
B2013433727642N12151961WA0027600284004003017277278
B2013443727642N12151963WA0027700286004003017264259
B2013453727641N12151966WA0027800285004003012245241
B2013463727640N12151968WA0027900284004003012231226
B2013473727637N12151970WA0028000283004003017201198
B2013483727634N12151971WA0028100282004003031184175
B2013493727629N12151967WA0028100279004003045148155
B2013503727624N12151962WA0028100279004003045127124
B2013513727623N12151952WA0028000278004003047091105
B2013523727623N12151944WA0027900278004003047075076
B2013533727625N12151937WA0027800278004003038078076
B2013543727625N12151930WA0027700276004003038086079
B2013553727625N12151923WA0027600275004004037090089
B2013563727624N12151913WA0027600275004004037097087
B2013573727623N12151904WA0027500278004003043094092
B2013583727623N12151897WA0027500280004003038082093
B2013593727624N12151890WA0027500281004003038075078
B2014003727624N12151883WA0027500282004003038084092
B2014013727625N12151875WA0027500282004003038082095
B2014023727626N12151867WA0027600282004004042082106
B2014033727625N12151859WA0027700284004003043089105
B2014043727625N12151852WA0027800284004003043097109
B2014053727624N12151846WA0027800284004003037106118
B2014063727622N12151840WA0027900283004003036123126
B2014073727618N12151835WA0028000282004003036142145
B2014083727613N12151832WA0028000282004003036167169
B2014093727609N12151834WA0028000283004003036211194
B2014103727605N12151836WA0028000284004003032219232
B2014113727605N12151839WA0028000284004003024258239
B2014123727607N12151842WA0028000283004003023322269
B2014133727609N12151844WA0028000284004003014317308
B2014143727610N12151847WA0028000284004003015310312
B2014153727612N12151850WA0028100283004003015307307
B2014163727614N12151852WA0028100283004003016311310
B2014173727616N12151855WA0028100283004003017309307
B2014183727617N12151857WA0028100284004003018309304
B2014193727619N12151859WA0028200284004003018318309
B2014203727621N12151861WA0028200285004003018325313
B2014213727622N12151862WA0028200286004003014333313
B2014223727624N12151864WA0028300286004003013327312
B2014233727626N12151866WA0028300284004003017320313
B2014243727629N12151868WA0028400284004003023316325
B2014253727631N12151870WA0028400286004003020328325
B2014263727633N12151872WA0028400288004003020323281
B2014273727634N12151873WA0028400288004003018326299
B2014283727635N12151874WA0028400285004003010310301
B2014293727637N12151877WA0028400284004003020295302
B2014303727639N12151881WA0028500284004003020301324
B2014313727640N12151883WA0028500285004003020310319
B2014323727641N12151885WA0028400287004003016307280
B2014333727641N12151885WA0028400286004003002302293
B2014343727642N12151887WA0028400285004003009287290
B2014353727642N12151890WA0028400283004003009290293
B2014363727644N12151894WA0028400284004003018288294
B2014373727644N12151897WA0028300284004003020280306
B2014383727646N12151899WA0028300284004003011301337
B2014393727646N12151900WA0028200284004003011287297
B2014403727646N12151901WA0028200283004003003287287
B2014413727647N12151904WA0028200281004003003284291
B2014423727647N12151907WA0028300279004003017277304
B2014433727648N12151910WA0028300279004003018283282
B2014443727649N12151913WA0028300280004003018292279
B2014453727649N12151915WA0028200281004003015298268
B2014463727650N12151917WA0028100281004003011277280
B2014473727650N12151919WA0028000280004003011263275
B2014483727650N12151922WA0028000278004003012270313
B2014493727650N12151925WA0028000276004003016265292
B2014503727650N12151928WA0027900278004003016274303
B2014513727650N12151931WA0027900277004003016271297
B2014523727650N12151934WA0027900276004003016272306
B2014533727651N12151938WA0027800275004003021284306
B2014543727652N12151942WA0027700275004003024282303
B2014553727653N12151947WA0027600275004003024286308
B2014563727653N12151951WA0027500276004003024287305
B2014573727654N12151954WA0027400275004003019282282
B2014583727655N12151956WA0027400274004003013294292
B2014593727656N12151960WA0027300273004003020286292
B2015003727656N12151963WA0027300271004003020275289
B2015013727656N12151966WA0027300270004003020277294
B2015023727657N12151970WA0027200271004003020269286
B2015033727656N12151974WA0027100271004003019271309
B2015043727656N12151977WA0027000273004003019273290
B2015053727657N12151981WA0026900275004003018278295
B2015063727657N12151984WA0026900276004003018286302
B2015073727658N12151987WA0027000277004003017292312
B2015083727659N12151990WA0027100276004003017295295
B2015093727660N12151993WA0027100275004003019300288
B2015103727662N12151996WA0027200274004003019297289
B2015113727662N12151999WA0027300273004003019290262
B2015123727664N12152001WA0027300271004003017302278
B2015133727662N12152005WA0027300270004003020244278
B2015143727661N12152008WA0027200269004003022248291
B2015153727661N12152012WA0027200268004003020259285
B2015163727661N12152015WA0027000267004003020268294
B2015173727661N12152019WA0026900267004003020268283
B2015183727661N12152023WA0026800266004003019268287
B2015193727661N12152026WA0026600264004003019271296
B2015203727661N12152030WA0026500263004003018272290
B2015213727661N12152034WA0026400261004003018272291
B2015223727661N12152037WA0026300259004003019271277
B2015243727662N12152042WA0026100257004003025273279
B2015253727662N12152051WA0025800258004003025271275
B2015263727662N12152056WA0025800257004003023264266
B2015273727662N12152059WA0025700257004003018248260
B2015283727661N12152062WA0025600255004003021253275
B2015293727660N12152066WA0025500255004003021254274
B2015303727659N12152070WA0025500255004003021257278
B2015313727658N12152073WA0025400254004003020251261
B2015323727657N12152077WA0025400255004003020250268
B2015333727656N12152079WA0025400254004003018248286
B2015343727655N12152082WA0025300253004003018247268
B2015353727654N12152086WA0025300251004003022253283
B2015363727654N12152090WA0025200250004003025260266
B2015373727653N12152095WA0025100250004003025260303
B2015383727652N12152099WA0025000251004003025260292
B2015393727652N12152103WA0025000252004003022262279
B2015403727652N12152106WA0024900254004003018263318
B2015413727651N12152109WA0024900256004003018255301
B2015423727651N12152111WA0025000256004003013243289
B2015433727650N12152114WA0025100255004003012242282
B2015443727650N12152116WA0025100253004003012256297
B2015453727650N12152119WA0025200250004003018269293
B2015463727650N12152124WA0025200250004003023274281
B2015473727649N12152127WA0025200251004003018268250
B2015483727649N12152130WA0025200250004003017238248
B2015493727647N12152132WA0025100250004003017209240
B2015503727643N12152133WA0025000249004003027183224
B2015513727639N12152132WA0024900248004003030167194
B2015523727636N12152130WA0024900246004003030160166
B2015533727632N12152125WA0024800245004003030130155
B2015543727628N12152119WA0024700243004003040117129
B2015553727625N12152111WA0024600242004004044117109
B2015563727627N12152102WA0024400243004003052079100
B2015573727627N12152095WA0024300243004003044080062
B2015583727628N12152088WA0024200243004003038081067
B2015593727629N12152082WA0024200244004004034082079
B2016003727629N12152074WA0024200242004003042082080
B2016013727630N12152066WA0024200241004004043084088
B2016023727630N12152058WA0024200240004004043087089
B2016033727630N12152049WA0024200241004004043091090
B2016043727630N12152042WA0024100240004003043091104
B2016053727629N12152034WA0024100241004003038092100
B2016063727628N12152027WA0024000240004003038094103
B2016073727627N12152020WA0024000239004003038101105
B2016083727626N12152013WA0024000238004003038105114
B2016093727623N12152007WA0024000239004003039119117
B2016103727619N12152001WA0024000239004004037127136
B2016113727615N12151997WA0023900239004004037138147
B2016123727611N12151997WA0023800235004003037180160
B2016133727607N12151996WA0023700234004003027182202
B2016143727603N12151996WA0023700233004003027183210
B2016153727598N12151997WA0023600233004003033184211
B2016163727596N12151998WA0023400232004003033204208
B2016173727593N12151999WA0023300232004003020201224
B2016183727590N12152001WA0023300231004003020198233
B2016193727586N12152002WA0023200230004003022192237
B2016203727583N12152003WA0023100230004003023192228
B2016213727581N12152004WA0023100230004003023197223
B2016223727578N12152005WA0023100229004003017206231
B2016233727575N12152006WA0023000229004003017206236
B2016243727572N12152009WA0022900226004003019211255
B2016253727568N12152012WA0022800226004003032213250
B2016263727565N12152016WA0022800227004003032220286
B2016273727563N12152018WA0022700229004003029224260
B2016283727560N12152020WA0022600231004003019207256
B2016293727558N12152021WA0022600230004003014198243
B2016303727556N12152023WA0022600230004003018207245
B2016313727553N12152026WA0022600227004003025225254
B2016323727550N12152029WA0022600226004003025221256
B2016333727548N12152031WA0022600226004003025221252
B2016343727546N12152034WA0022600225004003021223239
B2016353727544N12152036WA0022600224004003019218244
B2016363727540N12152038WA0022600223004003025213236
B2016373727538N12152040WA0022500222004003025209256
B2016383727534N12152042WA0022400222004003025206236
B2016393727531N12152044WA0022400222004003024200243
B2016403727529N12152045WA0022300220004003019197233
B2016413727526N12152047WA0022200218004003023200231
B2016423727522N12152049WA0022100217004003023203234
B2016433727519N12152051WA0022100215004003025203243
B2016443727515N12152053WA0022000214004003026200237
B2016453727511N12152055WA0021800212004003026201242
B2016463727508N12152056WA0021600211004003027200227
B2016473727504N12152058WA0021600210004003026200218
B2016483727500N12152060WA0021400208004003027195238
B2016493727495N12152061WA0021200207004003028195227
B2016503727491N12152063WA0021200206004003030192239
B2016513727487N12152064WA0021000205004003030194223
B2016523727484N12152065WA0020800204004003025195217
B2016533727479N12152067WA0020600203004003025199221
B2016543727475N12152068WA0020600202004003027194222
B2016553727471N12152069WA0020400202004003029193219
B2016563727468N12152071WA0020300201004003029196222
B2016573727464N12152072WA0020200201004003025204224
B2016583727461N12152075WA0020100199004003024209225
B2016593727457N12152076WA0020100199004003024204226
B2017003727454N12152078WA0019900197004003025202230
B2017013727450N12152081WA0019800196004003027209244
B2017023727448N12152084WA0019700193004003025234255
B2017033727448N12152089WA0019700191004003026270272
B2017043727448N12152093WA0019600191004003026290292
B2017053727449N12152097WA0019400191004003021305305
B2017063727451N12152099WA0019200191004003021325312
B2017073727453N12152101WA0019200190004003017325312
B2017083727455N12152103WA0019000189004003015322304
B2017093727457N12152106WA0018900187004003015306300
B2017103727459N12152109WA0018700186004003022301288
B2017113727460N12152113WA0018700185004003022276282
B2017123727460N12152116WA0018600184004003017262273
B2017133727459N12152119WA0018500182004003017247262
B2017143727458N12152122WA0018300181004003018247264
B2017153727457N12152126WA0018300179004003021252267
B2017163727456N12152129WA0018200179004003021249266
B2017173727455N12152133WA0018000179004003021248270
B2017183727455N12152135WA0017800178004003017251265
B2017193727454N12152137WA0017800178004003013267261
B2017203727454N12152139WA0017700178004003010252261
B2017213727453N12152140WA0017600178004003010233257
B2017223727453N12152141WA0017500178004003007239264
B2017233727452N12152142WA0017500177004003007240271
B2017243727452N12152144WA0017500177004003007247266
B2017253727452N12152145WA0017500177004003004240259
B2017263727452N12152145WA0017500177004003006282269
B2017273727452N12152146WA0017500175004003005259269
B2017283727452N12152147WA0017500176004003005252265
B2017293727452N12152148WA0017500176004003003265261
B2017303727452N12152149WA0017500175004003005265260
B2017313727452N12152150WA0017500175004003004265250
B2017323727452N12152151WA0017500176004003005265252
B2017333727452N12152152WA0017500177004003005265250
B2017343727451N12152152WA0017500176004003001265252
B2017353727451N12152153WA0017500176004003004262252
B2017363727451N12152153WA0017500177004003004262254
B2017373727451N12152154WA0017500176004003002262248
B2017383727451N12152155WA0017400176004003004262275
B2017393727451N12152155WA0017400175004003004262277
B2017403727451N12152157WA0017400176004003004261306
B2017413727451N12152158WA0017400174004003005263164
B2017423727451N12152159WA0017400174004003005272168
B2017433727451N12152160WA0017400175004003001262315
B2017443727451N12152160WA0017400175004003003278319
B2017453727451N12152161WA0017400175004003003276225
B2017463727451N12152162WA0017400174004004000276309
B2017473727451N12152162WA0017400175004004000104312
B2017483727451N12152161WA0017400175004004000104316
B2017493727452N12152161WA0017400176004004000104317
B2017503727452N12152161WA0017400177004004000104314
B2017513727452N12152161WA0017400178004004001104320
B2017523727452N12152161WA0017400178004004001104322
B2017533727452N12152161WA0017400178004004000104324
B2017543727453N12152160WA0017400178004004000104321
B2017553727453N12152160WA0017400178004004000104320
B2017563727453N12152160WA0017400179004004000104319
B2017573727453N12152160WA0017400179004003000104317
B2017583727453N12152160WA0017400179004003000104316
B2017593727453N12152160WA0017400179004003000104316
B2018003727453N12152160WA0017400179004004000104316
B2018013727453N12152160WA0017400179004003000104315
B2018023727453N12152160WA0017400179004003000104315
B2018033727453N12152160WA0017400179004003000104315
B2018043727453N12152160WA0017400179004003000104314
B2018053727453N12152160WA0017400179004003000104314
B2018063727453N12152160WA0017400179004003000104314
B2018073727453N12152160WA0017400179004003000104314
B2018083727453N12152160WA0017400180004003000104314
B2018093727453N12152160WA0017400180004003000104314
B2018103727453N12152160WA0017400180004003000104314
B2018113727453N12152160WA0017400180004003001104314
B2018123727453N12152160WA0017400180004003000104314
B2018133727454N12152160WA0017400179004003000104313
GoXUAqvyy6ztWBqb13/NkkbMyUEh+Rz6TBaPK8alWEousFU+oxvcjPjN4rn71Pse1
G5UVs+u5n9QFKtfs4tG+sK0NiuiAn+wz9kHeLsX3Ts9g4+bZPBILDNL/J17W9DEqy
GamobPI1rYzeASj/nF1iXIKpvNIlj+YYVLNtexOLOpSA=

