AXFH000
HFDTE200725
HFPLTPILOT:Scott O’Brien
HFGTYGLIDERTYPE:Ozone Swift 6
HFDTM100GPSDATUM:WGS84
HFRFWFIRMWAREVERSION:9.3
HFRHWHARDWAREVERSION:iPhone 15
HFFTYFRTYPE:Flyskyhy,9.3
HFGPS:Internal
HFPRSVARIO:Internal Vario
HFCCLCOMPETITIONCLASS:Paraglider
HFTZNTIMEZONE:2
HFSITSITE:Wispile-1900 (Saanen- Gstaad),CH
I053638FXA3941VXA4244GSP4547CCO4850HDT
E150411PEVBackground
B1504114626223N00717611EA0193301933004003002089123
B1504124626223N00717611EA0193301933004003001048097
B1504134626224N00717611EA0193301934004003000048095
B1504144626224N00717611EA0193301933004003000048092
B1504154626224N00717611EA0193301933004003000048102
B1504164626223N00717611EA0193301933004003000048072
B1504174626223N00717611EA0193301933004003000048070
B1504184626224N00717611EA0193301935004003000034054
B1504194626224N00717611EA0193301934004003000034050
B1504204626224N00717611EA0193401934004003001020081
B1504214626224N00717611EA0193401934004003000020115
B1504224626224N00717611EA0193401934004003000020109
B1504234626224N00717611EA0193401934004003000020115
B1504244626224N00717611EA0193401934004003000020108
B1504254626224N00717611EA0193401934004003000023108
B1504264626224N00717611EA0193401934004003000164147
B1504274626223N00717611EA0193401933004003001151137
B1504284626223N00717611EA0193401933004003001117097
B1504294626223N00717611EA0193401933004003000117095
B1504304626223N00717611EA0193401933004003000117093
B1504314626224N00717611EA0193301933004003000117095
B1504324626224N00717611EA0193301933004003000117096
B1504334626224N00717611EA0193301933004003000085101
B1504344626224N00717611EA0193301934004003000085101
B1504354626224N00717611EA0193301934004003000085098
B1504364626224N00717611EA0193301934004003000085100
B1504374626224N00717612EA0193301933004003000103095
B1504384626223N00717614EA0193301931004003008115097
B1504394626222N00717617EA0193301931004003013113104
B1504404626221N00717620EA0193201931004003014111072
B1504414626221N00717623EA0193201931004004014100073
B1504424626222N00717630EA0193101931004004014090083
B1504434626222N00717635EA0193001928004004022085084
B1504444626222N00717640EA0192901926004004024091086
B1504454626223N00717646EA0192701925004003031085088
B1504464626223N00717652EA0192601925004003032090086
B1504474626223N00717659EA0192501925004003031086075
B1504484626223N00717664EA0192501924004003031085079
B1504494626225N00717669EA0192301924004003027071078
B1504504626227N00717673EA0192301924004003026051067
B1504514626230N00717678EA0192301923004003031035052
B1504524626234N00717681EA0192301920004003031025039
B1504534626239N00717684EA0192201919004003036022025
B1504544626244N00717687EA0192201919004003036018022
B1504554626249N00717688EA0192101919004003032011019
B1504564626253N00717689EA0192001919004003032007012
B1504574626258N00717691EA0191901918004003029011011
B1504584626262N00717693EA0191801916004003029020022
B1504594626267N00717696EA0191801914004003033020021
B1505004626272N00717698EA0191701913004003036014009
B1505014626277N00717700EA0191601913004003036014015
B1505024626282N00717701EA0191501912004003034011027
B1505034626286N00717703EA0191401911004003032015023
B1505044626291N00717706EA0191301911004003032018014
B1505054626296N00717708EA0191301911004003034018016
B1505064626300N00717709EA0191301910004003034014006
B1505074626305N00717711EA0191201910004003032009358
B1505084626310N00717711EA0191101909004003032006359
B1505094626315N00717711EA0191101908004003034003010
B1505104626319N00717712EA0191001906004003034003003
B1505114626324N00717713EA0191001907004003034008004
B1505124626329N00717714EA0190901907004003033010003
B1505134626333N00717715EA0190901906004003029007002
B1505144626338N00717715EA0190801904004003029006009
B1505154626342N00717716EA0190701903004003029008006
B1505164626347N00717718EA0190701902004003032009003
B1505174626352N00717718EA0190601902004003031008002
B1505184626356N00717719EA0190501901004003031007359
B1505194626361N00717720EA0190501900004003030010012
B1505204626365N00717722EA0190401899004003030011007
B1505214626370N00717723EA0190301898004003034012013
B1505224626375N00717725EA0190301897004003035011003
B1505234626380N00717726EA0190201898004003034009007
B1505244626385N00717727EA0190101899004003033003356
B1505254626389N00717727EA0190001898004003026003007
B1505264626393N00717728EA0190001897004003026010014
B1505274626398N00717729EA0190001894004003026010018
B1505284626403N00717731EA0189901894004003034014005
B1505294626408N00717732EA0189901893004003036012349
B1505304626413N00717734EA0189801894004003036012355
B1505314626418N00717735EA0189801895004003033010358
B1505324626422N00717736EA0189701894004003029012012
B1505334626425N00717738EA0189601894004003021023007
B1505344626428N00717741EA0189601891004003025031018
B1505354626432N00717744EA0189601889004003025030011
B1505364626437N00717747EA0189601889004003035025006
B1505374626442N00717750EA0189501890004003032016008
B1505384626446N00717751EA0189301890004003032008005
B1505394626450N00717752EA0189201889004003026003006
B1505404626454N00717753EA0189201888004003026005003
B1505414626458N00717753EA0189201887004003034005358
B1505424626464N00717754EA0189101887004003035005354
B1505434626468N00717754EA0189101887004003034002357
B1505444626472N00717754EA0189001888004003029356356
B1505454626476N00717754EA0189001888004003027356353
B1505464626481N00717754EA0189001887004003029358352
B1505474626485N00717754EA0189001887004003029358346
B1505484626490N00717753EA0189001886004003032355351
B1505494626495N00717752EA0188901886004003034349347
B1505504626500N00717750EA0188901886004003034343352
B1505514626504N00717748EA0188901886004003033342339
B1505524626509N00717748EA0188801886004003028352358
B1505534626513N00717747EA0188801885004003030002004
B1505544626517N00717748EA0188801886004003030008358
B1505554626521N00717749EA0188801887004003030008347
B1505564626525N00717749EA0188801888004003027005004
B1505574626528N00717750EA0188801887004003022009002
B1505584626532N00717752EA0188801885004003026018354
B1505594626536N00717754EA0188901884004003026023015
B1506004626540N00717756EA0188901884004003029024006
B1506014626544N00717758EA0188901884004003030022008
B1506024626548N00717761EA0188801884004003030017005
B1506034626552N00717762EA0188701886004003030016014
B1506044626556N00717763EA0188601888004003027006003
B1506054626559N00717764EA0188601890004003025001013
B1506064626563N00717765EA0188701890004003027011021
B1506074626567N00717767EA0188801891004003027020043
B1506084626571N00717772EA0188901891004003029050049
B1506094626573N00717777EA0189101893004003030051065
B1506104626574N00717783EA0189201894004003030083079
B1506114626574N00717787EA0189301896004003023087107
B1506124626573N00717791EA0189401893004003020130115
B1506134626570N00717794EA0189401891004003029148141
B1506144626566N00717796EA0189401889004003036167165
B1506154626561N00717796EA0189401888004003035175193
B1506164626556N00717792EA0189401886004003036217206
B1506174626552N00717785EA0189301884004003045243235
B1506184626551N00717775EA0189201884004003051265257
B1506194626551N00717765EA0189001885004003050283282
B1506204626553N00717758EA0188901887004003050304300
B1506214626557N00717753EA0188701889004003033330317
B1506224626561N00717750EA0188701891004003033341346
B1506234626565N00717746EA0188701894004003031331347
B1506244626568N00717742EA0188701894004003030318337
B1506254626572N00717739EA0188801895004003028320345
B1506264626575N00717735EA0189001896004003028325336
B1506274626579N00717733EA0189201895004003027338355
B1506284626582N00717731EA0189201894004003025346352
B1506294626586N00717730EA0189401892004003029350349
B1506304626591N00717729EA0189501891004003031351349
B1506314626595N00717728EA0189501891004003030349345
B1506324626599N00717726EA0189501891004003030348348
B1506334626603N00717725EA0189501891004003027348350
B1506344626607N00717724EA0189401891004003028343351
B1506354626611N00717721EA0189301890004003028333346
B1506364626615N00717717EA0189301890004003030318341
B1506374626618N00717712EA0189301888004003035307328
B1506384626621N00717706EA0189201887004003035303314
B1506394626625N00717699EA0189101885004003035304306
B1506404626628N00717692EA0189101883004003039304305
B1506414626631N00717683EA0189001884004003045298306
B1506424626634N00717676EA0188901885004003045297315
B1506434626637N00717669EA0188801885004003039305327
B1506444626641N00717664EA0188801884004003033318337
B1506454626644N00717660EA0188701884004003030317353
B1506464626648N00717656EA0188601880004003034330338
B1506474626653N00717653EA0188501880004003034340357
B1506484626658N00717650EA0188501883004003034339342
B1506494626660N00717649EA0188401885004003016342019
B1506504626663N00717648EA0188401886004003016344334
B1506514626666N00717647EA0188401887004003016348354
B1506524626669N00717644EA0188401885004003019329351
B1506534626673N00717640EA0188401887004003033320350
B1506544626675N00717636EA0188501888004003033314340
B1506554626678N00717634EA0188601890004003024331346
B1506564626681N00717633EA0188601891004003021356001
B1506574626685N00717634EA0188701891004003029005010
B1506584626690N00717633EA0188901892004003036359359
B1506594626695N00717633EA0188901894004003034354352
B1507004626699N00717632EA0188901896004003034350345
B1507014626703N00717631EA0189001899004003025352016
B1507024626707N00717630EA0189201902004003025350350
B1507034626711N00717630EA0189401903004003025355005
B1507044626714N00717629EA0189401906004003024351349
B1507054626718N00717628EA0189601908004003023345001
B1507064626721N00717626EA0189901910004003025340353
B1507074626725N00717624EA0190201912004003025343006
B1507084626730N00717623EA0190201915004003029351355
B1507094626734N00717622EA0190501919004003029354358
B1507104626737N00717621EA0190801922004003023348339
B1507114626741N00717620EA0191101923004003024337347
B1507124626744N00717618EA0191101924004003024340338
B1507134626749N00717615EA0191501924004003025337345
B1507144626753N00717612EA0191801924004003030337344
B1507154626757N00717610EA0192001924004003030331350
B1507164626760N00717607EA0192001923004003025324341
B1507174626764N00717604EA0192301921004003025333347
B1507184626768N00717603EA0192301919004003032350005
B1507194626773N00717603EA0192301918004003034009026
B1507204626777N00717606EA0192301918004003033041047
B1507214626778N00717612EA0192201917004003034079076
B1507224626778N00717619EA0192101917004003034107099
B1507234626776N00717624EA0191901916004003034125109
B1507244626774N00717630EA0191901915004003031134131
B1507254626770N00717634EA0191801914004003031135149
B1507264626765N00717637EA0191701912004003041164163
B1507274626758N00717638EA0191601911004003045182176
B1507284626752N00717636EA0191601911004003045196179
B1507294626746N00717634EA0191501910004003045194193
B1507304626742N00717632EA0191401911004003032197192
B1507314626737N00717629EA0191301912004003033198199
B1507324626732N00717626EA0191301911004003033206205
B1507334626727N00717621EA0191201911004003038211214
B1507344626722N00717615EA0191101911004003040224217
B1507354626718N00717610EA0191101912004003040226209
B1507364626714N00717603EA0191101913004003040225229
B1507374626709N00717597EA0191101915004003041221244
B1507384626705N00717592EA0191201917004003037211230
B1507394626700N00717588EA0191201920004003037212234
B1507404626697N00717584EA0191201920004003033220225
B1507414626693N00717578EA0191401920004003033232237
B1507424626691N00717571EA0191501919004003042247240
B1507434626689N00717562EA0191701920004003042256265
B1507444626688N00717555EA0191701922004003042264268
B1507454626688N00717548EA0191801924004003036266287
B1507464626688N00717543EA0191901924004003022281286
B1507474626690N00717539EA0192001924004003022303308
B1507484626692N00717534EA0192001923004003022296306
B1507494626694N00717530EA0192101921004003024304323
B1507504626696N00717525EA0192201919004003025302338
B1507514626698N00717521EA0192201913004003029309324
B1507524626702N00717516EA0192201910004003029321350
B1507534626706N00717512EA0192201907004003034332352
B1507544626711N00717511EA0191901907004003034353004
B1507554626715N00717510EA0191601906004003034002349
B1507564626719N00717509EA0191601905004003030354351
B1507574626724N00717508EA0191301904004003028348339
B1507584626728N00717506EA0191001902004003030339000
B1507594626732N00717505EA0190701899004003032350358
B1508004626737N00717505EA0190701898004003032005013
B1508014626741N00717506EA0190501899004003032011356
B1508024626745N00717506EA0190301898004003021001359
B1508034626748N00717505EA0190201897004003024346344
B1508044626752N00717504EA0190201895004003024346002
B1508054626756N00717503EA0190101893004003026354010
B1508064626760N00717503EA0189901893004003026002358
B1508074626763N00717504EA0189801892004003026009009
B1508084626767N00717504EA0189801890004003022000356
B1508094626770N00717504EA0189601888004003022355010
B1508104626773N00717504EA0189501887004003019006003
B1508114626776N00717503EA0189301884004003019336017
B1508124626781N00717502EA0189301881004003019351013
B1508134626786N00717505EA0189101881004003028018351
B1508144626791N00717506EA0188901879004003029008359
B1508154626795N00717507EA0188701876004003029004349
B1508164626800N00717508EA0188701872004003029004002
B1508174626805N00717509EA0188401869004003031008007
B1508184626809N00717511EA0188101866004003035019023
B1508194626814N00717514EA0187801862004003035023021
B1508204626818N00717517EA0187801860004003034029024
B1508214626823N00717521EA0187401858004003033035014
E150822PEVBackground
B1508224626827N00717525EA0187101857004003033030017
B1508234626832N00717529EA0186701853004003035029017
B1508244626836N00717533EA0186701852004003035032006
B1508254626840N00717537EA0186401853004003035034011
B1508264626843N00717539EA0186101851004003023022350
B1508274626847N00717540EA0185801850004003025008019
B1508284626851N00717542EA0185801849004003025008016
B1508294626855N00717543EA0185601848004003030014026
B1508304626859N00717545EA0185401848004003030015003
B1508314626863N00717545EA0185301849004003030008013
B1508324626868N00717546EA0185301848004003030001014
B1508334626872N00717546EA0185201848004003030001019
B1508344626876N00717547EA0185101849004003026005022
B1508354626880N00717548EA0185101847004003026011029
B1508364626883N00717549EA0185101846004003022019029
B1508374626886N00717551EA0185101843004003022024030
B1508384626890N00717554EA0185101841004003028029034
B1508394626893N00717557EA0185001840004003028037030
B1508404626896N00717560EA0185001839004003025042022
B1508414626898N00717563EA0184901838004003023036020
B1508424626902N00717566EA0184701839004003027027014
B1508434626906N00717569EA0184501839004003030026021
B1508444626909N00717571EA0184501841004003027030026
B1508454626912N00717573EA0184401842004003023028029
B1508464626914N00717575EA0184301842004003017029033
B1508474626917N00717577EA0184301841004003024033031
B1508484626920N00717581EA0184301840004003024037038
B1508494626923N00717584EA0184301841004003025039045
B1508504626926N00717587EA0184401840004003023040031
B1508514626928N00717591EA0184401840004003023054034
B1508524626930N00717594EA0184401839004003022047017
B1508534626933N00717597EA0184401838004003022037018
B1508544626937N00717600EA0184401838004003029027006
B1508554626941N00717603EA0184401838004003029018005
B1508564626944N00717604EA0184401841004003029001013
B1508574626947N00717604EA0184401841004003023359007
B1508584626950N00717605EA0184401841004003019007017
B1508594626954N00717605EA0184401841004003028008014
B1509004626959N00717606EA0184401844004003028002014
B1509014626963N00717606EA0184501847004003032359018
E150902PEVForeground
E150902PEVVario Device removed
B1509024626967N00717607EA0184601850004003023010026
B1509034626971N00717608EA0184801852004003023014007
B1509044626974N00717610EA0184801853004003023017016
B1509054626977N00717610EA0185001854004003022014359
B1509064626983N00717612EA0185201855004003036010358
B1509074626988N00717613EA0185301856004003036355357
B1509084626992N00717611EA0185301857004003034341342
B1509094626996N00717610EA0185501859004003028339359
B1509104627000N00717608EA0185701861004003024342353
B1509114627003N00717607EA0185801862004003024346004
B1509124627007N00717606EA0185801862004003024351354
B1509134627011N00717605EA0186001862004003024348349
B1509144627015N00717603EA0186101863004003029347352
B1509154627019N00717603EA0186301864004003029349348
B1509164627023N00717602EA0186301864004003025350352
B1509174627027N00717601EA0186401862004003025348355
B1509184627031N00717599EA0186501862004003027345347
B1509194627035N00717597EA0186501861004003028337338
B1509204627038N00717594EA0186501859004003028326351
B1509214627041N00717591EA0186501859004003026328338
B1509224627045N00717588EA0186501858004004025332356
B1509234627048N00717586EA0186401857004006024342356
B1509244627051N00717586EA0186401855004004026350001
B1509254627055N00717585EA0186301854004004026348348
B1509264627058N00717584EA0186201854004006026348332
B1509274627061N00717582EA0186201855004004021341356
B1509284627064N00717580EA0186101856004004021335345
B1509294627068N00717579EA0186101857004004021340357
B1509304627071N00717578EA0186101856004003023343357
B1509314627075N00717576EA0186101854004004025346358
B1509324627079N00717575EA0186101854004003027351000
B1509334627082N00717575EA0186101855004003025352359
B1509344627086N00717574EA0186001855004003025358359
B1509354627090N00717575EA0186001855004003024000002
B1509364627093N00717575EA0186001854004003024004003
B1509374627097N00717575EA0186001854004003024006358
B1509384627101N00717576EA0185901852004003025004356
B1509394627105N00717576EA0185901851004003031003350
B1509404627110N00717577EA0185901851004003031001356
B1509414627114N00717577EA0185801852004003030000353
B1509424627119N00717577EA0185801853004003030001344
B1509434627124N00717577EA0185801857004003032002000
B1509444627128N00717577EA0185801858004003032000346
B1509454627132N00717576EA0185801859004003029355350
B1509464627137N00717574EA0185901860004004029345339
B1509474627141N00717574EA0186001861004003027354348
B1509484627146N00717573EA0186001862004003028350003
B1509494627149N00717572EA0186101862004003027347353
B1509504627153N00717571EA0186301863004003027348352
B1509514627157N00717569EA0186401862004003028341349
B1509524627161N00717567EA0186401862004003029340349
B1509534627165N00717565EA0186401863004003029339345
B1509544627169N00717563EA0186501864004003029340349
B1509554627173N00717561EA0186601866004003029341351
B1509564627177N00717559EA0186601867004003029341357
B1509574627181N00717557EA0186701868004004027344349
B1509584627186N00717555EA0186801867004003027343344
B1509594627190N00717553EA0186901867004003034339338
B1510004627195N00717550EA0186901867004003034336334
B1510014627199N00717547EA0187001867004003034333336
B1510024627204N00717544EA0187101867004003034332333
B1510034627208N00717541EA0187101867004003032332336
B1510044627212N00717537EA0187101867004003032327327
B1510054627216N00717534EA0187101866004003032328334
B1510064627220N00717530EA0187101865004003032329332
B1510074627224N00717526EA0187101864004003033321333
B1510084627228N00717522EA0187101863004003033326332
B1510094627231N00717519EA0187101862004003031325337
B1510104627235N00717515EA0187001861004003030328343
B1510114627239N00717512EA0187001859004003030332348
B1510124627243N00717509EA0186901858004003032336356
B1510134627248N00717507EA0186801856004003032341345
B1510144627253N00717505EA0186601854004003032344359
B1510154627257N00717503EA0186601852004003030344356
B1510164627261N00717500EA0186401852004003033331347
B1510174627266N00717498EA0186301851004003031342011
B1510184627271N00717496EA0186101850004003032348015
B1510194627275N00717496EA0186101849004003033001021
B1510204627280N00717497EA0185901847004003033003023
B1510214627285N00717498EA0185801848004003033008024
B1510224627290N00717500EA0185701847004003034011022
B1510234627295N00717500EA0185701850004003027005023
B1510244627299N00717501EA0185501849004003027007029
B1510254627303N00717502EA0185401848004003027014026
B1510264627308N00717505EA0185401846004003029025022
B1510274627312N00717508EA0185401844004003034023018
B1510284627318N00717511EA0185301843004003039017011
B1510294627323N00717513EA0185301842004003038011354
B1510304627328N00717514EA0185201841004003038006014
B1510314627333N00717515EA0185201841004003032003001
B1510324627338N00717515EA0185001839004003032004015
B1510334627342N00717515EA0184901837004003030001022
B1510344627347N00717516EA0184701835004003030004022
B1510354627352N00717517EA0184701832004003035011019
B1510364627357N00717519EA0184501830004003035017020
B1510384627362N00717521EA0184401828004003034015020
B1510394627366N00717522EA0184201825004003033011355
B1510404627370N00717523EA0184201821004003032001007
B1510414627376N00717523EA0183901818004003038358001
B1510424627382N00717523EA0183601815004003038002009
B1510434627387N00717524EA0183301814004003038008016
B1510444627392N00717525EA0183301813004003031013008
B1510454627397N00717526EA0183001811004003031009003
B1510464627401N00717526EA0182601810004003028356343
B1510474627405N00717525EA0182301807004003028339330
B1510484627410N00717520EA0182301804004003039321298
B1510494627413N00717513EA0182101800004003042290275
B1510504627412N00717504EA0181801796004003042250246
B1510514627406N00717499EA0181601789004003048202210
B1510524627401N00717500EA0181601781004003044161162
B1510534627395N00717505EA0181301772004003045155122
B1510544627404N00717519EA0180801767004003045041107
B1510554627408N00717525EA0180201757004003045046016
B1510564627416N00717523EA0180201748004003042019069
B1510574627420N00717515EA0179501740004004042325034
B1510584627420N00717507EA0178701734005006039287340
B1510594627414N00717503EA0177801725006008027222299
B1511004627409N00717510EA0177801719005008019139232
B1511014627411N00717508EA0176801708005008019318131
B1511024627407N00717498EA0175801697006008019232332
B1511034627398N00717493EA0174801690006012033201253
B1511044627395N00717506EA0174801679005008039121211
B1511054627399N00717508EA0173601663006008039071122
B1511064627404N00717505EA0172501653006008019340067
B1511074627400N00717495EA0171401640006008019235338
B1511084627394N00717489EA0171401630006008029213248
B1511094627391N00717497EA0170301620006012029137222
B1511104627394N00717497EA0169301614007008021067140
B1511114627398N00717488EA0168301615006008021291058
B1511124627390N00717483EA0168301611006012034217292
B1511134627389N00717492EA0167301605006008034119224
B1511144627391N00717500EA0166301596006008027081121
B1511154627397N00717493EA0165401591006008027332078
B1511164627395N00717484EA0165401586007008029267327
B1511174627388N00717485EA0164401577006008029188269
B1511184627387N00717502EA0163501571006008029101195
B1511194627394N00717501EA0162601564005008026031103
B1511204627397N00717495EA0162601559005008026318025
B1511214627392N00717486EA0161701560006008032243313
B1511224627376N00717479EA0160601569006008041190215
B1511234627374N00717494EA0160301581004006046088194
B1511244627371N00717499EA0160301585004003024123093
B1511254627368N00717505EA0160301585004003032128125
B1511264627364N00717513EA0160301584004003032121116
B1511274627363N00717521EA0160501582004003040108105
B1511284627364N00717530EA0160501582004003039067089
B1511294627366N00717537EA0160501582004003039070051
B1511304627371N00717537EA0160401583004003036357053
B1511314627375N00717537EA0160301583004003035003344
B1511324627378N00717536EA0160201584004003022340353
B1511334627381N00717535EA0160201583004003022343333
B1511344627385N00717533EA0160201583004003022343327
B1511354627387N00717531EA0160201582004003022334328
B1511364627391N00717528EA0160201582004003027326315
B1511374627394N00717523EA0160201581004003029315315
B1511384627396N00717519EA0160201583004003027310323
B1511394627398N00717516EA0160201583004003024318327
B1511404627401N00717514EA0160201582004003019337338
B1511414627404N00717512EA0160201581004003026342331
B1511424627408N00717510EA0160101581004003026342325
B1511434627412N00717508EA0160101582004003029340321
B1511444627415N00717506EA0160101582004003022331317
B1511454627418N00717503EA0160101583004003022324313
B1511464627421N00717500EA0160101582004003022321309
B1511474627424N00717497EA0160101581004003022321312
B1511484627427N00717493EA0160101581004003028319309
B1511494627430N00717489EA0160101581004003028317299
B1511504627433N00717485EA0160101581004003028312301
B1511514627436N00717481EA0160101581004003025311298
B1511524627438N00717477EA0160001581004003025306294
B1511534627440N00717472EA0160001582004003025297295
B1511544627441N00717468EA0160001583004003023292294
B1511554627443N00717464EA0160001583004003023292294
B1511564627444N00717459EA0160001583004003023297301
B1511584627446N00717454EA0160001584004003025299306
B1511594627448N00717450EA0160101584004003025307334
B1512004627451N00717448EA0160101584004003025344357
B1512014627455N00717449EA0160101583004003027021011
B1512024627458N00717453EA0160201582004003036047030
B1512034627461N00717459EA0160201580004003036063045
B1512044627463N00717467EA0160201581004003039066045
B1512054627465N00717474EA0160101581004003034072040
B1512064627466N00717481EA0160101579004003034073045
B1512074627467N00717487EA0160001581004003033075040
B1512084627468N00717493EA0160001581004003028072050
B1512094627470N00717499EA0160001581004003031071047
B1512104627471N00717506EA0160001581004003035073041
B1512114627473N00717513EA0160001581004003033064040
B1512124627476N00717518EA0160001582004003033062041
B1512134627478N00717523EA0160001582004003025054031
B1512144627481N00717527EA0160101581004003028049029
B1512154627484N00717531EA0160101581004003027032022
B1512164627488N00717532EA0160101580004003028010003
B1512174627492N00717531EA0160101579004003029339346
B1512184627495N00717527EA0160101580004003032305321
B1512194627497N00717521EA0160001579004003032298295
B1512204627496N00717514EA0160001580004003032245292
B1512214627494N00717508EA0159901580004003034242259
B1512224627493N00717502EA0159901580004003034255257
B1512234627492N00717495EA0159901580004003031268271
B1512244627492N00717488EA0159901579004003031270277
B1512254627491N00717482EA0159901579004003031261272
B1512264627490N00717475EA0159901579004003031252271
B1512274627489N00717469EA0159901579004003029250274
B1512284627488N00717463EA0159901578004003029257282
B1512294627487N00717456EA0159801577004003031264281
B1512304627487N00717450EA0159801576004003031267278
B1512314627486N00717443EA0159701576004003030262277
B1512324627486N00717437EA0159701575004003029259276
B1512334627485N00717432EA0159601575004003025261286
B1512344627485N00717427EA0159501573004003025274303
B1512354627486N00717422EA0159501571004003023286303
B1512364627488N00717417EA0159501568004003023299308
B1512374627490N00717412EA0159401565004003028313318
B1512384627494N00717409EA0159301564004003028329329
B1512394627497N00717409EA0159101563004003026011339
B1512404627501N00717412EA0158901561004003026041009
B1512414627503N00717417EA0158701560004003031063034
B1512424627505N00717422EA0158501559004003031076053
B1512434627505N00717428EA0158301558004003030092062
B1512444627505N00717434EA0158201556004003030090067
B1512454627505N00717442EA0158101555004003035092064
B1512464627505N00717450EA0157901554004003039092067
B1512474627505N00717458EA0157801553004003039091070
B1512484627505N00717467EA0157701553004003039088068
B1512494627505N00717474EA0157601553004003033080062
B1512504627507N00717480EA0157501553004003033057051
B1512514627510N00717484EA0157401550004003027051029
B1512524627514N00717482EA0157401546004003027332020
B1512534627516N00717476EA0157401543004003040296318
B1512544627518N00717469EA0157301542004003040292295
B1512554627519N00717465EA0157101547004003039287306
B1512564627521N00717462EA0157001546004003021329306
B1512574627524N00717465EA0157001534004003031039336
B1512584627527N00717474EA0156801530004003046056033
B1512594627527N00717488EA0156601531004003046083050
B1513004627526N00717498EA0156301541004003046110057
B1513014627526N00717503EA0156301542004003017085082
B1513024627526N00717508EA0156201543004003021069057
B1513034627529N00717512EA0156201538004003021031044
B1513044627533N00717516EA0156101537004003028036008
B1513054627537N00717518EA0156101537004003028007013
B1513064627540N00717516EA0156001534004003028321345
B1513074627540N00717508EA0156001530004003028259310
B1513084627537N00717500EA0155901530004003043240265
B1513094627536N00717493EA0155901531004003030253259
B1513104627537N00717489EA0155701528004003030312276
B1513114627541N00717489EA0155501523004003030017322
B1513124627545N00717492EA0155301515004003031027013
B1513134627547N00717508EA0155301506004003061062026
B1513144627540N00717522EA0154901505004003061113067
B1513154627533N00717529EA0154501502004003061121120
B1513164627523N00717532EA0154201500004003052147129
B1513174627516N00717523EA0154201497004003045182157
B1513184627522N00717507EA0153801504004003058309195
B1513194627523N00717498EA0153401507004003045298309
B1513204627526N00717498EA0153101507004003028046299
B1513214627527N00717498EA0153101507004003012004027
B1513224627529N00717495EA0153001504004003017322340
B1513234627532N00717490EA0152901501004003017295314
B1513244627533N00717485EA0152801501004003027288294
B1513254627533N00717481EA0152801502004003021273279
B1513264627533N00717476EA0152701501004003021253269
B1513274627532N00717472EA0152601500004003021243256
B1513284627530N00717466EA0152501498004003025241245
B1513294627528N00717460EA0152501497004003031240247
B1513304627525N00717453EA0152401497004003036238250
B1513314627522N00717447EA0152301498004003036237261
B1513324627521N00717442EA0152201498004003031241270
B1513334627519N00717437EA0152201497004003026254282
B1513344627519N00717433EA0152101497004003022277294
B1513354627521N00717429EA0152101495004003021305306
B1513364627523N00717426EA0152101494004003021339321
B1513374627526N00717427EA0152101494004003021014345
B1513384627529N00717428EA0152001494004003023033007
B1513394627532N00717432EA0151901493004003025045004
B1513404627534N00717435EA0151801492004003026043011
B1513414627537N00717439EA0151701491004003026039003
B1513424627540N00717442EA0151701490004003024038009
B1513434627542N00717445EA0151601490004003024041011
B1513444627545N00717449EA0151601489004003023044012
B1513454627547N00717452EA0151501487004003023048017
B1513464627550N00717457EA0151401486004003027054022
B1513474627552N00717462EA0151301485004003027061031
B1513484627554N00717469EA0151201484004003031069031
B1513494627556N00717475EA0151101485004003035072030
B1513504627557N00717482EA0151001486004003035072034
B1513514627558N00717488EA0150901486004003031070032
B1513524627560N00717493EA0150901487004003027065038
B1513534627562N00717498EA0150901486004003026059032
B1513544627564N00717503EA0150901486004003026051032
B1513554627567N00717507EA0150901486004003026045027
B1513564627569N00717510EA0150901485004003024045028
B1513574627571N00717514EA0150901486004003024047027
B1513584627574N00717519EA0150901486004003024054013
B1513594627576N00717523EA0150901485004003024052011
B1514004627578N00717526EA0150901484004003024043005
B1514014627581N00717529EA0150901483004003024030005
B1514024627584N00717532EA0150801482004003024019000
B1514034627588N00717533EA0150801482004003024010352
B1514044627591N00717533EA0150701482004003023002347
B1514054627593N00717533EA0150701482004003016346336
B1514064627596N00717532EA0150601482004003017330330
B1514074627598N00717530EA0150601481004003017319318
B1514084627600N00717527EA0150601480004003018305297
B1514094627601N00717523EA0150501478004003022297294
B1514104627603N00717518EA0150501476004003026292299
B1514114627605N00717513EA0150401474004003026296309
B1514124627607N00717508EA0150401472004003028300288
B1514134627609N00717503EA0150301472004003026295297
B1514144627610N00717497EA0150201470004003026280279
B1514154627610N00717492EA0150001469004003026276290
B1514164627611N00717486EA0150001467004003026283305
B1514174627612N00717481EA0149801465004003023291326
B1514184627614N00717477EA0149601464004003023304315
B1514194627616N00717474EA0149401464004003021306319
B1514204627616N00717471EA0149401463004003018287325
B1514214627617N00717468EA0149301462004003015283310
B1514224627618N00717464EA0149101460004003016299323
B1514234627620N00717461EA0149001458004003016316326
B1514244627623N00717459EA0149001457004003021336330
B1514254627626N00717458EA0148801457004003021352349
B1514264627629N00717460EA0148701458004003026033004
B1514274627632N00717465EA0148501458004003026060032
B1514284627633N00717472EA0148501456004003030080055
B1514294627634N00717480EA0148401456004003044093072
B1514304627633N00717489EA0148301456004003044093077
B1514314627634N00717496EA0148201456004003042077069
B1514324627636N00717503EA0148201456004003035071049
B1514334627640N00717504EA0148201453004003029005040
B1514344627643N00717502EA0148201451004003032323341
B1514354627646N00717498EA0148101450004003030304309
B1514364627646N00717491EA0148101451004003032265300
B1514374627645N00717485EA0148001451004003029248279
B1514384627644N00717479EA0147901451004003029243289
B1514394627643N00717473EA0147801449004003027252287
B1514404627642N00717467EA0147801448004003027257280
B1514414627642N00717459EA0147801447004003036268283
B1514424627641N00717452EA0147701447004003036263288
B1514434627640N00717446EA0147601448004003033255283
B1514444627639N00717440EA0147601448004003028255289
B1514454627639N00717435EA0147501447004003026263290
B1514464627639N00717429EA0147501447004003029274292
B1514474627640N00717423EA0147401448004003028288307
B1514484627642N00717420EA0147401448004003028326318
B1514494627646N00717420EA0147401446004003030017342
B1514504627650N00717425EA0147401444004003044047017
B1514514627652N00717434EA0147401444004003044074046
B1514524627653N00717443EA0147401443004003045078073
B1514534627650N00717452EA0147301446004003048122075
B1514544627647N00717459EA0147301446004003048131123
B1514554627644N00717466EA0147201446004003039127133
B1514564627641N00717474EA0147201445004003039121127
B1514574627637N00717482EA0147201445004003044115115
B1514584627635N00717490EA0147201445004003044113118
B1514594627632N00717499EA0147201445004003044114114
B1515004627630N00717506EA0147201446004003041115125
B1515014627627N00717514EA0147201446004003040116125
B1515024627624N00717522EA0147201445004003041114121
B1515034627622N00717531EA0147201445004003041113115
B1515044627619N00717539EA0147201445004003043112123
B1515054627616N00717548EA0147101446004003045112113
B1515064627614N00717557EA0147101446004003045108097
B1515074627612N00717566EA0147101446004003043105076
B1515084627612N00717574EA0147101444004003040098075
B1515094627614N00717580EA0147101443004003034060070
B1515104627616N00717587EA0147101442004003034066074
B1515114627618N00717594EA0147101440004003034069063
B1515124627620N00717601EA0147101440004003034067052
B1515134627622N00717607EA0147001439004003030050032
B1515144627626N00717610EA0146901438004003030027013
B1515154627629N00717612EA0146801437004003026008006
B1515164627632N00717613EA0146801437004003024357000
B1515174627635N00717612EA0146701437004003019350347
B1515184627638N00717611EA0146601437004003019330326
B1515194627639N00717608EA0146501436004003017300319
B1515204627640N00717605EA0146501436004003017285316
B1515214627641N00717601EA0146401436004003019283314
B1515224627641N00717597EA0146301436004003019273307
B1515234627641N00717593EA0146301436004003018265307
B1515244627641N00717589EA0146301436004003018260312
B1515254627641N00717585EA0146301436004003020266305
B1515264627641N00717581EA0146201435004003020270311
B1515274627641N00717577EA0146201434004003020278315
B1515284627643N00717573EA0146201434004003020309324
B1515294627645N00717571EA0146201432004003022344337
B1515304627649N00717572EA0146201431004003029009354
B1515314627653N00717574EA0146101431004003029024007
B1515324627657N00717576EA0146101431004003029031014
B1515334627660N00717579EA0146001431004003023030018
B1515344627663N00717581EA0145901431004003023026013
B1515354627666N00717583EA0145901432004003023020011
B1515364627669N00717585EA0145901431004003024014007
B1515374627673N00717585EA0145801431004003024008003
B1515384627676N00717586EA0145801432004003021003357
B1515394627679N00717586EA0145801432004003021002356
B1515404627682N00717586EA0145801431004003019358347
B1515414627685N00717585EA0145801431004003019335343
B1515424627687N00717582EA0145901430004003019311316
B1515434627689N00717578EA0145901428004003023291298
B1515444627687N00717572EA0145901428004003030255278
B1515454627684N00717566EA0145801426004003030229265
B1515464627680N00717560EA0145801426004003039219266
B1515474627677N00717555EA0145701427004003039222269
B1515484627673N00717550EA0145701425004003030219259
B1515494627670N00717546EA0145501425004003030221254
B1515504627666N00717542EA0145401424004003030220253
B1515514627662N00717537EA0145401423004003034217255
B1515524627659N00717532EA0145301423004003034220255
B1515534627655N00717528EA0145201423004003029222256
B1515544627653N00717524EA0145201422004003029226253
B1515554627650N00717520EA0145201423004003025229254
B1515564627648N00717515EA0145101421004003025230257
B1515574627645N00717510EA0145101420004003027239258
B1515584627644N00717504EA0145001419004003029255264
B1515594627644N00717499EA0145001417004003029264275
B1516004627645N00717494EA0145001416004003026298282
B1516014627649N00717490EA0144901416004003026332306
B1516024627652N00717489EA0144801416004003025354329
B1516034627655N00717490EA0144801417004003025015345
B1516044627659N00717492EA0144701417004003025030000
B1516054627662N00717495EA0144601417004003026046011
B1516064627665N00717499EA0144601417004003028048026
B1516074627668N00717503EA0144601418004003028045026
B1516084627670N00717506EA0144501417004003026033013
B1516094627674N00717508EA0144501414004003025013359
B1516104627678N00717509EA0144501413004003030010350
B1516114627682N00717510EA0144501412004003033005341
B1516124627687N00717510EA0144401412004003031353329
B1516134627691N00717508EA0144401411004003031331321
B1516144627694N00717505EA0144301410004003028326307
B1516154627696N00717499EA0144301411004003030284305
B1516164627697N00717493EA0144201411004003028280284
B1516174627698N00717488EA0144101413004003027278279
B1516184627698N00717483EA0144001414004003020272274
B1516194627698N00717479EA0144001414004003020252262
B1516204627696N00717474EA0144001414004003020234249
B1516214627693N00717470EA0144101414004003025225236
B1516224627689N00717465EA0144101412004003038213232
B1516234627684N00717461EA0144101412004003038210228
B1516244627680N00717457EA0144101412004003038211224
B1516254627674N00717453EA0144101412004003037203219
B1516264627669N00717450EA0144101412004003036203216
B1516274627664N00717447EA0144101411004003036201205
B1516284627659N00717444EA0144101411004003036194186
B1516294627653N00717444EA0144001410004003038177168
B1516304627647N00717447EA0144001409004003046156149
B1516314627641N00717454EA0144001407004003052134129
B1516324627638N00717463EA0144001406004003052112112
B1516334627634N00717473EA0144001404004003052114088
B1516344627635N00717481EA0143901405004003040094089
B1516354627637N00717488EA0143901407004003040080072
B1516364627639N00717495EA0143801407004003031060061
B1516374627641N00717501EA0143801407004003031063039
B1516384627643N00717507EA0143701408004003034061035
B1516394627645N00717513EA0143701409004003034058027
B1516404627648N00717518EA0143701409004003031051026
B1516414627650N00717522EA0143701410004003026041019
B1516424627653N00717524EA0143801409004003020027006
B1516434627656N00717526EA0143801409004003021012350
B1516444627659N00717524EA0143801408004003021325336
B1516454627660N00717520EA0143801406004003023286307
B1516464627660N00717514EA0143801405004003029261282
B1516474627656N00717509EA0143801405004003039224265
B1516484627653N00717504EA0143701405004003037211236
B1516494627649N00717500EA0143701406004003037213243
B1516504627645N00717496EA0143601405004003027218243
B1516514627642N00717492EA0143601405004003027233250
B1516524627640N00717487EA0143501405004003027240258
B1516534627638N00717482EA0143501404004003027237266
B1516544627636N00717478EA0143401405004003025234269
B1516554627634N00717473EA0143401405004003025239266
B1516564627632N00717469EA0143401404004003023251266
B1516574627631N00717463EA0143401403004003023258278
B1516584627630N00717458EA0143401403004003026255279
B1516594627629N00717453EA0143401402004003026250279
B1517004627628N00717449EA0143301404004003023243282
B1517014627627N00717445EA0143301404004003020250284
B1517024627626N00717440EA0143201404004003021258287
B1517034627625N00717435EA0143201403004003024261285
B1517044627625N00717430EA0143201403004003024258275
B1517054627624N00717426EA0143201403004003024252273
B1517064627622N00717420EA0143201402004003027245272
B1517074627621N00717415EA0143201402004003027249300
B1517084627621N00717410EA0143101401004003025275310
B1517094627623N00717406EA0143101399004003025316321
B1517104627627N00717404EA0143101398004003031348337
B1517114627631N00717404EA0143101398004003032006352
B1517124627635N00717405EA0143001398004003031004357
B1517134627638N00717406EA0143001399004003028011357
B1517144627642N00717406EA0142901400004003023008000
B1517154627646N00717407EA0142901399004003024011006
B1517164627649N00717409EA0142801399004003024019011
B1517174627653N00717411EA0142801399004003026027016
B1517184627656N00717414EA0142801399004003027031017
B1517194627659N00717418EA0142801399004003027040358
B1517204627662N00717421EA0142801398004003026033001
B1517214627666N00717422EA0142801399004003025019336
B1517224627669N00717423EA0142701398004003020001328
B1517234627672N00717421EA0142701396004003022323315
B1517244627673N00717417EA0142701395004003022288293
B1517254627673N00717411EA0142701394004003026257273
B1517264627671N00717406EA0142701393004003036230256
B1517274627666N00717401EA0142701392004003043210239
B1517284627661N00717398EA0142601393004003042198226
B1517294627656N00717395EA0142501394004003042194233
B1517304627651N00717392EA0142401394004003031200231
B1517314627647N00717389EA0142401393004003031212239
B1517324627644N00717384EA0142401393004003031227251
B1517334627641N00717379EA0142301393004003031244261
B1517344627640N00717373EA0142301393004003025259270
B1517354627639N00717369EA0142301394004003025265280
B1517364627639N00717364EA0142301394004003021264284
B1517374627639N00717360EA0142301394004003020273286
B1517384627640N00717357EA0142301392004003018293292
B1517394627643N00717354EA0142301391004003024335306
B1517404627646N00717353EA0142301389004003024000331
B1517414627650N00717355EA0142301388004003028022349
B1517424627653N00717359EA0142201388004003029050008
B1517434627655N00717364EA0142201385004003033055032
B1517444627654N00717374EA0142101382004003049100039
B1517454627653N00717383EA0142001382004003048114093
B1517464627650N00717392EA0141801381004003048115110
B1517474627644N00717398EA0141801382004003048146112
B1517484627638N00717403EA0141701382004003044157150
B1517494627632N00717406EA0141501382004003044167165
B1517504627626N00717407EA0141501382004003044177177
B1517514627620N00717407EA0141501382004003044191190
B1517524627614N00717405EA0141401382004003042199205
B1517534627610N00717400EA0141301382004003037209215
B1517544627607N00717395EA0141301381004003037244226
B1517554627605N00717390EA0141301382004003028238258
B1517564627604N00717385EA0141301382004003025256256
B1517574627603N00717381EA0141301381004003021263275
B1517584627604N00717376EA0141201378004003022283283
B1517594627605N00717372EA0141201378004003023287299
B1518004627606N00717367EA0141201377004003022289300
B1518014627607N00717363EA0141101378004003021289302
B1518024627608N00717359EA0141001377004003019281307
B1518034627608N00717356EA0141001377004003018280308
B1518044627609N00717352EA0140901375004003019286311
B1518054627610N00717347EA0140801374004003019290314
B1518064627611N00717343EA0140701373004003021292314
B1518074627612N00717339EA0140701373004003021289311
B1518084627613N00717334EA0140701373004003020285315
B1518094627614N00717331EA0140601372004003020287326
B1518104627615N00717327EA0140501371004003019309336
B1518114627618N00717325EA0140501370004003019338352
B1518124627621N00717324EA0140401367004003019346006
B1518134627625N00717330EA0140301367004003041048012
B1518144627627N00717338EA0140201366004003042072054
B1518154627628N00717347EA0140201366004003042092076
B1518164627627N00717355EA0140101365004003043097095
B1518174627621N00717363EA0140001363004003053142101
B1518184627615N00717368EA0139901363004003053154151
B1518194627609N00717372EA0139901362004003050155165
B1518204627603N00717373EA0139701362004003045168167
B1518214627597N00717372EA0139601359004003039194184
B1518224627592N00717370EA0139601359004003039206214
B1518234627587N00717365EA0139601359004003037216230
B1518244627583N00717361EA0139501359004003037219245
B1518254627579N00717356EA0139401360004003031222247
B1518264627577N00717352EA0139301359004003031239255
B1518274627576N00717346EA0139301358004003027263268
B1518284627576N00717341EA0139301358004003025296286
B1518294627578N00717338EA0139201359004003023321307
B1518304627581N00717336EA0139101360004003023345323
B1518314627583N00717336EA0139101361004003020002338
B1518324627585N00717336EA0139101362004003016015346
B1518334627588N00717337EA0139101361004003017020351
B1518344627590N00717340EA0139101361004003025041356
B1518354627593N00717345EA0139101361004003025061018
B1518364627594N00717352EA0139101360004003032078034
B1518374627595N00717359EA0139201361004003037091059
B1518384627595N00717367EA0139201361004003037092065
B1518394627595N00717373EA0139201360004003034077059
B1518404627597N00717377EA0139201358004003028041042
B1518414627601N00717379EA0139101354004003026001009
B1518424627605N00717376EA0139101352004003034323336
B1518434627607N00717371EA0139101352004003033289312
B1518444627608N00717365EA0139001353004003033266291
B1518454627608N00717361EA0138801355004003019254290
B1518464627608N00717357EA0138701355004003019271307
B1518474627608N00717354EA0138701354004003015290306
B1518484627610N00717351EA0138601354004003015304313
B1518494627611N00717348EA0138601353004003016305314
B1518504627612N00717345EA0138501353004003016304316
B1518514627613N00717343EA0138501353004003015302324
B1518524627614N00717340EA0138501353004003014303325
B1518534627616N00717338EA0138501353004003014311328
B1518544627617N00717335EA0138501352004003015309332
B1518554627619N00717333EA0138501351004003014315333
B1518564627620N00717332EA0138501349004003013329335
B1518574627622N00717330EA0138401348004003015331340
B1518584627624N00717328EA0138301347004003017330341
B1518594627626N00717327EA0138301346004003016333342
B1519004627628N00717326EA0138201347004003016337355
B1519014627630N00717325EA0138101347004003015351009
B1519024627633N00717329EA0138001347004003021045016
B1519034627635N00717334EA0138001346004003021061038
B1519044627637N00717341EA0137901345004003031076053
B1519054627637N00717349EA0137901345004003045094074
B1519064627635N00717358EA0137801345004003048114100
B1519074627630N00717367EA0137801344004003048135122
B1519084627624N00717373EA0137801343004003053151144
B1519094627617N00717377EA0137701343004003051167161
B1519104627610N00717378EA0137701343004003051177183
B1519114627604N00717378EA0137701344004003046185195
B1519124627598N00717377EA0137601343004003041188214
B1519134627593N00717375EA0137601343004003037204224
B1519144627589N00717370EA0137501342004003037222246
B1519154627586N00717365EA0137501341004003034240266
B1519164627586N00717360EA0137501340004003031283283
B1519174627587N00717356EA0137501339004003022328310
B1519184627590N00717356EA0137401338004003024009337
B1519194627592N00717359EA0137401337004003024046004
B1519204627594N00717365EA0137301338004003027073031
B1519214627595N00717372EA0137301337004003042091057
B1519224627593N00717381EA0137201337004003047107087
B1519234627590N00717390EA0137201337004003047121109
B1519244627586N00717398EA0137101337004003049135124
B1519254627581N00717405EA0137101337004003047144118
B1519264627576N00717411EA0137101337004003047140120
B1519274627572N00717418EA0137101337004003043129105
B1519284627569N00717426EA0137101335004003043108091
B1519294627568N00717434EA0137101333004003042084065
B1519304627568N00717443EA0137101330004004042089039
B1519314627571N00717449EA0137101328004006039072041
B1519324627574N00717451EA0137001324005008035041024
B1519334627579N00717442EA0137001321004006027311359
B1519344627576N00717430EA0136901325004006042250301
B1519354627570N00717425EA0136901328004004042197260
B1519364627567N00717421EA0136801330004003042206221
B1519374627565N00717416EA0136701329004003023238230
B1519384627564N00717411EA0136701328004003028266271
B1519394627565N00717405EA0136701328004003028289292
B1519404627567N00717401EA0136701330004003028327315
B1519414627569N00717401EA0136701330004003022017337
B1519424627572N00717405EA0136701331004003029053008
B1519434627574N00717411EA0136701331004003029073035
B1519444627575N00717417EA0136701332004003035082044
B1519454627576N00717424EA0136601333004003030081036
B1519464627579N00717431EA0136601330004003026014021
B1519474627581N00717431EA0136601328004003020330341
B1519484627583N00717428EA0136601327004003020294313
B1519494627582N00717422EA0136601325004003031247294
B1519504627579N00717417EA0136601326004003034223264
B1519514627577N00717413EA0136501327004003031223259
B1519524627576N00717410EA0136401326004003021265263
B1519534627578N00717407EA0136401324004003018316294
B1519544627580N00717404EA0136301324004003022333329
B1519554627582N00717404EA0136201325004003020004344
B1519564627585N00717407EA0136101325004003022046002
B1519574627587N00717413EA0136101324004003026071028
B1519584627588N00717421EA0136101324004003045089048
B1519594627587N00717430EA0136001325004003045098071
B1520004627587N00717438EA0136001326004003043098068
B1520014627587N00717445EA0136001327004003036087065
B1520024627588N00717451EA0136001327004003026082052
B1520034627591N00717454EA0136001324004003026029040
B1520044627593N00717456EA0136001324004003026013359
B1520054627596N00717455EA0136001322004003022333347
B1520064627598N00717451EA0136001321004003022294322
B1520074627597N00717446EA0136001324004003026250301
B1520084627596N00717441EA0135901325004003022240277
B1520094627595N00717438EA0135901327004003021251280
B1520114627595N00717435EA0136001327004003015278286
B1520124627597N00717431EA0136001327004003019299305
B1520134627597N00717427EA0136101327004003018291300
B1520144627597N00717424EA0136101328004003018276287
B1520154627596N00717421EA0136201329004003019237282
B1520164627594N00717417EA0136201328004003023234266
B1520174627592N00717412EA0136201327004003023232261
B1520184627590N00717408EA0136201327004003026228260
B1520194627587N00717403EA0136301326004003030223254
B1520204627583N00717399EA0136301327004003031222261
B1520214627581N00717395EA0136301327004003030223272
B1520224627578N00717390EA0136301328004003027232281
B1520234627578N00717386EA0136301328004003020261291
B1520244627578N00717382EA0136301327004003020289313
B1520254627581N00717381EA0136301326004003020353329
B1520264627585N00717383EA0136301325004003026033358
B1520274627587N00717388EA0136301325004003036059022
B1520284627589N00717395EA0136201327004003036077050
B1520294627589N00717402EA0136101326004003036092066
B1520304627589N00717410EA0136101326004003036100071
B1520314627588N00717418EA0136001325004003040101064
B1520324627587N00717427EA0136001324004003040094057
B1520334627588N00717435EA0136001324004003040084054
B1520344627589N00717442EA0136001325004003037075047
B1520354627590N00717448EA0136001326004003029071037
B1520364627592N00717453EA0135901326004003029045029
B1520374627594N00717455EA0135901324004003024020010
B1520384627597N00717455EA0135901324004003018342350
B1520394627598N00717452EA0135801323004003018291325
B1520404627597N00717448EA0135801322004003025249298
B1520414627595N00717444EA0135801321004003025225269
B1520424627591N00717440EA0135701322004003034209247
B1520434627587N00717437EA0135701322004003033202240
B1520444627583N00717433EA0135701322004003033208242
B1520454627580N00717429EA0135601321004003028228247
B1520464627578N00717425EA0135601320004003026247262
B1520474627577N00717420EA0135601320004003025252278
B1520484627575N00717415EA0135601320004003025246281
B1520494627574N00717411EA0135601320004003022235282
B1520504627572N00717408EA0135601320004003020237283
B1520514627571N00717404EA0135601320004003020253291
B1520524627571N00717399EA0135601319004003021272300
B1520534627572N00717395EA0135501318004003020295318
B1520544627573N00717392EA0135501317004003019317335
B1520554627576N00717394EA0135501317004003025023345
B1520564627579N00717397EA0135501317004003032048019
B1520574627582N00717403EA0135501317004003032068037
B1520584627584N00717410EA0135401318004003036066048
B1520594627584N00717417EA0135401319004003033087031
B1521004627585N00717423EA0135401319004003033073037
B1521014627587N00717427EA0135301317004003027050023
B1521024627590N00717430EA0135301316004003023024004
B1521034627592N00717431EA0135301315004003018354346
B1521044627594N00717427EA0135301314004003021292329
B1521054627594N00717424EA0135201315004003018266298
B1521064627594N00717421EA0135201314004003018263297
B1521074627595N00717419EA0135101314004003011291304
B1521084627596N00717416EA0135101313004003015317320
B1521094627598N00717414EA0135101312004003015329326
B1521104627601N00717413EA0135001312004003018342340
B1521114627603N00717412EA0134901313004003016005352
B1521124627606N00717413EA0134901313004003018026355
B1521134627608N00717415EA0134901312004003018029353
B1521144627611N00717417EA0134801312004003021024354
B1521154627614N00717419EA0134801312004003024024348
B1521164627617N00717422EA0134801312004003025029348
B1521174627620N00717424EA0134701313004003024035342
B1521184627623N00717426EA0134701314004003022028339
B1521194627625N00717427EA0134701315004003013011334
B1521204627627N00717428EA0134701315004003013003319
B1521214627628N00717426EA0134701314004003012312320
B1521224627629N00717424EA0134801314004003012290303
B1521234627629N00717420EA0134801314004003020271290
B1521244627628N00717416EA0134801314004003024247275
B1521254627626N00717412EA0134901314004003024220257
B1521264627621N00717409EA0134901314004003030201240
B1521274627616N00717406EA0134901313004003037201219
B1521284627610N00717405EA0134901313004003046186215
B1521294627603N00717406EA0134901315004003044174194
B1521304627597N00717407EA0134901314004003044174192
B1521314627592N00717406EA0134901314004003038184203
B1521324627586N00717404EA0134901314004003038203215
B1521334627582N00717400EA0134901313004003037222237
B1521344627579N00717394EA0135001313004003036239256
B1521354627578N00717390EA0135001314004003024262272
B1521364627578N00717386EA0135001314004003024297293
B1521374627579N00717384EA0135001314004003016345314
B1521384627582N00717384EA0135101314004003016014344
B1521394627585N00717386EA0135101314004003025030001
B1521404627588N00717389EA0135101314004003028044006
B1521414627590N00717394EA0135101315004003028058008
B1521424627592N00717398EA0135101316004003028055357
B1521434627594N00717401EA0135101316004003017034002
B1521444627596N00717403EA0135101314004003017044349
B1521454627599N00717403EA0135101315004003017344359
B1521464627601N00717404EA0135101315004003017018340
B1521474627603N00717406EA0135101315004003018040350
B1521484627605N00717408EA0135101315004003018038352
B1521494627607N00717409EA0135101315004003018021346
B1521504627609N00717409EA0135101315004003014358342
B1521514627611N00717410EA0135101315004003012004324
B1521524627615N00717409EA0135101316004003014350328
B1521534627617N00717408EA0135101317004003014339326
B1521544627619N00717407EA0135201318004003014334326
B1521554627621N00717406EA0135201319004003013345329
B1521564627623N00717407EA0135201319004003017014340
B1521574627626N00717409EA0135301320004003017038358
B1521584627629N00717414EA0135301320004003024055012
B1521594627631N00717420EA0135301320004003031065021
B1522004627632N00717427EA0135401319004003035077011
B1522014627634N00717433EA0135501320004003035073010
B1522024627636N00717438EA0135501320004003031058013
B1522034627638N00717443EA0135501319004003025045007
B1522044627641N00717446EA0135501318004003025033004
B1522054627645N00717451EA0135501318004003033039000
B1522064627648N00717455EA0135401318004003033041004
B1522074627651N00717458EA0135401319004004029037008
B1522084627654N00717459EA0135401319004003025004006
B1522094627657N00717459EA0135401320004004019357345
B1522104627661N00717460EA0135401319004004025006341
B1522114627664N00717461EA0135401320004003023015348
B1522124627667N00717462EA0135401320004003023012352
B1522134627669N00717461EA0135401319004003017346351
B1522144627672N00717459EA0135401319004003018315334
B1522154627673N00717456EA0135401319004003018301317
B1522164627674N00717453EA0135401319004003018286309
B1522174627674N00717450EA0135401319004003015258301
B1522184627673N00717447EA0135401319004003020242288
B1522194627672N00717442EA0135401318004003020239272
B1522204627670N00717437EA0135401318004003025240268
B1522214627669N00717433EA0135401319004003021246269
B1522224627668N00717430EA0135401319004003021248267
B1522234627666N00717426EA0135401319004003017241256
B1522244627664N00717422EA0135401319004003017230250
B1522264627662N00717418EA0135401319004003028222244
B1522274627658N00717414EA0135401319004003033214230
B1522284627653N00717411EA0135401319004003033198219
B1522294627646N00717410EA0135401319004003042184206
B1522304627640N00717410EA0135401320004003046174190
B1522314627633N00717411EA0135501321004003046171185
B1522324627627N00717411EA0135501322004003044177191
B1522334627622N00717410EA0135501322004003040184206
B1522344627617N00717407EA0135501319004003037207220
B1522354627612N00717403EA0135601320004003037210245
B1522364627610N00717398EA0135601319004003035228253
B1522374627609N00717394EA0135601320004003029269269
B1522384627610N00717390EA0135601320004003016310302
B1522394627612N00717389EA0135601320004003019359331
B1522404627615N00717391EA0135601320004003019030358
B1522414627617N00717395EA0135601320004003026054018
B1522424627619N00717401EA0135601321004003035073030
B1522434627620N00717408EA0135601322004003035082028
B1522444627621N00717416EA0135601323004003035082028
B1522454627622N00717423EA0135601322004003035077031
B1522464627624N00717430EA0135601322004003034071028
B1522474627625N00717437EA0135601322004003034065025
B1522484627627N00717442EA0135601321004003031058023
B1522494627629N00717446EA0135701321004003027051014
B1522504627632N00717448EA0135701320004003020020008
B1522514627635N00717449EA0135701318004003020349346
B1522524627637N00717447EA0135701318004003019310329
B1522534627637N00717444EA0135701317004003019272308
B1522544627636N00717440EA0135701316004003022244287
B1522554627635N00717435EA0135601316004003026234269
B1522564627632N00717430EA0135601316004003026227254
B1522574627630N00717426EA0135501316004003027232253
B1522584627628N00717421EA0135401316004003024243257
B1522594627626N00717416EA0135301316004003024246263
B1523004627625N00717412EA0135301317004003024237250
B1523014627622N00717408EA0135301316004003024227247
B1523024627619N00717404EA0135201315004003029220242
B1523034627616N00717399EA0135201315004003030223249
B1523044627614N00717394EA0135201314004003029236267
B1523054627613N00717389EA0135201313004003028260285
B1523064627613N00717385EA0135201312004003020292303
B1523074627614N00717383EA0135101312004003020322321
B1523084627616N00717381EA0135101312004003017336335
B1523094627618N00717382EA0135001313004003015021342
B1523104627620N00717383EA0135001313004003017026340
B1523114627623N00717384EA0134901312004003020029339
B1523124627626N00717387EA0134901311004003020034335
B1523134627629N00717390EA0134901309004003023033332
B1523144627632N00717392EA0134801308004003024022338
B1523154627635N00717393EA0134801306004003024005335
B1523164627639N00717394EA0134801307004003024005344
B1523174627642N00717395EA0134601307004003024023346
B1523184627645N00717398EA0134501305004003022041343
B1523194627647N00717401EA0134401304004003022042345
B1523204627650N00717403EA0134401303004003022021349
B1523214627654N00717404EA0134301303004003022011346
B1523224627657N00717406EA0134201304004003024020343
B1523234627660N00717407EA0134101305004003024023345
B1523244627661N00717409EA0134101305004003019036349
B1523254627663N00717410EA0134001304004003012004358
B1523264627666N00717410EA0134001302004003019357340
B1523274627669N00717410EA0133901301004003022007337
B1523284627672N00717411EA0133901302004003020008341
B1523294627674N00717411EA0133901302004003020356344
B1523304627677N00717409EA0133901302004003017330337
B1523314627679N00717408EA0133901304004003017335328
B1523324627681N00717408EA0133901305004003017355329
B1523334627684N00717409EA0133901306004003016023332
B1523344627686N00717409EA0133901306004003016004341
B1523354627689N00717408EA0134001305004003019344332
B1523364627691N00717407EA0134001304004003019337332
B1523374627694N00717406EA0134101304004003019347339
B1523384627697N00717406EA0134101304004003019009342
B1523394627700N00717407EA0134101303004003019015333
B1523404627703N00717407EA0134101303004003019358327
B1523414627705N00717406EA0134101301004003016337328
B1523424627707N00717405EA0134101300004003016328322
B1523434627709N00717403EA0134001299004003018332317
B1523444627712N00717402EA0134001298004003018341337
B1523454627715N00717401EA0133901298004003018349339
B1523464627717N00717401EA0133801298004003018006331
B1523474627720N00717401EA0133701297004003020007320
B1523484627723N00717401EA0133701297004003020002327
B1523494627726N00717401EA0133601296004003020345304
B1523504627728N00717398EA0133501294004003018316298
B1523514627729N00717395EA0133401294004003020285286
B1523524627730N00717391EA0133401293004003020264275
B1523534627728N00717387EA0133301292004003020236262
B1523544627726N00717383EA0133301291004003029219249
B1523554627722N00717379EA0133201290004003036208232
B1523564627716N00717377EA0133201289004003036195218
B1523574627711N00717376EA0133101288004003040181206
B1523584627698N00717378EA0132901287004003046174186
B1523594627690N00717378EA0132901286004003048180198
B1524004627684N00717376EA0132801286004003046195208
B1524014627679N00717373EA0132701287004003042205219
B1524024627674N00717371EA0132601289004003033199221
B1524034627669N00717369EA0132601289004003033199219
B1524044627665N00717366EA0132601288004003033198231
B1524054627660N00717363EA0132601286004003035211239
B1524064627656N00717358EA0132601284004003036215246
B1524074627654N00717351EA0132601284004003036237255
B1524084627652N00717346EA0132601284004003034243252
B1524094627650N00717341EA0132601285004003029241234
B1524104627647N00717336EA0132501283004003027229250
B1524114627645N00717330EA0132501281004003031234255
B1524124627643N00717325EA0132401279004003031245255
B1524134627641N00717318EA0132301278004003032258264
B1524144627640N00717312EA0132101278004003029260249
B1524154627639N00717306EA0132101278004003029247240
B1524164627637N00717302EA0132001278004003027225237
B1524174627633N00717298EA0131901277004003027211235
B1524184627629N00717294EA0131801275004003033212229
B1524194627624N00717290EA0131801274004003039206226
B1524204627619N00717286EA0131701274004003035213228
B1524214627615N00717282EA0131601272004003035216227
B1524234627611N00717278EA0131501270004003033216218
B1524244627607N00717274EA0131501268004003036216226
B1524254627603N00717268EA0131401268004003036219222
B1524264627598N00717263EA0131301267004003038217224
B1524274627594N00717260EA0131101268004003032211215
B1524284627590N00717256EA0131101268004003032206236
B1524294627587N00717253EA0131001267004003027216255
B1524304627585N00717249EA0130901265004003025243271
B1524314627584N00717243EA0130901264004003029267292
B1524324627586N00717238EA0130901262004003029297319
B1524334627588N00717235EA0130801263004003027336346
B1524344627591N00717235EA0130701263004003025015000
B1524354627594N00717238EA0130601263004003026041015
B1524364627596N00717242EA0130601263004003026056025
B1524374627598N00717247EA0130601262004003026066037
B1524384627600N00717253EA0130501262004003028076052
B1524394627600N00717260EA0130401260004003039086065
B1524404627600N00717269EA0130401259004003044095069
B1524414627599N00717278EA0130301259004003044100065
B1524424627598N00717287EA0130201258004003044100049
B1524434627598N00717295EA0130101259004003036091046
B1524444627598N00717303EA0130101258004003036077034
B1524454627600N00717309EA0130001256004003032060026
B1524464627603N00717313EA0129901254004003030041010
B1524474627606N00717317EA0129701252004003027040356
B1524484627609N00717317EA0129701251004003027349354
B1524494627612N00717315EA0129601249004003025310323
B1524504627613N00717310EA0129501248004003025270302
B1524514627611N00717304EA0129301247004003033241278
B1524524627608N00717299EA0129301246004003035220254
B1524534627604N00717296EA0129201246004003033206238
B1524544627601N00717293EA0129001245004003032205226
B1524554627597N00717289EA0128901244004003031209225
B1524564627593N00717285EA0128901243004003034215231
B1524574627589N00717281EA0128701242004003034220235
B1524584627585N00717277EA0128601242004003034222236
B1524594627582N00717272EA0128601242004003028225237
B1525004627579N00717268EA0128601243004003028228251
B1525014627577N00717263EA0128501243004003026233268
B1525024627576N00717258EA0128501242004003025265281
B1525034627577N00717254EA0128501242004003023292302
B1525044627579N00717250EA0128501242004003024310307
B1525054627581N00717247EA0128401243004003023322306
B1525064627583N00717244EA0128401244004003018324313
B1525074627584N00717243EA0128401243004003014329312
B1525084627587N00717241EA0128401243004003017330320
B1525094627589N00717239EA0128301243004003017332309
B1525104627592N00717238EA0128301243004003018338312
B1525114627594N00717236EA0128401244004003015337295
B1525124627596N00717234EA0128401244004003015332300
B1525134627597N00717233EA0128401244004003013315297
B1525144627598N00717230EA0128501242004003013293296
B1525154627599N00717226EA0128501242004003020282299
B1525164627600N00717222EA0128501242004003020292304
B1525174627602N00717220EA0128401242004003019325324
B1525184627605N00717220EA0128401242004003019006347
B1525194627608N00717222EA0128401240004003029031001
B1525204627612N00717226EA0128401241004003034047021
B1525214627615N00717231EA0128301241004003034049036
B1525224627616N00717239EA0128301241004003034078047
B1525234627618N00717246EA0128201241004003038085037
B1525244627618N00717254EA0128201240004003039085027
B1525254627619N00717262EA0128201239004003038075022
B1525264627621N00717269EA0128101239004003037060014
B1525274627624N00717275EA0128101238004003031061359
B1525284627627N00717278EA0128101239004003031027004
B1525294627630N00717281EA0128101239004003026020344
B1525304627632N00717281EA0128001239004003021355338
B1525314627634N00717280EA0128001238004003016311325
B1525324627635N00717276EA0128001236004003025275305
B1525334627635N00717271EA0128001236004003025264288
B1525344627636N00717266EA0127901237004003025280286
B1525354627638N00717264EA0127801235004003017336301
B1525364627641N00717264EA0127801234004003026013335
B1525374627644N00717267EA0127701233004003026041001
B1525384627647N00717274EA0127701232004003034066028
B1525394627648N00717284EA0127501230004003052091058
B1525404627646N00717295EA0127501230004003057112091
B1525414627642N00717304EA0127501229004003052117123
B1525424627635N00717309EA0127401228004003056160142
B1525434627628N00717311EA0127401226004003050181175
B1525444627622N00717309EA0127201226004003050203197
B1525454627616N00717305EA0127101226004003045216199
B1525464627612N00717301EA0127001226004003039219204
B1525474627607N00717297EA0127001226004003033208201
B1525484627602N00717294EA0126901225004003037198202
B1525494627597N00717292EA0126901226004003037193202
B1525504627592N00717290EA0126801226004003037191200
B1525514627587N00717288EA0126801226004003034193202
B1525524627582N00717286EA0126801226004003034196205
B1525534627577N00717283EA0126801226004003034208206
B1525544627573N00717279EA0126801225004003034216220
B1525554627569N00717275EA0126801225004003031217225
B1525564627565N00717272EA0126801225004003031211228
B1525574627561N00717269EA0126801226004003030202227
B1525584627557N00717266EA0126801225004003030209224
B1525594627554N00717262EA0126801224004003028233237
B1526004627553N00717256EA0126801224004003028262258
B1526014627553N00717251EA0126801223004003027281279
B1526024627555N00717247EA0126801223004003024313293
B1526034627558N00717245EA0126801223004003020335299
B1526044627561N00717245EA0126801225004003022009316
B1526054627564N00717246EA0126701224004003022018327
B1526064627568N00717248EA0126701223004003022024342
B1526074627572N00717251EA0126701224004003026030349
B1526084627575N00717255EA0126601223004003028045358
B1526094627577N00717260EA0126601224004003029053003
B1526104627579N00717265EA0126501223004003029063008
B1526114627582N00717270EA0126501222004003029058016
B1526124627585N00717276EA0126501221004003034052016
B1526134627588N00717282EA0126401221004003035053028
B1526144627590N00717289EA0126401221004003035063030
B1526154627592N00717296EA0126401221004003035074039
B1526164627593N00717303EA0126301220004003035077050
B1526174627595N00717309EA0126301221004003033073053
B1526184627597N00717317EA0126201220004003034071047
B1526194627598N00717324EA0126201221004003034067046
B1526204627600N00717330EA0126201221004003034065042
B1526214627602N00717337EA0126201220004003030067040
B1526224627604N00717342EA0126201220004003030061038
B1526234627606N00717348EA0126201219004003030067032
B1526244627607N00717356EA0126201220004003032072035
B1526254627608N00717365EA0126201220004003041080041
B1526264627607N00717374EA0126201218004003044098050
B1526274627606N00717383EA0126201218004003043103063
B1526284627605N00717391EA0126201218004003043104063
B1526294627605N00717399EA0126101218004003034090062
B1526304627606N00717406EA0126101217004003034071044
B1526314627609N00717411EA0126101216004003034042028
B1526324627613N00717414EA0126001213004003034012007
B1526334627618N00717412EA0126001212004003035334345
B1526344627621N00717408EA0125901213004003035305322
B1526354627622N00717403EA0125901214004003034280304
B1526364627624N00717399EA0125801216004003024282290
B1526374627626N00717397EA0125701215004003016331296
B1526384627629N00717397EA0125601215004003025356322
B1526394627633N00717398EA0125601214004003025019339
B1526404627637N00717400EA0125601212004003031020358
B1526414627639N00717407EA0125601212004003037047353
B1526424627641N00717413EA0125601213004003037066349
B1526434627644N00717417EA0125601213004003031036352
B1526444627648N00717418EA0125601210004003027358339
B1526454627652N00717416EA0125601209004003033329319
B1526464627655N00717411EA0125601210004003033299303
B1526474627655N00717406EA0125601211004003031267289
B1526484627655N00717401EA0125501212004003027249275
B1526494627654N00717397EA0125501213004003016256267
B1526504627655N00717394EA0125501213004003016293283
B1526514627657N00717391EA0125501212004003016314292
B1526524627659N00717387EA0125401211004003019310300
B1526534627660N00717383EA0125401211004003021286295
B1526544627660N00717379EA0125401211004003022262286
B1526554627659N00717375EA0125401211004003021247277
B1526564627659N00717371EA0125401212004003021258272
B1526574627660N00717367EA0125401211004003018293283
B1526584627662N00717364EA0125401209004003023328304
B1526594627665N00717363EA0125401209004003023357328
B1527004627668N00717365EA0125401208004003025030349
B1527014627672N00717369EA0125301208004003030034354
B1527024627674N00717373EA0125301208004003030060342
B1527034627676N00717376EA0125301208004003026026342
B1527044627679N00717375EA0125201206004003021339322
B1527054627681N00717372EA0125201205004003026305303
B1527064627682N00717368EA0125101204004003028279290
B1527074627682N00717362EA0125101204004003027255269
B1527084627681N00717357EA0125001204004003027238266
B1527094627679N00717353EA0124901203004003023228256
B1527104627677N00717349EA0124901203004003024235250
B1527114627675N00717344EA0124901201004003024246247
B1527124627674N00717338EA0124801199004003025244252
B1527134627672N00717333EA0124701198004003032240254
B1527144627669N00717327EA0124601196004003033236249
B1527154627666N00717321EA0124601195004003032236250
B1527164627664N00717315EA0124501194004003031239252
B1527174627662N00717309EA0124301193004003033243256
B1527184627659N00717302EA0124201192004003034245259
B1527194627658N00717296EA0124201192004003033246258
B1527204627656N00717292EA0124001192004003033249260
B1527214627655N00717287EA0123901191004003024244262
B1527224627653N00717281EA0123801190004003028241266
B1527234627651N00717275EA0123801189004003028245258
B1527244627649N00717268EA0123701189004003034249259
B1527254627648N00717263EA0123701191004003027250262
B1527264627646N00717259EA0123601192004003027232265
B1527274627643N00717255EA0123601191004003026220255
B1527284627640N00717251EA0123601191004003026213245
B1527294627635N00717247EA0123601190004003035204237
B1527304627630N00717244EA0123601189004003038199226
B1527314627625N00717242EA0123601189004003038195224
B1527324627620N00717240EA0123601190004003038196242
B1527334627616N00717237EA0123601190004003031204245
B1527344627612N00717233EA0123601189004003031219248
B1527354627609N00717229EA0123601188004003031232254
B1527364627606N00717223EA0123501188004003032238261
B1527374627603N00717217EA0123501188004003033234256
B1527384627600N00717212EA0123401189004003033225262
B1527394627597N00717208EA0123401190004003029218250
B1527404627594N00717204EA0123401190004003028217246
B1527414627590N00717201EA0123401190004003029216248
B1527424627587N00717197EA0123401190004003030217256
B1527434627583N00717193EA0123401190004003029218275
B1527444627581N00717189EA0123401189004003029229284
B1527454627579N00717184EA0123401188004003023251287
B1527464627579N00717179EA0123401187004003023275296
B1527474627579N00717175EA0123401187004003023290294
B1527484627580N00717170EA0123401187004003023291296
B1527494627581N00717166EA0123301187004003022283288
B1527504627582N00717161EA0123201187004003022278284
B1527514627582N00717157EA0123201187004003021275277
B1527524627582N00717153EA0123201187004003020264266
B1527534627581N00717148EA0123101186004003019244260
B1527544627579N00717145EA0123001185004003023231259
B1527554627577N00717140EA0123001183004003023229259
B1527564627575N00717136EA0123001181004003026239256
B1527574627573N00717131EA0123001180004003028235260
B1527584627570N00717126EA0122901180004003029229253
B1527594627567N00717121EA0122901179004003028229274
B1528004627565N00717117EA0122801179004003028234270
B1528014627564N00717112EA0122601178004003022250298
B1528024627563N00717108EA0122501177004003022271302
B1528034627564N00717104EA0122501176004003019278312
B1528044627566N00717101EA0122401175004003019316317
B1528054627568N00717099EA0122301174004003020339335
B1528064627571N00717099EA0122201173004003023008351
B1528074627574N00717100EA0122201173004003021017352
B1528084627576N00717102EA0122101173004003021042345
B1528094627579N00717103EA0122001172004003017021351
B1528104627581N00717104EA0121901170004003020001351
B1528114627584N00717104EA0121901170004003020353337
B1528124627587N00717104EA0121801170004003020359320
B1528134627589N00717104EA0121701170004003018352306
B1528144627590N00717102EA0121701169004003010294307
B1528154627591N00717100EA0121701167004003016278284
B1528164627590N00717095EA0121601165004003016259279
B1528174627589N00717090EA0121601164004003027245265
B1528184627586N00717086EA0121501164004003027223250
B1528194627583N00717083EA0121501162004003028203239
B1528204627579N00717080EA0121401160004003029200229
B1528214627575N00717078EA0121301159004004029203233
B1528224627570N00717073EA0121201159004003033217246
B1528234627567N00717067EA0121201160004003037231257
B1528244627565N00717062EA0121101161004003026245280
B1528254627564N00717058EA0121001163004003026261280
B1528264627563N00717055EA0121001162004003015267274
B1528274627562N00717051EA0121001160004003015253272
B1528284627562N00717046EA0120901158004003017254274
B1528294627561N00717041EA0120901158004003028260283
B1528304627561N00717036EA0120801158004003028274303
B1528314627562N00717032EA0120801158004003023304321
B1528324627564N00717030EA0120801157004003020337339
B1528334627568N00717029EA0120701156004003020001353
B1528344627571N00717030EA0120601156004003031019011
B1528354627575N00717034EA0120601156004003035040039
B1528364627578N00717041EA0120501155004003035065054
B1528374627580N00717047EA0120501155004003037065068
B1528384627578N00717057EA0120401153004003038110063
B1528394627576N00717066EA0120401152004003043111090
B1528404627575N00717074EA0120301152004003043102077
B1528414627574N00717082EA0120201151004003039100061
B1528424627578N00717087EA0120101147004003036043054
B1528434627581N00717090EA0120101145004003029009004
B1528444627585N00717089EA0119901142004003029339335
B1528454627586N00717085EA0119801140004003029303315
B1528464627580N00717075EA0119601141004003029220293
B1528474627575N00717072EA0119601142004003040198242
B1528484627572N00717069EA0119401143004003040212224
B1528494627571N00717064EA0119201144004003024245237
B1528504627572N00717059EA0119101140004003024303272
B1528514627574N00717055EA0119101139004003024318315
B1528524627579N00717057EA0119001138004003038017326
B1528534627583N00717062EA0119001136004003038050009
B1528544627586N00717070EA0118901137004003045071037
B1528554627588N00717078EA0118901137004003039077044
B1528564627590N00717084EA0118801137004003039067033
B1528574627592N00717086EA0118601134004003030016024
B1528584627595N00717086EA0118501131004003022349346
B1528594627597N00717083EA0118501131004003024298325
B1529004627597N00717079EA0118401130004003025261293
B1529014627595N00717074EA0118301130004003025233269
B1529024627591N00717070EA0118201129004003030208251
B1529034627587N00717067EA0118201130004003036196225
B1529044627583N00717064EA0118101130004003036202227
B1529054627580N00717060EA0118001129004003030223233
B1529064627578N00717055EA0117901128004003027247250
B1529074627577N00717050EA0117901126004003024260275
B1529084627578N00717046EA0117801126004003024294282
B1529094627579N00717043EA0117801126004003023319310
B1529104627582N00717042EA0117701125004003020356329
B1529114627584N00717042EA0117701125004003022007352
B1529124627589N00717048EA0117601125004003040043005
B1529134627592N00717053EA0117501125004003037046034
B1529144627593N00717061EA0117401127004003039083031
B1529154627594N00717067EA0117301127004003028085036
B1529164627596N00717071EA0117301126004003028049031
B1529174627599N00717072EA0117301123004003023001006
B1529184627603N00717070EA0117301119004003023332330
B1529194627605N00717065EA0117301122004003029297310
B1529204627605N00717059EA0117201122004003031260292
B1529214627604N00717055EA0117101124004003029242265
B1529224627603N00717051EA0117001123004003022242257
B1529234627603N00717047EA0117001121004003018271263
B1529244627603N00717042EA0117001119004003022277278
B1529254627604N00717036EA0117001117004003022277272
B1529264627603N00717030EA0116901118004003029255276
B1529274627601N00717024EA0116901117004003029251258
B1529284627599N00717021EA0116801115004003029233253
B1529294627595N00717017EA0116701116004003027218248
B1529304627593N00717013EA0116701116004003026231252
B1529314627592N00717007EA0116601115004003026245272
B1529324627593N00717002EA0116601114004003026290285
B1529334627595N00716999EA0116601112004003025328316
B1529344627599N00716998EA0116501110004003025009342
B1529354627602N00717002EA0116401108004003038043010
B1529364627605N00717009EA0116301107004003044067043
B1529374627605N00717019EA0116201107004003044095067
B1529384627603N00717027EA0116001108004003044111081
B1529394627603N00717034EA0115901108004003029096061
B1529404627604N00717040EA0115801106004003029062050
B1529414627606N00717045EA0115701105004003028049019
B1529424627611N00717046EA0115701104004003028354009
B1529434627615N00717044EA0115601104004003029325333
B1529444627616N00717040EA0115601104004003029281310
B1529454627616N00717037EA0115501104004003021245281
B1529464627615N00717034EA0115401104004003020232263
B1529474627613N00717030EA0115401102004003020239263
B1529484627612N00717025EA0115301099004003023249273
B1529494627612N00717019EA0115301096004003023260279
B1529504627612N00717013EA0115201095004003030269293
B1529514627612N00717007EA0115001094004003027288305
B1529524627614N00717004EA0114901094004003027323322
B1529534627616N00717003EA0114701094004003021007340
B1529544627619N00717005EA0114601094004003021041004
B1529554627621N00717008EA0114501092004003024054026
B1529564627623N00717012EA0114401091004003028062034
B1529574627625N00717018EA0114401089004003028064025
B1529584627626N00717023EA0114401088004003028072008
B1529594627628N00717026EA0114301085004003018036010
B1530004627631N00717027EA0114301083004003025004347
B1530014627634N00717027EA0114101082004003023351334
B1530024627636N00717024EA0114001082004003023317321
B1530034627639N00717021EA0113801081004003022301305
B1530044627640N00717018EA0113601081004003022287299
B1530054627641N00717015EA0113501081004003016296293
B1530064627642N00717012EA0113301079004003016283290
B1530074627642N00717008EA0113201078004003017272295
B1530084627643N00717004EA0113201076004003019280296
B1530094627644N00717001EA0113101075004003017292302
B1530104627644N00716998EA0113101074004003017288304
B1530114627645N00716994EA0113001073004003017287301
B1530124627646N00716990EA0112801071004003018285297
B1530134627647N00716986EA0112701070004003018280295
B1530144627647N00716983EA0112601068004003018279316
B1530154627648N00716980EA0112401067004003015306322
B1530164627651N00716978EA0112401064004003021340333
B1530174627655N00716977EA0112301063004003021358344
B1530184627658N00716977EA0112101063004003027358341
B1530194627661N00716976EA0111901062004003027351330
B1530204627664N00716975EA0111701061004003019345342
B1530214627668N00716975EA0111601060004003024354358
B1530224627672N00716976EA0111401056004003024012010
B1530234627677N00716978EA0111301054004003032017019
B1530244627681N00716984EA0111101053004003033042024
B1530254627685N00716988EA0111001051004003033040027
B1530264627688N00716994EA0110801051004003033047022
B1530274627692N00716998EA0110601050004003031043032
B1530284627695N00717001EA0110401050004003028039024
B1530294627697N00717005EA0110301049004003023048035
B1530304627699N00717007EA0110201050004003015040357
B1530314627700N00717008EA0110101049004003015046012
B1530324627701N00717009EA0110101049004003008038008
B1530334627702N00717011EA0110101049004003008029357
B1530344627703N00717012EA0110101049004003008031359
B1530354627703N00717013EA0110101050004003003034052
B1530364627704N00717013EA0110101051004003007024017
B1530374627705N00717014EA0110101051004003007041337
B1530384627706N00717015EA0110101049004003007027345
B1530394627706N00717016EA0110101050004003005034341
B1530404627707N00717016EA0110101050004003005034357
B1530414627707N00717016EA0110101049004003005315324
B1530424627707N00717016EA0110101049004003003035304
B1530434627708N00717016EA0110101049004003000035307
B1530444627708N00717016EA0110101048004003000035309
B1530454627707N00717016EA0110101048004003000035331
B1530464627707N00717016EA0110101048004003000035329
B1530474627707N00717016EA0110101049004003000035327
B1530484627707N00717016EA0110101048004003000035326
B1530494627707N00717017EA0110101048004003000035325
B1530504627707N00717017EA0110101048004003000035324
B1530514627707N00717017EA0110101047004003000035324
B1530524627706N00717017EA0110101047004003000035323
B1530534627706N00717017EA0110101047004003000035319
B1530544627707N00717017EA0110101046004003000035319
B1530554627707N00717017EA0110101046004003000035320
B1530564627707N00717017EA0110101047004003001035320
B1530574627707N00717016EA0110101047004003001194320
B1530584627706N00717016EA0110101048004003002194320
B1530594627706N00717016EA0110101048004003002194321
B1531004627706N00717016EA0110101048004003002194321
B1531014627705N00717016EA0110101048004003002194321
B1531024627705N00717016EA0110101047004003000194321
B1531034627705N00717016EA0110101048004003000194321
G185qe0NDM5w5JIxQmuhGWHQfodpWkLOSIsTmMigN9YCltMCMg64eULgDX2YNxHl/
GElNQHJnrN4ouL8Uvt/rlZdFZFL3944Qm9TbPbzJ5+lt7jIHc0c42kbjnzPP90qMl
GcaA8/KwD+7+YftxmUwst71g7kiDpLnqn8oj9u73/K0g=

