AXFH000
HFDTE100126
HFPLTPILOT:Scott O’Brien
HFGTYGLIDERTYPE:Ozone Swift 6
HFDTM100GPSDATUM:WGS84
HFRFWFIRMWAREVERSION:9.4
HFRHWHARDWAREVERSION:iPhone 15
HFFTYFRTYPE:Flyskyhy,9.4
HFGPS:Bluetooth vario
HFPRSVARIO:Bluetooth vario
HFCCLCOMPETITIONCLASS:Paraglider
HFTZNTIMEZONE:-8
HFSITSITE:Ed Levin,US
I053638FXA3941VXA4244GSP4547CCO4850HDT
C100126215509100126000100TASK
C0000000N00000000ETAKEOFF
C3731062N12153514W00000000000400000000360000STARTAREA 
C3726317N12149880W00000000000400000000360000FINISHAREA Big Dog Vineyards
C0000000N00000000ELANDING
B2155383728461N12151539WA0070400704001100000172181
B2155393728461N12151539WA0070400704001100000172163
B2155403728461N12151539WA0070400704001100000172167
B2155413728461N12151539WA0070400704001100000172171
B2155423728461N12151539WA0070400704001100000172183
B2155433728461N12151539WA0070400704001100000172187
B2155443728461N12151539WA0070400704001100000172187
B2155453728461N12151540WA0070400704001100000172192
B2155463728461N12151540WA0070400704001100000172201
B2155473728461N12151540WA0070400704001100000172194
B2155483728461N12151540WA0070400704001100000172196
B2155493728461N12151540WA0070400704001100000172173
B2155503728461N12151540WA0070400704001100000172206
B2155513728461N12151539WA0070400704001100000172207
B2155523728461N12151539WA0070400704001100000172243
B2155533728461N12151539WA0070400704001100000172270
B2155543728461N12151539WA0070400704001100000172278
B2155553728461N12151539WA0070400704001100000172274
B2155563728461N12151539WA0070400704001100000172291
B2155573728461N12151538WA0070400704001100000172221
B2155583728461N12151538WA0070300704001100001172083
B2155593728461N12151537WA0070300704001100001172097
B2156003728461N12151537WA0070200704001100001172111
B2156013728461N12151536WA0070200704001100001172108
B2156023728461N12151536WA0070100704001100001097099
B2156033728460N12151535WA0070100704001100006100106
B2156043728460N12151534WA0070100704001100007107111
B2156053728460N12151532WA0070000704001100007124114
B2156063728458N12151531WA0069800704001100010133123
B2156073728457N12151529WA0069600704001100013145116
B2156083728454N12151527WA0069500703001100018151122
B2156093728451N12151524WA0069600703001100022152134
B2156103728448N12151519WA0069700702001100025153154
B2156113728443N12151514WA0069500701001100027159160
B2156123728439N12151511WA0069400700001100028165153
B2156133728434N12151509WA0069200699001100032171170
B2156143728428N12151508WA0068900698001100036178189
B2156153728422N12151507WA0068800696001100037185206
B2156163728416N12151508WA0068600695001100037192208
B2156173728411N12151510WA0068500694001100037199203
B2156183728406N12151513WA0068300693001100035209201
B2156193728402N12151516WA0068200690001100032211196
B2156203728398N12151519WA0067900687001100034207206
B2156213728393N12151522WA0067600684001100036207199
B2156223728388N12151525WA0067400681001100039210188
B2156233728383N12151529WA0067200678001100041210177
B2156243728378N12151532WA0066900675001100040205185
B2156253728372N12151535WA0066800672001100037199181
B2156263728367N12151537WA0066700670001100035198177
B2156273728362N12151539WA0066600668001100032196185
B2156283728358N12151540WA0066500667001100030193175
B2156293728353N12151542WA0066400665001100031190176
B2156303728349N12151542WA0066200664001100032186167
B2156313728344N12151543WA0066100662001100031183163
B2156323728339N12151543WA0066000660001100029180165
B2156333728335N12151543WA0065900658001100030180162
B2156343728330N12151543WA0065700656001100030181160
B2156353728326N12151543WA0065600654001100032182172
B2156363728321N12151543WA0065500653001100034181157
B2156373728316N12151543WA0065400652001100033179163
B2156383728311N12151543WA0065400651001100031180153
B2156393728306N12151543WA0065300649001100030183149
B2156403728302N12151544WA0065200648001100030183170
B2156413728298N12151544WA0065100646001100029184159
B2156423728294N12151545WA0064800644001100029189161
B2156433728289N12151546WA0064600642001100032193166
B2156443728284N12151547WA0064500640001100033191164
B2156453728279N12151548WA0064500639001100032185168
B2156463728274N12151549WA0064500638001100032184166
B2156473728270N12151550WA0064400638001100029188157
B2156483728265N12151550WA0064400637001100030186161
B2156493728261N12151551WA0064200636001100033179165
B2156503728256N12151550WA0064300635001100033172161
B2156513728251N12151549WA0064300635001100031172156
B2156523728246N12151548WA0064300634001100027171151
B2156533728243N12151548WA0064200634001100025169159
B2156543728239N12151546WA0064100633001100026167151
B2156553728235N12151545WA0063900631001100031169150
B2156563728230N12151544WA0063800630001100036171158
B2156573728224N12151543WA0063800629001100037170164
B2156583728219N12151542WA0064000629001100035170145
B2156593728214N12151540WA0064200628001100035165141
B2157003728211N12151537WA0064400629001100022146141
B2157013728208N12151534WA0064500630001100018138121
B2157023728206N12151532WA0064500630001100018133118
B2157033728205N12151529WA0064500629001100019129107
B2157043728203N12151525WA0064400629001100022121097
B2157053728202N12151521WA0064500629001100022105088
B2157063728202N12151517WA0064500630001100021092078
B2157073728203N12151513WA0064400629001100019068067
B2157083728206N12151511WA0064300628001100020041052
B2157093728210N12151510WA0064300628001100019013031
B2157103728215N12151514WA0064300628001100027328005
B2157113728219N12151518WA0064300627001100031320320
B2157123728222N12151524WA0064300627001100034298309
B2157133728223N12151531WA0064200628001100038277286
B2157143728222N12151539WA0064300629001100035263265
B2157153728218N12151544WA0064400630001100030235251
B2157163728215N12151548WA0064500631001100026229221
B2157173728212N12151550WA0064500631001100023211214
B2157183728207N12151550WA0064500632001100026194186
B2157193728202N12151549WA0064400630001100033179167
B2157203728197N12151549WA0064400631001100033175152
B2157213728192N12151548WA0064300631001100028171149
B2157223728188N12151547WA0064200631001100027161141
B2157233728184N12151545WA0064000630001100028155136
B2157243728180N12151542WA0063900629001100031154132
B2157253728176N12151539WA0063800628001100033152120
B2157263728172N12151536WA0063800627001100032146127
B2157273728168N12151532WA0063700627001100028138121
B2157283728166N12151528WA0063500624001100027131125
B2157293728163N12151524WA0063200623001100029132132
B2157303728159N12151520WA0063000622001100033140141
B2157313728155N12151516WA0062900620001100039143137
B2157323728150N12151511WA0062900618001100038142133
B2157333728146N12151506WA0063000617001100036140132
B2157343728141N12151502WA0062900617001100033140132
B2157353728137N12151498WA0062800616001100033145143
B2157363728133N12151495WA0062700615001100037149143
B2157373728128N12151491WA0062600613001100040150138
B2157383728123N12151487WA0062500612001100040147133
B2157393728118N12151483WA0062500611001100038144133
B2157403728113N12151478WA0062500611001100037143132
B2157413728109N12151474WA0062400610001100036145131
B2157423728104N12151470WA0062200609001100037144130
B2157433728099N12151466WA0062200608001100039142130
B2157443728095N12151461WA0062000607001100040138130
B2157453728090N12151456WA0062000606001100038138128
B2157463728086N12151451WA0061900606001100037141130
B2157473728082N12151447WA0061800606001100036143129
B2157483728077N12151443WA0061700605001100036140124
B2157493728073N12151438WA0061600604001100038138118
B2157503728069N12151433WA0061500603001100039136125
B2157513728064N12151428WA0061400602001100038138125
B2157523728060N12151423WA0061400602001100036140126
B2157533728056N12151419WA0061300602001100034141129
B2157543728052N12151415WA0061100601001100034140119
B2157553728048N12151411WA0061000599001100035137127
B2157563728045N12151406WA0060900598001100036134124
B2157573728041N12151401WA0060800597001100036133121
B2157583728037N12151396WA0060600596001100036132123
B2157593728034N12151391WA0060500595001100034132125
B2158003728030N12151387WA0060400594001100033132125
B2158013728027N12151382WA0060300593001100033134130
B2158023728023N12151378WA0060100592001100032135128
B2158033728020N12151373WA0059900589001100034134125
B2158043728016N12151368WA0059700588001100037135128
B2158053728012N12151364WA0059600586001100037136126
B2158063728008N12151359WA0059500585001100035136125
B2158073728005N12151354WA0059400584001100033135124
B2158083728001N12151350WA0059300583001100034133129
B2158093727998N12151345WA0059200582001100035133127
B2158103727994N12151340WA0059100581001100035135127
B2158113727990N12151336WA0059000580001100033136128
B2158123727987N12151332WA0058900579001100033137127
B2158133727983N12151327WA0058800578001100034136135
B2158143727979N12151323WA0058600577001100035141149
B2158153727975N12151319WA0058600576001100036147149
B2158163727970N12151316WA0058400574001100037152155
B2158173727965N12151313WA0058200573001100039156152
B2158183727960N12151310WA0058000571001100040158155
B2158193727954N12151308WA0057900569001100040159151
B2158203727948N12151305WA0057800567001100040159152
B2158213727943N12151302WA0057600566001100039157141
B2158223727937N12151299WA0057500564001100038154138
B2158233727932N12151296WA0057400563001100034152141
B2158243727928N12151293WA0057400563001100032147147
B2158253727924N12151290WA0057400562001100030147153
B2158263727920N12151287WA0057300562001100028145149
B2158273727917N12151284WA0057300561001100029145145
B2158283727913N12151281WA0057200560001100031144140
B2158293727909N12151277WA0057100559001100031147154
B2158303727906N12151274WA0057100559001100029150142
B2158313727902N12151272WA0056900558001100029154153
B2158323727898N12151269WA0056800557001100028152141
B2158333727894N12151267WA0056700556001100029147149
B2158343727890N12151263WA0056600555001100031141145
B2158353727887N12151260WA0056700554001100030144142
B2158363727883N12151256WA0056900553001100028145143
B2158373727880N12151254WA0057000553001100024146141
B2158383727878N12151252WA0057000553001100018149141
B2158393727875N12151250WA0056900552001100020154138
B2158403727872N12151248WA0056800550001100024156157
B2158413727868N12151246WA0056700550001100028158146
B2158423727864N12151245WA0056800550001100029165174
B2158433727860N12151244WA0056900550001100028173181
B2158443727855N12151245WA0056900551001100029186197
B2158453727851N12151248WA0056800550001100032205211
B2158463727848N12151253WA0056600550001100039228232
B2158473727844N12151259WA0056600549001100039232252
B2158483727843N12151267WA0056500549001100037252263
B2158493727844N12151274WA0056600549001100030276280
B2158503727846N12151279WA0056600549001100028289306
B2158513727850N12151281WA0056600548001100022321315
B2158523727855N12151282WA0056600547001100021341344
B2158533727859N12151282WA0056500547001100021355005
B2158543727862N12151281WA0056300546001100019008018
B2158553727865N12151280WA0056100545001100017029028
B2158563727868N12151276WA0056000544001100022050042
B2158573727869N12151271WA0056000544001100020069056
B2158583727868N12151266WA0056200544001100022092067
B2158593727867N12151262WA0056200544001100018110084
B2159003727864N12151259WA0056300544001100020130094
B2159013727862N12151256WA0056300544001100022141111
B2159023727859N12151253WA0056200543001100025150127
B2159033727855N12151251WA0056200543001100030165142
B2159043727850N12151250WA0056100543001100031173161
B2159053727845N12151249WA0056100543001100031182164
B2159063727840N12151250WA0056000543001100031194168
B2159073727835N12151251WA0055900542001100031195181
B2159083727831N12151252WA0055800541001100033186179
B2159093727825N12151253WA0055700541001100034178182
B2159103727820N12151253WA0055700541001100035184183
B2159113727815N12151254WA0055600540001100035193189
B2159123727810N12151256WA0055500540001100035202190
B2159133727805N12151259WA0055200538001100036203183
B2159143727799N12151261WA0055100537001100040197185
B2159153727793N12151264WA0054900536001100039196195
B2159163727787N12151266WA0055000535001100038197202
B2159173727782N12151268WA0054800535001100034203199
B2159183727778N12151271WA0054700533001100034205200
B2159193727773N12151274WA0054500532001100036205208
B2159203727768N12151277WA0054300530001100036206204
B2159213727764N12151280WA0054100529001100034209207
B2159223727759N12151283WA0054000529001100032208202
B2159233727755N12151286WA0053900527001100032208199
B2159243727751N12151290WA0053600526001100034211201
B2159253727746N12151293WA0053400524001100037213205
B2159263727742N12151297WA0053200522001100035211204
B2159273727737N12151300WA0053000521001100033206197
B2159283727733N12151303WA0052900519001100031206206
B2159293727729N12151305WA0052600517001100031205206
B2159303727724N12151308WA0052400515001100034204202
B2159313727719N12151311WA0052100513001100037203201
B2159323727714N12151314WA0052000511001100036204199
B2159333727709N12151316WA0052000509001100035203201
B2159343727704N12151319WA0052000508001100031203198
B2159353727700N12151321WA0051900508001100029198191
B2159363727696N12151323WA0051800506001100032195192
B2159373727691N12151324WA0051600503001100035192186
B2159383727686N12151325WA0051400502001100036189186
B2159393727680N12151326WA0051300501001100035187186
B2159403727675N12151327WA0051200500001100033186188
B2159413727670N12151328WA0051200499001100032187187
B2159423727665N12151329WA0051100498001100033187179
B2159433727660N12151329WA0051000498001100032185176
B2159443727655N12151329WA0050900497001100032178171
B2159453727651N12151329WA0050700496001100033174177
B2159463727646N12151329WA0050600495001100033173176
B2159473727640N12151328WA0050500494001100034175182
B2159483727636N12151328WA0050500493001100032177183
B2159493727631N12151327WA0050400492001100031177178
B2159503727626N12151327WA0050300491001100031177182
B2159513727621N12151327WA0050200490001100031179183
B2159523727617N12151327WA0050100489001100032183189
B2159533727612N12151328WA0050000489001100032189197
B2159543727607N12151329WA0050000488001100032194202
B2159553727602N12151331WA0049900488001100031200206
B2159563727598N12151334WA0049800487001100032205212
B2159573727594N12151336WA0049800486001100033211221
B2159583727590N12151340WA0049600485001100034218230
B2159593727586N12151344WA0049600485001100035225240
B2200003727583N12151350WA0049600485001100034236248
B2200013727580N12151355WA0049500484001100033245253
B2200023727579N12151361WA0049400484001100032252263
B2200033727577N12151367WA0049400483001100032256266
B2200043727577N12151373WA0049300482001100033262275
B2200053727576N12151379WA0049100481001100033269287
B2200063727577N12151385WA0049100480001100033277296
B2200073727578N12151391WA0049000479001100033285296
B2200083727580N12151397WA0048900478001100032291304
B2200093727582N12151403WA0048800477001100031293302
B2200103727584N12151408WA0048700477001100031293300
B2200113727586N12151414WA0048600476001100032293301
B2200123727588N12151419WA0048600475001100031295300
B2200133727590N12151424WA0048500475001100029297295
B2200143727592N12151429WA0048400474001100029294292
B2200153727593N12151434WA0048300473001100030291288
B2200163727595N12151440WA0048200473001100030289292
B2200173727597N12151445WA0048200473001100029289295
B2200183727598N12151450WA0048200473001100028288294
B2200193727599N12151455WA0048200473001100028290297
B2200203727601N12151460WA0048100472001100028293293
B2200213727603N12151465WA0048100472001100029296299
B2200223727605N12151470WA0048100471001100029296295
B2200233727607N12151475WA0047900471001100030295297
B2200243727609N12151480WA0047800470001100029294298
B2200253727610N12151485WA0047800469001100030292295
B2200263727612N12151490WA0047600468001100032293305
B2200273727614N12151496WA0047400467001100034289287
B2200283727616N12151502WA0047400466001100033287288
B2200293727617N12151508WA0047300465001100033286294
B2200303727619N12151514WA0047200464001100031289289
B2200313727620N12151519WA0047100463001100030293302
E220031PEVBackground
B2200323727622N12151524WA0047000462001100030296291
B2200333727624N12151529WA0046800461001100030294281
B2200343727626N12151535WA0046800460001100030294300
B2200353727628N12151539WA0046600459001100029294293
B2200363727630N12151544WA0046600458001100029295288
B2200373727632N12151549WA0046400457001100030293288
B2200383727633N12151555WA0046200456001100031290279
B2200393727635N12151560WA0046100455001100032285288
B2200403727636N12151566WA0046000454001100032281294
B2200413727637N12151572WA0045900453001100032280309
B2200423727638N12151578WA0045800452001100031283315
B2200433727639N12151584WA0045600451001100033285310
B2200443727641N12151590WA0045500450001100034284270
B2200453727642N12151596WA0045400449001100035282280
B2200463727643N12151603WA0045300448001100034278281
B2200473727644N12151609WA0045200446001100032276297
B2200483727644N12151615WA0045000445001100032272290
B2200493727644N12151621WA0044800443001100033268302
B2200503727644N12151628WA0044700441001100035264290
B2200513727643N12151635WA0044500440001100036262304
B2200523727643N12151641WA0044500439001100034260307
B2200533727642N12151648WA0044400437001100031261306
B2200543727641N12151653WA0044400437001100029267313
B2200553727642N12151659WA0044400436001100028275306
B2200563727642N12151664WA0044300435001100030275327
B2200573727642N12151670WA0044100434001100032271326
B2200583727642N12151677WA0044000433001100032268002
B2200593727642N12151682WA0044100433001100029271341
B2201003727643N12151688WA0044200433001100027276316
B2201013727643N12151693WA0044200433001100026280303
B2201023727644N12151698WA0044100432001100027273301
B2201033727644N12151703WA0043900431001100029269299
B2201043727644N12151709WA0043700430001100033267301
B2201053727644N12151715WA0043600429001100032274312
B2201063727645N12151720WA0043500429001100031285328
B2201073727647N12151726WA0043300428001100031293322
B2201083727649N12151731WA0043200426001100030294294
B2201093727650N12151736WA0043100425001100031289298
B2201103727652N12151741WA0043000424001100031289000
B2201113727654N12151747WA0042900423001100030292307
B2201123727656N12151752WA0042800423001100030296308
B2201133727658N12151757WA0042600422001100030293297
B2201143727659N12151763WA0042500421001100030286297
B2201153727660N12151768WA0042400419001100030282301
B2201163727662N12151774WA0042200418001100030283303
B2201173727663N12151779WA0042100416001100031289300
B2201183727665N12151785WA0041900415001100032291300
B2201193727666N12151791WA0041900413001100032292299
B2201203727668N12151797WA0041800413001100030288292
B2201213727669N12151802WA0041800412001100029286290
B2201223727670N12151807WA0041600411001100030283295
B2201233727672N12151812WA0041400409001100031281290
B2201243727673N12151818WA0041300407001100031279291
B2201253727673N12151824WA0041100406001100031277295
B2201263727674N12151830WA0041100405001100029278297
B2201273727675N12151835WA0041000404001100029280299
B2201283727676N12151840WA0040800402001100030279300
B2201293727676N12151846WA0040700401001100032275302
B2201303727676N12151852WA0040600400001100033271304
B2201313727676N12151859WA0040600399001100031271305
B2201323727677N12151865WA0040500398001100029274306
B2201333727677N12151870WA0040400397001100029275307
B2201343727678N12151875WA0040300396001100032274307
B2201353727678N12151881WA0040100394001100035270307
B2201363727678N12151888WA0039900393001100035271308
B2201373727678N12151895WA0039800392001100034273308
B2201383727679N12151901WA0039700390001100033275309
B2201393727679N12151908WA0039600389001100032275309
B2201403727679N12151914WA0039600388001100033273309
B2201413727680N12151920WA0039400386001100033272309
B2201423727680N12151926WA0039300385001100034273309
B2201433727680N12151933WA0039100384001100033275309
B2201443727681N12151939WA0039100383001100032277309
B2201453727681N12151945WA0039000382001100030275309
B2201463727682N12151950WA0038900381001100028270309
B2201473727681N12151956WA0038800379001100029266309
B2201483727681N12151961WA0038700378001100030267309
B2201493727681N12151967WA0038600376001100032271310
B2201503727681N12151973WA0038400375001100032271310
B2201513727681N12151979WA0038400374001100029265310
B2201523727681N12151984WA0038400373001100027259310
B2201533727680N12151989WA0038200372001100028258310
B2201543727679N12151994WA0038100371001100028260310
B2201553727678N12152000WA0038000369001100030264310
B2201563727678N12152006WA0037900368001100030264310
B2201573727677N12152011WA0037800367001100029261310
B2201583727677N12152016WA0037700366001100028260310
B2201593727676N12152021WA0037500365001100027259310
B2202003727675N12152026WA0037400364001100027259310
B2202013727674N12152031WA0037200363001100028256310
B2202023727673N12152037WA0037100362001100028255310
B2202033727672N12152042WA0037000361001100029253310
B2202043727671N12152047WA0036900360001100029252310
B2202053727670N12152052WA0036800359001100028252310
B2202063727668N12152058WA0036700359001100028252310
B2202073727667N12152063WA0036700358001100029252310
B2202083727666N12152068WA0036600358001100028253310
B2202093727664N12152073WA0036600358001100027254310
B2202103727664N12152078WA0036600357001100027256310
B2202113727663N12152083WA0036500357001100027253310
B2202123727661N12152088WA0036500356001100028249310
B2202133727660N12152093WA0036400356001100029246310
B2202143727658N12152098WA0036400355001100028250310
B2202153727657N12152103WA0036500355001100027258310
B2202163727657N12152108WA0036500355001100026263310
B2202173727656N12152113WA0036600354001100025263310
B2202183727656N12152118WA0036500354001100026258310
E220218PEVForeground
B2202193727655N12152123WA0036500353001100029253310
B2202203727653N12152128WA0036400352001100030255267
B2202213727653N12152134WA0036400352001100030264266
B2202223727653N12152140WA0036400352001100028272269
B2202233727653N12152145WA0036300351001100028270272
B2202243727652N12152150WA0036300351001100028259271
B2202253727651N12152155WA0036200351001100029251267
B2202263727650N12152161WA0036200350001100029251255
B2202273727648N12152166WA0036100350001100029255253
B2202283727647N12152171WA0036000349001100029257249
B2202293727646N12152176WA0035900347001100029254254
B2202303727645N12152182WA0035700346001100029247252
B2202313727643N12152186WA0035600345001100029242248
B2202323727641N12152191WA0035400344001100029241242
B2202333727639N12152196WA0035300342001100028241238
B2202343727637N12152201WA0035100341001100029241236
B2202353727634N12152205WA0035000340001100029238231
B2202363727632N12152210WA0034900339001100028233224
B2202373727629N12152214WA0034900338001100027235230
B2202383727627N12152218WA0034800337001100026239221
B2202393727625N12152223WA0034600336001100029236228
B2202403727623N12152227WA0034500335001100029235220
B2202413727620N12152232WA0034400334001100028227217
B2202423727617N12152235WA0034300333001100028224215
B2202433727614N12152239WA0034200332001100028224218
B2202443727611N12152243WA0034000330001100028225214
B2202453727608N12152246WA0033800328001100029223206
B2202463727605N12152250WA0033700327001100030218208
B2202473727601N12152253WA0033600325001100029216202
B2202483727598N12152257WA0033500324001100028216205
B2202493727594N12152260WA0033300323001100028214204
B2202503727590N12152263WA0033200322001100029213200
B2202513727587N12152266WA0033200321001100030211194
B2202523727583N12152269WA0033100320001100030210196
B2202533727579N12152272WA0033000319001100031212206
B2202543727575N12152275WA0032800318001100031215205
B2202553727571N12152278WA0032700316001100031216204
B2202563727567N12152282WA0032500315001100032216200
B2202573727564N12152285WA0032300313001100034213198
B2202583727559N12152288WA0032100311001100034211196
B2202593727555N12152291WA0032000310001100032208194
B2203003727551N12152294WA0031900309001100030210200
B2203013727547N12152297WA0031900308001100032209197
B2203023727542N12152300WA0031700307001100033209197
B2203033727538N12152303WA0031600305001100033207191
B2203043727534N12152306WA0031400304001100031203186
B2203053727529N12152308WA0031400303001100030200188
B2203063727525N12152310WA0031300302001100029199180
B2203073727520N12152311WA0031300302001100029195175
B2203083727516N12152312WA0031200300001100028187167
B2203093727512N12152312WA0031000299001100029179160
B2203103727508N12152312WA0030800297001100031172159
B2203113727503N12152311WA0030700296001100032167152
B2203123727498N12152309WA0030600294001100032165148
B2203133727494N12152308WA0030500293001100031159143
B2203143727489N12152305WA0030400293001100030152131
B2203153727486N12152303WA0030200291001100030147134
B2203163727482N12152299WA0030200290001100031141129
B2203173727478N12152295WA0030000289001100033141134
B2203183727474N12152291WA0029800288001100033141125
B2203193727470N12152288WA0029700287001100033140136
B2203203727467N12152283WA0029600286001100033137132
B2203213727463N12152279WA0029600285001100033133139
B2203223727460N12152274WA0029500284001100031132147
B2203233727456N12152270WA0029400284001100030133139
B2203243727453N12152266WA0029200283001100030134144
B2203253727450N12152262WA0029100281001100032135141
B2203263727447N12152258WA0028900280001100034134135
B2203273727443N12152253WA0028900279001100032135149
B2203283727440N12152249WA0028800279001100029137139
B2203293727436N12152246WA0028700279001100028141142
B2203303727433N12152243WA0028600277001100029144143
B2203313727429N12152239WA0028300276001100030145134
B2203323727426N12152236WA0028200274001100031145140
B2203333727422N12152232WA0028100273001100030140135
B2203343727418N12152228WA0028100272001100030135139
B2203353727415N12152225WA0028000272001100028133140
B2203363727412N12152221WA0028000271001100027134144
B2203373727410N12152217WA0027900269001100028137145
B2203383727406N12152214WA0027600267001100031142142
B2203393727402N12152210WA0027500265001100034144145
B2203403727398N12152207WA0027400264001100033148144
B2203413727394N12152204WA0027200263001100031150148
B2203423727390N12152202WA0027100262001100026157145
B2203433727387N12152200WA0026900260001100025152134
B2203443727384N12152197WA0026700257001100027147129
B2203453727380N12152194WA0026400255001100029140124
B2203463727377N12152190WA0026300253001100030134126
B2203473727374N12152186WA0026100251001100028130115
B2203483727372N12152182WA0025900250001100026127119
B2203493727369N12152178WA0025700248001100026125122
B2203503727367N12152174WA0025500246001100026122119
B2203513727365N12152170WA0025200244001100027119118
B2203523727363N12152165WA0025000242001100030118115
B2203533727361N12152160WA0024900241001100030116110
B2203543727359N12152155WA0024700239001100029116106
B2203553727358N12152150WA0024500238001100027112088
B2203563727356N12152145WA0024300236001100028105078
B2203573727356N12152140WA0024100234001100029094062
B2203583727356N12152134WA0024000232001100030082045
B2203593727358N12152128WA0023800231001100030072041
B2204003727361N12152124WA0023700229001100029057047
B2204013727364N12152120WA0023500228001100027045035
B2204023727368N12152118WA0023400227001100028032027
B2204033727372N12152115WA0023300225001100030028024
B2204043727377N12152113WA0023200223001100031023018
B2204053727381N12152111WA0023100223001100031018008
B2204063727386N12152109WA0023000222001100031015006
B2204073727391N12152108WA0023000222001100029013007
B2204083727395N12152107WA0023000222001100027010355
B2204093727399N12152107WA0022900221001100027003359
B2204103727403N12152107WA0022800220001100028358356
B2204113727408N12152107WA0022700220001100029354001
B2204123727412N12152108WA0022500219001100030352359
B2204133727417N12152108WA0022500218001100031352357
B2204143727422N12152109WA0022400217001100031353004
B2204153727426N12152110WA0022300216001100031355004
B2204163727431N12152110WA0022300216001100029357020
B2204173727435N12152110WA0022200215001100029000007
B2204183727440N12152110WA0022100214001100030003007
B2204193727444N12152110WA0022100214001100031007019
B2204203727449N12152109WA0022000213001100032007003
B2204213727454N12152108WA0022000213001100029006010
B2204223727458N12152108WA0022000213001100026001005
B2204233727462N12152108WA0021800212001100027358003
B2204243727466N12152108WA0021600211001100030001007
B2204253727471N12152108WA0021500210001100032001006
B2204263727476N12152108WA0021400209001100032359002
B2204273727480N12152108WA0021300208001100031359002
B2204283727485N12152108WA0021200207001100030000009
B2204293727490N12152107WA0021100206001100031004017
B2204303727494N12152106WA0020900205001100031008026
B2204313727499N12152105WA0020700204001100031017041
B2204323727503N12152103WA0020500203001100031027054
B2204333727507N12152099WA0020400202001100032033062
B2204343727510N12152095WA0020300201001100031043066
B2204353727513N12152090WA0020200200001100031054068
B2204363727514N12152084WA0020200199001100030065073
B2204373727515N12152079WA0020000198001100029075081
B2204383727516N12152073WA0019800196001100028086076
B2204393727515N12152067WA0019700194001100030095091
B2204403727515N12152061WA0019600193001100032097103
B2204413727514N12152055WA0019500193001100030099102
B2204423727512N12152050WA0019400192001100029106111
B2204433727511N12152045WA0019300190001100029117109
B2204443727508N12152040WA0019200188001100030124113
B2204453727506N12152035WA0019000186001100032123115
B2204463727503N12152030WA0018900185001100031122121
B2204473727500N12152026WA0018700183001100030127131
B2204483727497N12152022WA0018500182001100030136139
B2204493727493N12152018WA0018300180001100031146149
B2204503727489N12152016WA0018200179001100032155162
B2204513727484N12152014WA0018200178001100032162164
B2204523727479N12152013WA0018100177001100029168169
B2204533727476N12152012WA0018100176001100024176173
B2204543727472N12152012WA0018100176001100020175163
B2204553727469N12152012WA0018100175001100016172183
B2204563727468N12152012WA0018100175001100011171140
B2204573727467N12152012WA0018100175001100005171126
B2204583727466N12152012WA0018100175001100004171098
B2204593727466N12152012WA0018100174001100000171093
B2205003727466N12152012WA0018100173001100000171092
B2205013727466N12152011WA0018100173001100000171091
B2205023727466N12152011WA0018100172001100000171089
B2205033727466N12152011WA0018100173001100000171098
B2205043727466N12152010WA0018100172001100000171093
B2205053727466N12152011WA0018100172001100000171093
B2205063727466N12152011WA0018100172001100000171093
B2205073727466N12152011WA0018100172001100000171094
B2205083727466N12152011WA0018100172001100000171093
B2205093727466N12152011WA0018100171001100000171091
B2205103727466N12152011WA0018100171001100000171114
B2205113727466N12152011WA0018100171001100000171083
B2205123727466N12152011WA0018100171001100000171078
B2205133727466N12152011WA0018100171001100000171093
B2205143727466N12152011WA0018100171001100000171085
B2205153727466N12152011WA0018100171001100000171078
B2205163727466N12152011WA0018100171001100000171076
B2205173727466N12152011WA0018100171001100000171074
B2205183727466N12152011WA0018100171001100000171078
B2205193727466N12152011WA0018100171001100000171078
B2205203727466N12152011WA0018100171001100000171078
B2205213727466N12152011WA0018100171001100000171078
B2205223727466N12152011WA0018100171001100000171078
B2205233727466N12152011WA0018100171001100000171078
B2205243727466N12152011WA0018100171001100000171078
B2205253727466N12152011WA0018100171001100000171077
B2205263727466N12152011WA0018100171001100000171077
B2205273727466N12152011WA0018100171001100000171078
B2205283727466N12152011WA0018100171001100000171085
GRflYlL1j5g8OAi+GYdp4yTveYQSZQpe/axApE8iUSjxLTECnt+79fdtpsSmlnh92
G5t8X7I0Z5pu/l73RNWPJrwaOS/87lsZLA9WEt1t5VxLG3pG/sCb8kEifcqXge2hP
G+1JvYuVlTs03ILw29kAV7p5rCOp/QQHjFTwwpaovT0Q=

