AXFH000
HFDTE310324
HFPLTPILOT:Scott O’Brien
HFGTYGLIDERTYPE:BGD Epic M
HFDTM100GPSDATUM:WGS84
HFRFWFIRMWAREVERSION:8.1.3
HFRHWHARDWAREVERSION:iPhone 14 Pro
HFFTYFRTYPE:Flyskyhy,8.1.3
HFGPS:Internal
HFPRSVARIO:Internal Vario
HFCCLCOMPETITIONCLASS:Paraglider
HFTZNTIMEZONE:-7
HFSITSITE:Ed Levin,US
I053638FXA3941VXA4244GSP4547CCO4850HDT
E194443PEVBackground
B1944433728536N12151674WA0070900709005003001133075
B1944443728535N12151674WA0070900709005003002122078
B1944453728535N12151673WA0070900709005003001122076
B1944463728535N12151673WA0070900709005003001122090
B1944473728535N12151673WA0070900709005003001277102
B1944483728535N12151674WA0070900709005003003284101
B1944493728535N12151675WA0070900709005003004270064
B1944503728535N12151676WA0070900708005003005248068
B1944513728535N12151677WA0070900708005003005279047
B1944523728536N12151677WA0070900708005003005313027
B1944533728536N12151677WA0070900709005003004313272
B1944543728536N12151677WA0070900709005003002284084
B1944553728536N12151678WA0070900709004003003255069
B1944563728536N12151679WA0070800709005003005236060
B1944573728536N12151679WA0070800708004003005224221
B1944583728535N12151680WA0070800708004003006225283
B1944593728534N12151682WA0070800708004003009229043
B1945003728533N12151683WA0070800708004003011237268
B1945013728532N12151685WA0070800707004003011234025
B1945023728531N12151687WA0070700706004003011229262
B1945033728530N12151689WA0070700706004003013234243
B1945043728528N12151691WA0070600705004003013244254
B1945053728528N12151693WA0070500703004003014245257
B1945063728527N12151696WA0070400701004003015245253
B1945073728526N12151699WA0070200701004003015242254
B1945083728524N12151702WA0070100701004003018242263
B1945093728523N12151706WA0069900700004003019240260
B1945103728522N12151709WA0069800700004003021244234
B1945113728520N12151713WA0069700700006003021242230
B1945123728518N12151716WA0069700700005003021228227
B1945133728516N12151719WA0069700700006003021217217
B1945143728512N12151722WA0069700699007003024213252
B1945153728509N12151725WA0069700698007003028214265
B1945163728505N12151727WA0069600698007003028208277
B1945173728501N12151728WA0069600697006003026191284
B1945183728497N12151728WA0069600696006003026176294
B1945193728493N12151727WA0069500695006003030166054
B1945203728488N12151726WA0069500695006003033163316
B1945213728483N12151724WA0069400694006003033162324
B1945223728478N12151722WA0069300693006003033163028
B1945233728474N12151720WA0069200692005003033162023
B1945243728469N12151717WA0069100690005003033158018
B1945253728464N12151714WA0069000690005003034152014
B1945263728455N12151708WA0068900688005003034152010
B1945273728451N12151705WA0068700687005003034153008
B1945283728446N12151702WA0068700686005003034153352
B1945293728441N12151699WA0068600686005003035153005
B1945303728437N12151697WA0068600685005003035155355
B1945313728432N12151694WA0068500683005003035157356
B1945323728426N12151692WA0068400681005003036161357
B1945333728421N12151691WA0068400679006003037168357
B1945343728415N12151690WA0068300677005003040176358
B1945353728409N12151690WA0068100676005003040182358
B1945363728404N12151691WA0067900676005003039184358
B1945373728398N12151692WA0067900675004003037186359
B1945383728393N12151693WA0067700673004003035189359
B1945393728388N12151694WA0067600672004003035191359
B1945403728383N12151696WA0067400670005003035194359
B1945413728378N12151697WA0067400669005003035195359
B1945423728373N12151699WA0067300668005003035197359
B1945433728368N12151702WA0067100667005003034200359
B1945443728363N12151704WA0067000665005003035205359
B1945453728359N12151707WA0066800664006003035208359
B1945463728354N12151710WA0066600662006003034207359
B1945473728350N12151713WA0066500661006003033206359
B1945483728346N12151715WA0066500660006003031205359
B1945493728342N12151718WA0066300658006003030205359
B1945503728338N12151721WA0066200656006003032205359
B1945513728333N12151723WA0066000654006003032204359
B1945523728329N12151726WA0066000652006003032203359
B1945533728325N12151728WA0065800652006003032205359
B1945543728321N12151731WA0065600651006003028210359
B1945553728317N12151734WA0065400650006003029211359
B1945563728314N12151737WA0065400649007003029211359
B1945573728310N12151739WA0065200649007003029211359
B1945583728307N12151742WA0065100648006003028212359
B1945593728303N12151745WA0065000647006003028217359
B1946003728300N12151749WA0065000645007003033222359
B1946013728296N12151754WA0064900645006003033225359
B1946023728292N12151759WA0064800645007003034224359
B1946033728289N12151762WA0064700645007003034218359
B1946043728285N12151766WA0064700644007003032214359
B1946053728281N12151770WA0064600644007003034216359
B1946063728277N12151774WA0064500643006003034217359
B1946073728272N12151778WA0064300641006003037218359
B1946083728267N12151782WA0064300640005003038212359
B1946093728262N12151785WA0064200637006003036204359
B1946103728257N12151787WA0064000635006003036198359
B1946113728251N12151789WA0063800632006003036198359
B1946123728246N12151792WA0063800630006003038199359
B1946133728240N12151794WA0063500628006003040199359
B1946143728234N12151797WA0063200626006003041197359
B1946153728228N12151799WA0063000625006003041195359
B1946163728223N12151800WA0063000625007003039195359
B1946173728218N12151802WA0062700624007003037197359
B1946183728213N12151805WA0062400623006003036199359
B1946193728207N12151807WA0062200623006003037198359
B1946203728201N12151809WA0062200623006003040197359
B1946213728196N12151812WA0062100624006003040197359
B1946223728190N12151814WA0062000625006003040202359
B1946233728187N12151816WA0062000628006003032203359
B1946243728184N12151817WA0062000628006003019198359
B1946253728182N12151818WA0062100627006003022195359
B1946263728178N12151819WA0062300627006003022192359
B1946273728173N12151822WA0062500628006003030195359
B1946293728168N12151823WA0062500628006003033197359
B1946303728164N12151825WA0062600631006003033202359
B1946313728160N12151827WA0062800631006003028211359
B1946323728157N12151830WA0062900631006003026213359
B1946333728155N12151833WA0062900632006003024226359
B1946343728154N12151836WA0063000632007003017253359
B1946353728154N12151839WA0063100632005003021299359
B1946363728158N12151842WA0063300630005003021333359
B1946373728164N12151841WA0063300630006003029004008
B1946383728171N12151840WA0063400630005003039029017
B1946393728177N12151834WA0063400630006003047053020
B1946403728180N12151825WA0063400630005003047071017
B1946413728181N12151816WA0063400633005003044089018
B1946423728179N12151810WA0063400634005003039102016
B1946433728177N12151802WA0063400633005003036113015
B1946443728174N12151797WA0063500633005003034127014
B1946453728169N12151793WA0063500632004003039148348
B1946463728163N12151790WA0063500633005003039156351
B1946473728158N12151787WA0063600632006003039159353
B1946483728153N12151787WA0063600633004003034173355
B1946493728149N12151789WA0063600633006003026182356
B1946503728147N12151794WA0063700634006003026219357
B1946513728145N12151798WA0063800634007003023235358
B1946523728145N12151803WA0063800634007003023257359
B1946533728146N12151807WA0063800634007003023288358
B1946543728148N12151810WA0063900635007003025320356
B1946553728153N12151811WA0064000636008003029347005
B1946563728157N12151810WA0064000636007003029009018
B1946573728162N12151807WA0064000637007003032026022
B1946583728167N12151802WA0064100637007003036042022
B1946593728170N12151795WA0064100636007003043061023
B1947003728170N12151787WA0064200636007003045084024
B1947013728168N12151779WA0064200635007003045109337
B1947023728163N12151774WA0064200635005003045138344
B1947033728158N12151772WA0064200635005003042163348
B1947043728153N12151772WA0064100636005003032180350
B1947053728149N12151773WA0064100637005003032189353
B1947063728145N12151774WA0064000637005003028193354
B1947073728141N12151776WA0064000636005003026202356
B1947083728138N12151779WA0064000635005003026213357
B1947093728135N12151783WA0064000634005003029223357
B1947103728132N12151787WA0064000634005003029226357
B1947113728129N12151790WA0064000635005003027222358
B1947123728127N12151792WA0063900636005003022214358
B1947133728125N12151794WA0063900636005003018214358
B1947143728123N12151796WA0063900635007003021220358
B1947153728121N12151799WA0063900634007003023229359
B1947163728118N12151803WA0063900634007003022234359
B1947173728117N12151806WA0063900634008003022243359
B1947183728115N12151809WA0063900634009003020240359
B1947193728114N12151812WA0063800634011003020230359
B1947203728111N12151815WA0063700634007003023219359
B1947213728107N12151818WA0063700633007003023210359
B1947223728104N12151820WA0063700633007003025204359
B1947233728100N12151821WA0063600633006003025196359
B1947243728097N12151822WA0063600632006003026193359
B1947253728093N12151824WA0063600630007003027195359
B1947263728089N12151825WA0063600629006003027197359
B1947273728085N12151827WA0063500629006003028198359
B1947283728081N12151829WA0063400628006003028200359
B1947293728077N12151831WA0063300627006003027202359
B1947303728073N12151833WA0063200626006003027203359
B1947313728069N12151835WA0063100624006003027202359
B1947323728066N12151837WA0063000623006003028205359
B1947333728062N12151839WA0062900622007003028204359
B1947343728059N12151841WA0062800621006003025198359
B1947353728055N12151841WA0062600619006003025192359
B1947363728051N12151842WA0062500617006003025190359
B1947373728048N12151844WA0062400615006003025194359
B1947383728044N12151845WA0062200613006003026197359
B1947393728040N12151847WA0062100611006003028198359
B1947403728035N12151848WA0061900609006003031189359
B1947413728030N12151848WA0061700608006003031179359
B1947423728025N12151847WA0061700607006003033174359
B1947433728020N12151847WA0061500606006003034175359
B1947443728016N12151846WA0061300605006003032179359
B1947453728006N12151845WA0061000602006003032171359
B1947463728001N12151844WA0060800601006003032166000
B1947473727997N12151842WA0060700600006003032163000
B1947483727992N12151840WA0060600598006003034161000
B1947493727987N12151838WA0060400597006003034159000
B1947503727983N12151835WA0060300596006003033156000
B1947513727979N12151833WA0060200594006003032156000
B1947523727974N12151831WA0060000593006003031163000
B1947533727970N12151830WA0059900591006003031167000
B1947543727965N12151829WA0059800590006003032164000
B1947553727960N12151826WA0059600589006003032158000
B1947563727956N12151824WA0059600587006003034155000
B1947573727951N12151821WA0059500586006003034157000
B1947583727947N12151819WA0059300585006003032163000
B1947593727942N12151818WA0059200584006003033163359
B1948003727937N12151815WA0059100582006003033158000
B1948013727931N12151812WA0058900580006003036156000
B1948023727926N12151810WA0058800579010003039158359
B1948033727921N12151808WA0058800578007003037164359
B1948043727915N12151806WA0058700577009003037168359
B1948053727910N12151805WA0058500576009003037168359
B1948063727904N12151803WA0058300574009003037167359
B1948073727899N12151802WA0058100571009003037167359
B1948083727894N12151801WA0057900569009003036171359
B1948093727888N12151800WA0057900567009003037175359
B1948103727883N12151800WA0057700565009003037174359
B1948113727877N12151799WA0057500563009003037169359
B1948123727872N12151798WA0057200561009003036172359
B1948133727867N12151798WA0057000559009003035178359
B1948143727862N12151798WA0057000557009003035182359
B1948153727856N12151798WA0056700555009003035181359
B1948163727851N12151798WA0056500554009003035181359
B1948173727846N12151798WA0056200552009003035181359
B1948183727840N12151799WA0056200551009003039182359
B1948193727834N12151799WA0056000551009003039182359
B1948203727828N12151799WA0055700551009003038182359
B1948213727824N12151800WA0055600553009003036189359
B1948223727820N12151803WA0055600553009003030201359
B1948233727816N12151805WA0055500553011003030208359
B1948243727812N12151807WA0055500553009003030207359
B1948253727808N12151810WA0055500553009003029198359
B1948263727804N12151811WA0055500553009003029186000
B1948273727800N12151810WA0055500552009003029177359
B1948283727795N12151810WA0055500551009003030174359
B1948293727791N12151809WA0055500550009003032173000
B1948303727785N12151808WA0055500548009003032170000
B1948313727779N12151806WA0055500548009003036165000
B1948323727773N12151804WA0055400549009003041159000
B1948333727768N12151801WA0055300549009003040158000
B1948353727763N12151799WA0055300551010003040158000
B1948363727758N12151796WA0055200552009003036160000
B1948373727753N12151794WA0055200552008003036160000
B1948383727747N12151792WA0055200553009003037161000
B1948393727742N12151790WA0055200555009003037164000
B1948403727738N12151789WA0055200556009003035169000
B1948413727733N12151788WA0055400557009003034170359
B1948423727728N12151787WA0055500558008003035169000
B1948433727723N12151786WA0055500559009003035167000
B1948443727718N12151784WA0055600560009003033166000
B1948453727714N12151783WA0055800560009003032163000
B1948463727709N12151780WA0055900561009003034160000
B1948473727704N12151778WA0055900561009003036156000
B1948483727700N12151774WA0056000562009003036150000
B1948493727695N12151771WA0056100562009003036146000
B1948503727690N12151767WA0056200562010003036147000
B1948513727686N12151763WA0056200563010003039146000
B1948523727681N12151759WA0056300565010003039144000
B1948533727677N12151754WA0056400566009003038136000
B1948543727674N12151749WA0056500568009003038129000
B1948553727670N12151743WA0056500569009003038125000
B1948563727667N12151737WA0056700570009003040124000
B1948573727664N12151730WA0056800572009003040120000
B1948583727661N12151723WA0057000573011003040116000
B1948593727659N12151716WA0057000573011003040113000
B1949003727657N12151709WA0057100574007003041106000
B1949013727655N12151701WA0057300574007003042101000
B1949023727654N12151693WA0057400574006003042093000
B1949033727655N12151686WA0057400574007003040083000
B1949043727657N12151679WA0057500574007003038064000
B1949053727660N12151674WA0057600575007004033050004
B1949063727663N12151669WA0057700574010004032035005
B1949073727667N12151666WA0057700573012005032019001
B1949083727672N12151664WA0057800572010005032009357
B1949093727677N12151664WA0057900572012006032005352
B1949103727682N12151663WA0058000572023007033004340
B1949113727689N12151662WA0058000573014008038004326
B1949123727694N12151662WA0058200573200011038004325
B1949133727700N12151661WA0058300573200008038004326
B1949143727705N12151661WA0058500573200008038004324
B1949153727711N12151660WA0058500573200008035004326
B1949163727701N12151659WA0058700557030012011004325
B1949173727702N12151658WA0058900557200014011004030
B1949183727702N12151658WA0059100557200010011004024
B1949193727693N12151657WA0059100557055014012004017
B1949203727692N12151656WA0059200559055015015004012
B1949213727684N12151662WA0059400580018013027162009
B1949223727674N12151669WA0059500581017012027149006
B1949233727668N12151665WA0059500582024011027132004
B1949243727663N12151658WA0059600589014011032113002
B1949253727661N12151648WA0059700595013010039100002
B1949263727660N12151641WA0059800595013010037089001
B1949273727660N12151635WA0059800595013010037085001
B1949283727660N12151629WA0059900594012010037086000
B1949293727660N12151623WA0060100595020010035080001
B1949303727661N12151617WA0060300595200013030080000
B1949313727662N12151612WA0060300595200009026080357
B1949323727663N12151608WA0060500596200008026080357
B1949333727664N12151604WA0060700597200008025080350
B1949343727667N12151600WA0060900593200009025080337
B1949353727670N12151595WA0060900591200009034080334
B1949363727675N12151590WA0061100597200009041080334
B1949373727681N12151585WA0061200602200009041080331
B1949383727686N12151582WA0061300602200009040080332
B1949393727690N12151582WA0061300603200009029080333
B1949403727693N12151582WA0061400601200009028080335
B1949413727696N12151585WA0061500598200009016080339
B1949423727699N12151588WA0061600597200010016080343
B1949433727706N12151624WA0061600589016015016080345
B1949443727704N12151629WA0061800588016016009080346
B1949453727702N12151633WA0062000589016016009080348
B1949463727684N12151657WA0062200616014015032192008
B1949473727679N12151660WA0062200616012015032182006
B1949483727670N12151663WA0062300617012015032174005
B1949493727662N12151663WA0062500618010013032164004
B1949503727655N12151658WA0062600623010011033147003
B1949513727650N12151653WA0062600625012009035139002
B1949523727646N12151649WA0062800626010009037135001
B1949533727642N12151643WA0063000627012008037128001
B1949543727639N12151636WA0063100628010008037116000
B1949553727636N12151628WA0063100627010008044108000
B1949563727634N12151619WA0063300626010008050102000
B1949573727633N12151610WA0063400626010008051102000
B1949583727633N12151605WA0063500626014008050102000
B1949593727635N12151599WA0063500627013008035078000
B1950003727637N12151594WA0063600629013009032068000
B1950013727639N12151589WA0063800629013009026055001
B1950023727642N12151586WA0064000632013009026040003
B1950033727648N12151581WA0064000632010010026027003
B1950043727654N12151578WA0064200633010010029023006
B1950053727658N12151576WA0064400632011011030019359
B1950063727663N12151573WA0064600630012011032015354
B1950073727668N12151572WA0064600630200014032015353
B1950083727675N12151573WA0064800636010011032015343
B1950093727681N12151574WA0065000639011011033015335
B1950103727686N12151575WA0065100642011011033015332
B1950113727691N12151577WA0065100643011012030015330
B1950123727695N12151579WA0065300644011012030344331
B1950133727699N12151583WA0065400646024012028344332
B1950143727702N12151589WA0065500647013012025322337
B1950153727706N12151598WA0065500651011011025306337
B1950163727707N12151607WA0065600654011011024279343
B1950173727707N12151614WA0065800656011011024265344
B1950183727706N12151620WA0065900658010011023253346
B1950193727705N12151625WA0065900659010011019241347
B1950203727702N12151629WA0066200660010011018223348
B1950213727698N12151634WA0066400659009009021209349
B1950223727693N12151635WA0066600660009009026192350
B1950233727689N12151636WA0066600661009008026187007
B1950243727684N12151637WA0066900663011008028180005
B1950253727679N12151635WA0067000664014007028165004
B1950263727674N12151633WA0067100664012007033157003
B1950273727670N12151630WA0067100664012007033150002
B1950283727666N12151627WA0067200664009006032141001
B1950293727662N12151623WA0067200664016006032134001
B1950303727659N12151618WA0067200664027006032120000
B1950313727657N12151612WA0067200663008006037108000
B1950323727655N12151603WA0067200663012006045100000
B1950333727654N12151586WA0067200664012007042081000
B1950343727655N12151578WA0067200665012007038071000
B1950353727657N12151572WA0067200665012007032061003
B1950363727659N12151567WA0067200665014008032061359
B1950373727662N12151563WA0067300663041008032061345
B1950383727666N12151559WA0067300664012008031061342
B1950393727668N12151554WA0067500664200012031061336
B1950413727679N12151557WA0067700670012009034061333
B1950423727681N12151551WA0067800670200012034061333
B1950433727685N12151547WA0067800670200009034061333
B1950443727689N12151543WA0067900671200008034061020
B1950453727691N12151540WA0068100666200008034061013
B1950463727691N12151540WA0068200664200009009061008
B1950473727690N12151541WA0068200664200009011061004
B1950483727682N12151553WA0068300664040016010061002
B1950493727682N12151552WA0068500664200018010061359
B1950503727682N12151549WA0068600660200014010061353
B1950513727683N12151546WA0068600659200013016061345
B1950523727684N12151542WA0068700658200012019061340
B1950533727685N12151539WA0068900658200013019061344
B1950543727689N12151528WA0069000659018023021061344
B1950553727696N12151525WA0069000647029024027061346
B1950563727705N12151521WA0069200667017021033061348
B1950573727710N12151524WA0069500674016020030348350
B1950583727714N12151528WA0069700673027019030348351
B1950593727717N12151541WA0069700661015019030348351
B1951003727716N12151550WA0069900656015019021300351
B1951013727715N12151555WA0070100657013018021283353
B1951023727714N12151560WA0070200658012018016276355
B1951033727712N12151564WA0070200658013018016280356
B1951043727712N12151569WA0070400659016017018293358
B1951053727713N12151573WA0070500660020017022311358
B1951063727709N12151580WA0070500653018016025338000
B1951073727711N12151583WA0070500649015015025007012
B1951083727715N12151581WA0070600653014015035029011
B1951093727717N12151575WA0070600662013014042049015
B1951103727717N12151568WA0070600677012011040069016
B1951113727717N12151560WA0070600685010010040089015
B1951123727714N12151554WA0070600692009008040112015
B1951133727711N12151548WA0070700698008007038148348
B1951143727706N12151545WA0070800701008006038168353
B1951153727702N12151549WA0070800702007006032215356
B1951163727702N12151555WA0070900704007006032262358
B1951173727704N12151559WA0070900705006005028303357
B1951183727707N12151562WA0070900706006005026329001
B1951193727711N12151563WA0070900707006005026346356
B1951203727715N12151562WA0071000707006005030003012
B1951213727720N12151560WA0071000708006005035023024
B1951223727724N12151554WA0071100709007005035045030
B1951233727726N12151547WA0071100709007005040064034
B1951243727727N12151539WA0071300710006005043085034
B1951253727727N12151532WA0071400710005005040111035
B1951263727722N12151527WA0071500709006005040137333
B1951273727717N12151526WA0071500710006005040168343
B1951283727712N12151528WA0071600711005005036203349
B1951293727710N12151533WA0071600713005005032238353
B1951303727710N12151537WA0071700714006004023263354
B1951313727710N12151541WA0071700715005004023274355
B1951323727710N12151545WA0071700715005004021269355
B1951333727710N12151549WA0071800715005005021264357
B1951343727709N12151555WA0071900715005004026261358
B1951353727708N12151561WA0071900716005004029266358
B1951363727708N12151566WA0071900716005004029271358
B1951373727708N12151570WA0072000718005004025273358
B1951383727708N12151573WA0072100719006004020268359
B1951393727707N12151576WA0072200719006004018267359
B1951403727708N12151580WA0072300719006004019279359
B1951413727709N12151584WA0072400719006004021293359
B1951423727710N12151588WA0072500719005004021294359
B1951433727712N12151592WA0072600720006004023291359
B1951443727713N12151596WA0072600722005004025297358
B1951453727716N12151599WA0072600723005004022316001
B1951463727719N12151600WA0072700724004004024346012
B1951473727724N12151599WA0072700723005004024014019
B1951483727727N12151594WA0072800723006004030042025
B1951493727729N12151586WA0072800723006004037073028
B1951503727728N12151577WA0072900723006004049102030
B1951513727726N12151569WA0072900724005004054136332
B1951523727719N12151566WA0072900726005004049160342
B1951533727713N12151568WA0072900728005004046194349
B1951543727710N12151573WA0072900728004004039232354
B1951553727710N12151579WA0072900728005004031274357
B1951563727713N12151583WA0073000729005004031315005
B1951573727716N12151587WA0073100729005004029326015
B1951583727720N12151585WA0073100730007004029052021
B1951593727723N12151578WA0073200730007004037083024
B1952003727722N12151568WA0073200730006004047112025
B1952013727718N12151560WA0073200730007005049140338
B1952023727712N12151555WA0073200731006005047170345
B1952033727706N12151557WA0073200731005005043192350
B1952043727702N12151560WA0073200732006005039223354
B1952053727700N12151565WA0073200732006004027251357
B1952063727700N12151569WA0073200733006004027280357
B1952073727701N12151573WA0073300733006004022287358
B1952083727702N12151575WA0073300733006004020306358
B1952093727704N12151579WA0073400732007004020303358
B1952103727706N12151582WA0073400732007004024302359
B1952113727708N12151585WA0073500732007004024308359
B1952123727710N12151588WA0073500732008004021316359
B1952133727712N12151591WA0073500732008004021313359
B1952143727714N12151594WA0073400732008004022310359
B1952153727717N12151596WA0073400733007004021318359
B1952163727719N12151598WA0073400732008004021337356
B1952173727723N12151598WA0073400732008004021353354
B1952183727727N12151598WA0073400732008004025003351
B1952193727731N12151597WA0073400732007004026010347
B1952203727735N12151596WA0073400732007004024015352
B1952213727738N12151595WA0073400731006004024017352
B1952223727742N12151593WA0073300731006005024015348
B1952233727746N12151592WA0073300730006005025008333
B1952243727750N12151592WA0073100728007005028356322
B1952253727754N12151592WA0072900727007005030345314
B1952263727758N12151594WA0072700728013006030345317
B1952273727761N12151597WA0072300732009006028315324
B1952283727763N12151601WA0071900732008006021294332
B1952293727763N12151604WA0071600731008006014286343
B1952303727763N12151607WA0071300730008006014283344
B1952313727764N12151611WA0071300729007006016282346
B1952323727763N12151616WA0071000728007006016257347
B1952333727759N12151622WA0070800727007006024239349
B1952343727757N12151628WA0070500727008006030239352
B1952353727755N12151632WA0070300727008006022252354
B1952363727755N12151636WA0070100725007006022265355
B1952373727754N12151640WA0069900723007006022264355
B1952383727753N12151645WA0069800722008006022255356
B1952393727752N12151650WA0069600721007006024254357
B1952403727751N12151655WA0069600721007006025265358
B1952413727751N12151659WA0069500720008006025283358
B1952423727752N12151663WA0069400719008006023292358
B1952433727753N12151668WA0069300719008006023289359
B1952443727754N12151673WA0069200719008006025285359
B1952453727755N12151678WA0069100719009006027289359
B1952463727757N12151682WA0069100718009005027302359
B1952473727759N12151686WA0069100717010005025312359
B1952483727761N12151689WA0069100717011005024310359
B1952493727763N12151693WA0069100715011005023302359
B1952503727765N12151697WA0069100714012005023301359
B1952513727767N12151700WA0069000712013005023310359
B1952523727769N12151703WA0069000709013005023322359
B1952533727772N12151707WA0068900707014005026323359
B1952543727775N12151710WA0068700706015005026315359
B1952553727777N12151713WA0068600705016005025309359
B1952563727779N12151717WA0068400704015005024308359
B1952573727781N12151721WA0068300703015005025312359
B1952583727784N12151724WA0068200701014005028314359
B1952593727787N12151729WA0068100700013005028313359
B1953003727790N12151733WA0068000700013005030312359
B1953013727794N12151738WA0067900700012005032310359
B1953023727797N12151742WA0067800700011005029309359
B1953033727799N12151746WA0067800701012005029309359
B1953043727801N12151750WA0067800700012005026311359
B1953053727803N12151753WA0067800700012006024306359
B1953063727805N12151757WA0067900700011006024298359
B1953073727806N12151761WA0067900700011006024289359
B1953083727807N12151766WA0068000701011006025280359
B1953093727807N12151772WA0068100701011006025271359
B1953103727806N12151777WA0068100701010007027268359
B1953113727806N12151782WA0068100702010007027267359
B1953123727806N12151788WA0068100702010007024264359
B1953133727805N12151792WA0068100701014007024258359
B1953143727804N12151796WA0068200699013007024242359
B1953153727801N12151799WA0068200699013008021224359
B1953163727798N12151802WA0068200697010008021206359
B1953173727794N12151804WA0068100695009008028201359
B1953183727789N12151806WA0068100694009007030200359
B1953193727782N12151809WA0067900689010007029199359
B1953203727776N12151811WA0067700685010007030196359
B1953213727770N12151814WA0067400682011006030193359
B1953223727764N12151816WA0067200679011006030195359
B1953233727759N12151818WA0066900676010006030204359
B1953243727756N12151820WA0066700674009006026211359
B1953253727752N12151823WA0066600672009006026207359
B1953263727748N12151825WA0066400671008005025203359
B1953273727744N12151827WA0066300670008005023207359
B1953283727742N12151829WA0066200668008005023217359
B1953293727739N12151832WA0066200665008005022219359
B1953303727736N12151834WA0066100663007005022210359
B1953313727732N12151836WA0066000661007005023208359
B1953323727729N12151838WA0065800660007005022222359
B1953333727727N12151842WA0065600656007005024239359
B1953343727726N12151846WA0065600653007005024247359
B1953353727724N12151851WA0065400650008004025245359
B1953363727722N12151856WA0065100648007004026246359
B1953373727721N12151860WA0064800646008004027252359
B1953383727721N12151865WA0064600645007004027266359
B1953393727721N12151870WA0064300643013004027277359
B1953403727722N12151875WA0064100642006004026282359
B1953413727723N12151880WA0063900642006004025282359
B1953423727724N12151884WA0063700641006004024284359
B1953433727725N12151889WA0063600641006004025289359
B1953443727726N12151893WA0063500639006004025292359
B1953453727728N12151898WA0063300637006004027296359
B1953463727730N12151903WA0063200637007004028299359
B1953473727732N12151908WA0063000637009004028301359
B1953483727735N12151912WA0062800637013005028304359
B1953493727737N12151915WA0062800637008005026313359
B1953503727740N12151919WA0062700636008005026317359
B1953513727743N12151922WA0062500635007005027312359
B1953523727746N12151926WA0062400635015006027304359
B1953533727747N12151930WA0062200634008006027290359
B1953543727748N12151935WA0062100633009006024271359
B1953553727747N12151939WA0061900632009007023261359
B1953563727745N12151943WA0061700631010007022258359
B1953573727744N12151948WA0061600630013007023260359
B1953583727741N12151952WA0061400626010006025251359
B1953593727739N12151957WA0061200621013006025247359
B1954003727736N12151963WA0061000617009006028242359
B1954013727733N12151968WA0060700616010006032243359
B1954023727731N12151973WA0060300615010006033246359
B1954033727729N12151979WA0060000615009006033253359
B1954043727728N12151989WA0059700611013006027262359
B1954053727727N12151994WA0059400610009006027262359
B1954063727726N12151999WA0059200610008006029260359
B1954073727726N12152004WA0059000610014006029250359
B1954083727724N12152008WA0058800609014006027234359
B1954093727721N12152011WA0058700608008006027214359
B1954103727716N12152013WA0058500607008006029196359
B1954113727710N12152014WA0058300605009006037182000
B1954123727705N12152014WA0058100604009006037172000
B1954133727701N12152013WA0058000602010006032169000
B1954143727696N12152011WA0057800600010006031164000
B1954153727691N12152006WA0057700599010006031152000
B1954163727687N12152002WA0057500596010006035142000
B1954173727683N12151997WA0057400592012005036129000
B1954183727681N12151991WA0057300589012005036118000
B1954193727678N12151985WA0057300586010005036113000
B1954203727676N12151978WA0057100584012005037112000
B1954213727674N12151971WA0056900581012005038111000
B1954223727672N12151965WA0056700580013005038107000
B1954233727670N12151958WA0056500579026005038103000
B1954243727669N12151950WA0056300578025005039101000
B1954253727668N12151943WA0056300577022005041094000
B1954263727669N12151936WA0056000577010006042088000
B1954273727670N12151928WA0055700577011006042082000
B1954283727671N12151921WA0055300575013006041076000
B1954293727673N12151914WA0055300574013006039070000
B1954303727675N12151908WA0055000573011007038064000
B1954313727678N12151903WA0054600571011007033054001
B1954323727681N12151898WA0054300570012007033047358
B1954333727684N12151894WA0054300569015008031045006
B1954343727687N12151890WA0054100569014008031045001
B1954353727690N12151886WA0053900569032009031045353
B1954363727693N12151883WA0053700568012009027035339
B1954373727696N12151880WA0053700568200012027035346
B1954383727702N12151876WA0053600567012011027035343
B1954393727706N12151874WA0053400567200013025035342
B1954403727709N12151871WA0053100565200010025035342
B1954413727719N12151874WA0053100572012012028035341
B1954423727725N12151875WA0052900573012012029035347
B1954433727731N12151876WA0052600576012012029035347
B1954443727738N12151878WA0052300575012012029035351
B1954453727743N12151881WA0052300571012012027035351
B1954463727747N12151884WA0051900570012012023035352
B1954473727749N12151887WA0051600568012012023035353
B1954483727753N12151890WA0051300567012012023035354
B1954493727756N12151894WA0051300567013012025035355
B1954503727758N12151898WA0051000567013012026035355
B1954513727761N12151904WA0050800567013012024035356
B1954523727762N12151913WA0050600567012012024287356
B1954533727764N12151920WA0050600567012012024290357
B1954543727765N12151926WA0050400567011012024292357
B1954553727766N12151932WA0050200566016012027286358
B1954563727766N12151939WA0049900565020012028277358
B1954573727766N12151946WA0049900563021012028274358
B1954583727766N12151952WA0049700562020011028274359
B1954593727767N12151958WA0049500560020011029273359
B1955003727767N12151963WA0049200558020011028272359
B1955013727767N12151968WA0049200556020011028263359
B1955023727766N12151973WA0049000555020011026258359
B1955033727764N12151978WA0048800552020010025253359
B1955043727763N12151983WA0048600549020010027256359
B1955053727762N12151988WA0048600546020010029257359
B1955063727761N12151993WA0048300546020010029255359
B1955073727760N12151999WA0048100545020010030251359
B1955083727758N12152004WA0048000544020010030251359
B1955093727757N12152009WA0048000543020010027253359
B1955103727754N12152014WA0047800541018010028251359
B1955113727752N12152019WA0047600539017010028250359
B1955123727751N12152025WA0047400536014009029252359
B1955133727749N12152029WA0047400534015009029249359
B1955143727747N12152034WA0047300533015009026248359
B1955153727746N12152038WA0047100532020009026250359
B1955163727744N12152043WA0046900529015009024248359
B1955173727741N12152047WA0046900527015009024238359
B1955183727738N12152051WA0046800525015009027228359
B1955193727735N12152055WA0046600523015009030219359
B1955203727731N12152057WA0046400523015009030211359
B1955213727727N12152059WA0046400521015009026201359
B1955223727724N12152060WA0046200519015009024185000
B1955233727720N12152060WA0046000516015009024173000
B1955243727715N12152058WA0045800514017009032159000
B1955253727710N12152055WA0045800513017009035143000
B1955263727706N12152050WA0045600512016009035127000
B1955273727702N12152044WA0045400511016009037116000
B1955283727700N12152037WA0045200510018009038105000
B1955293727699N12152031WA0045200507018009035100000
B1955303727697N12152025WA0045000505018009035100000
B1955313727696N12152019WA0044700500018008034100000
B1955323727694N12152013WA0044700496019008034099000
B1955333727693N12152006WA0044500492019008036098000
B1955343727691N12152000WA0044300489018008035096000
B1955353727690N12151994WA0044100485018008035094000
B1955363727689N12151987WA0043900482017008034096000
B1955373727688N12151981WA0043900478016007034098000
B1955383727686N12151974WA0043800471016007035097000
B1955393727685N12151967WA0043600466015007040091000
B1955403727684N12151959WA0043400462014006045087000
B1955413727684N12151951WA0043400460013006045088000
B1955423727683N12151943WA0043200457013006045092000
B1955433727682N12151937WA0043000457012006042094000
B1955443727681N12151931WA0042900455010006030096000
B1955453727679N12151926WA0042900453011005030106000
B1955463727676N12151921WA0042800451010005030124000
B1955473727672N12151916WA0042800449009005033150359
B1955483727666N12151915WA0042900447009005038174359
B1955493727660N12151918WA0042900445009005040200359
B1955503727656N12151923WA0042900444009005040232359
B1955513727655N12151928WA0042900443008004033254358
B1955523727655N12151933WA0042900441008004028284000
B1955533727658N12151936WA0042800439008004025320010
B1955543727662N12151936WA0042800437007004027001017
B1955553727666N12151932WA0042700434007004034035023
B1955563727669N12151928WA0042700434007004034052023
B1955573727669N12151920WA0042600432006004038095025
B1955583727668N12151912WA0042500433006004043122023
B1955593727663N12151907WA0042300433007004039137341
B1956003727658N12151904WA0042100432006004039156345
B1956013727652N12151904WA0042100431006004035175000
B1956023727647N12151903WA0041900430007004034179000
B1956033727642N12151903WA0041800430007004034170000
B1956043727637N12151901WA0041700429008004036161000
B1956053727631N12151898WA0041700428008004040154000
B1956063727625N12151895WA0041700428007004040157000
B1956073727619N12151892WA0041700427008004040157000
B1956083727614N12151889WA0041700427007004039151000
B1956093727609N12151885WA0041700426010004038143000
B1956103727605N12151881WA0041700426007004038139000
B1956113727599N12151874WA0041700426008004038134000
B1956123727595N12151867WA0041700427008004046133000
B1956133727590N12151861WA0041600428007004046128000
B1956143727587N12151854WA0041600429007004042122000
B1956153727583N12151847WA0041600429006004042124000
B1956163727580N12151841WA0041600429007004042126000
B1956173727576N12151834WA0041600429007004042124000
B1956183727572N12151827WA0041700428008004044117000
B1956193727569N12151819WA0041700428007004048107000
B1956203727568N12151810WA0041700427007004048101000
B1956213727567N12151802WA0041800427008004045094000
B1956223727567N12151795WA0041900427008005041095000
B1956233727567N12151788WA0041900427008005038087000
B1956243727568N12151782WA0041900424013005033081000
B1956253727569N12151777WA0041900425011006033074000
B1956263727570N12151772WA0041900425009006031064000
B1956273727574N12151767WA0041800425012006031052001
B1956283727577N12151764WA0041700425013007031047004
B1956293727582N12151760WA0041700424011007031042004
B1956303727586N12151757WA0041600422009008031035000
B1956313727591N12151754WA0041500421011008031023353
B1956323727596N12151751WA0041500419009009034014346
B1956333727601N12151750WA0041400418047009037014337
B1956343727607N12151748WA0041300418200012038014330
B1956353727612N12151747WA0041200419200009039014333
B1956363727614N12151747WA0041200420015012029014331
B1956373727620N12151749WA0041100427012011027014329
B1956383727624N12151748WA0040900427200014025014331
B1956393727626N12151748WA0040800426200010014014330
B1956403727624N12151758WA0040800422040013013014025
B1956413727632N12151761WA0040700420033013005014018
B1956423727632N12151762WA0040600416033013005158013
B1956433727626N12151763WA0040600423014013008170010
B1956443727622N12151760WA0040600423012013022142007
B1956453727618N12151757WA0040500422012013023115005
B1956463727615N12151753WA0040500423014012023099003
B1956473727613N12151744WA0040500424020013026098002
B1956483727611N12151737WA0040500423022013036095002
B1956493727608N12151730WA0040500417022012035088001
B1956503727606N12151718WA0040500420022010042082001
B1956513727606N12151708WA0040400419019010042078001
B1956523727607N12151697WA0040400418018009046074000
B1956533727608N12151688WA0040300415018009050073000
B1956543727610N12151678WA0040100413017009048072000
B1956553727611N12151669WA0040000412016008048074000
B1956563727612N12151661WA0040000412015008047080000
B1956573727612N12151653WA0039900408013007041086000
B1956583727612N12151645WA0039800404012007041090000
B1956593727611N12151636WA0039800400011006044097000
B1957003727608N12151628WA0039800396009005042111000
B1957013727604N12151622WA0039700392008005042132359
B1957023727599N12151619WA0039700389007004036158359
B1957033727594N12151617WA0039600389007004036170359
B1957043727590N12151619WA0039600390007004035213359
B1957053727588N12151623WA0039400391006004027277359
B1957063727591N12151627WA0039200390006004022308359
B1957073727595N12151629WA0039000390006004027341000
B1957083727600N12151630WA0039000389006004027358005
B1957093727606N12151628WA0039000388008004033012005
B1957103727611N12151626WA0038900387006004037018357
B1957113727616N12151624WA0038900387006004037016346
B1957123727622N12151623WA0038900386006004037011347
B1957133727627N12151622WA0038800386007004037007346
B1957143727632N12151622WA0038800385007004036002349
B1957153727637N12151622WA0038700383007005035357352
B1957163727642N12151623WA0038700384008005035355340
B1957173727648N12151625WA0038600384008005035352341
B1957183727653N12151627WA0038500384008005033348330
B1957193727657N12151630WA0038300382007005031336331
B1957203727661N12151633WA0038300381008005029332331
B1957213727665N12151636WA0038100380007005029329336
B1957223727668N12151639WA0038000379007005028322335
B1957233727671N12151642WA0037900377008005025311336
B1957243727672N12151646WA0037700375009004022297339
B1957253727673N12151650WA0037600375009004021289340
B1957263727674N12151654WA0037500376008005021284341
B1957273727675N12151657WA0037300376008005020274346
B1957283727675N12151660WA0037200376008005020261346
B1957293727675N12151663WA0037100375008005014252347
B1957303727673N12151666WA0037100373008005017239350
B1957313727669N12151670WA0037100372008005026224352
B1957323727666N12151674WA0037000372008005026233355
B1957333727663N12151678WA0037000372008005027247357
B1957343727662N12151682WA0036900372007005027280357
B1957353727663N12151686WA0036900372006005022308358
B1957363727666N12151689WA0036900372007005023314358
B1957373727668N12151693WA0036900370008005023305358
B1957383727669N12151697WA0036800370009005023278358
B1957393727668N12151701WA0036800370010005023248358
B1957403727666N12151703WA0036800370009004020230358
B1957413727664N12151706WA0036800371009004020231359
B1957423727663N12151709WA0036800371008004020239359
B1957433727662N12151713WA0036800371008004020245359
B1957443727661N12151717WA0036800371009004020253359
B1957453727660N12151720WA0036800372009004020259359
B1957463727660N12151724WA0036900372009004020265359
B1957473727660N12151727WA0036900372008004020271359
B1957483727661N12151729WA0037000372008004015324359
B1957493727664N12151729WA0037000373007004015355000
B1957503727667N12151728WA0037200373006004023004007
B1957513727672N12151726WA0037300373006004032017017
B1957523727677N12151724WA0037500373006004032032024
B1957533727682N12151719WA0037600374006004035044027
B1957543727683N12151711WA0037700374007004037106330
B1957553727680N12151703WA0037700372007004044147339
B1957563727673N12151702WA0037500370007004044172347
B1957573727669N12151704WA0037400370007004041207351
B1957583727665N12151705WA0037300371007004029218354
B1957593727664N12151707WA0037200373007004021234355
B1958003727663N12151709WA0037200374008004013247356
B1958013727663N12151712WA0037200375007004016266358
B1958023727664N12151715WA0037300375006004016283358
B1958033727665N12151718WA0037400375007004020298359
B1958043727666N12151721WA0037500375008004022305358
B1958053727668N12151724WA0037700376007004021309358
B1958063727670N12151726WA0037700376007004021307358
B1958073727671N12151728WA0037800377008004020298358
B1958083727672N12151731WA0037900378008004016288359
B1958093727673N12151733WA0038000378007004014289359
B1958103727673N12151735WA0038200378008004013285359
B1958113727673N12151737WA0038300378008004017271359
B1958123727672N12151740WA0038400378009004016257359
B1958133727670N12151743WA0038400379008004017226000
B1958143727666N12151744WA0038400378010005019226000
B1958153727661N12151742WA0038300374011005030162000
B1958163727656N12151738WA0038200374011005030148000
B1958173727651N12151733WA0038200374011005030133000
B1958183727648N12151727WA0038200374012006032119000
B1958193727645N12151719WA0038200377013005032113000
B1958203727643N12151712WA0038200376013006036101000
B1958213727643N12151705WA0038200378013006036101359
B1958223727643N12151699WA0038200378022006034101349
B1958233727644N12151695WA0038200377013007020065345
B1958243727646N12151690WA0038200374057007020065343
B1958253727649N12151686WA0038200373013008024065344
B1958263727650N12151682WA0038200372057008024065347
B1958273727652N12151679WA0038300372013009020065348
B1958283727656N12151689WA0038400387013009020065350
B1958293727658N12151694WA0038500390013010018065352
B1958303727659N12151691WA0038700390200013017065354
B1958313727661N12151690WA0038800384200009021065356
B1958323727662N12151704WA0038800378020010019254356
B1958333727661N12151710WA0039000377021010019249357
B1958343727661N12151716WA0039100377021009015251358
B1958353727659N12151723WA0039200373019009019251357
B1958363727659N12151729WA0039200374017008022257358
B1958373727659N12151734WA0039200372015006022265358
B1958383727659N12151738WA0039200372013006022277359
B1958393727660N12151742WA0039000371012006021283359
B1958403727661N12151746WA0038800370010006022276359
B1958413727660N12151752WA0038700368010006026259359
B1958423727659N12151757WA0038500368010005026245359
B1958433727657N12151762WA0038300370009005029244359
B1958443727656N12151767WA0038100371009005029245359
B1958453727655N12151771WA0038000371008004022245359
B1958463727654N12151775WA0037900371007004022252359
B1958473727653N12151779WA0037800370007004022257359
B1958483727652N12151784WA0037800368007004023257359
B1958493727651N12151788WA0037800367006004024251359
B1958503727649N12151792WA0037700367006004024235359
B1958513727647N12151794WA0037600366007004024215359
B1958523727643N12151796WA0037500365006004024201359
B1958533727640N12151797WA0037300363007003024194359
B1958543727635N12151798WA0037200361007003027190359
B1958553727630N12151799WA0037000359006003033187359
B1958563727625N12151800WA0036900359005003033184359
B1958573727621N12151801WA0036700360006003033186359
B1958583727616N12151801WA0036500359006003032190359
B1958593727612N12151802WA0036400358006003030197359
B1959003727608N12151804WA0036200358007003030203359
B1959013727604N12151807WA0036100357007003033211359
B1959023727600N12151811WA0035900353007003033216359
B1959033727595N12151816WA0035900353007003037222359
B1959043727591N12151821WA0035700352007003036229359
B1959053727589N12151827WA0035400351006003036240359
B1959063727587N12151833WA0035100351006003036245359
B1959073727584N12151839WA0034900351006003036240359
B1959083727582N12151845WA0034700352006003035239359
B1959093727579N12151851WA0034600353006003035240359
B1959103727577N12151855WA0034600354006003030244359
B1959113727576N12151859WA0034700354006003024251359
B1959123727575N12151863WA0034700354006003023253359
B1959133727574N12151867WA0034800354007004026257359
B1959143727573N12151872WA0035000355006004031253359
B1959153727572N12151879WA0035100356007004031249359
B1959163727571N12151884WA0035100359006004031260359
B1959173727570N12151888WA0035200361008004024251359
B1959183727569N12151893WA0035300361007004024250359
B1959193727568N12151897WA0035400361007004023250359
B1959203727567N12151901WA0035400360007004023255359
B1959213727566N12151906WA0035600360006004024260359
B1959223727566N12151912WA0035700361006004031257359
B1959233727565N12151917WA0035800362005004031249359
B1959243727563N12151922WA0035800362006004028248359
B1959253727562N12151925WA0035900362007004023253359
B1959263727561N12151930WA0036000361007004023261359
B1959273727561N12151935WA0036000360007004031266359
B1959283727560N12151941WA0036000361006004032268359
B1959293727560N12151947WA0036100361006004031266359
B1959303727560N12151952WA0036200362007004031265359
B1959313727559N12151957WA0036300362008004025256359
B1959323727558N12151961WA0036300362009005023243359
B1959333727556N12151964WA0036400362009005023230359
B1959343727554N12151967WA0036500363009005023230000
B1959353727552N12151966WA0036700365009006022208000
B1959363727546N12151963WA0036700356009006022156000
B1959373727544N12151960WA0036800357022007029156000
B1959383727542N12151955WA0036900352037007029156359
B1959393727538N12151952WA0036900352200011028156350
B1959403727535N12151949WA0036900352200007028156349
B1959413727532N12151946WA0036900352200007028156351
B1959423727529N12151942WA0036900352200008028156353
B1959433727526N12151938WA0036900352200008028156354
B1959443727524N12151934WA0036900352200009028156355
B1959563727577N12151882WA0038200319058028026156006
B1959573727581N12151888WA0038300319038022023041013
B1959583727584N12151889WA0038400318048020023041019
B1959593727586N12151874WA0038500301048019038041024
B2000003727589N12151877WA0038500314058019038041026
B2000013727588N12151872WA0038600321058019038041027
B2000023727592N12151867WA0038600321200021045041342
B2000033727594N12151862WA0038700324200015045041351
B2000043727594N12151871WA0038700358200011022041356
B2000053727592N12151878WA0038700370200010021041003
B2000063727582N12151937WA0038700398048014021013014
B2000073727583N12151944WA0038600407048015028052020
B2000083727585N12151936WA0038600401048014041089022
B2000093727582N12151929WA0038500398041014050122023
B2000103727576N12151922WA0038400389034012050148343
B2000113727569N12151921WA0038300390029011044163348
B2000123727564N12151921WA0038300390024010039183352
B2000133727560N12151924WA0038300390020008033199354
B2000143727556N12151927WA0038400392017007028215356
B2000153727554N12151932WA0038500391014007028238358
B2000163727554N12151937WA0038500391013007028264358
B2000173727554N12151943WA0038700391011007027285358
B2000183727555N12151947WA0038900391010006027305002
B2000193727558N12151948WA0039000394009006018340006
B2000203727560N12151948WA0039000395008005018005018
B2000213727563N12151945WA0039100396007005018029022
B2000223727566N12151941WA0039300396006005021050029
B2000233727567N12151934WA0039500395005005030076033
B2000243727569N12151927WA0039700396005005032076033
B2000253727566N12151920WA0039800395006005050139328
B2000263727560N12151915WA0039900396006004050156339
B2000273727552N12151916WA0039900398006004050181346
B2000283727545N12151917WA0039900399005004047191350
B2000293727540N12151919WA0039900402006004031197351
B2000303727536N12151920WA0039900404005004031195352
B2000313727531N12151922WA0040000405005004028201355
B2000323727527N12151925WA0040100406005003028214357
B2000333727525N12151930WA0040300406004003030233358
B2000343727522N12151935WA0040500407004003029246359
B2000353727520N12151940WA0040700408004003029257355
B2000363727521N12151943WA0040800410005003022275357
B2000373727521N12151946WA0040900409004003020329001
B2000383727524N12151948WA0041100409005003020348011
B2000393727530N12151947WA0041200408005004040016019
B2000403727536N12151942WA0041300407006004047042021
B2000413727541N12151934WA0041300411006004045071024
B2000423727543N12151925WA0041300412006004045097022
B2000433727541N12151916WA0041300410006004043118021
B2000443727536N12151909WA0041300411005004044129019
B2000453727531N12151903WA0041400412005004044136017
B2000463727526N12151898WA0041600414005004043145347
B2000473727520N12151895WA0041800415005003043158350
B2000483727513N12151894WA0042000416005003043175354
B2000493727508N12151897WA0042100418004003037200356
B2000503727506N12151901WA0042200420004003037237358
B2000513727504N12151905WA0042300420005003028267004
B2000523727505N12151909WA0042400421005003027320013
B2000533727508N12151908WA0042400421007003024045019
B2000543727511N12151902WA0042400423007004044085018
B2000553727509N12151892WA0042400425007004049104020
B2000563727509N12151880WA0042400425008004049125341
B2000573727505N12151871WA0042500425008004049134015
B2000583727501N12151865WA0042600426009004046140349
B2000593727496N12151860WA0042800427009004040147351
B2001003727491N12151857WA0042800427008003040161354
B2001013727487N12151858WA0043000426008003036186356
B2001023727485N12151860WA0043300425007003027221358
B2001033727483N12151863WA0043400425007003023237359
B2001043727483N12151867WA0043400426007003023299357
B2001053727486N12151869WA0043400426008004026331357
B2001063727491N12151870WA0043400428008004026000001
B2001073727496N12151868WA0043300429014004026012357
B2001083727500N12151866WA0043300429014005024017355
B2001093727505N12151865WA0043300431007005024009355
B2001103727508N12151864WA0043400431029006023004351
B2001113727511N12151863WA0043500432011007019008346
B2001123727514N12151863WA0043600433007007020354347
B2001133727518N12151864WA0043700432007008020342337
B2001143727521N12151865WA0043800433007008020334336
B2001153727524N12151868WA0043800437007007020331337
B2001163727527N12151869WA0043800439008007019341337
B2001173727529N12151870WA0043900437008007018345341
B2001183727532N12151871WA0044000437008008020347338
B2001193727534N12151872WA0044100437009008020349341
B2001203727537N12151872WA0044200434008008022350340
B2001213727540N12151873WA0044300434010008021357349
B2001223727543N12151873WA0044400434009009021358348
B2001233727546N12151873WA0044400434009009021358351
B2001243727549N12151874WA0044400433011009022358353
B2001253727552N12151874WA0044400433009009023357352
B2001263727555N12151875WA0044400432011009024347353
B2001273727558N12151878WA0044400432009009024332353
B2001283727560N12151883WA0044400433009009022313354
B2001293727561N12151890WA0044300433009010021300355
B2001303727562N12151894WA0044200434009010019295356
B2001313727562N12151899WA0044200433009010019292356
B2001323727563N12151903WA0044200435012010019285356
B2001333727563N12151907WA0044100436014010017285356
B2001343727562N12151910WA0044100435011010015285356
B2001353727562N12151912WA0044000434012010011285356
B2001363727561N12151913WA0044000434016010010285357
B2001373727555N12151914WA0043900434008010024177358
B2001383727550N12151913WA0043700436007009024169358
B2001393727544N12151912WA0043600435008008031172358
B2001403727538N12151912WA0043500433010008033176359
B2001413727530N12151913WA0043500429011007037181359
B2001423727522N12151914WA0043300427011007038179359
B2001433727515N12151915WA0043200424011006037171359
B2001443727509N12151914WA0043000423010006035173359
B2001453727503N12151914WA0042800420009006035177359
B2001463727497N12151914WA0042500419009006034180359
B2001473727494N12151919WA0042500412008005034211359
B2001483727490N12151922WA0042200408008005031212359
B2001493727486N12151924WA0041900405007005027210359
B2001503727483N12151927WA0041600401006005025215359
B2001513727481N12151930WA0041200398006005024227359
B2001523727479N12151935WA0040900394007004026238359
B2001533727477N12151939WA0040500390007004026245359
B2001543727476N12151944WA0040200388007004026247359
B2001553727474N12151947WA0039800385007004025245359
B2001563727472N12151951WA0039400382005004022232359
B2001573727469N12151954WA0039100378007004025222359
B2001583727466N12151957WA0038700374008004025218359
B2001593727463N12151960WA0038400371008004027215359
B2002003727459N12151963WA0038000367008004028209359
B2002013727455N12151966WA0037700364006004031207359
B2002023727451N12151969WA0037700361006004031213359
B2002033727448N12151973WA0037300359006004031223359
B2002043727444N12151977WA0036900357006004030223359
B2002053727440N12151980WA0036600355006004030213359
B2002063727436N12151983WA0036300353006004035211359
B2002073727431N12151987WA0036000353006004036220359
B2002083727428N12151992WA0035800354006004035226359
B2002093727425N12151996WA0035600355007004033228359
B2002103727423N12152000WA0035400355009004029228359
B2002113727421N12152002WA0035400356008004017228359
B2002123727420N12152004WA0035400356009004018238359
B2002133727419N12152007WA0035400355009004018248359
B2002143727419N12152013WA0035500354009004022264359
B2002153727419N12152017WA0035500354009004026274359
B2002163727420N12152022WA0035500355008004022287359
B2002173727422N12152024WA0035400355008004022315359
B2002183727426N12152027WA0035400354008004021329356
B2002193727430N12152029WA0035400353007004021339354
B2002203727434N12152030WA0035400352006004024347355
B2002213727438N12152030WA0035400352006003029356000
B2002223727443N12152030WA0035400353006003029006004
B2002233727447N12152028WA0035400354005003029021023
B2002243727450N12152024WA0035400354005003029038034
B2002253727453N12152019WA0035400353005003029059034
B2002263727454N12152013WA0035500352006003032076045
B2002273727454N12152007WA0035500351005003033087038
B2002283727453N12152001WA0035500349005003033098030
B2002293727451N12151995WA0035500348005003033113030
B2002303727448N12151990WA0035500346005003034131332
B2002313727443N12151986WA0035400344004003038148341
B2002323727437N12151984WA0035300342004003042164347
B2002333727430N12151984WA0035100340004003042178350
B2002343727423N12151984WA0035100341005003044175352
B2002353727417N12151984WA0034900341005003044182354
B2002363727411N12151985WA0034800342005003036185354
B2002373727407N12151986WA0034600343005003036187356
B2002383727402N12151987WA0034600343005003033197357
B2002393727398N12151989WA0034600342005003033219358
B2002403727394N12151994WA0034500342006003033233359
B2002413727395N12152001WA0034500341006003033268358
B2002423727395N12152007WA0034500341007003033293002
B2002433727398N12152012WA0034400341007003030326013
B2002443727403N12152014WA0034400342006003030353012
B2002453727408N12152014WA0034300343014004027010004
B2002463727412N12152013WA0034300344009004023011001
B2002473727416N12152012WA0034300342009005027007010
B2002483727421N12152011WA0034400341009005027012024
B2002493727425N12152009WA0034500340007004030021029
B2002503727430N12152005WA0034600339007004031033022
B2002513727433N12152001WA0034600340007004033042019
B2002523727437N12151997WA0034600340007004033042011
B2002533727441N12151992WA0034600340007004032042007
B2002543727444N12151988WA0034600339007004032039010
B2002553727449N12151984WA0034600339007004033037008
B2002563727453N12151980WA0034600340007004036036007
B2002573727457N12151976WA0034600341007004036037006
B2002583727461N12151973WA0034600342007004034037003
B2002593727464N12151969WA0034700342009004030036000
B2003003727468N12151966WA0034700341010004030027358
B2003013727472N12151965WA0034800341010004028014355
B2003023727476N12151964WA0034900340010004030006354
B2003033727481N12151963WA0034900339010005030003351
B2003043727485N12151963WA0034900340010005030004348
B2003053727490N12151963WA0034900340010006030005343
B2003063727494N12151963WA0034900340010007027002340
B2003073727498N12151964WA0034900339011007027352338
B2003083727501N12151966WA0034900339010008027341329
B2003093727505N12151968WA0035000339010008027331331
B2003103727509N12151973WA0035000341007008029321334
B2003113727512N12151977WA0035000342011009027319338
B2003123727515N12151980WA0035000343011009027320340
B2003133727518N12151983WA0034900342009009027326342
B2003153727522N12151985WA0034900341009009027327346
B2003163727525N12151989WA0034900343008009027318347
B2003173727527N12151993WA0034800345008009027308348
B2003183727529N12151998WA0034800348011010026301348
B2003193727531N12152001WA0034700350009010024296348
B2003203727531N12152004WA0034700353019010013296348
B2003213727532N12152007WA0034600353200013013296349
B2003223727533N12152009WA0034500354200009013296350
B2003233727532N12152011WA0034500354200008013296352
B2003243727519N12152014WA0034400345010012033173354
B2003253727513N12152014WA0034300347010012036176355
B2003263727507N12152015WA0034200344009011036185356
B2003273727502N12152018WA0034200341008009036197357
B2003283727496N12152021WA0034000339008008029207358
B2003293727491N12152024WA0033900335009008029221359
B2003303727489N12152027WA0033700334009007018258359
B2003313727488N12152030WA0033700333009007015277357
B2003323727487N12152033WA0033700332008007015298354
B2003333727489N12152035WA0033700332008006022334359
B2003343727492N12152037WA0033700332008006022343357
B2003353727494N12152036WA0033700335008006022003340
B2003363727497N12152036WA0033600337008006021001332
B2003373727500N12152035WA0033600337009006020002330
B2003383727502N12152036WA0033600337011006019341331
B2003393727504N12152039WA0033600338009006019333335
B2003403727505N12152043WA0033600340009007018289340
B2003413727504N12152047WA0033500341009007016272344
B2003423727503N12152051WA0033400340008007015256351
B2003433727500N12152056WA0033400338008007018244351
B2003443727497N12152061WA0033300335008006025239353
B2003453727494N12152066WA0033200334007006025240356
B2003463727492N12152072WA0033100333007005026249356
B2003473727491N12152076WA0033100332006005026264358
B2003483727491N12152080WA0033000331006005021276358
B2003493727492N12152084WA0032900329006005021284358
B2003503727492N12152088WA0032800329006005020289358
B2003513727494N12152092WA0032800327005005020295359
B2003523727495N12152096WA0032700325006005023300359
B2003533727497N12152100WA0032500324005005022299358
B2003543727498N12152104WA0032300324005005022297358
B2003553727500N12152107WA0032300325007005022285358
B2003563727499N12152110WA0032200326008005019285359
B2003573727497N12152113WA0032000327010005019285359
B2003583727495N12152116WA0031800327016006020285359
B2003593727491N12152117WA0031800323016006023202359
B2004003727487N12152117WA0031600321008006023184359
B2004013727483N12152116WA0031400320009006024168000
B2004023727478N12152113WA0031200318011007027158000
B2004033727473N12152110WA0031200317011007039150000
B2004043727467N12152105WA0030900317011007042142000
B2004053727456N12152097WA0030400312013008039132000
B2004063727452N12152090WA0030400313012008037129000
B2004073727448N12152085WA0030200311013008038127000
B2004083727443N12152079WA0030100311011008039127000
B2004093727439N12152073WA0030000311011008039125000
B2004103727436N12152067WA0030000311017008039122000
B2004113727433N12152061WA0030000310030009038116000
B2004123727431N12152054WA0030100308030009037110000
B2004133727429N12152049WA0030100306012009037108002
B2004143727428N12152044WA0030100304032010036108358
B2004153727425N12152034WA0030200309013008036093346
B2004163727424N12152028WA0030300309200012021093340
B2004173727424N12152026WA0030300307200008012093338
B2004183727425N12152024WA0030300307200008011093339
B2004193727425N12152023WA0030400307200008011093339
B2004203727425N12152021WA0030500307200009011093343
B2004213727426N12152020WA0030500308200009011093345
B2004233727427N12152019WA0030500313200011004359349
B2004243727429N12152020WA0030500318200010004359351
B2004253727439N12152028WA0030500303019015004093353
B2004263727434N12152031WA0030500310019014014208354
B2004273727427N12152034WA0030500317017013017202355
B2004283727422N12152040WA0030600317015012024209356
B2004293727418N12152046WA0030800318013011025218357
B2004303727414N12152050WA0030800320012010025223357
B2004313727411N12152055WA0031100322012010028223357
B2004323727406N12152059WA0031300321012010030207358
B2004333727401N12152061WA0031600322011009033184358
B2004343727393N12152061WA0031600323008008033170359
B2004353727387N12152060WA0031800324007007031177359
B2004363727382N12152060WA0032000323007007027199359
B2004373727378N12152062WA0032200322006007026221359
B2004383727376N12152066WA0032200322006006025238359
B2004393727376N12152071WA0032500323005006025269358
B2004403727376N12152075WA0032700323004006022279001
B2004413727378N12152077WA0032800323004006022328011
B2004423727383N12152078WA0032800324007005024008016
B2004433727388N12152072WA0033000325007005040044022
B2004443727392N12152065WA0033000326008005040087024
B2004453727391N12152057WA0033100328007005040136339
B2004463727385N12152053WA0033100328007005040157347
B2004473727378N12152051WA0033100328008005042163000
B2004483727373N12152053WA0033100327008006025200359
B2004493727370N12152058WA0033100328008007025220359
B2004503727369N12152060WA0033100330008007013220354
B2004513727371N12152063WA0033100333009008012339355
B2004523727373N12152064WA0033200332010008012353001
B2004533727376N12152065WA0033400330010008024001012
B2004543727383N12152066WA0033400329010008035015034
B2004553727390N12152064WA0033600330009009035036040
B2004563727395N12152058WA0033800330009008043055044
B2004573727397N12152049WA0033900330009008045082043
B2004583727398N12152041WA0033900330007008043110044
B2004593727393N12152036WA0033900333007007043137327
B2005003727388N12152032WA0033900334008007043153337
B2005013727383N12152032WA0033900336008007043198345
B2005023727378N12152036WA0033900336009007035215349
B2005033727376N12152041WA0033900337009007025241351
B2005043727374N12152046WA0034100338009007025254353
B2005053727373N12152051WA0034300338009007022240354
B2005063727372N12152055WA0034300336009007021244356
B2005073727371N12152059WA0034600336010007018243357
B2005083727371N12152063WA0034900335010007017258358
B2005093727372N12152066WA0035100333010008018297358
B2005103727375N12152070WA0035300332010008018327001
B2005113727380N12152072WA0035300329009007023354013
B2005123727386N12152072WA0035200329008007033018017
B2005133727391N12152067WA0034900326008007041035021
B2005143727396N12152060WA0034700324007007043052018
B2005153727400N12152054WA0034400324008006043060011
B2005163727403N12152047WA0034100325008006043063004
B2005173727406N12152040WA0033900325019006040059005
B2005183727409N12152034WA0033700324008007038048356
B2005203727413N12152030WA0033500322023007038033343
B2005213727418N12152026WA0033300322200011036033335
B2005223727422N12152023WA0033300321200007036033331
B2005233727425N12152021WA0033000321200007021033330
B2005243727428N12152019WA0032800324200007021033333
B2005253727431N12152024WA0032500328021010016033339
B2005263727430N12152028WA0032300322009010012275341
B2005273727429N12152031WA0032100320009010013249345
B2005283727427N12152035WA0031900318011010018237351
B2005293727427N12152038WA0031900324010009018236354
B2005303727425N12152041WA0031700323012009019261357
B2005313727425N12152046WA0031400324015009019281358
B2005323727426N12152050WA0031200315018009026324008
B2005333727430N12152053WA0031200316021008026001013
B2005343727434N12152053WA0030900316022008034023015
B2005353727435N12152056WA0030500303020007038042014
B2005363727437N12152052WA0030200300018007038055008
B2005373727440N12152047WA0030200296016007035058005
B2005383727442N12152043WA0029800295014007033054004
B2005393727445N12152038WA0029500293013007033052003
B2005403727448N12152034WA0029200292013007037047002
B2005413727452N12152029WA0029200291011007037048001
B2005423727456N12152024WA0028900291011007037045001
B2005433727461N12152020WA0028700289011007037043004
B2005443727465N12152015WA0028400287011008038040008
B2005453727470N12152011WA0028400286019008039037008
B2005463727474N12152007WA0028100285013009039035007
B2005473727478N12152004WA0027800284011009039032001
B2005483727483N12151999WA0027500283014010039032351
B2005493727488N12151996WA0027500281011010039021336
B2005503727488N12151995WA0027300280013010029015336
B2005513727493N12151993WA0027000280014011031015339
B2005523727497N12151992WA0026700280014012031015341
B2005533727500N12151989WA0026700279045012031015344
B2005543727504N12151987WA0026400275014013029022347
B2005553727507N12151983WA0026200270014013029025349
B2005563727511N12151980WA0025900267015014029026350
B2005573727514N12151978WA0025900265015014027026350
B2005583727517N12151976WA0025600265015015022028348
B2005593727523N12151981WA0025400284015015020028347
B2006003727527N12151980WA0025100286015014016025347
B2006013727530N12151979WA0025100286200016016025012
B2006023727532N12151978WA0024900282200011016025008
B2006033727532N12151978WA0024600279016015010025006
B2006043727533N12151978WA0024400279200017010025004
B2006053727537N12151971WA0024400270032015016025004
B2006063727535N12151972WA0024100278037015017025355
B2006073727544N12151984WA0023700257042011017148357
B2006083727539N12151986WA0023400253044011018193358
B2006093727538N12151985WA0023400246045010019208359
B2006103727535N12151986WA0023100246047011020229359
B2006113727534N12151987WA0022700244048011020229358
B2006123727534N12151989WA0022300241048011020308354
B2006133727512N12152006WA0022300230048010011300353
B2006143727515N12152005WA0022000231046010011339353
B2006153727516N12152005WA0021600230048010004306353
B2006163727515N12152006WA0021300230048010005234354
B2006173727514N12152007WA0021300229048010005197355
B2006183727513N12152007WA0021000229047011010180356
B2006193727510N12152008WA0020800231044011012183357
B2006203727508N12152009WA0020600232041011014181357
B2006213727505N12152009WA0020600231039011016186358
B2006223727502N12152010WA0020400230038011016190358
B2006233727486N12152020WA0020100210039011019181358
B2006243727475N12152023WA0019800203036010021186358
B2006253727471N12152023WA0019800202034009028186359
B2006263727467N12152024WA0019600200032009028187359
B2006273727462N12152024WA0019400199029009027184359
B2006283727458N12152025WA0019200197027008022189359
B2006293727454N12152025WA0019200199024008021191359
B2006303727451N12152027WA0019000201021008010201000
B2006313727450N12152027WA0018900203019008010055001
B2006323727450N12152026WA0018800203016008003082000
B2006333727450N12152026WA0018800203013008003082000
B2006343727450N12152025WA0018700205011007003111000
B2006353727451N12152024WA0018700205010007001111000
B2006363727451N12152024WA0018600204009006000111000
B2006373727451N12152024WA0018600203007006000111000
B2006383727451N12152025WA0018600202007006000111000
B2006393727451N12152025WA0018600201007006000111000
B2006403727451N12152024WA0018600201007005000111000
B2006413727451N12152024WA0018600200006005000111000
B2006423727451N12152024WA0018600200007005000111000
B2006433727451N12152024WA0018600199007005000111000
B2006443727451N12152024WA0018600199007005000111000
B2006453727451N12152024WA0018600199007005000111356
B2006463727451N12152024WA0018600197007005003103000
B2006473727451N12152023WA0018600196007005003101000
B2006483727451N12152023WA0018600195006004003096000
B2006493727451N12152023WA0018600194006004003110000
B2006503727451N12152023WA0018600194006004003124000
B2006513727451N12152023WA0018600193005004003105000
B2006523727451N12152023WA0018600193005004000105000
B2006533727451N12152023WA0018600193005004001105000
B2006543727451N12152023WA0018600193005004000105000
B2006553727451N12152023WA0018600192006004001105000
B2006563727451N12152023WA0018600191008004000105000
B2006573727451N12152022WA0018600191008004000105000
B2006583727451N12152022WA0018600191007004000105000
B2006593727451N12152022WA0018600191007004002051000
B2007003727451N12152021WA0018600190007004005025000
B2007013727452N12152021WA0018600191007004010021000
B2007023727454N12152020WA0018600190016004010029000
B2007033727455N12152018WA0018600188008004010037000
B2007043727455N12152018WA0018600187008004009072000
B2007053727457N12152017WA0018600189053005009072000
B2007063727458N12152017WA0018600190012005006072000
B2007073727457N12152016WA0018600186008006007085000
B2007083727457N12152014WA0018600188006005007049000
B2007093727458N12152014WA0018600189006005007062000
B2007103727457N12152012WA0018600187005005008069000
B2007113727457N12152012WA0018600187005005007064000
B2007123727457N12152011WA0018600187005005007051000
B2007133727457N12152010WA0018600186005005005053000
B2007143727457N12152010WA0018600186005005004052000
B2007153727457N12152009WA0018600185005005005052000
B2007163727458N12152008WA0018600185005005005045000
B2007173727458N12152006WA0018600185007006009071000
B2007183727458N12152005WA0018600185007006009057000
B2007193727458N12152006WA0018600187008006007254000
B2007203727458N12152007WA0018600185005006007133000
B2007213727457N12152006WA0018600182005006007127000
B2007223727457N12152005WA0018600182005006006111000
B2007233727457N12152003WA0018600183005006006069000
B2007243727458N12152002WA0018600182005006004073000
B2007263727458N12152002WA0018600182005006005098000
B2007273727458N12152001WA0018600182005006004082000
B2007283727458N12152000WA0018600183005005003082000
B2007293727459N12152000WA0018600182005005001082000
B2007303727459N12152000WA0018600184005005000082000
B2007313727459N12152000WA0018600183005005001335003
B2007323727460N12152001WA0018600183005005001346001
B2007333727461N12152002WA0018600182005005004006001
B2007343727462N12152002WA0018600182004005004025002
B2007353727463N12152001WA0018600181004005003025000
B2007363727463N12152001WA0018600181005005002025000
B2007373727463N12152001WA0018600181004004001025000
B2007383727463N12152001WA0018600182004004000025000
B2007393727463N12152001WA0018600182004004000025000
B2007403727464N12152001WA0018600182004004000025000
B2007413727464N12152001WA0018600182004004000025000
B2007423727463N12152001WA0018600182004004000025000
B2007433727463N12152001WA0018600182004004000025000
B2007443727463N12152001WA0018600181005003000025000
B2007453727463N12152001WA0018600181005003000025000
B2007463727463N12152001WA0018600181005003000025000
B2007473727463N12152001WA0018600181006003000025000
B2007483727463N12152001WA0018600181005003000025000
B2007493727463N12152001WA0018600181005003000025000
B2007503727463N12152001WA0018600182005003000025000
B2007513727463N12152001WA0018600182005003000025000
B2007523727463N12152002WA0018600182005003000025000
B2007533727463N12152002WA0018600182005003001025000
B2007543727463N12152001WA0018600182005003001161000
B2007553727463N12152001WA0018600182005003001161000
B2007563727463N12152001WA0018600182005003000161000
B2007573727463N12152001WA0018600182005003001161000
B2007583727463N12152002WA0018600182005003001161000
B2007593727463N12152002WA0018600181005003002251000
B2008003727463N12152002WA0018600181004003002284000
B2008013727464N12152002WA0018600181005003002318000
B2008023727464N12152003WA0018600181005003003310000
B2008033727464N12152003WA0018600182004003000310000
B2008043727463N12152003WA0018600182004003000310000
B2008053727463N12152003WA0018600182004003000310000
GUFqclw0cqOygjMn9HXm8f6PPA56kWN41JOGQW/8l4Y64EBX/K4u+ZRK2ujR4q4nb
Gz5283m70ht586nZnqRvO1RLZoTfJxYhWuOC4Q74/ruYZoV6ORYRwI5hrUYmbU0tS
GxNoPS9TWbS4yYiUz6484LAIC71NdauOOsfy5wkYlsVM=

