AXFH000
HFDTE170924
HFPLTPILOT:Scott O’Brien
HFGTYGLIDERTYPE:BGD Epic
HFDTM100GPSDATUM:WGS84
HFRFWFIRMWAREVERSION:8.2.4
HFRHWHARDWAREVERSION:Unknown device (iPhone15,4)
HFFTYFRTYPE:Flyskyhy,8.2.4
HFGPS:Internal
HFPRSVARIO:Internal Vario
HFCCLCOMPETITIONCLASS:Paraglider
HFTZNTIMEZONE:-7
HFSITSITE:Ed Levin 600ft,US
I053638FXA3941VXA4244GSP4547CCO4850HDT
C170924182943170924000108TASK
C0000000N00000000ETAKEOFF
C3920440N12241116W00015009999999000000360000STARTAREA POTLAU
C3922249N12241405W00000000001000000000360000TURNAREA SNOWVL
C3920978N12239724W00000000000400000000360000TURNAREA POTLZ
C3920095N12241882W00000000000400000000360000TURNAREA TOP
C3922264N12241989W00000000001000000000360000TURNAREA SNOWLO
C3920983N12238798W00000000001000000000360000TURNAREA TROUGH
C3920095N12241882W00000000000400000000360000TURNAREA TOP
C3925826N12241497W00000000005000000000360000TURNAREA STJOHN
C3920440N12241116W00000000001500000000360000TURNAREA POTLAU
C3920978N12239724W00000000000400000000360000FINISHAREA POTLZ
C0000000N00000000ELANDING
E183012PEVBackground
B1830123727672N12151638WA0034500346022003005049115
B1830133727672N12151637WA0034500346022003000049033
B1830143727672N12151636WA0034500346022003000049023
B1830153727672N12151636WA0034600347022003000049006
B1830163727672N12151636WA0034600346022003000049083
B1830173727672N12151636WA0034600346022003000048086
B1830183727672N12151636WA0034600347022003000048123
B1830193727672N12151636WA0034600346022003001063076
B1830203727672N12151636WA0034600345022003002317100
B1830213727672N12151636WA0034600346022003001070026
B1830223727672N12151636WA0034600346004003000065017
B1830233727672N12151636WA0034600345004003000065089
B1830243727672N12151636WA0034600346004003000065090
B1830253727672N12151636WA0034600346004003000065090
B1830263727671N12151636WA0034600345004003000085104
B1830273727671N12151635WA0034600346004003001084094
B1830283727671N12151635WA0034600346004003006084257
B1830293727670N12151635WA0034600346004003009218259
B1830303727670N12151636WA0034600346004003009219311
B1830313727669N12151638WA0034600345004003009258242
B1830323727669N12151641WA0034600343004003012271292
B1830333727670N12151649WA0034500339004003014269171
B1830343727671N12151654WA0034300339004003033273263
B1830353727671N12151658WA0034100340004003033280264
B1830363727669N12151662WA0034000343004003025225253
B1830373727667N12151663WA0034000342004003023193222
B1830383727665N12151666WA0034000341004003023222238
B1830393727663N12151669WA0034000341004003018232222
B1830403727661N12151672WA0034000341004004024224226
B1830413727658N12151673WA0034100339004003024207196
B1830423727654N12151673WA0034000338004003025175176
B1830433727650N12151670WA0034000340004004032161133
B1830443727645N12151667WA0034000342004004033154107
B1830453727644N12151662WA0034000345004003033129078
B1830463727642N12151659WA0034000345004003028121061
B1830473727641N12151654WA0034100344004003026105044
B1830483727639N12151648WA0034200343004003026102038
B1830493727639N12151642WA0034300343004003040095026
B1830503727639N12151635WA0034400345004003041086022
B1830513727639N12151626WA0034500347004003041090018
B1830523727639N12151621WA0034500348004003041086014
B1830533727639N12151614WA0034600348004003031099013
B1830543727637N12151610WA0034600349004003029120013
B1830553727634N12151606WA0034700346004003030144013
B1830563727630N12151605WA0034700344004003030181350
B1830573727626N12151607WA0034800343004003032215353
B1830583727624N12151612WA0034800343004003032253355
B1830593727624N12151617WA0034700343004003032286357
B1831003727625N12151622WA0034600343004003032294358
B1831013727628N12151625WA0034400344004003029317358
B1831023727630N12151628WA0034300344004003024309358
B1831033727633N12151631WA0034300344004003021314359
B1831043727634N12151635WA0034300344004003026303359
B1831053727637N12151638WA0034300345004003026315359
B1831063727640N12151641WA0034300346004003024324359
B1831073727643N12151644WA0034400345004003024331359
B1831083727646N12151647WA0034400345004003024320359
B1831093727649N12151650WA0034500344004003027318359
B1831103727652N12151653WA0034500344004003028319359
B1831113727655N12151657WA0034500344004003027315359
B1831123727657N12151660WA0034500344004003026306359
B1831133727658N12151664WA0034500345004003022292359
B1831143727660N12151668WA0034500345004003023290359
B1831153727661N12151672WA0034500346004003025288359
B1831163727662N12151676WA0034500347004003025297359
B1831173727665N12151681WA0034500349004003025298359
B1831183727666N12151685WA0034500352004003025301359
B1831193727668N12151688WA0034600354004003021297359
B1831203727669N12151693WA0034700356004003024284359
B1831213727670N12151697WA0034900358004003023286359
B1831223727671N12151702WA0035100359004004024279359
B1831233727669N12151707WA0035300359004006029253359
B1831243727668N12151712WA0035500359023008029243359
B1831253727668N12151715WA0035600357023008029249000
B1831263727667N12151717WA0035700358024012017252000
B1831273727663N12151713WA0035700349025012015180000
B1831283727651N12151695WA0035700360024012015135000
B1831293727646N12151687WA0035800358023008040126000
B1831303727646N12151681WA0035800357023008040101000
B1831313727653N12151679WA0035800358023008035022358
B1831323727654N12151677WA0035900358023008034035349
B1831333727659N12151676WA0036000355023008025358346
B1831343727661N12151680WA0036000362023008024311341
B1831353727662N12151683WA0036100364023008024275346
B1831363727662N12151686WA0036200367022006021238344
B1831373727664N12151689WA0036400370022004018282351
B1831383727665N12151693WA0036600372022004021297353
B1831393727667N12151697WA0036900373022004021295355
B1831403727668N12151700WA0037100377022004021293356
B1831413727670N12151703WA0037200378023006021297355
B1831423727670N12151705WA0037400380023008019278356
B1831433727670N12151708WA0037600382022008014270356
B1831443727668N12151712WA0037800381022008023239356
B1831453727668N12151715WA0038000382023012024233356
B1831463727665N12151717WA0038200382023012024212356
B1831473727659N12151716WA0038200379024012027180002
B1831483727654N12151716WA0038400376025012032175001
B1831493727646N12151710WA0038500383025012039160001
B1831503727641N12151698WA0038700394025012046141000
B1831513727643N12151690WA0038900395024012039110002
B1831523727646N12151684WA0039200393025012035092355
B1831533727649N12151684WA0039400400026016030074343
B1831543727651N12151683WA0039600404027016015066337
B1831553727655N12151693WA0039900412025024015309337
B1831563727655N12151695WA0040100404024016015225338
B1831573727655N12151696WA0040300404025016012222341
B1831583727644N12151695WA0040500412024012015188342
B1831593727639N12151694WA0040700413024012034175011
B1832003727634N12151686WA0040900415023012044143006
B1832013727630N12151680WA0041000413023008044130002
B1832023727628N12151672WA0041200412024012044120001
B1832033727628N12151667WA0041200406025012044102358
B1832043727634N12151662WA0041200404026016028085349
B1832053727646N12151660WA0041200410025012029042342
B1832063727653N12151672WA0041300422024008029331342
B1832073727649N12151680WA0041400434022006029228346
B1832083727651N12151681WA0041700439022004022272350
B1832093727653N12151681WA0042000440022004006273352
B1832103727654N12151683WA0042500438022004009298355
B1832113727654N12151685WA0042900437022004009296355
B1832123727655N12151688WA0043200439022003012285356
B1832133727657N12151690WA0043300438022003013309357
B1832143727658N12151692WA0043400439022003013312357
B1832153727659N12151693WA0043500439022003012332358
B1832163727660N12151696WA0043500439022003012291357
B1832173727659N12151699WA0043600438022004025236357
B1832183727656N12151702WA0043600438022004028221357
B1832193727651N12151703WA0043600434023006028197002
B1832203727646N12151703WA0043600433022006032181001
B1832213727641N12151703WA0043600433024012032176001
B1832233727637N12151699WA0043600434025012033167000
B1832243727633N12151695WA0043500433027016032162000
B1832253727631N12151692WA0043400434029024029158358
B1832263727640N12151680WA0043400439027016020073353
B1832273727647N12151673WA0043500439025012021005343
B1832283727654N12151670WA0043600440023008021346349
B1832293727656N12151675WA0043900438023008025309349
B1832303727659N12151674WA0044100437024012013348350
B1832313727658N12151677WA0044300440023006013293350
B1832323727659N12151679WA0044400441022006012255349
B1832333727659N12151681WA0044500441022006012238350
B1832343727656N12151683WA0044500442022006014210349
B1832353727651N12151684WA0044500436023006042179350
B1832363727647N12151683WA0044400434022008042178007
B1832373727641N12151682WA0044300432023008039168004
B1832383727635N12151673WA0044300430023012039151003
B1832393727629N12151668WA0044100427025012045145001
B1832403727624N12151663WA0043900424027016043145001
B1832413727629N12151656WA0043700420028024043115000
B1832423727641N12151650WA0043600434026012031054003
B1832433727647N12151640WA0043500435025012031054006
B1832443727652N12151639WA0043500443025008031042354
B1832453727655N12151638WA0043600445023006019345343
B1832463727658N12151634WA0043600443023006026321340
B1832473727662N12151634WA0043600442022006022325341
B1832483727662N12151637WA0043500443023006022273342
B1832493727663N12151639WA0043500442022004017281342
B1832503727663N12151641WA0043600443022004010271346
B1832513727664N12151644WA0043600443022006016282349
B1832523727665N12151648WA0043700442022006016273351
B1832533727665N12151652WA0043800440022004021278353
B1832543727667N12151656WA0043900440022004024295354
B1832553727668N12151660WA0043900440022004019290356
B1832563727669N12151662WA0043900441022004019299356
B1832573727670N12151663WA0043900439022004011283357
B1832583727670N12151666WA0043900436022004011280357
B1832593727671N12151669WA0043900431022004013282358
B1833003727671N12151674WA0043800429022003030277358
B1833013727672N12151679WA0043600425022004030278358
B1833023727672N12151684WA0043400425022004026267358
B1833033727673N12151687WA0043100423022006024277358
B1833043727673N12151690WA0042900421022004020280359
B1833053727673N12151694WA0042600418022003019269359
B1833063727673N12151698WA0042400415022003022273359
B1833073727673N12151704WA0042300413022003022269359
B1833083727674N12151707WA0042000413022004022277359
B1833093727673N12151710WA0041800410022006021251359
B1833103727672N12151714WA0041600410022004017252359
B1833113727670N12151717WA0041400407022003021223359
B1833123727668N12151719WA0041400406022004017225359
B1833133727663N12151722WA0041200403024006021204359
B1833143727660N12151723WA0041000400023008025195000
B1833153727654N12151721WA0040900390024008033168000
B1833163727646N12151711WA0040600392024008049154000
B1833173727645N12151699WA0040400395023006049125000
B1833183727643N12151692WA0040100397023006049113000
B1833193727644N12151685WA0039800387022006042089000
B1833203727643N12151678WA0039600387022004039090000
B1833213727644N12151672WA0039400387022004039082000
B1833223727646N12151666WA0039300386022003038077000
B1833233727647N12151658WA0039100385022003038082000
B1833243727646N12151650WA0038900384022003040099000
B1833253727644N12151643WA0038700382022003046112000
B1833263727641N12151635WA0038500380022003048125000
B1833273727636N12151629WA0038500379022003048139000
B1833283727631N12151624WA0038300376022003048151000
B1833293727625N12151621WA0038100374022003046151359
B1833303727619N12151622WA0037900373022003041189359
B1833313727614N12151623WA0037900370022003041206359
B1833323727611N12151627WA0037700367022003034232359
B1833333727610N12151631WA0037400364022003028262359
B1833343727611N12151635WA0037100362022003024294359
B1833353727613N12151638WA0036900361022003021321357
B1833363727615N12151640WA0036900359022003021333355
B1833373727618N12151642WA0036600358022003020325353
B1833383727619N12151644WA0036300356022003017318349
B1833393727621N12151645WA0036000354022003017331348
B1833403727624N12151647WA0035800351022003020330343
B1833413727626N12151649WA0035600349022003021320340
B1833423727629N12151652WA0035400349022003021311340
B1833433727631N12151655WA0035200348022003021313341
B1833443727633N12151656WA0035000347022003019322337
B1833453727634N12151659WA0034800348022003016319335
B1833463727635N12151661WA0034700344022003016292334
B1833473727637N12151665WA0034500343022003016299340
B1833483727638N12151668WA0034300342022003019298341
B1833493727640N12151670WA0034200341022003019310345
B1833503727641N12151672WA0034000339022003009308346
B1833513727642N12151674WA0033900338022003015300350
B1833523727644N12151677WA0033900335022003015301349
B1833533727646N12151682WA0033700333022003021290352
B1833543727647N12151688WA0033600333022004030288353
B1833553727647N12151692WA0033400338022003022280352
B1833563727648N12151697WA0033300341022003024280354
B1833573727647N12151698WA0033200339022003022268356
B1833583727647N12151700WA0033200338022003015268356
B1833593727648N12151705WA0033300335022003015278357
B1834003727649N12151709WA0033400333022003030285358
B1834013727649N12151714WA0033400333022003030284358
B1834023727650N12151715WA0033300332022003022312358
B1834033727651N12151717WA0033200330022003011297358
B1834043727651N12151720WA0033100327022003011270358
B1834053727650N12151726WA0032900324022003030258359
B1834063727648N12151731WA0032700322022003037251359
B1834073727647N12151737WA0032600321022003035254359
B1834083727646N12151741WA0032400325022003035254359
B1834093727646N12151744WA0032400326022003020253359
B1834103727645N12151747WA0032200327022003016252359
B1834113727645N12151751WA0032200325022003021256359
B1834123727644N12151756WA0032200323022003021262359
B1834133727644N12151761WA0032300325022003024266359
B1834143727643N12151765WA0032300326022003024261359
B1834153727644N12151768WA0032300325022003017290359
B1834163727643N12151770WA0032300326022003017251359
B1834173727643N12151772WA0032400325022003014266359
B1834193727643N12151776WA0032400325022003014267359
B1834203727644N12151780WA0032400323022003025289359
B1834213727644N12151785WA0032400324022003025268359
B1834223727644N12151789WA0032400324022004025261359
B1834233727643N12151791WA0032300323022003022255359
B1834243727643N12151794WA0032300322022004014246359
B1834253727643N12151797WA0032200320022004019272359
B1834263727644N12151802WA0032200317022003028278359
B1834273727645N12151807WA0032100317022003026285359
B1834283727646N12151810WA0032100316022003026284359
B1834293727647N12151814WA0032000315022003015280359
B1834303727648N12151816WA0031800312022003015298359
B1834313727648N12151820WA0031700309022003015265359
B1834323727648N12151824WA0031500307022003021271359
B1834333727647N12151828WA0031400304022003022265359
B1834343727647N12151832WA0031200303022004021266359
B1834353727648N12151835WA0031000301022003021292359
B1834363727648N12151839WA0030800300022004016269359
B1834373727646N12151842WA0030600298022004016246359
B1834383727646N12151847WA0030400295022003021254359
B1834393727645N12151851WA0030200294022003022261359
B1834403727645N12151855WA0030000294022003022282359
B1834413727646N12151859WA0029800293022003021280359
B1834423727646N12151866WA0029500292022003020276359
B1834433727646N12151870WA0029500291022003026275359
B1834443727648N12151875WA0029400289022003026284359
B1834453727649N12151878WA0029300287022003024284359
B1834463727650N12151881WA0029100286022003021301359
B1834473727650N12151884WA0029000285022003017288359
B1834483727651N12151888WA0028800281022003020269359
B1834493727650N12151892WA0028700280022003026249359
B1834503727649N12151897WA0028500278022004025259359
B1834513727648N12151901WA0028300276022003025247359
B1834523727647N12151905WA0028100275022003024246359
B1834533727646N12151909WA0027900273022003021257359
B1834543727645N12151914WA0027700269022003027260359
B1834553727644N12151919WA0027500267022003027260359
B1834563727642N12151924WA0027300266022003027249359
B1834573727641N12151928WA0027100265022003026254359
B1834583727640N12151932WA0026900263022003021248359
B1834593727639N12151936WA0026800262022004021250359
B1835003727639N12151940WA0026800261022003021260359
B1835013727638N12151945WA0026600258022003022264359
B1835023727639N12151950WA0026400257022003025281359
B1835033727638N12151954WA0026300256022003022255359
B1835043727638N12151959WA0026100255022003023262359
B1835053727637N12151963WA0025900254022003023271359
B1835063727637N12151968WA0025800251022003024271359
B1835073727636N12151972WA0025600249022003025264359
B1835083727634N12151977WA0025500250022004027253359
B1835093727633N12151981WA0025400251022004027250359
B1835103727634N12151985WA0025300250022004023269359
B1835113727633N12151988WA0025100247022004020262359
B1835123727633N12151993WA0025000244022004020258359
B1835133727631N12151998WA0024800241022004034238359
B1835143727628N12152002WA0024700239023004037231359
B1835153727623N12152006WA0024500238024006035221359
B1835163727616N12152001WA0024400242023004037156359
B1835173727611N12152000WA0024300240024004036164000
B1835183727606N12151995WA0024300239023004039150000
B1835193727601N12151989WA0024200239022004039133000
B1835203727596N12151985WA0024200237022003039142000
B1835213727592N12151980WA0024200238022003039139000
B1835223727587N12151974WA0024100238023004040137000
B1835233727584N12151968WA0024100238023003042127000
B1835243727580N12151961WA0024000239023003042119000
B1835253727577N12151955WA0023900238023004038124000
B1835263727574N12151950WA0023900237023004037124000
B1835273727571N12151943WA0023800238023004037121000
B1835283727568N12151936WA0023800235023004042118000
B1835293727565N12151930WA0023800235023004042119000
B1835303727561N12151924WA0023800235022003041124000
B1835313727558N12151919WA0023700234022003037133000
B1835323727552N12151917WA0023700232022003037155359
B1835333727546N12151918WA0023700230022003041194359
B1835343727542N12151921WA0023600230022003041211359
B1835353727540N12151926WA0023500228022003037228359
B1835363727537N12151930WA0023400228022004033236359
B1835373727540N12151936WA0023200230022004030300357
B1835383727542N12151938WA0023000230022004018311352
B1835393727544N12151939WA0022800228023006018325349
B1835403727546N12151941WA0022800225022004010297350
B1835413727548N12151945WA0022700221023004010286353
B1835423727550N12151948WA0022600219022003021296355
B1835433727551N12151952WA0022500220022003020300355
B1835443727552N12151954WA0022400221022003020259353
B1835453727552N12151956WA0022300219022003013274352
B1835463727552N12151958WA0022200217022003012278352
B1835473727551N12151963WA0022000215022003012246352
B1835483727549N12151967WA0021900211022003030238352
B1835493727547N12151971WA0021800210022004030233353
B1835503727544N12151974WA0021600208023006027209352
B1835513727537N12151969WA0021500208023004027158353
B1835523727532N12151968WA0021300207022004035164354
B1835533727526N12151966WA0021100207022003035164355
B1835543727521N12151964WA0021000206022003035165356
B1835553727516N12151964WA0021000206022003032174357
B1835563727512N12151966WA0020900205022003031193358
B1835573727511N12151970WA0020900203022003028249358
B1835583727509N12151973WA0020900205022003022255359
B1835593727512N12151977WA0020800204022003030319357
B1836003727515N12151980WA0020700203022003022318353
B1836013727521N12151979WA0020700203022003030003355
B1836023727523N12151980WA0020600204022003022349348
B1836033727526N12151982WA0020600204022003015319338
B1836043727527N12151984WA0020600205022003015287336
B1836053727527N12151985WA0020600204022003011268338
B1836063727529N12151987WA0020500203022003011320340
B1836073727529N12151990WA0020500204022004016261340
B1836083727526N12151992WA0020500201022004023207340
B1836093727523N12151993WA0020400201023004024195342
B1836103727518N12151991WA0020400202022004024159343
B1836113727513N12151989WA0020300202022004029156345
B1836123727510N12151986WA0020200202022004029144348
B1836133727506N12151984WA0020200202022004027150351
B1836143727502N12151984WA0020200202022003027173354
B1836153727498N12151985WA0020200200022003027206355
B1836163727495N12151990WA0020200199022003028242356
B1836173727494N12151995WA0020200199022003030249358
B1836183727494N12152000WA0020200202022004027267359
B1836193727499N12152000WA0020100206022004027347358
B1836203727503N12151996WA0020100205022003027035357
B1836213727507N12151996WA0020200205022003023018357
B1836223727510N12151995WA0020300205022003025001351
B1836233727515N12151996WA0020500204022003029345349
B1836243727518N12151996WA0020600203022003029353341
B1836253727522N12151998WA0020600203022003027344337
B1836263727524N12152000WA0020500201022003023331330
B1836273727526N12152002WA0020400201022003015290330
B1836283727526N12152003WA0020300201022004015264329
B1836293727526N12152005WA0020200199022004011238328
B1836303727524N12152007WA0020100197022006011212330
B1836313727521N12152010WA0020100195023006023218333
B1836323727518N12152012WA0019900191023008023203334
B1836333727512N12152006WA0019800195023006023163341
B1836343727508N12152004WA0019600193024004024154343
B1836353727504N12152003WA0019500191023004024165346
B1836363727501N12152002WA0019300189023004025170349
B1836373727497N12152002WA0019200188022004025171351
B1836383727494N12152002WA0019100187023004025182353
B1836393727491N12152002WA0019000187023004022174354
B1836403727488N12152002WA0018900185022003018192355
B1836413727484N12152002WA0018800185022003019197356
B1836423727482N12152004WA0018600184022003019207357
B1836433727480N12152006WA0018500183022003018225358
B1836443727478N12152007WA0018400183022003017220358
B1836453727478N12152010WA0018400183022003016261359
B1836463727479N12152014WA0018300182022003020299359
B1836473727480N12152017WA0018200180022003020296359
B1836483727480N12152020WA0018200178022003017270359
B1836493727480N12152023WA0018100177004003017254359
B1836503727479N12152026WA0018000176004003017252359
B1836513727478N12152029WA0017900176004003013236359
B1836523727478N12152031WA0017800176004003013233359
B1836533727477N12152033WA0017700174004003013245359
B1836543727476N12152036WA0017700173004003016254359
B1836553727475N12152039WA0017600171004003016256359
B1836563727475N12152041WA0017500171004003013257359
B1836573727475N12152043WA0017400170004003013269359
B1836583727475N12152045WA0017300169004003011269359
B1836593727474N12152047WA0017200167004003010264359
B1837003727474N12152049WA0017100168004003009265002
B1837013727474N12152048WA0017000168004003002264003
B1837023727474N12152048WA0017000169004003002264003
B1837033727474N12152047WA0016900169004003002264002
B1837043727474N12152047WA0016900169004003001264002
B1837053727474N12152047WA0016900169004003000264001
B1837063727474N12152047WA0016900169004003001264001
B1837073727474N12152047WA0016900170004003000264001
B1837083727473N12152047WA0016900169004003000264000
B1837093727473N12152047WA0016900170004003000264000
B1837103727473N12152048WA0016900170004003000264000
B1837113727473N12152048WA0016900170004003000264000
B1837123727473N12152047WA0016900170004003003119000
B1837133727473N12152047WA0016900170004003001118000
B1837143727473N12152046WA0016900170004003000119000
B1837153727472N12152046WA0016900169004003000119000
B1837163727472N12152045WA0016900169004003000119000
B1837173727473N12152045WA0016900169004003001119000
B1837183727472N12152046WA0016900169004003000119000
B1837193727473N12152046WA0016900169004003000119000
B1837203727472N12152046WA0016900169004003000137000
B1837213727472N12152046WA0016900170004003000150000
B1837223727471N12152046WA0016900169004003000149000
B1837233727471N12152046WA0016900168004003000149000
B1837243727471N12152046WA0016900168004003000149000
B1837253727471N12152046WA0016900168004003000149000
B1837263727471N12152046WA0016900168004003000149000
B1837273727471N12152046WA0016900168004003000149000
B1837283727471N12152045WA0016900167004003000148000
B1837293727471N12152045WA0016900167004003000148000
B1837303727471N12152045WA0016900166004003000149000
B1837313727470N12152045WA0016900166004003000149000
GIgj6nH3d8XEcZmfOtX63WFongMnHGXFTPr23UalinHS7fP18DWhgBtnf0yzEO3Bz
GAowUDvj6sAcVw52M+3CTkUHxSQHA9IGX2+ECeiULPYbwLRGc5OsERYy/USYnZJvT
G3H5mbU2yK2k3IkdeYfb93YNpyTC+/frkmL4cFyLv3M8=

