AXFH000
HFDTE110226
HFPLTPILOT:Scott O’Brien
HFGTYGLIDERTYPE:Ozone Swift 6
HFDTM100GPSDATUM:WGS84
HFRFWFIRMWAREVERSION:9.4
HFRHWHARDWAREVERSION:iPhone 15
HFFTYFRTYPE:Flyskyhy,9.4
HFGPS:Bluetooth vario
HFPRSVARIO:Bluetooth vario
HFCCLCOMPETITIONCLASS:Paraglider
HFTZNTIMEZONE:-6
HFSITSITE:Gravedad Cero, Tapalpa, Jalisco,MX
I053638FXA3941VXA4244GSP4547CCO4850HDT
C110226194231110226000102TASK
C0000000N00000000ETAKEOFF
C1956332N10339238W00010009999999000000360000STARTAREA Tapalpa
C2003837N10343513W00000000001000000000360000TURNAREA ATV
C1958948N10346610W00000000001000000000360000TURNAREA Rocks
C1956335N10336845W00000000001000000000360000FINISHAREA TapalpaLZ
C0000000N00000000ELANDING
B1943011956525N10339246WA0224102240001100000116008
B1943021956525N10339246WA0224102240001100001116008
B1943031956525N10339246WA0224102240001100001116010
B1943041956525N10339246WA0224002240001100001116011
B1943051956525N10339246WA0224002240001100001116012
B1943061956525N10339246WA0224002240001100001116013
B1943071956525N10339246WA0224102240001100000116021
B1943081956525N10339246WA0224002240001100000116355
B1943091956525N10339246WA0224002240001100001116288
B1943101956525N10339246WA0224102240001100003105286
B1943111956525N10339245WA0224002240001100004111269
B1943121956525N10339245WA0224002240001100003119287
B1943131956524N10339245WA0224002240001100002112300
B1943141956525N10339245WA0224002239001100001112297
B1943151956525N10339245WA0224002239001100001112294
B1943161956525N10339245WA0224002239001100001038189
B1943171956525N10339245WA0223902239001100002029086
B1943181956525N10339244WA0223902239001100002043113
B1943191956526N10339244WA0223902239001100003052109
B1943201956526N10339243WA0223902239001100003053108
B1943211956526N10339243WA0223902239001100004047108
B1943221956527N10339242WA0223802239001100004048093
B1943231956528N10339241WA0223902239001100005049074
B1943241956528N10339241WA0223702239001100005046105
B1943251956529N10339240WA0223502239001100008031093
B1943261956530N10339239WA0223402239001100009031115
B1943271956532N10339238WA0223402239001100011039098
B1943281956533N10339235WA0223402239001100013052100
B1943291956534N10339233WA0223702239001100012069066
B1943301956535N10339228WA0223802240001100019073110
B1943311956536N10339224WA0223802240001100023070094
B1943321956537N10339219WA0223902240001100022076095
B1943331956539N10339215WA0224002241001100023079101
B1943341956541N10339210WA0223902241001100024076095
B1943351956542N10339206WA0223902241001100024075100
B1943361956543N10339202WA0223802241001100023080093
B1943371956543N10339198WA0223802241001100023091117
B1943381956543N10339194WA0223602240001100025101104
B1943391956542N10339190WA0223602240001100025104105
B1943401956541N10339185WA0223502239001100026098103
B1943411956541N10339181WA0223502239001100027089102
B1943421956542N10339176WA0223402239001100030086107
B1943431956542N10339171WA0223502239001100031086100
B1943441956543N10339166WA0223602238001100030089103
B1943451956543N10339161WA0223602239001100029091090
B1943461956543N10339156WA0223602238001100028086086
B1943471956544N10339151WA0223602237001100028081090
B1943481956545N10339146WA0223602236001100030081094
B1943491956545N10339142WA0223602236001100028083101
B1943501956546N10339137WA0223602236001100027088094
B1943511956546N10339133WA0223602235001100023095110
B1943521956545N10339129WA0223502235001100021102115
B1943531956544N10339126WA0223402234001100023113119
B1943541956542N10339123WA0223302233001100025123122
B1943551956540N10339119WA0223302232001100028127122
B1943561956538N10339115WA0223202231001100028130115
B1943571956535N10339112WA0223202231001100029133117
B1943581956532N10339108WA0223202230001100030130121
B1943591956529N10339104WA0223202229001100030126118
B1944001956527N10339100WA0223302229001100030124112
B1944011956525N10339096WA0223602229001100030123128
B1944021956523N10339092WA0223702230001100028121098
B1944031956521N10339088WA0223902232001100026114117
B1944041956520N10339085WA0224102233001100022113120
B1944051956519N10339082WA0224202235001100018124138
B1944061956517N10339080WA0224202236001100021138135
B1944071956515N10339078WA0224402237001100023148160
B1944081956511N10339077WA0224502237001100026166177
B1944091956507N10339077WA0224602237001100027183195
B1944101956503N10339079WA0224602238001100030200217
B1944111956499N10339084WA0224602237001100038223224
B1944121956496N10339090WA0224602237001100040237245
B1944131956494N10339097WA0224702238001100039254259
B1944141956494N10339103WA0224602239001100038277277
B1944151956497N10339110WA0224602239001100042298298
B1944161956502N10339115WA0224502238001100047317318
B1944171956507N10339120WA0224502238001100045319337
B1944181956513N10339122WA0224402238001100041334341
B1944191956518N10339122WA0224402239001100031339355
B1944201956520N10339122WA0224502239001100018335000
B1944211956521N10339117WA0224902240001100009020003
B1944221956521N10339109WA0225202240001100016087052
B1944231956521N10339104WA0225302241001100016083089
B1944241956521N10339100WA0225402242001100015081096
B1944251956521N10339097WA0225402241001100017081088
B1944261956522N10339093WA0225402241001100021083089
B1944271956522N10339088WA0225602242001100026084087
B1944281956523N10339084WA0225902242001100026083100
B1944291956523N10339079WA0226502243001100024096092
B1944301956523N10339075WA0226902243001100022097099
B1944311956523N10339072WA0227002246001100019104094
B1944321956523N10339070WA0227102248001100014089104
B1944331956524N10339068WA0227102249001100015069084
B1944341956525N10339064WA0227102251001100020087128
B1944351956524N10339060WA0227302252001100022126141
B1944361956522N10339058WA0227602252001100022143155
B1944371956518N10339057WA0227802253001100026171166
B1944381956514N10339059WA0228302254001100023179180
B1944391956510N10339062WA0228602254001100023199180
B1944401956508N10339066WA0228802255001100023230191
B1944411956506N10339071WA0228902257001100028244218
B1944421956504N10339076WA0229002259001100033250236
B1944431956502N10339083WA0229102262001100037251254
B1944441956500N10339090WA0229302264001100037253256
B1944451956498N10339097WA0229802267001100034259257
B1944461956497N10339104WA0230202270001100035263264
B1944471956498N10339111WA0230402272001100038270268
B1944481956499N10339118WA0230702275001100037280276
B1944491956500N10339124WA0230802278001100038290291
B1944501956503N10339130WA0230902281001100038299302
B1944511956507N10339135WA0230902284001100043320313
B1944521956513N10339139WA0230902286001100046324337
B1944531956519N10339143WA0231302290001100042331339
B1944541956525N10339145WA0231602293001100037337348
B1944551956530N10339146WA0231802296001100031341355
B1944561956534N10339148WA0231702298001100033347002
B1944571956539N10339148WA0231802301001100034355008
B1944581956545N10339148WA0231902304001100033359014
B1944591956550N10339146WA0232002306001100031018019
B1945001956554N10339144WA0232302309001100030026036
B1945011956558N10339140WA0232502311001100027033043
B1945021956560N10339137WA0232502314001100023041050
B1945031956562N10339133WA0232502311001100020048058
B1945041956563N10339130WA0232402312001100019052065
B1945051956563N10339127WA0232102314001100019062069
B1945061956563N10339124WA0232102314001100018083076
B1945071956561N10339120WA0232102315001100019107089
B1945081956556N10339117WA0232002315001100027146105
B1945091956551N10339114WA0232402316001100028156139
B1945101956545N10339111WA0232902317001100028148148
B1945111956540N10339110WA0233602319001100023147144
B1945121956536N10339109WA0234202322001100022150139
B1945131956531N10339109WA0234702325001100021166146
B1945141956526N10339111WA0235002329001100025193159
B1945151956521N10339113WA0235302332001100029199187
B1945161956518N10339115WA0235502328001100031202203
B1945171956513N10339118WA0235602331001100034211213
B1945181956508N10339124WA0235502333001100039233228
B1945191956505N10339131WA0235902336001100038238244
B1945201956503N10339139WA0236602338001100038245251
B1945211956502N10339145WA0237202343001100033258252
B1945221956504N10339151WA0237602347001100029283260
B1945231956508N10339155WA0237902351001100032302287
B1945241956511N10339160WA0238102353001100036297315
B1945251956515N10339166WA0238502356001100039300311
B1945261956518N10339172WA0238702359001100040307319
B1945271956524N10339178WA0238802364001100039316329
B1945281956529N10339183WA0238902368001100037323339
B1945291956534N10339188WA0239002371001100037324347
B1945301956539N10339191WA0239102374001100036330354
B1945311956544N10339194WA0239102375001100037339016
B1945321956550N10339195WA0239302378001100036350015
B1945331956555N10339196WA0239702380001100034356023
B1945341956561N10339196WA0240102383001100031357038
B1945351956565N10339196WA0240302386001100028002034
B1945361956568N10339194WA0240502390001100022029040
B1945371956571N10339192WA0240502392001100021044069
B1945381956573N10339188WA0240602395001100022066072
B1945391956574N10339184WA0240702397001100022074087
B1945401956575N10339180WA0240902399001100024087097
B1945411956574N10339176WA0240902401001100024104110
B1945421956572N10339172WA0241202403001100025123118
B1945431956569N10339169WA0241302405001100026133128
B1945441956566N10339167WA0241502407001100025141131
B1945451956563N10339164WA0241602409001100024138133
B1945461956560N10339162WA0241802411001100025133139
B1945471956557N10339159WA0241902413001100029143150
B1945481956552N10339157WA0242002415001100036164163
B1945491956546N10339156WA0242202417001100042179182
B1945501956539N10339158WA0242402419001100045189195
B1945511956533N10339161WA0242802422001100045198211
B1945521956527N10339166WA0243202424001100043206213
B1945531956522N10339174WA0243502427001100046228226
B1945541956520N10339184WA0243802430001100048252238
B1945551956519N10339193WA0244202432001100048270264
B1945561956521N10339201WA0244702436001100045290282
B1945571956525N10339207WA0245002441001100045312304
B1945581956530N10339213WA0245402446001100042317327
B1945591956535N10339216WA0245702450001100040324338
B1946001956541N10339219WA0246102454001100040337350
B1946011956547N10339219WA0246402458001100038351005
B1946021956552N10339219WA0246602458001100033007017
B1946031956557N10339218WA0246802461001100033017034
B1946041956562N10339215WA0247102463001100035023052
B1946051956567N10339213WA0247502466001100035024047
B1946061956572N10339211WA0248002470001100032026052
B1946071956575N10339208WA0248302473001100025039063
B1946081956577N10339205WA0248402475001100024050064
B1946091956579N10339201WA0248502477001100027057076
B1946101956581N10339197WA0248602480001100028072087
B1946111956580N10339193WA0248602483001100026101093
B1946121956578N10339189WA0248702485001100030131114
B1946131956574N10339186WA0248702487001100032142132
B1946141956570N10339183WA0248902488001100031149140
B1946151956565N10339181WA0249002490001100030155144
B1946161956560N10339180WA0249002492001100033161135
B1946171956554N10339178WA0249002494001100037166147
B1946181956548N10339177WA0249102496001100036164150
B1946191956542N10339175WA0249202498001100035161143
B1946201956537N10339173WA0249402501001100033160151
B1946211956533N10339171WA0249702503001100030162154
B1946221956528N10339170WA0249702506001100028168149
B1946231956525N10339170WA0249802508001100024179157
B1946241956521N10339170WA0249802508001100025187168
B1946251956517N10339170WA0249702508001100027187153
B1946261956513N10339170WA0249502508001100030180157
B1946271956508N10339170WA0249502507001100031176162
B1946281956504N10339170WA0249602507001100031178172
B1946291956499N10339169WA0249902508001100031173171
B1946301956494N10339169WA0250102510001100030172184
B1946311956490N10339169WA0250302512001100028178177
B1946321956486N10339170WA0250402513001100024185185
B1946331956483N10339171WA0250502514001100023189191
B1946341956479N10339172WA0250402514001100025197206
B1946351956475N10339175WA0250202514001100034220213
B1946361956472N10339182WA0250002514001100045242233
B1946371956470N10339189WA0250102514001100044255258
B1946381956470N10339197WA0250202514001100046277270
B1946391956473N10339205WA0250302515001100046289290
B1946401956477N10339212WA0250502516001100047303305
B1946411956481N10339218WA0250602517001100044307325
B1946421956486N10339224WA0250802519001100041308320
B1946431956490N10339229WA0250902521001100039309332
B1946441956494N10339233WA0251102522001100039314338
B1946451956498N10339237WA0251202523001100040321352
B1946461956503N10339241WA0251402524001100040328355
B1946471956508N10339243WA0251502525001100037340000
B1946481956514N10339245WA0251702527001100035346006
B1946491956519N10339246WA0251802528001100039346008
B1946501956525N10339248WA0251902529001100041345033
B1946511956532N10339250WA0251902530001100043343001
B1946521956538N10339252WA0252102531001100041341001
B1946531956543N10339254WA0252102532001100039339357
B1946541956549N10339256WA0252402534001100039337350
B1946551956555N10339258WA0252602535001100038338355
B1946561956560N10339261WA0252802537001100036337004
B1946571956564N10339262WA0253102539001100031341025
B1946581956569N10339264WA0253102540001100030350034
B1946591956573N10339264WA0253202542001100031355045
B1947001956577N10339263WA0253202543001100028011048
B1947011956579N10339258WA0253302543001100025060063
B1947021956580N10339254WA0253402545001100022084093
B1947031956578N10339251WA0253402546001100019107109
B1947041956574N10339247WA0253402544001100026131123
B1947051956568N10339246WA0253402544001100025156139
B1947061956562N10339251WA0253502545001100028204156
B1947071956558N10339258WA0253602546001100032240195
B1947081956556N10339265WA0253702547001100033267236
B1947091956557N10339271WA0253702548001100030292272
B1947101956561N10339277WA0253902548001100038314307
B1947111956566N10339279WA0254002549001100036337330
B1947121956572N10339279WA0254202551001100033001356
B1947131956577N10339279WA0254402552001100032009020
B1947141956582N10339277WA0254502552001100030022027
B1947151956586N10339275WA0254702554001100029028040
B1947161956589N10339271WA0254902555001100026038047
B1947171956591N10339268WA0255002556001100025052061
B1947181956592N10339265WA0255002557001100025067074
B1947191956593N10339261WA0255102559001100025078084
B1947201956590N10339256WA0255102559001100027113092
B1947211956587N10339252WA0255402560001100029127116
B1947221956583N10339249WA0255502561001100030142130
B1947231956579N10339247WA0255602561001100033152140
B1947241956573N10339245WA0255602562001100034162149
B1947251956567N10339247WA0255502562001100040185157
B1947261956561N10339250WA0255502561001100042208178
B1947271956555N10339254WA0255502561001100042218200
B1947281956552N10339260WA0255502561001100041239211
B1947291956550N10339267WA0255702561001100036258235
B1947301956551N10339273WA0255702561001100038285257
B1947311956554N10339279WA0255602562001100039296295
B1947321956556N10339284WA0255602562001100039301310
B1947331956560N10339289WA0255402561001100040306318
B1947341956565N10339294WA0255302560001100045323327
B1947351956571N10339297WA0255202557001100043336345
B1947361956577N10339299WA0255202558001100038347354
B1947371956582N10339300WA0255302560001100033351005
B1947381956588N10339302WA0255402563001100036347014
B1947391956593N10339303WA0255602565001100035355019
B1947401956598N10339303WA0255602566001100036003034
B1947411956603N10339301WA0255702567001100034012037
B1947421956608N10339300WA0255902568001100032019039
B1947431956613N10339298WA0256002569001100030021043
B1947441956616N10339296WA0256202570001100025023042
B1947451956620N10339295WA0256302572001100023021051
B1947461956623N10339293WA0256502573001100023021041
B1947471956626N10339292WA0256502574001100025024039
B1947481956630N10339290WA0256602575001100026031036
B1947491956633N10339287WA0256802577001100024038038
B1947501956636N10339285WA0257102578001100023034040
B1947511956639N10339283WA0257202580001100022028036
B1947521956642N10339281WA0257202581001100021027037
B1947531956644N10339279WA0257302582001100021034053
B1947541956647N10339277WA0257402583001100021046056
B1947551956649N10339274WA0257502584001100023057071
B1947561956650N10339271WA0257502585001100024072090
B1947571956650N10339267WA0257602586001100027090109
B1947581956649N10339262WA0257602588001100026103121
B1947591956646N10339258WA0257702588001100030135138
B1948001956639N10339255WA0257702589001100042158156
B1948011956632N10339254WA0257702590001100046177173
B1948021956624N10339255WA0257902591001100049191190
B1948031956618N10339259WA0258002592001100046209206
B1948041956613N10339265WA0258202593001100044220223
B1948051956611N10339270WA0258302592001100031234237
B1948061956612N10339276WA0258502593001100029256245
B1948071956615N10339281WA0258702594001100031282270
B1948081956619N10339282WA0258902595001100018312300
B1948091956622N10339281WA0259002595001100017336347
B1948101956627N10339281WA0259102596001100023351012
B1948111956631N10339280WA0259002597001100027359022
B1948121956636N10339280WA0259202598001100031006027
B1948131956641N10339279WA0259502598001100028009037
B1948141956646N10339278WA0259802600001100025017046
B1948151956650N10339277WA0260102601001100024028058
B1948161956652N10339273WA0260202603001100023066070
B1948171956653N10339269WA0260302606001100027080087
B1948181956653N10339264WA0260602608001100031091100
B1948191956653N10339259WA0260802610001100032102116
B1948201956650N10339254WA0261002611001100034126130
B1948211956646N10339249WA0261402612001100041137147
B1948221956641N10339247WA0261402613001100035148158
B1948231956633N10339248WA0261602615001100039176162
B1948241956629N10339254WA0261702616001100035212182
B1948251956626N10339260WA0261902618001100035240210
B1948261956624N10339266WA0261902620001100037251241
B1948271956623N10339272WA0262002621001100038259259
B1948281956622N10339278WA0262002622001100039269280
B1948291956623N10339284WA0262102623001100038292286
B1948301956627N10339289WA0262202625001100042314316
B1948311956632N10339294WA0262402626001100041313334
B1948321956636N10339299WA0262702628001100038310340
B1948331956639N10339302WA0263002632001100028321342
B1948341956643N10339303WA0263202635001100026335354
B1948351956646N10339304WA0263202637001100027342004
B1948361956650N10339305WA0263302639001100030352012
B1948371956655N10339304WA0263402641001100032004019
B1948381956660N10339301WA0263702644001100032025029
B1948391956665N10339297WA0263902645001100032033045
B1948401956669N10339294WA0264302648001100032032042
B1948411956673N10339291WA0264802651001100029033039
B1948421956677N10339289WA0265102656001100025029040
B1948431956680N10339288WA0265302658001100022017011
B1948441956683N10339287WA0265402661001100023005358
B1948451956686N10339288WA0265402662001100028342350
B1948461956690N10339292WA0265502663001100036317333
B1948471956694N10339298WA0265602665001100040297310
B1948481956696N10339305WA0266002668001100041286289
B1948491956696N10339311WA0266302671001100036268275
B1948501956694N10339316WA0266602673001100033248259
B1948511956688N10339318WA0266802675001100033210236
B1948521956681N10339318WA0267002676001100038181189
B1948531956675N10339317WA0267202678001100038168156
B1948541956670N10339316WA0267402681001100030163145
B1948551956667N10339314WA0267602684001100021152136
B1948561956666N10339309WA0267902681001100018123120
B1948571956668N10339304WA0268202682001100022074097
B1948581956671N10339300WA0268302684001100021051066
B1948591956677N10339300WA0268402687001100027358050
B1949001956683N10339303WA0268602687001100037325009
B1949011956688N10339309WA0268702690001100040300336
B1949021956690N10339316WA0268902693001100043280309
B1949031956689N10339323WA0269102697001100043260285
B1949041956686N10339328WA0269302697001100038242261
B1949051956680N10339330WA0269402698001100033212239
B1949061956675N10339330WA0269702700001100030185200
B1949071956671N10339329WA0269902702001100025175167
B1949081956668N10339326WA0270202706001100015157153
B1949091956670N10339321WA0270502708001100012073126
B1949101956674N10339315WA0270702711001100028040065
B1949111956678N10339310WA0270802713001100030031039
B1949121956683N10339307WA0271002716001100033023031
B1949131956688N10339305WA0271202718001100035011016
B1949141956694N10339305WA0271402721001100033350004
B1949151956699N10339308WA0271702724001100031339350
B1949161956702N10339312WA0271702728001100024324341
B1949171956703N10339317WA0272002731001100020285334
B1949181956701N10339325WA0272202734001100031251298
B1949191956697N10339329WA0272402736001100031226247
B1949201956692N10339331WA0272502738001100028191215
B1949211956687N10339330WA0272602740001100029162168
B1949221956683N10339328WA0272802743001100029156139
B1949231956679N10339325WA0273002745001100029141124
B1949241956678N10339319WA0273302748001100029104112
B1949251956679N10339313WA0273402748001100032077080
B1949261956682N10339308WA0273502750001100036049062
B1949271956688N10339305WA0273702752001100040022042
B1949281956694N10339303WA0273802754001100039013020
B1949291956700N10339304WA0274102757001100035347012
B1949301956705N10339307WA0274102758001100034335352
B1949311956709N10339310WA0274302760001100027319342
B1949321956710N10339317WA0274502763001100028284331
B1949331956709N10339323WA0274602766001100032270291
B1949341956708N10339328WA0274702768001100029251271
B1949351956704N10339331WA0274802769001100025222246
B1949361956700N10339332WA0274802770001100023200206
B1949371956696N10339331WA0274802772001100022183173
B1949381956692N10339327WA0274902773001100028134156
B1949391956690N10339322WA0274902776001100030119113
B1949401956689N10339316WA0275102777001100032087099
B1949411956692N10339309WA0275302778001100041064073
B1949421956696N10339304WA0275402780001100043045050
B1949431956701N10339300WA0275702783001100041036036
B1949441956706N10339297WA0275902786001100038027025
B1949451956712N10339295WA0276002788001100037010018
B1949461956717N10339297WA0276002788001100036345006
B1949471956722N10339299WA0276002789001100036337345
B1949481956726N10339303WA0276002789001100034324337
B1949491956727N10339309WA0276102791001100030291326
B1949501956726N10339314WA0276102792001100028261291
B1949511956724N10339318WA0276202792001100023243254
B1949521956720N10339320WA0276302793001100021214225
B1949531956716N10339321WA0276202793001100023193192
B1949541956712N10339321WA0276302794001100026189184
B1949551956708N10339322WA0276202794001100030187175
B1949561956703N10339322WA0276202795001100032184177
B1949571956698N10339322WA0276202794001100031177187
B1949581956693N10339322WA0276202793001100031176174
B1949591956688N10339321WA0276102792001100034179179
B1950001956683N10339321WA0276002789001100037181156
B1950011956677N10339320WA0276002788001100037172144
B1950021956671N10339319WA0276002788001100037167136
B1950031956666N10339317WA0276002789001100033157140
B1950041956662N10339314WA0275902789001100032148142
B1950051956659N10339311WA0276002789001100032145142
B1950061956654N10339308WA0276102789001100034148163
B1950071956650N10339305WA0276102790001100031144133
B1950081956647N10339303WA0276202791001100028143145
B1950091956644N10339300WA0276202791001100026136141
B1950101956641N10339296WA0276302792001100028130151
B1950111956638N10339293WA0276402793001100030128146
B1950121956635N10339289WA0276502794001100030130158
B1950131956632N10339285WA0276602795001100028135152
B1950141956629N10339282WA0276602795001100027142147
B1950151956626N10339280WA0276602796001100029146150
B1950161956622N10339277WA0276502796001100031144156
B1950171956618N10339274WA0276402796001100034145155
B1950181956614N10339271WA0276502796001100035146141
B1950191956610N10339267WA0276602796001100033140119
B1950201956607N10339264WA0276602797001100029132103
B1950211956605N10339259WA0276602796001100030112097
B1950221956605N10339254WA0276502794001100032086090
B1950231956608N10339247WA0276502793001100041064072
B1950241956612N10339242WA0276502793001100041057051
B1950251956617N10339237WA0276602792001100041036045
B1950261956623N10339234WA0276402791001100040025028
B1950271956629N10339234WA0276302789001100038005018
B1950281956635N10339237WA0276302787001100039337001
B1950291956640N10339241WA0276202786001100037328330
B1950301956643N10339248WA0276302786001100031305321
B1950311956643N10339255WA0276402786001100034275296
B1950321956640N10339261WA0276502786001100032251262
B1950331956636N10339265WA0276602786001100032240237
B1950341956632N10339268WA0276702785001100032232226
B1950351956628N10339271WA0276702783001100029228218
B1950361956624N10339272WA0276802780001100024224214
B1950371956620N10339273WA0276702779001100023214207
B1950381956616N10339272WA0276602779001100025207198
B1950391956613N10339272WA0276502777001100018208193
B1950401956610N10339269WA0276702774001100011182189
B1950411956609N10339262WA0276802772001100019108164
B1950421956609N10339253WA0276802772001100021101115
B1950431956612N10339248WA0276602769001100019086108
B1950441956616N10339245WA0276602765001100015053098
B1950451956619N10339243WA0276602760001100013026074
B1950461956623N10339242WA0276502764001100013352055
B1950471956628N10339241WA0276402764001100020341014
B1950481956635N10339243WA0276302763001100025327350
B1950491956641N10339249WA0276502766001100028302329
B1950501956642N10339253WA0276602768001100028274297
B1950511956641N10339257WA0276802768001100029263264
B1950521956639N10339261WA0276902767001100026252252
B1950531956638N10339263WA0276902766001100025245239
B1950541956635N10339265WA0276802766001100027227231
B1950551956630N10339267WA0276702766001100032204215
B1950561956625N10339268WA0276602766001100033187194
B1950571956620N10339268WA0276602766001100033178174
B1950581956615N10339267WA0276502765001100031167163
B1950591956612N10339265WA0276302767001100029155149
B1951001956609N10339260WA0276102766001100035129143
B1951011956606N10339256WA0276002765001100041124126
B1951021956603N10339250WA0275802764001100044120113
B1951031956600N10339243WA0275802763001100047117109
B1951041956598N10339235WA0276002763001100046106101
B1951051956597N10339227WA0276102763001100047101095
B1951061956597N10339220WA0276202763001100044092088
B1951071956598N10339214WA0276202764001100041086099
B1951081956599N10339208WA0276202765001100035085090
B1951091956600N10339202WA0276302765001100034086077
B1951101956600N10339196WA0276102765001100035086058
B1951111956601N10339190WA0276102764001100036080051
B1951121956603N10339185WA0276202764001100035070041
B1951131956607N10339181WA0276102763001100035049037
B1951141956612N10339179WA0276002763001100034022027
B1951151956618N10339178WA0276002762001100034010013
B1951161956624N10339179WA0276002762001100034356359
B1951171956629N10339181WA0276002763001100031342342
B1951181956633N10339183WA0276002763001100027335331
B1951191956636N10339187WA0275802763001100027311323
B1951201956638N10339192WA0275602762001100027296297
B1951211956639N10339199WA0275602765001100034270282
B1951221956639N10339206WA0275702767001100034264253
B1951231956637N10339211WA0275702768001100030253249
B1951241956635N10339215WA0275702768001100028242237
B1951251956633N10339219WA0275602768001100029233230
B1951261956630N10339223WA0275602767001100032230226
B1951271956627N10339228WA0275502767001100032228240
B1951281956624N10339231WA0275602768001100029227235
B1951291956621N10339235WA0275702768001100026233240
B1951301956619N10339239WA0275702768001100026239240
B1951311956618N10339242WA0275502763001100027239246
B1951321956616N10339246WA0275402763001100029236244
B1951331956613N10339250WA0275402762001100030234246
B1951341956611N10339254WA0275402762001100028237254
B1951351956609N10339257WA0275302762001100026243247
B1951361956607N10339261WA0275102762001100026250257
B1951371956606N10339265WA0274902761001100025252255
B1951381956605N10339270WA0274902760001100026256262
B1951391956604N10339274WA0274602758001100029263258
B1951401956604N10339279WA0274402756001100032264237
B1951411956603N10339284WA0274402755001100033257238
B1951421956601N10339289WA0274302753001100031244208
B1951431956598N10339293WA0274302751001100029226207
B1951441956594N10339295WA0274302749001100029204198
B1951451956589N10339296WA0274202752001100032187180
B1951461956584N10339297WA0274202751001100032175177
B1951471956579N10339296WA0274102751001100032164168
B1951481956574N10339294WA0274002750001100032159164
B1951491956570N10339293WA0274002750001100032160161
B1951501956565N10339291WA0273802749001100032158168
B1951511956561N10339289WA0273602748001100035154148
B1951521956556N10339286WA0273502747001100038148146
B1951531956551N10339283WA0273502745001100037144137
B1951541956547N10339279WA0273402744001100034136121
B1951551956543N10339275WA0273402743001100033129128
B1951561956540N10339271WA0273202742001100033122121
B1951571956538N10339266WA0273102741001100035118128
B1951581956535N10339261WA0273002741001100035117114
B1951591956533N10339256WA0273002740001100031115110
B1952001956531N10339252WA0273002740001100029118113
B1952011956529N10339248WA0272802739001100030120103
B1952021956526N10339244WA0272802738001100031121119
B1952031956524N10339240WA0272702738001100031123145
B1952041956521N10339236WA0272802738001100031129136
B1952051956518N10339233WA0272802738001100030138159
B1952061956514N10339230WA0272902738001100028142143
B1952071956511N10339227WA0272802737001100025140137
B1952081956508N10339225WA0272602737001100025133134
B1952091956506N10339221WA0272302737001100029131134
B1952101956502N10339218WA0272202736001100034134141
B1952111956499N10339214WA0272002735001100034130148
B1952121956496N10339210WA0271802734001100031126153
B1952131956493N10339206WA0271702733001100029129166
B1952141956490N10339203WA0271402732001100030137171
B1952151956486N10339201WA0271102730001100031154172
B1952161956481N10339199WA0270802728001100033159183
B1952171956476N10339199WA0270602727001100033172177
B1952181956472N10339199WA0270702725001100031178183
B1952191956468N10339200WA0270502723001100024183175
B1952201956465N10339201WA0270202721001100019190185
B1952211956462N10339202WA0269902718001100020189180
B1952221956459N10339202WA0269502715001100025192189
B1952231956454N10339203WA0269402712001100032191180
B1952241956449N10339204WA0269302710001100033194181
B1952251956444N10339206WA0269302708001100033193173
B1952261956439N10339207WA0269202706001100028191176
B1952271956435N10339208WA0269102705001100027189166
B1952281956431N10339208WA0269002703001100032188160
B1952291956425N10339209WA0268902701001100038181168
B1952301956419N10339209WA0268902701001100040175160
B1952311956412N10339208WA0269102700001100039171166
B1952321956407N10339206WA0269202700001100036167173
B1952331956402N10339205WA0269202700001100033166182
B1952341956398N10339205WA0269102699001100026174184
B1952351956395N10339205WA0268902698001100026182185
B1952361956389N10339206WA0268402696001100038190206
B1952371956383N10339207WA0268302695001100042195202
B1952381956377N10339209WA0268402693001100039194206
B1952391956372N10339211WA0268502692001100033193212
B1952401956369N10339213WA0268402691001100028201183
B1952411956365N10339215WA0268402690001100032206206
B1952421956360N10339218WA0268202689001100038211183
B1952431956355N10339221WA0268402688001100037211194
B1952441956351N10339224WA0268402688001100033210183
B1952451956347N10339227WA0268502688001100029209185
B1952461956343N10339228WA0268602688001100025198184
B1952471956339N10339229WA0268502689001100026193190
B1952481956335N10339230WA0268502689001100031196187
B1952491956330N10339232WA0268502690001100035201191
B1952501956325N10339234WA0268702691001100032200188
B1952511956321N10339235WA0268702693001100028199202
B1952521956317N10339237WA0268902694001100028206224
B1952531956313N10339240WA0268902694001100031216239
B1952541956310N10339244WA0268902695001100037230249
B1952551956308N10339251WA0268902695001100044252256
B1952561956307N10339258WA0268802695001100046260275
B1952571956308N10339266WA0268902695001100045282282
B1952581956312N10339273WA0268902695001100046302296
B1952591956317N10339279WA0268902697001100046318312
B1953001956322N10339283WA0269002699001100044327324
B1953011956328N10339286WA0269002700001100043335334
B1953021956334N10339288WA0269002701001100042345342
B1953031956341N10339288WA0269302702001100042355350
B1953041956347N10339288WA0269402704001100040000358
B1953051956352N10339286WA0269502704001100034010003
B1953061956356N10339284WA0269602705001100031021012
B1953071956360N10339280WA0269802706001100030034027
B1953081956363N10339277WA0270202709001100029039043
B1953091956365N10339273WA0270502711001100024048051
B1953101956367N10339270WA0270502713001100018058064
B1953111956365N10339268WA0270702715001100014112081
B1953121956361N10339266WA0270702718001100024156130
B1953131956357N10339265WA0271202720001100026179160
B1953141956352N10339266WA0271402723001100029196182
B1953151956348N10339270WA0271502724001100035226195
B1953161956344N10339275WA0271502727001100036234218
B1953171956342N10339280WA0271302728001100039240226
B1953181956339N10339287WA0271202728001100042250231
B1953191956339N10339294WA0271002728001100045262242
B1953201956340N10339302WA0270902727001100045283255
B1953211956344N10339309WA0270902726001100047303279
B1953221956350N10339314WA0271102727001100048316302
B1953231956356N10339317WA0271402730001100043331317
B1953241956361N10339319WA0271702732001100038337335
B1953251956366N10339320WA0271902734001100035348344
B1953261956371N10339319WA0272102735001100035358358
B1953271956377N10339318WA0272302737001100037005011
B1953281956382N10339316WA0272502740001100037015020
B1953291956387N10339313WA0272802744001100037024032
B1953301956392N10339310WA0272902747001100035028045
B1953311956396N10339307WA0273002747001100034031059
B1953321956401N10339304WA0272702748001100034036066
B1953331956404N10339300WA0272502749001100034047071
B1953341956406N10339295WA0272302750001100030058081
B1953351956405N10339291WA0272402751001100023088089
B1953361956403N10339286WA0272702752001100023109105
B1953371956400N10339283WA0272802753001100019125122
B1953381956398N10339281WA0272802754001100017132123
B1953391956395N10339279WA0272502754001100018131132
B1953401956392N10339277WA0272402754001100021141138
B1953411956390N10339275WA0272602754001100023142144
B1953421956386N10339274WA0272702757001100026155146
B1953431956382N10339272WA0272702758001100023162146
B1953441956378N10339271WA0272802757001100022167159
B1953451956374N10339270WA0272802755001100025171152
B1953461956370N10339270WA0273002756001100029171159
B1953471956366N10339269WA0273102757001100029163158
B1953481956362N10339267WA0273302758001100028153136
B1953491956358N10339265WA0273402759001100028150156
B1953501956354N10339263WA0273702760001100026154149
B1953511956350N10339261WA0273902762001100024154117
B1953521956347N10339259WA0274002763001100024147121
B1953531956344N10339257WA0274102765001100024135100
B1953541956343N10339253WA0274202765001100024105087
B1953551956344N10339247WA0274202765001100031070069
B1953561956348N10339244WA0274402766001100034042054
B1953571956354N10339241WA0274502767001100041013033
B1953581956361N10339241WA0274502768001100043002011
B1953591956367N10339243WA0274702768001100040344000
B1954001956372N10339246WA0274602769001100038332347
B1954011956374N10339253WA0274502769001100040306336
B1954021956377N10339261WA0274402769001100044295302
B1954031956378N10339270WA0274502770001100049283277
B1954041956379N10339277WA0274502770001100046273262
B1954051956379N10339284WA0274502770001100043264250
B1954061956376N10339290WA0274702771001100039247244
B1954071956373N10339295WA0274702772001100034235220
B1954081956370N10339298WA0274802772001100028226206
B1954091956366N10339300WA0274902771001100024212194
B1954101956363N10339301WA0274802769001100024201176
B1954111956359N10339301WA0274702767001100028190164
B1954121956354N10339301WA0274602768001100031177154
B1954131956349N10339300WA0274702768001100031168148
B1954141956344N10339299WA0274802769001100029158140
B1954151956342N10339295WA0274902769001100026124128
B1954161956343N10339289WA0274802766001100027080106
B1954171956346N10339285WA0275102765001100029046081
B1954181956350N10339282WA0275202766001100031034055
B1954191956355N10339281WA0275502766001100030014046
B1954201956361N10339284WA0275602768001100032337029
B1954211956365N10339288WA0275702768001100034325346
B1954221956370N10339292WA0275602769001100035318331
B1954231956374N10339296WA0275502769001100037316321
B1954241956378N10339300WA0275402767001100041313304
B1954251956382N10339306WA0275402769001100043305288
B1954261956385N10339313WA0275502772001100042284277
B1954271956384N10339319WA0275502773001100038261256
B1954281956381N10339323WA0275502772001100030232232
B1954291956378N10339327WA0275502773001100027222210
B1954301956375N10339329WA0275502772001100024213191
B1954311956372N10339330WA0275402770001100025201177
B1954321956367N10339330WA0275202769001100029186169
B1954331956363N10339330WA0275102768001100032174143
B1954341956357N10339329WA0275102769001100032168151
B1954351956353N10339327WA0275102768001100028162127
B1954361956350N10339324WA0275102768001100025137113
B1954371956348N10339321WA0275002767001100024120112
B1954381956348N10339317WA0275002766001100026089110
B1954391956349N10339312WA0274902766001100029074082
B1954401956350N10339307WA0274902764001100029065079
B1954411956352N10339303WA0274702762001100029062068
B1954421956355N10339298WA0274502759001100030057068
B1954431956358N10339294WA0274602758001100033054058
B1954441956361N10339290WA0274402756001100036050061
B1954451956364N10339285WA0274402756001100034050070
B1954461956368N10339281WA0274402756001100031053062
B1954471956370N10339277WA0274402756001100029056044
B1954481956373N10339273WA0274302755001100029050046
B1954491956376N10339270WA0274102753001100029047037
B1954501956379N10339266WA0273702752001100031045043
B1954511956384N10339263WA0273402749001100033036044
B1954521956389N10339261WA0273402747001100036026030
B1954531956395N10339259WA0273402747001100037018022
B1954541956400N10339257WA0273402746001100036012016
B1954551956406N10339256WA0273202745001100038009027
B1954561956411N10339255WA0273102744001100039008023
B1954571956417N10339254WA0273102744001100038011015
B1954581956423N10339253WA0273202746001100038010050
B1954591956428N10339252WA0273202747001100038019024
B1955001956434N10339250WA0273202746001100041022030
B1955011956439N10339246WA0273402748001100044028048
B1955021956445N10339243WA0273602749001100044038058
B1955031956449N10339238WA0274102750001100038041044
B1955041956453N10339235WA0274102751001100028040061
B1955051956455N10339232WA0274102751001100022046041
B1955061956458N10339229WA0274002751001100028043044
B1955071956462N10339226WA0273902751001100030034059
B1955081956466N10339224WA0273902751001100033032063
B1955091956470N10339221WA0273802750001100034039063
B1955101956474N10339217WA0273802751001100033045062
B1955111956477N10339213WA0274002751001100034048058
B1955121956481N10339209WA0274002751001100034047052
B1955131956484N10339205WA0274102752001100036050075
B1955141956487N10339201WA0274202752001100033057092
B1955151956489N10339197WA0274102753001100024072097
B1955161956489N10339194WA0273802752001100020083099
B1955171956489N10339190WA0273402752001100023085073
B1955181956490N10339186WA0272902750001100024080050
B1955191956492N10339181WA0272402750001100028076036
B1955201956495N10339177WA0273102750001100029068066
B1955211956502N10339176WA0273702752001100027039065
B1955221956507N10339174WA0274002752001100021032051
B1955231956510N10339172WA0274002752001100022027043
B1955241956515N10339173WA0273902751001100020021033
B1955251956519N10339171WA0273502750001100027011024
B1955261956526N10339170WA0273302750001100042006019
B1955271956534N10339171WA0273402750001100044358006
B1955281956542N10339172WA0273702751001100040353012
B1955291956548N10339173WA0273902751001100034350359
B1955301956553N10339174WA0273902750001100030350356
B1955311956558N10339175WA0273702751001100031351351
B1955321956563N10339177WA0273602750001100037342354
B1955331956570N10339180WA0273502749001100043338328
B1955341956577N10339183WA0273602749001100043337325
B1955351956582N10339187WA0273502750001100033324314
B1955361956585N10339190WA0273302748001100029301305
B1955371956588N10339195WA0272902747001100032298284
B1955381956590N10339201WA0272602746001100037285269
B1955391956591N10339208WA0272202745001100040273247
B1955401956589N10339215WA0271902743001100041253236
B1955411956586N10339220WA0271802741001100038238222
B1955421956580N10339222WA0271702739001100037204212
B1955431956575N10339223WA0271502737001100036189188
B1955441956569N10339223WA0271502734001100035175175
B1955451956564N10339223WA0271402732001100034176178
B1955461956560N10339222WA0271102726001100033178155
B1955471956554N10339222WA0270902720001100036177154
B1955481956549N10339221WA0270602717001100039163133
B1955491956543N10339219WA0270502714001100037157123
B1955501956539N10339216WA0270402712001100034150113
B1955511956535N10339213WA0270302712001100029146115
B1955521956533N10339209WA0270302712001100025130113
B1955531956536N10339201WA0270402712001100030090113
B1955541956541N10339197WA0270402711001100032061090
B1955551956546N10339192WA0270502711001100032050071
B1955561956551N10339187WA0270502710001100032053056
B1955571956554N10339183WA0270402710001100032052060
B1955581956558N10339179WA0270302709001100032044057
B1955591956562N10339175WA0270202708001100034039049
B1956001956566N10339171WA0270202707001100035039050
B1956011956570N10339167WA0270202707001100034042052
B1956021956574N10339163WA0270002706001100033045043
B1956031956578N10339159WA0270102706001100032043055
B1956041956581N10339156WA0270002705001100031039034
B1956051956585N10339153WA0269802705001100030036047
B1956061956589N10339150WA0269502703001100028035038
B1956071956592N10339147WA0269002701001100029037043
B1956081956596N10339144WA0268602699001100030033039
B1956091956601N10339141WA0268302696001100037030032
B1956101956606N10339138WA0268102695001100037027011
B1956111956611N10339136WA0267802694001100035017358
B1956121956616N10339135WA0267702692001100034009012
B1956131956621N10339135WA0267302689001100035000024
B1956141956626N10339134WA0266902686001100036004028
B1956151956632N10339133WA0266602683001100039011023
B1956161956638N10339132WA0266302681001100041013002
B1956171956644N10339131WA0266302680001100039009008
B1956181956650N10339131WA0266102679001100037002017
B1956191956656N10339131WA0265902677001100035359025
B1956201956661N10339131WA0265702675001100034002029
B1956211956666N10339130WA0265302672001100037006015
B1956221956672N10339129WA0265102669001100040005011
B1956231956679N10339129WA0264902666001100042001011
B1956241956685N10339129WA0264702664001100039000027
B1956251956690N10339129WA0264402662001100036003029
B1956261956696N10339128WA0264102659001100037004010
B1956271956702N10339127WA0263702656001100041003000
B1956281956708N10339127WA0263402652001100046359003
B1956291956716N10339128WA0263302650001100047355013
B1956301956722N10339128WA0263202647001100043358012
B1956311956728N10339128WA0263002645001100038359337
B1956321956734N10339129WA0262702642001100038349325
B1956331956740N10339132WA0262102638001100041334309
B1956341956745N10339136WA0261302640001100040327288
B1956351956747N10339144WA0261002638001100042309281
B1956361956747N10339153WA0260602639001100041292257
B1956371956744N10339158WA0260302637001100032271241
B1956381956741N10339161WA0260002636001100026263227
B1956391956735N10339158WA0259702634001100011220230
B1956401956730N10339154WA0259502631001100015143179
B1956411956727N10339152WA0259302629001100018163145
B1956421956723N10339150WA0258702627001100018168164
B1956431956717N10339150WA0258002624001100024180170
B1956441956713N10339153WA0257402622001100026192184
B1956451956711N10339153WA0257002618001100018186165
B1956461956711N10339154WA0256502615001100010195161
B1956471956713N10339155WA0256202613001100005195162
B1956481956713N10339155WA0256002614001100005195148
B1956491956714N10339155WA0255802612001100006183155
B1956501956715N10339154WA0255502609001100020165160
B1956511956713N10339152WA0255402607001100021164148
B1956521956710N10339149WA0255302605001100023162147
B1956531956708N10339147WA0254902602001100022155139
B1956541956705N10339145WA0254702600001100026147151
B1956551956701N10339142WA0254402597001100032151150
B1956561956697N10339140WA0254202595001100033159154
B1956571956692N10339138WA0254102593001100033165142
B1956581956687N10339136WA0253902591001100030165138
B1956591956683N10339135WA0253802588001100029159145
B1957001956679N10339133WA0253502586001100030160156
B1957011956675N10339131WA0253302583001100032167165
B1957021956670N10339130WA0253102581001100033176170
B1957031956665N10339131WA0252902578001100032183154
B1957041956660N10339131WA0252602575001100031181153
B1957051956656N10339130WA0252402573001100032177160
B1957061956651N10339130WA0252202570001100034179172
B1957071956646N10339130WA0252102568001100034187172
B1957081956641N10339131WA0252102566001100033192170
B1957091956636N10339132WA0251802564001100031189159
B1957101956632N10339132WA0251602561001100029181162
B1957111956627N10339132WA0251502557001100029176175
B1957121956623N10339132WA0251302553001100033181179
B1957131956618N10339132WA0251102550001100037189195
B1957141956612N10339134WA0251002546001100038198208
B1957151956608N10339137WA0250902542001100037209217
B1957161956604N10339141WA0250702538001100037220223
B1957171956601N10339146WA0250502533001100039228227
B1957181956597N10339151WA0250302527001100043231223
B1957191956593N10339156WA0250002523001100043230236
B1957201956589N10339161WA0249902517001100042230233
B1957211956586N10339166WA0249902515001100039236239
B1957221956583N10339172WA0249802511001100038245239
B1957231956581N10339177WA0249602509001100038249231
B1957241956579N10339183WA0249402512001100041246222
B1957251956576N10339189WA0249202510001100042240205
B1957261956572N10339195WA0249102508001100041232207
B1957271956568N10339199WA0248902505001100038223195
B1957281956564N10339202WA0248702502001100035213196
B1957291956560N10339205WA0248602499001100033210200
B1957301956556N10339208WA0248502497001100033210195
B1957311956551N10339211WA0248202498001100036211196
B1957321956546N10339214WA0248002496001100039211191
B1957331956541N10339217WA0247802494001100040208196
B1957341956536N10339220WA0247802492001100039207197
B1957351956531N10339223WA0247702490001100037209199
B1957361956526N10339226WA0247602489001100037213197
B1957371956522N10339229WA0247402487001100037214201
B1957381956517N10339232WA0247302486001100037215196
B1957391956512N10339235WA0247202483001100039211180
B1957401956507N10339238WA0247102482001100034204160
B1957411956503N10339239WA0246902479001100028193153
B1957421956500N10339239WA0246602477001100022173154
B1957431956497N10339237WA0246202475001100022156145
B1957441956493N10339235WA0245802473001100027150147
B1957451956490N10339232WA0245402471001100030150137
B1957461956485N10339230WA0245302468001100031153144
B1957471956482N10339228WA0245202466001100027153144
B1957481956478N10339226WA0245002464001100023154147
B1957491956475N10339224WA0244802461001100023160154
B1957501956472N10339223WA0244502456001100026164164
B1957511956467N10339221WA0244202453001100031169168
B1957521956462N10339220WA0244202451001100035172169
B1957531956456N10339220WA0244202447001100038181183
B1957541956451N10339221WA0244202444001100036187145
B1957551956446N10339222WA0244102443001100031192142
B1957561956441N10339222WA0243902440001100029184135
B1957571956438N10339221WA0243502437001100023170131
B1957581956436N10339218WA0243402435001100024135142
B1957591956433N10339214WA0243602434001100026121129
B1958001956432N10339211WA0243802433001100022123124
B1958011956431N10339208WA0243702433001100018125133
B1958021956429N10339206WA0243602432001100018128130
B1958031956427N10339203WA0243502430001100022129129
B1958041956425N10339200WA0243402429001100026134115
B1958051956422N10339197WA0243502428001100025135124
B1958061956420N10339194WA0243502428001100020132114
B1958071956419N10339192WA0243502427001100017123095
B1958081956418N10339190WA0243402426001100017109105
B1958091956417N10339187WA0243402425001100019096095
B1958101956417N10339183WA0243202424001100021087082
B1958111956417N10339180WA0243302423001100023085093
B1958121956418N10339176WA0243302423001100023082096
B1958131956419N10339173WA0243502425001100020078105
B1958141956419N10339170WA0243502426001100016079097
B1958151956419N10339168WA0243602426001100018095095
B1958161956419N10339165WA0243702426001100019106088
B1958171956418N10339162WA0243702427001100019096059
B1958181956419N10339159WA0243802427001100019077055
B1958191956420N10339156WA0243702427001100019060039
B1958201956425N10339156WA0243502426001100021008026
B1958211956431N10339160WA0243402425001100030330352
B1958221956436N10339164WA0243502425001100034320319
B1958231956440N10339171WA0243502425001100033304309
B1958241956441N10339180WA0243702425001100039276297
B1958251956440N10339187WA0243902426001100037267263
B1958261956440N10339194WA0243902426001100039263252
B1958271956438N10339200WA0243702426001100039257247
B1958281956435N10339207WA0243502426001100047244239
B1958291956429N10339212WA0243402424001100045222222
B1958301956423N10339216WA0243302424001100044218196
B1958311956417N10339219WA0243002424001100041217190
B1958321956413N10339221WA0242802423001100035213218
B1958331956414N10339216WA0242702423001100014198205
B1958341956419N10339216WA0242702424001100000198162
B1958351956421N10339228WA0242702424001100054271158
B1958361956424N10339233WA0242602423001100061265269
B1958371956425N10339241WA0242302423001100061262261
B1958381956423N10339249WA0242302421001100060258258
B1958391956418N10339253WA0242402420001100049245253
B1958401956414N10339252WA0242502421001100034242242
B1958411956413N10339250WA0242502421001100019240233
B1958421956414N10339245WA0242702421001100009284204
B1958431956420N10339238WA0242802420001100021002039
B1958441956425N10339234WA0242802420001100027359022
B1958451956430N10339232WA0242902419001100030350030
B1958461956436N10339231WA0242802418001100033345015
B1958471956441N10339231WA0242902417001100031346023
B1958481956445N10339232WA0242902417001100031347019
B1958491956450N10339232WA0242902416001100033346008
B1958501956455N10339233WA0242802416001100034346028
B1958511956460N10339234WA0242702416001100034348028
B1958521956465N10339234WA0242702415001100031353034
B1958531956469N10339234WA0242602415001100029359035
B1958541956474N10339234WA0242502414001100030000032
B1958551956478N10339234WA0242302412001100032001034
B1958561956483N10339233WA0242102411001100035002028
B1958571956489N10339233WA0242002411001100037003016
B1958581956495N10339233WA0241902410001100036358019
B1958591956500N10339233WA0241902409001100036356016
B1959001956505N10339233WA0241702408001100034356012
B1959011956511N10339234WA0241502407001100035354013
B1959021956516N10339234WA0241302405001100040352006
B1959031956522N10339235WA0240902402001100043353021
B1959041956529N10339236WA0240802400001100043354024
B1959051956535N10339236WA0240802398001100041356042
B1959061956541N10339236WA0240802397001100038001043
B1959071956545N10339234WA0240702396001100030017038
B1959081956549N10339232WA0240502394001100029020039
B1959091956553N10339230WA0240102392001100030019033
B1959101956558N10339228WA0239802389001100040016035
B1959111956563N10339226WA0239702387001100039018042
B1959121956569N10339224WA0239702385001100038021044
B1959131956574N10339222WA0239702384001100034022040
B1959141956578N10339220WA0239602382001100029019038
B1959151956582N10339219WA0239402380001100029012035
B1959161956587N10339218WA0239102378001100032007034
B1959171956592N10339217WA0238802375001100036006037
B1959181956597N10339217WA0238702377001100035006040
B1959191956602N10339217WA0238702376001100035005044
B1959201956607N10339216WA0238502375001100031008067
B1959211956611N10339215WA0238302374001100028016076
B1959221956614N10339213WA0237902372001100021027092
B1959231956615N10339211WA0237402371001100009029109
B1959241956614N10339209WA0237102369001100007085124
B1959251956613N10339210WA0236502367001100004085038
B1959261956610N10339214WA0236102368001100013261061
B1959271956609N10339218WA0235202366001100014262159
B1959281956610N10339220WA0235102365001100013279186
B1959291956611N10339221WA0234802364001100011279280
B1959301956612N10339223WA0234302362001100009282105
B1959311956611N10339225WA0233902361001100012268103
B1959321956609N10339229WA0233502359001100018255183
B1959331956608N10339231WA0232702356001100020262227
B1959341956610N10339234WA0232202354001100020278229
B1959351956613N10339235WA0232002353001100018289270
B1959361956615N10339238WA0232102351001100019274304
B1959371956616N10339240WA0232202350001100017272255
B1959381956616N10339240WA0232102348001100019263243
B1959391956614N10339243WA0232002347001100035257239
B1959401956613N10339246WA0232002345001100035261252
B1959411956611N10339250WA0232102343001100031265259
B1959421956613N10339255WA0232002341001100035297265
B1959431956616N10339259WA0231802338001100041313313
B1959441956621N10339262WA0231502335001100043328334
B1959451956626N10339262WA0231102332001100038352352
B1959461956631N10339261WA0230902330001100035352019
B1959471956635N10339261WA0230802328001100029348022
B1959481956637N10339258WA0230802326001100022349008
B1959491956635N10339254WA0230702327001100008026020
B1959501956632N10339255WA0230802326001100007271080
B1959511956625N10339260WA0230802324001100029236115
B1959521956618N10339264WA0230902323001100034225204
B1959531956611N10339265WA0230902318001100033210194
B1959541956604N10339264WA0230602315001100029183178
B1959551956599N10339263WA0230202313001100025186153
B1959561956596N10339263WA0229902313001100019200151
B1959571956595N10339261WA0229502311001100011168152
B1959581956599N10339257WA0229102310001100009077125
B1959591956604N10339255WA0229302309001100015010091
B2000001956609N10339257WA0229802308001100026350055
B2000011956614N10339258WA0229402307001100027350032
B2000021956620N10339256WA0228602305001100029353032
B2000031956624N10339256WA0228402303001100027354034
B2000041956624N10339255WA0228402302001100017342036
B2000051956622N10339255WA0228602302001100006316044
B2000061956619N10339256WA0229002300001100010234088
B2000071956616N10339257WA0228802299001100010212140
B2000081956613N10339257WA0228502299001100011186138
B2000091956608N10339256WA0228002296001100017176141
B2000101956603N10339253WA0227702294001100030160146
B2000111956598N10339252WA0227902293001100028169160
B2000121956593N10339250WA0227902291001100024172164
B2000131956589N10339250WA0227702289001100020188142
B2000141956586N10339250WA0227502287001100020194142
B2000151956582N10339249WA0227002284001100019188134
B2000161956578N10339247WA0226702281001100021155152
B2000171956575N10339245WA0226602279001100024155159
B2000181956571N10339244WA0226902277001100028179174
B2000191956566N10339244WA0226902276001100030200162
B2000201956561N10339246WA0227002274001100031211156
B2000211956557N10339247WA0226902269001100027203145
B2000221956554N10339247WA0226502266001100022182134
B2000231956551N10339245WA0226402265001100019148140
B2000241956548N10339243WA0226402264001100021137126
B2000251956546N10339240WA0226502263001100017136127
B2000261956544N10339239WA0226602263001100015146122
B2000271956542N10339237WA0226402261001100015145138
B2000281956540N10339235WA0226202258001100018146143
B2000291956537N10339233WA0226002251001100025156149
B2000301956534N10339232WA0225902248001100027174161
B2000311956529N10339231WA0225902245001100026181175
B2000321956525N10339231WA0225902245001100030191173
B2000331956521N10339232WA0226002244001100028196179
B2000341956517N10339233WA0226002243001100025203148
B2000351956514N10339235WA0226002242001100022197123
B2000361956511N10339235WA0225802242001100018183124
B2000371956509N10339235WA0225602241001100013174111
B2000381956508N10339234WA0225502240001100005174097
B2000391956509N10339232WA0225502240001100009062084
B2000401956513N10339229WA0225402239001100019031054
B2000411956520N10339230WA0225202238001100033350039
B2000421956527N10339232WA0225302238001100037339006
B2000431956533N10339236WA0225202238001100040331011
B2000441956538N10339238WA0225202238001100040337005
B2000451956544N10339239WA0224902236001100037347014
B2000461956549N10339239WA0224802236001100036358023
B2000471956554N10339237WA0224902235001100031012034
B2000481956558N10339235WA0224702235001100028017049
B2000491956560N10339233WA0224902234001100019027052
B2000501956560N10339230WA0225002234001100009051066
B2000511956557N10339228WA0225002233001100011140088
B2000521956552N10339227WA0225102232001100017169124
B2000531956549N10339227WA0225202232001100018184147
B2000541956545N10339227WA0225202232001100020182161
B2000551956541N10339227WA0225002231001100025185163
B2000561956536N10339227WA0225002230001100030188166
B2000571956531N10339229WA0225202231001100038196168
B2000581956525N10339230WA0225302234001100034197162
B2000591956521N10339231WA0225402235001100024186134
B2001001956518N10339231WA0225302236001100018152125
B2001011956516N10339229WA0225302237001100017132104
B2001021956515N10339226WA0225102237001100014076090
B2001031956517N10339223WA0225002238001100025058066
B2001041956522N10339221WA0225002238001100030021049
B2001051956527N10339220WA0224902239001100030001033
B2001061956533N10339223WA0225002239001100033338020
B2001071956538N10339226WA0225102239001100037330008
B2001081956543N10339229WA0225002239001100040334009
B2001091956549N10339230WA0224602238001100038343016
B2001101956554N10339229WA0224502239001100034006026
B2001111956559N10339228WA0224602239001100026012047
B2001121956562N10339227WA0224602239001100019008057
B2001131956563N10339226WA0224502239001100010001059
B2001141956561N10339226WA0224502239001100004001073
B2001151956557N10339226WA0224502239001100016205092
B2001161956552N10339227WA0224402239001100023204162
B2001171956548N10339228WA0224402239001100024199165
B2001181956544N10339228WA0224402239001100022185154
B2001191956541N10339228WA0224302239001100020173147
B2001201956537N10339226WA0224402239001100018159136
B2001211956535N10339225WA0224402238001100015155127
B2001221956532N10339224WA0224302238001100015157127
B2001231956530N10339222WA0224302237001100017154121
B2001241956528N10339220WA0224302236001100018146127
B2001251956525N10339218WA0224402236001100017137117
B2001261956524N10339216WA0224402236001100014131124
B2001271956522N10339214WA0224502237001100011135121
B2001281956521N10339213WA0224302237001100011140110
B2001291956519N10339211WA0224102235001100013138102
B2001301956518N10339209WA0224002234001100019125094
B2001311956516N10339205WA0224002233001100023112111
B2001321956515N10339201WA0224002233001100026109108
B2001331956514N10339197WA0224202233001100022106123
B2001341956513N10339194WA0224202233001100017118109
B2001351956511N10339192WA0224102232001100018122105
B2001361956510N10339189WA0224102231001100018108109
B2001371956510N10339186WA0224002230001100019103109
B2001381956509N10339182WA0223902229001100021107122
B2001391956507N10339179WA0223802228001100024118132
B2001401956505N10339176WA0223702227001100026125129
B2001411956503N10339172WA0223702226001100025128115
B2001421956501N10339169WA0223702225001100022122114
B2001431956499N10339166WA0223602224001100020116111
B2001441956498N10339163WA0223502224001100021114114
B2001451956497N10339160WA0223302222001100024118119
B2001461956495N10339156WA0223202221001100027117117
B2001471956493N10339152WA0223202221001100029113117
B2001481956491N10339147WA0223302220001100029113119
B2001491956490N10339143WA0223502220001100026113122
B2001501956489N10339140WA0223602220001100020113118
B2001511956487N10339138WA0223602220001100015117114
B2001521956486N10339136WA0223502219001100014118121
B2001531956486N10339134WA0223302218001100016111117
B2001541956485N10339131WA0223102216001100019108120
B2001551956484N10339128WA0223002215001100023107104
B2001561956483N10339124WA0222902215001100025103095
B2001571956482N10339120WA0222902214001100025091094
B2001581956483N10339116WA0222802214001100025078097
B2001591956484N10339112WA0222802214001100025074100
B2002001956485N10339109WA0222602213001100025076095
B2002011956486N10339105WA0222602211001100026079097
B2002021956487N10339101WA0222602211001100026077094
B2002031956488N10339097WA0222502210001100026072089
B2002041956490N10339093WA0222402209001100027068087
B2002051956491N10339089WA0222302208001100028067093
B2002061956493N10339085WA0222202206001100029068090
B2002071956495N10339081WA0222002205001100029068093
B2002081956496N10339076WA0222002204001100031068090
B2002091956498N10339071WA0221902202001100031067093
B2002101956500N10339067WA0221902201001100029066100
B2002111956502N10339063WA0221802200001100027066086
B2002121956503N10339059WA0221602198001100025068093
B2002131956505N10339056WA0221602197001100025070091
B2002141956506N10339052WA0221602196001100026068085
B2002151956507N10339048WA0221602196001100028066082
B2002161956509N10339044WA0221802196001100031064070
B2002171956511N10339039WA0221502195001100030065098
B2002181956513N10339035WA0221402194001100027072118
B2002191956514N10339031WA0221302193001100024086108
B2002201956513N10339028WA0221202192001100024117122
B2002211956510N10339025WA0221002191001100024130135
B2002221956508N10339022WA0220902190001100024144138
B2002231956504N10339021WA0220802189001100026156146
B2002241956500N10339020WA0220602188001100027169145
B2002251956496N10339020WA0220602187001100029169149
B2002261956491N10339018WA0220502186001100029162140
B2002271956487N10339016WA0220202184001100032151132
B2002281956483N10339012WA0220302183001100033144128
B2002291956479N10339009WA0220302183001100031140119
B2002301956476N10339006WA0220302182001100029133107
B2002311956473N10339002WA0220102182001100026128105
B2002321956471N10338998WA0219802181001100027120103
B2002331956471N10338994WA0219502180001100028104092
B2002341956470N10338989WA0219602179001100031099088
B2002351956470N10338983WA0219702178001100032091076
B2002361956471N10338978WA0219602177001100032081080
B2002371956473N10338974WA0219402176001100029073078
B2002381956475N10338969WA0219302174001100028070070
B2002391956477N10338965WA0219002172001100029065053
B2002401956480N10338960WA0218802169001100032057048
B2002411956483N10338956WA0218602167001100035049044
B2002421956487N10338953WA0218502166001100036041042
B2002431956492N10338950WA0218602165001100036033047
B2002441956497N10338947WA0218702165001100034026046
B2002451956502N10338946WA0218702165001100030020043
B2002461956506N10338944WA0218702164001100027018052
B2002471956510N10338943WA0218502162001100026020054
B2002481956514N10338941WA0218502160001100028029049
B2002491956518N10338939WA0218402158001100031032056
B2002501956522N10338936WA0218402158001100032033056
B2002511956526N10338934WA0218302158001100030033076
B2002521956529N10338931WA0218202157001100027036065
B2002531956533N10338928WA0218002155001100028041069
B2002541956536N10338925WA0217802153001100031044061
B2002551956539N10338921WA0217702151001100034045070
B2002561956543N10338917WA0217602150001100034049079
B2002571956546N10338913WA0217502150001100032054087
B2002581956548N10338909WA0217502149001100028059082
B2002591956550N10338905WA0217502148001100028057063
B2003001956553N10338901WA0217202146001100031048068
B2003011956557N10338898WA0217102146001100032041056
B2003021956561N10338895WA0216902144001100033033063
B2003031956565N10338892WA0216602142001100033034065
B2003041956569N10338888WA0216202139001100034039071
B2003051956572N10338884WA0216002137001100035048086
B2003061956576N10338879WA0215702135001100037055083
B2003071956578N10338874WA0215602133001100036061085
B2003081956581N10338869WA0215602131001100038067067
B2003091956583N10338863WA0215702130001100037064072
B2003101956586N10338858WA0215702131001100037060058
B2003111956588N10338853WA0216002131001100037064100
B2003121956590N10338847WA0216202130001100038069081
B2003131956591N10338842WA0216502130001100033078095
B2003141956591N10338838WA0216702131001100028089102
B2003151956591N10338834WA0216802132001100026090080
B2003161956590N10338829WA0217002132001100029089107
B2003171956590N10338824WA0217302134001100032091099
B2003181956590N10338819WA0217702136001100033090103
B2003191956590N10338814WA0217902137001100034080101
B2003201956592N10338808WA0218202139001100036073085
B2003211956594N10338803WA0218402144001100036066109
B2003221956595N10338799WA0218702149001100034074099
B2003231956596N10338794WA0219002151001100032084111
B2003241956596N10338789WA0219402154001100031089116
B2003251956596N10338785WA0219802157001100027091113
B2003261956595N10338782WA0220302161001100023097118
B2003271956594N10338780WA0220502164001100020113127
B2003281956592N10338778WA0220702167001100020136124
B2003291956587N10338777WA0220602170001100028159156
B2003311956576N10338774WA0221002174001100037168145
B2003321956571N10338774WA0221102176001100033169152
B2003331956567N10338773WA0221202179001100027168170
B2003341956563N10338773WA0221202180001100024180164
B2003351956559N10338774WA0221102181001100027192199
B2003361956555N10338776WA0221002182001100032203188
B2003371956550N10338779WA0221002184001100035214204
B2003381956546N10338783WA0221002184001100038225220
B2003391956543N10338789WA0221002185001100039234229
B2003401956541N10338795WA0221102181001100040250234
B2003411956539N10338801WA0221102181001100045255252
B2003421956537N10338809WA0221102182001100047258262
B2003431956536N10338816WA0221202183001100048267275
B2003441956536N10338824WA0221302185001100046282286
B2003451956539N10338830WA0221402186001100043302300
B2003461956543N10338835WA0221602187001100042313319
B2003471956548N10338839WA0221602188001100041323329
B2003481956553N10338841WA0221902190001100039333339
B2003491956559N10338843WA0221902190001100038342350
B2003501956564N10338844WA0221902192001100036350002
B2003511956569N10338844WA0222102194001100035002008
B2003521956574N10338843WA0222402197001100033011023
B2003531956579N10338842WA0222702199001100032020033
B2003541956583N10338840WA0223102201001100030025040
B2003551956587N10338837WA0223402204001100029036047
B2003561956590N10338834WA0223702208001100026047056
B2003571956591N10338831WA0223902210001100021078066
B2003581956590N10338828WA0224002212001100018117092
B2003591956588N10338826WA0224102214001100018135121
B2004001956585N10338825WA0224002216001100022162135
B2004011956580N10338827WA0224002217001100031190156
B2004021956575N10338829WA0223902219001100034198184
B2004031956571N10338833WA0224002219001100036211192
B2004041956567N10338837WA0224002218001100037222205
B2004051956563N10338842WA0224102219001100038230214
B2004061956560N10338847WA0224202220001100040233211
B2004071956556N10338853WA0224202220001100041237226
B2004081956553N10338859WA0224202220001100043244240
B2004091956551N10338865WA0224102220001100046250258
B2004101956549N10338873WA0224002220001100047257279
B2004111956549N10338880WA0224102221001100042274281
B2004121956550N10338886WA0224302221001100036289301
B2004131956554N10338891WA0224302222001100042300319
B2004141956559N10338895WA0224502224001100037312327
B2004151956565N10338893WA0224702225001100033351338
B2004161956571N10338890WA0224702225001100033014016
B2004171956575N10338887WA0225302227001100030025039
B2004181956579N10338885WA0225502232001100026023051
B2004191956583N10338884WA0225702233001100023018052
B2004201956587N10338882WA0225902234001100025020048
B2004211956591N10338880WA0225902236001100029031059
B2004221956594N10338877WA0226202239001100028045064
B2004231956597N10338874WA0226302241001100024049073
B2004241956599N10338872WA0226302243001100017062086
B2004251956599N10338870WA0226302244001100012073084
B2004261956600N10338868WA0226102245001100012076097
B2004271956600N10338866WA0225902245001100016090106
B2004281956599N10338864WA0225602244001100015109115
B2004291956597N10338862WA0225502243001100017137127
B2004301956594N10338862WA0225302242001100018176141
B2004311956589N10338866WA0225202243001100027207163
B2004321956583N10338870WA0225402243001100036217189
B2004331956579N10338875WA0225502244001100034229209
B2004341956576N10338880WA0225502245001100033236221
B2004351956573N10338885WA0225502245001100038238234
B2004361956569N10338891WA0225502245001100042241252
B2004371956567N10338898WA0225602246001100044247258
B2004381956565N10338905WA0225902246001100038263272
B2004391956565N10338910WA0226102246001100031273285
B2004401956569N10338916WA0226202245001100032299294
B2004411956575N10338919WA0226402247001100036325324
B2004421956580N10338921WA0226502248001100034337354
B2004431956585N10338919WA0226602248001100031006006
B2004441956589N10338918WA0226702250001100027018036
B2004451956592N10338917WA0226502252001100022011050
B2004461956594N10338916WA0226602253001100016004048
B2004471956592N10338915WA0226602254001100006040051
B2004481956586N10338917WA0226902254001100016227091
B2004491956581N10338924WA0227202256001100036238187
B2004501956577N10338931WA0227402257001100038252225
B2004511956575N10338938WA0227502258001100041273243
B2004521956575N10338945WA0227502259001100044289271
B2004531956578N10338951WA0227702260001100045307292
B2004541956582N10338956WA0227902261001100045313315
B2004551956587N10338959WA0228002262001100038330323
B2004561956592N10338959WA0228202263001100035350346
B2004571956595N10338955WA0228302266001100028020009
B2004581956597N10338952WA0228402267001100022035041
B2004591956596N10338948WA0228702269001100012056057
B2005001956592N10338945WA0228702270001100015117078
B2005011956586N10338946WA0229002271001100020181111
B2005021956580N10338950WA0229102273001100032212155
B2005031956575N10338957WA0229202275001100042232192
B2005041956570N10338963WA0229302276001100042236218
B2005051956568N10338971WA0229502277001100042260223
B2005061956569N10338978WA0229602279001100045280252
B2005071956571N10338986WA0229802280001100048287283
B2005081956574N10338994WA0230002282001100051288295
B2005091956576N10339002WA0230202285001100049286301
B2005101956578N10339009WA0230302286001100047288301
B2005111956580N10339016WA0230402288001100050296306
B2005121956585N10339023WA0230402289001100049303299
B2005131956590N10339031WA0230502290001100056305314
B2005141956594N10339038WA0230602291001100052301295
B2005151956598N10339045WA0230702292001100051297290
B2005161956601N10339053WA0230702291001100049292295
B2005171956604N10339060WA0230802291001100050293295
B2005181956607N10339067WA0230602290001100048299300
B2005191956611N10339073WA0230402290001100045304299
B2005201956614N10339079WA0230302288001100043301288
B2005211956618N10339085WA0230202288001100044296296
B2005221956621N10339091WA0230102287001100044295300
B2005231956623N10339097WA0229902286001100044298291
B2005241956627N10339103WA0229702284001100043300297
B2005251956630N10339109WA0229602282001100045296289
B2005261956633N10339116WA0229402281001100047292279
B2005271956635N10339123WA0229102279001100049285277
B2005281956637N10339131WA0228902277001100050278274
B2005291956637N10339138WA0228902276001100046273262
B2005301956637N10339145WA0228902276001100043270265
B2005311956637N10339152WA0228802274001100043269262
B2005321956637N10339159WA0228502272001100044269257
B2005331956636N10339166WA0228402271001100045266244
B2005341956636N10339173WA0228302269001100046263249
B2005351956635N10339180WA0228202268001100045261243
B2005361956634N10339187WA0228102267001100043258243
B2005371956632N10339194WA0228102266001100041257233
B2005381956631N10339200WA0228002265001100038256242
B2005391956629N10339205WA0228002263001100037251227
B2005401956627N10339211WA0228002262001100037246231
B2005411956625N10339216WA0227802261001100037245235
B2005421956623N10339222WA0227702259001100038245234
B2005431956620N10339228WA0227602258001100041242232
B2005441956617N10339234WA0227702257001100043240223
B2005451956614N10339240WA0227702257001100042241221
B2005461956611N10339246WA0227702256001100040244211
B2005471956608N10339251WA0227702255001100040242210
B2005481956605N10339257WA0227602254001100042241204
B2005491956602N10339263WA0227502253001100046237201
B2005501956597N10339269WA0227602253001100046231180
B2005511956593N10339274WA0227802253001100045229163
B2005521956588N10339279WA0227802253001100039229169
B2005531956585N10339281WA0227702252001100029219177
B2005541956581N10339282WA0227502252001100026206170
B2005551956576N10339281WA0227502252001100026177154
B2005561956573N10339280WA0227602252001100023164136
B2005571956570N10339277WA0227402252001100019133124
B2005581956570N10339273WA0227502253001100021089108
B2005591956571N10339269WA0227502253001100024059084
B2006001956573N10339266WA0227402252001100024047065
B2006011956578N10339265WA0227302252001100029004057
B2006021956584N10339267WA0227202251001100035340027
B2006031956589N10339270WA0227102251001100040332008
B2006041956594N10339272WA0227102251001100037334004
B2006051956598N10339272WA0226802249001100029354009
B2006061956602N10339272WA0226502249001100026002034
B2006071956605N10339270WA0226302248001100022002044
B2006081956605N10339269WA0226302248001100010009048
B2006091956601N10339267WA0226402248001100007165070
B2006101956596N10339265WA0226302247001100022173126
B2006111956589N10339263WA0226302246001100027170143
B2006121956583N10339261WA0226302245001100030160140
B2006131956578N10339258WA0226302244001100033158140
B2006141956573N10339256WA0226502244001100032161142
B2006151956568N10339254WA0226602245001100028164135
B2006161956564N10339253WA0226702246001100023164136
B2006171956560N10339252WA0226702246001100024161148
B2006181956556N10339251WA0226502246001100029163157
B2006191956551N10339249WA0226502247001100034166177
B2006201956546N10339248WA0226702247001100035169169
B2006211956540N10339248WA0226902248001100032176174
B2006221956536N10339249WA0227002249001100027186171
B2006231956532N10339250WA0226902250001100025190172
B2006241956528N10339251WA0226802249001100029193177
B2006251956524N10339253WA0226802248001100033196159
B2006261956519N10339254WA0226602248001100032194153
B2006271956514N10339255WA0226302246001100029182143
B2006281956510N10339254WA0226102245001100026162140
B2006291956507N10339251WA0226002244001100024140134
B2006301956505N10339248WA0225902244001100023136111
B2006311956503N10339246WA0226002243001100021126096
B2006321956503N10339244WA0225802241001100013087081
B2006331956504N10339242WA0225402240001100012051064
B2006341956509N10339240WA0225202238001100028026049
B2006351956516N10339240WA0225202237001100040354029
B2006361956522N10339241WA0225202236001100039342005
B2006371956528N10339242WA0225402241001100037337358
B2006381956533N10339244WA0225502245001100035339009
B2006391956537N10339246WA0225702246001100032338012
B2006401956542N10339247WA0225602248001100030341015
B2006411956546N10339248WA0225502249001100029348031
B2006421956551N10339249WA0225402249001100031355042
B2006431956555N10339248WA0225302250001100029005055
B2006441956559N10339246WA0225402250001100024025067
B2006451956560N10339243WA0225402252001100018065087
B2006461956560N10339240WA0225402253001100011095107
B2006471956557N10339237WA0225502254001100018136123
B2006481956552N10339237WA0225402255001100025169139
B2006491956547N10339240WA0225602256001100031198156
B2006501956541N10339243WA0225702256001100033213177
B2006511956537N10339245WA0225702256001100030209178
B2006521956532N10339246WA0225602256001100029194167
B2006531956528N10339246WA0225302247001100027178154
B2006541956523N10339245WA0225302246001100030168131
B2006551956519N10339244WA0225402246001100025143115
B2006561956518N10339241WA0225302245001100022102099
B2006571956518N10339237WA0225002244001100022096080
B2006581956522N10339234WA0225002242001100025049075
B2006591956528N10339233WA0225102242001100030013055
B2007001956533N10339232WA0225402242001100028009048
B2007011956537N10339231WA0225402241001100026001035
B2007021956541N10339231WA0225202240001100026001037
B2007031956546N10339231WA0224902239001100028002044
B2007041956551N10339231WA0225002237001100032007048
B2007051956556N10339229WA0224802237001100031016071
B2007061956560N10339227WA0224802237001100027031078
B2007071956562N10339225WA0224602236001100018038083
B2007081956562N10339222WA0224502235001100008059095
B2007091956562N10339220WA0224502235001100008089101
B2007101956556N10339217WA0224302234001100022160103
B2007111956551N10339215WA0224102233001100024158131
B2007121956547N10339212WA0223802231001100027149123
B2007131956543N10339209WA0223402229001100029143115
B2007141956540N10339204WA0223502228001100032119117
B2007151956539N10339198WA0223402228001100035104104
B2007161956538N10339192WA0223602228001100033097101
B2007171956537N10339187WA0223502227001100029100101
B2007181956536N10339183WA0223402225001100027107111
B2007191956535N10339179WA0223202223001100029109108
B2007201956534N10339174WA0222902220001100033104106
B2007211956533N10339168WA0222902218001100035095106
B2007221956533N10339162WA0223002217001100038093102
B2007231956533N10339156WA0223102216001100035095116
B2007241956533N10339151WA0223302215001100032098109
B2007251956533N10339146WA0223602216001100029096096
B2007261956532N10339142WA0223702218001100027099134
B2007271956531N10339138WA0223902218001100026109144
B2007281956530N10339135WA0223902218001100024129146
B2007291956526N10339133WA0223802216001100029150164
B2007301956521N10339133WA0223702215001100030177179
B2007311956516N10339137WA0223702216001100033201195
B2007321956512N10339142WA0223902215001100030227214
B2007331956510N10339146WA0223802215001100024238236
B2007341956510N10339151WA0224002215001100024255239
B2007351956515N10339157WA0224002215001100027291209
B2007361956520N10339156WA0224302216001100021343316
B2007371956525N10339154WA0224502216001100021029023
B2007381956530N10339152WA0224702216001100022035055
B2007391956533N10339149WA0224902217001100020044058
B2007401956536N10339147WA0224902218001100021053064
B2007411956537N10339142WA0225102221001100022066069
B2007421956537N10339137WA0225202223001100024105078
B2007431956534N10339133WA0225202224001100028140103
B2007441956531N10339131WA0225402224001100028161128
B2007451956526N10339132WA0225502226001100033191144
B2007461956521N10339134WA0225602227001100035202172
B2007471956517N10339138WA0225902229001100034215185
B2007481956513N10339142WA0226002231001100033225198
B2007491956510N10339148WA0226102233001100035235210
B2007501956510N10339154WA0226202234001100038262224
B2007511956511N10339161WA0226002234001100042286261
B2007521956515N10339168WA0226102234001100045302292
B2007531956521N10339173WA0226202236001100047317312
B2007541956527N10339175WA0226602240001100042338328
B2007551956534N10339176WA0226802242001100040346353
B2007561956539N10339175WA0227002245001100035357001
B2007571956543N10339173WA0227102246001100029011014
B2007581956544N10339169WA0227002249001100021045029
B2007591956543N10339165WA0227202252001100011081059
B2008001956541N10339163WA0227302253001100010157084
B2008011956535N10339161WA0227202254001100022175121
B2008031956521N10339164WA0227602258001100040203150
B2008041956516N10339168WA0227902259001100039216189
B2008051956512N10339172WA0228002261001100036221197
B2008061956507N10339175WA0228002262001100036218200
B2008071956502N10339178WA0227902262001100040211190
B2008081956496N10339182WA0228202263001100044210205
B2008091956490N10339185WA0228502265001100044214174
B2008101956485N10339189WA0228802268001100034218185
B2008111956482N10339191WA0228802268001100027212174
B2008121956478N10339193WA0228702270001100024208172
B2008131956474N10339193WA0228602271001100025187173
B2008141956470N10339192WA0228502272001100031183160
B2008151956465N10339193WA0228402272001100033190162
B2008161956460N10339194WA0228402273001100031192179
B2008171956456N10339194WA0228302266001100024185156
B2008181956453N10339194WA0228102264001100023187139
B2008191956449N10339194WA0227802263001100022177134
B2008201956445N10339193WA0227502262001100023163120
B2008211956443N10339189WA0227302261001100023126106
B2008221956442N10339186WA0227002260001100019090086
B2008231956444N10339182WA0226902259001100025064066
B2008241956449N10339180WA0226702258001100029014047
B2008251956455N10339181WA0226702258001100027348015
B2008261956460N10339184WA0226802258001100032330358
B2008271956464N10339191WA0226902258001100037299340
B2008281956467N10339197WA0227002259001100041289301
B2008291956469N10339203WA0227002259001100041283294
B2008301956470N10339210WA0227102259001100043276290
B2008311956471N10339217WA0227102259001100045277287
B2008321956472N10339224WA0227202258001100046283293
B2008331956475N10339232WA0227302259001100047288295
B2008341956477N10339239WA0227502260001100043291286
B2008351956480N10339245WA0227502261001100039293304
B2008361956483N10339250WA0227402260001100037297329
B2008371956486N10339255WA0227302260001100037304337
B2008381956491N10339258WA0227402259001100041327348
B2008391956496N10339260WA0227202259001100039340016
B2008401956501N10339260WA0227102260001100032354032
B2008411956504N10339257WA0227002261001100023025044
B2008421956506N10339255WA0227102261001100016036072
B2008431956505N10339252WA0227202262001100012107079
B2008441956501N10339249WA0227402263001100018143106
B2008451956498N10339248WA0227502264001100016163123
B2008461956495N10339246WA0227502265001100016163126
B2008471956492N10339245WA0227302265001100016161123
B2008481956489N10339243WA0227102265001100019145118
B2008491956487N10339241WA0227102265001100017128115
B2008501956487N10339238WA0227202266001100017091107
B2008511956487N10339235WA0227402266001100013073088
B2008521956487N10339233WA0227402267001100010078085
B2008531956487N10339231WA0227502267001100010095097
B2008541956486N10339230WA0227402266001100010116111
B2008551956484N10339228WA0227402266001100015143117
B2008561956481N10339225WA0227402266001100021145108
B2008571956478N10339223WA0227602267001100022141106
B2008581956476N10339221WA0227702268001100017130095
B2008591956476N10339218WA0227802268001100017082091
B2009001956477N10339214WA0227802267001100022062070
B2009011956479N10339210WA0227802267001100030050050
B2009021956483N10339208WA0228102269001100031033042
B2009031956489N10339207WA0228102269001100034005031
B2009041956495N10339209WA0228302270001100039338013
B2009051956501N10339212WA0228302271001100042333344
B2009061956506N10339217WA0228402272001100045321341
B2009071956512N10339222WA0228402271001100048318337
B2009081956518N10339227WA0228402270001100050320332
B2009091956524N10339233WA0228702271001100053321338
B2009101956530N10339238WA0228802272001100053319004
B2009111956535N10339243WA0229202273001100048320358
B2009121956540N10339247WA0229402276001100036322003
B2009131956544N10339250WA0229402277001100034327005
B2009141956547N10339251WA0229402277001100030333001
B2009151956551N10339252WA0229202278001100029343012
B2009161956555N10339250WA0229402278001100027006018
B2009171956559N10339248WA0229502279001100025019040
B2009181956562N10339246WA0229402280001100023023051
B2009191956563N10339245WA0229402281001100011014054
B2009201956560N10339243WA0229302282001100007174062
B2009211956556N10339241WA0229402282001100016162127
B2009221956552N10339239WA0229402283001100022159135
B2009231956549N10339237WA0229402284001100024156138
B2009241956545N10339235WA0229502285001100024151124
B2009251956542N10339233WA0229402286001100024145119
B2009261956538N10339230WA0229402286001100024135113
B2009271956536N10339226WA0229302286001100025125118
B2009281956533N10339222WA0229302286001100025121118
B2009291956531N10339219WA0229402287001100022125113
B2009301956529N10339216WA0229402287001100021131116
B2009311956527N10339213WA0229402287001100021131111
B2009321956525N10339210WA0229302287001100023127116
B2009331956522N10339207WA0229302288001100024125118
B2009341956520N10339204WA0229202287001100024125117
B2009351956518N10339201WA0229102287001100025129118
B2009361956516N10339198WA0228902286001100026130118
B2009371956513N10339195WA0228902286001100026127115
B2009381956511N10339191WA0228802285001100027125128
B2009391956508N10339188WA0228902285001100026132138
B2009401956505N10339185WA0228802285001100027144133
B2009411956502N10339183WA0228802284001100027156131
B2009421956498N10339181WA0228602283001100027153128
B2009431956495N10339179WA0228502282001100029144125
B2009441956491N10339176WA0228402280001100030140134
B2009451956488N10339173WA0228302279001100030145138
B2009461956484N10339170WA0228302279001100031153137
B2009471956479N10339169WA0228302279001100030159131
B2009481956475N10339167WA0228202279001100028157127
B2009491956472N10339165WA0228102278001100025152129
B2009501956469N10339163WA0227902276001100024145132
B2009511956466N10339161WA0227802274001100027143140
B2009521956462N10339158WA0227602272001100030149140
B2009531956458N10339156WA0227602271001100033153133
B2009541956453N10339153WA0227602270001100035153125
B2009551956448N10339151WA0227602269001100031148123
B2009561956445N10339148WA0227602268001100026140130
B2009571956443N10339147WA0227402268001100019140135
B2009581956441N10339145WA0227302265001100021147140
B2009591956438N10339143WA0226902263001100024153158
B2010001956435N10339141WA0226802261001100029152148
B2010011956431N10339139WA0226802259001100028158153
B2010021956427N10339138WA0226702258001100026164152
B2010031956423N10339137WA0226402257001100025167158
B2010041956420N10339136WA0226202254001100025167155
B2010051956416N10339135WA0225902251001100028167161
B2010061956412N10339134WA0225602249001100031169169
B2010071956407N10339133WA0225402247001100036173161
B2010081956401N10339133WA0225302246001100037174165
B2010091956395N10339132WA0225402245001100036173150
B2010101956390N10339131WA0225402245001100033172133
B2010111956386N10339131WA0225402244001100028166134
B2010121956382N10339129WA0225302242001100023161121
B2010131956379N10339128WA0225002240001100025157110
B2010141956376N10339125WA0224802237001100030139106
B2010151956373N10339122WA0224602235001100027129095
B2010161956372N10339118WA0224402233001100028094087
B2010171956373N10339113WA0224302231001100030068068
B2010181956377N10339110WA0224402229001100028049062
B2010191956381N10339108WA0224402229001100024032052
B2010201956385N10339108WA0224402230001100022020041
B2010211956388N10339107WA0224302228001100023009037
B2010221956392N10339107WA0224002226001100023007029
B2010231956395N10339106WA0223902222001100023011039
B2010241956399N10339105WA0223602219001100025021037
B2010251956403N10339104WA0223402216001100028030046
B2010261956407N10339102WA0223302215001100029029040
B2010271956411N10339100WA0223402214001100029024037
B2010281956415N10339098WA0223602214001100029023048
B2010291956419N10339096WA0223702214001100027029057
B2010301956423N10339093WA0223602214001100024038068
B2010311956425N10339091WA0223902215001100023046047
B2010321956427N10339089WA0223902216001100018040023
B2010331956430N10339087WA0223802215001100018029045
B2010341956433N10339086WA0223702213001100022015056
B2010351956436N10339085WA0223502211001100025025059
B2010361956439N10339083WA0223402210001100025036051
B2010371956442N10339080WA0223302209001100025042075
B2010381956445N10339077WA0223302209001100023042048
B2010391956447N10339075WA0223402210001100023046067
B2010401956450N10339072WA0223402211001100023048064
B2010411956452N10339070WA0223702212001100023045071
B2010421956455N10339067WA0224002213001100021040090
B2010431956457N10339065WA0224302215001100019046089
B2010441956458N10339063WA0224302216001100016057099
B2010451956458N10339062WA0224302216001100008115117
B2010461956456N10339061WA0224402217001100015149147
B2010471956451N10339062WA0224502218001100024183160
B2010481956445N10339068WA0225002221001100036220189
B2010491956441N10339075WA0225102222001100041245229
B2010501956440N10339083WA0225302222001100040265255
B2010511956441N10339088WA0225302223001100029275280
B2010521956444N10339092WA0225502225001100029288291
B2010531956448N10339092WA0225802228001100017337311
B2010541956451N10339091WA0226202231001100014041019
B2010551956453N10339090WA0226202232001100009044062
B2010561956453N10339089WA0226502234001100011143065
B2010571956451N10339087WA0226302236001100016156118
B2010581956449N10339086WA0226402238001100020149124
B2010591956446N10339084WA0226502240001100023148135
B2011001956443N10339082WA0226802242001100024150141
B2011011956439N10339080WA0227102244001100026154148
B2011021956436N10339078WA0227402247001100027162148
B2011031956432N10339077WA0227702250001100027175166
B2011041956428N10339077WA0227902252001100032184188
B2011051956423N10339079WA0227902253001100036199204
B2011061956418N10339083WA0228002254001100040221222
B2011071956414N10339090WA0228102255001100043237247
B2011081956411N10339095WA0228202257001100038239266
B2011091956411N10339101WA0228502259001100035250272
B2011101956413N10339107WA0228802261001100032267282
B2011111956420N10339107WA0229202264001100018317301
B2011121956426N10339105WA0229402266001100021018357
B2011131956431N10339103WA0229602268001100023030033
B2011141956435N10339101WA0229802270001100022045041
B2011151956437N10339097WA0230002273001100023070052
B2011161956438N10339094WA0230102276001100021104069
B2011171956437N10339090WA0230002278001100026119093
B2011181956434N10339088WA0230202279001100025143107
B2011191956429N10339087WA0230202279001100031158127
B2011201956424N10339090WA0230402280001100029190145
B2011211956419N10339095WA0230502281001100030209179
B2011221956417N10339101WA0230602283001100029235204
B2011231956417N10339108WA0230602285001100026270239
B2011241956420N10339115WA0231002287001100027306287
B2011251956425N10339120WA0231102289001100036325324
B2011261956430N10339124WA0231302292001100035333338
B2011271956435N10339127WA0231502294001100033343345
B2011281956440N10339127WA0231802296001100031357354
B2011291956445N10339128WA0231802298001100030005007
B2011301956449N10339127WA0231902300001100028016014
B2011311956452N10339125WA0232002302001100026032023
B2011321956454N10339121WA0232102304001100021055037
B2011331956454N10339118WA0232202306001100019073054
B2011341956452N10339114WA0232302307001100022122068
B2011351956449N10339111WA0232202309001100025137109
B2011361956445N10339109WA0232202310001100026149127
B2011371956441N10339108WA0232202312001100029156142
B2011381956436N10339108WA0232202312001100034175151
B2011391956430N10339109WA0232402313001100040191173
B2011401956424N10339111WA0232202314001100043198195
B2011411956418N10339114WA0232302315001100044208203
B2011421956413N10339119WA0232302315001100044218213
B2011431956409N10339125WA0232402315001100045229223
B2011441956406N10339133WA0232302315001100045243235
B2011451956405N10339141WA0232402316001100047256249
B2011461956404N10339148WA0232402316001100046266265
B2011471956406N10339156WA0232402315001100047283276
B2011481956408N10339164WA0232502316001100048296294
B2011491956413N10339170WA0232602316001100049313307
B2011501956418N10339175WA0232702317001100045326325
B2011511956424N10339178WA0232902318001100045331339
B2011521956430N10339180WA0233202321001100039341344
B2011531956434N10339178WA0233402323001100030004355
B2011541956437N10339176WA0233502324001100026021019
B2011551956441N10339174WA0233602325001100025023034
B2011561956445N10339173WA0233802326001100027017024
B2011571956449N10339172WA0233802327001100027007017
B2011581956454N10339172WA0233702327001100030356017
B2011591956459N10339173WA0233702326001100037353001
B2012001956465N10339173WA0233602326001100038352004
B2012011956471N10339175WA0233702326001100040339353
B2012021956476N10339178WA0233702326001100038330352
B2012031956481N10339181WA0233702327001100036323345
B2012041956485N10339185WA0233702326001100037324342
B2012051956490N10339188WA0233802326001100040329342
B2012061956495N10339191WA0233902327001100042330338
B2012071956501N10339195WA0234102329001100041328328
B2012081956506N10339199WA0234302330001100043324334
B2012091956511N10339203WA0234502332001100042321345
B2012101956516N10339207WA0234702335001100040321351
B2012111956521N10339211WA0235002336001100036328043
B2012121956525N10339213WA0234902337001100033334038
B2012131956530N10339213WA0234802338001100031349048
B2012141956532N10339210WA0234502341001100021020063
B2012151956533N10339207WA0234602343001100014034078
B2012161956531N10339203WA0234602345001100012071092
B2012171956528N10339198WA0234502346001100016114110
B2012181956522N10339198WA0234702347001100020156126
B2012191956517N10339200WA0234702348001100020204154
B2012201956514N10339206WA0235002349001100025239189
B2012211956514N10339212WA0235102350001100029282239
B2012221956515N10339217WA0235202350001100029310304
B2012231956520N10339221WA0235302351001100037333340
B2012241956524N10339223WA0235302351001100036345000
B2012251956529N10339224WA0235402351001100036354012
B2012261956534N10339223WA0235402352001100035007019
B2012271956538N10339219WA0235402353001100033037029
B2012281956541N10339216WA0235502353001100032043052
B2012291956542N10339211WA0235702353001100026076058
B2012301956540N10339207WA0235702353001100024112080
B2012311956538N10339204WA0235502350001100023128104
B2012321956535N10339201WA0235302350001100024136115
B2012331956532N10339198WA0235102349001100027143116
B2012341956527N10339194WA0235002348001100034145139
B2012351956523N10339191WA0235102348001100035148143
B2012361956518N10339188WA0235102348001100033156148
B2012371956513N10339187WA0235102350001100030162155
B2012381956508N10339186WA0235102350001100031169159
B2012391956503N10339184WA0235102348001100035167163
B2012401956498N10339183WA0235202347001100037171170
B2012411956492N10339182WA0235102347001100036178156
B2012421956487N10339182WA0235102346001100034178154
B2012431956481N10339181WA0235102345001100034170149
B2012441956476N10339180WA0235102344001100031166162
B2012451956472N10339179WA0235002343001100031166149
B2012461956467N10339178WA0234802343001100032168161
B2012471956462N10339177WA0234802341001100034168157
B2012481956457N10339176WA0234602340001100035167164
B2012491956452N10339175WA0234602339001100035170173
B2012501956447N10339174WA0234402339001100035178175
B2012511956442N10339175WA0234402337001100035186177
B2012521956436N10339176WA0234302336001100035191192
B2012531956431N10339177WA0234202335001100037194186
B2012541956426N10339179WA0234202334001100038196182
B2012551956421N10339181WA0234202334001100037198184
B2012561956415N10339183WA0234202333001100036198173
B2012571956410N10339184WA0234202334001100035198175
B2012581956405N10339186WA0234302334001100034197177
B2012591956401N10339188WA0234402334001100034199178
B2013001956396N10339190WA0234402334001100034199168
B2013011956391N10339191WA0234502335001100031199178
B2013021956387N10339193WA0234702335001100028202172
B2013031956383N10339195WA0234602335001100025206162
B2013041956380N10339196WA0234602333001100025199164
B2013051956376N10339197WA0234402332001100026184163
B2013061956372N10339197WA0234402332001100031176165
B2013071956367N10339196WA0234402332001100032177168
B2013081956362N10339196WA0234502331001100029182159
B2013091956358N10339196WA0234402331001100027179133
B2013101956354N10339196WA0234102330001100026172130
B2013111956350N10339194WA0233902329001100028156132
B2013121956346N10339192WA0233702328001100027148111
B2013131956343N10339190WA0233602326001100026147110
B2013141956340N10339187WA0233402324001100026139092
B2013151956337N10339184WA0233202323001100027128089
B2013161956336N10339180WA0232802321001100025102080
B2013171956336N10339176WA0232502320001100026089065
B2013181956337N10339174WA0232402318001100019053066
B2013191956340N10339172WA0232102316001100018033050
B2013201956343N10339171WA0231502314001100017021041
B2013211956346N10339170WA0231002311001100019015037
B2013221956351N10339170WA0230502307001100028009027
B2013231956357N10339171WA0230502304001100035359014
B2013241956365N10339174WA0230402300001100043340011
B2013251956371N10339177WA0230402298001100041332356
B2013261956375N10339180WA0230202299001100032325003
B2013271956380N10339183WA0229902295001100030330357
B2013281956384N10339185WA0229602292001100031332358
B2013291956389N10339187WA0229102289001100036340009
B2013301956394N10339189WA0229002287001100035337001
B2013311956399N10339191WA0228802285001100033332011
B2013321956403N10339193WA0228602282001100031328007
B2013331956407N10339196WA0228302279001100031332009
B2013341956412N10339198WA0228002275001100033339006
B2013351956417N10339199WA0227902272001100035343011
B2013361956422N10339201WA0227702270001100034344015
B2013371956427N10339202WA0227602269001100031345011
B2013381956431N10339203WA0227502267001100027342015
B2013391956435N10339205WA0227202264001100027338016
B2013401956439N10339206WA0226902261001100028339021
B2013411956443N10339208WA0226702258001100031346024
B2013421956448N10339209WA0226502255001100032352020
B2013431956453N10339209WA0226402253001100031354018
B2013441956458N10339210WA0226402253001100030351026
B2013451956462N10339211WA0226202252001100029352030
B2013461956466N10339211WA0226302251001100027356020
B2013471956470N10339212WA0226302255001100025354016
B2013481956474N10339212WA0226202254001100027349344
B2013491956478N10339213WA0226202253001100030346017
B2013501956483N10339214WA0226202253001100030349023
B2013511956488N10339215WA0226202253001100029347000
B2013521956492N10339216WA0226302253001100028339000
B2013531956496N10339218WA0226302252001100030332340
B2013541956500N10339221WA0226202251001100034326332
B2013551956505N10339225WA0226102250001100042320312
B2013561956509N10339230WA0226002249001100043311304
B2013571956513N10339236WA0225902249001100041301309
B2013581956516N10339241WA0225802247001100037303330
B2013591956520N10339245WA0225602245001100036315345
B2014001956524N10339248WA0225402243001100035321000
B2014011956529N10339250WA0225202241001100033339012
B2014021956533N10339249WA0225102241001100026355034
B2014031956536N10339248WA0225002240001100016018042
B2014041956537N10339246WA0224702239001100012033043
B2014051956538N10339244WA0224602237001100012039047
B2014061956540N10339243WA0224502236001100015030044
B2014071956542N10339242WA0224402234001100012031056
B2014081956543N10339241WA0224302233001100006027018
B2014091956543N10339241WA0224402232001100004027006
B2014101956544N10339241WA0224402231001100003027070
B2014111956544N10339240WA0224402230001100002027070
B2014121956544N10339240WA0224402232001100000027070
B2014131956544N10339240WA0224402233001100000027070
B2014141956544N10339241WA0224402233001100000027070
B2014151956544N10339241WA0224402233001100000027070
B2014161956544N10339241WA0224402233001100000027070
B2014171956544N10339241WA0224402233001100000027070
B2014181956544N10339241WA0224302233001100000027070
B2014191956544N10339241WA0224402233001100000027070
B2014201956544N10339241WA0224402233001100000027070
B2014211956544N10339241WA0224402233001100000027070
B2014221956544N10339241WA0224402233001100000027070
B2014231956544N10339241WA0224402233001100000027070
B2014241956544N10339241WA0224402233001100000027070
B2014251956544N10339241WA0224402233001100000027070
B2014261956544N10339241WA0224402233001100000027070
B2014271956544N10339241WA0224402233001100000027070
B2014281956544N10339241WA0224402233001100000027070
B2014291956544N10339241WA0224402233001100000027070
B2014301956544N10339241WA0224402233001100000027070
B2014311956544N10339241WA0224402233001100000027070
B2014321956544N10339241WA0224402233001100000027070
B2014331956544N10339241WA0224402233001100000027070
B2014341956544N10339241WA0224402233001100000027070
B2014351956544N10339241WA0224402233001100000027070
B2014361956544N10339241WA0224402233001100000027070
B2014371956544N10339241WA0224402233001100000027070
B2014381956544N10339241WA0224402233001100000027070
B2014391956544N10339241WA0224402233001100000027070
GF+uDe1CvLrPiMVGXq2t6OATZKuQU6tTi4owZy41kPrhEu8KLaubJ/GZ+QDDu4ts5
Gog+JNOrwwnZ/f0+VLHfa1F7zb52FuscxcLB2ETL6T6Zd0ZJa7wi9+mMDsQP6q3wn
GjV37YIIVz/ZJ+0OxNDcY1fbVkl71W5Rw54PYLy6zz8I=

