AXFH000
HFDTE280826
HFPLTPILOT:Scott O’Brien
HFGTYGLIDERTYPE:Ozone Swift 6
HFDTM100GPSDATUM:WGS84
HFRFWFIRMWAREVERSION:9.7.1
HFRHWHARDWAREVERSION:iPhone 15
HFFTYFRTYPE:Flyskyhy,9.7.1
HFGPS:Internal
HFPRSVARIO:Internal Vario
HFCCLCOMPETITIONCLASS:Paraglider,EN-B
HFTZNTIMEZONE:-7
HFSITSITE:Dunlap,US
I053638FXA3941VXA4244GSP4547CCO4850HDT
B0001363645903N11905881WA0141001410005010000000038
B0001373645903N11905881WA0141001410005010001167052
B0001383645903N11905881WA0141001410005010001174033
B0001393645903N11905881WA0141001410005010001183019
B0001403645903N11905881WA0141001410005010000178017
B0001413645903N11905881WA0141001410005010000000016
B0001423645903N11905881WA0141001410005010000000002
B0001433645903N11905881WA0141001410005010000000005
B0001443645903N11905881WA0141001410005010000000011
B0001453645903N11905881WA0141001410005010000000011
B0001463645903N11905881WA0141001410005010000000011
B0001473645903N11905881WA0141001410005010000000011
B0001483645903N11905881WA0141001410005010000000018
B0001493645903N11905881WA0141001410005010000000018
B0001503645903N11905881WA0141001410005010001283013
B0001513645903N11905881WA0141001410005010002228000
B0001523645903N11905881WA0141001410005010001201024
B0001533645903N11905881WA0141001410005010000000013
B0001543645903N11905881WA0141001410005010000000021
B0001553645903N11905881WA0141001410005010001122076
B0001563645903N11905881WA0141001410005010001189051
B0001573645903N11905881WA0141001410005010002201070
B0001583645903N11905881WA0141001410005010003194065
B0001593645903N11905881WA0141001410005010001153023
B0002003645903N11905881WA0141001410005010001227263
B0002013645903N11905881WA0141001410005010002250209
B0002023645903N11905881WA0141001410005010004248206
B0002033645903N11905884WA0141001410005010006241190
B0002043645902N11905887WA0140901410005010013244204
B0002053645900N11905892WA0140901408005010021246200
B0002063645898N11905897WA0140801408005010022245242
B0002073645897N11905901WA0140701408005010021246247
B0002083645896N11905905WA0140701407005010023261254
B0002093645895N11905910WA0140701408005010025256236
B0002103645895N11905914WA0140701408005010021278218
B0002113645894N11905918WA0140801408005010017243224
B0002123645892N11905920WA0140801409005010015218211
B0002133645889N11905922WA0140901409005010021190197
B0002143645885N11905922WA0141001409005010029176177
B0002153645880N11905921WA0141001409005010036153166
B0002163645875N11905917WA0141001410005010037137146
B0002173645872N11905911WA0141001411005010037126139
B0002183645868N11905906WA0141001411005010036122139
B0002193645865N11905900WA0141101412005010036122140
B0002203645862N11905894WA0141101413005010038124146
B0002213645858N11905888WA0141201414005010039126156
B0002223645855N11905883WA0141301414005010036129164
B0002233645851N11905878WA0141301415005010032141164
B0002243645847N11905875WA0141401415005010029161175
B0002253645842N11905875WA0141501416005010031178187
B0002263645838N11905875WA0141501417005010029194197
B0002273645834N11905878WA0141601417005010028210208
B0002283645831N11905881WA0141601418005010026227223
B0002293645828N11905885WA0141701419005010025241233
B0002303645827N11905889WA0141701419005010024245236
B0002313645826N11905893WA0141701420005010023240236
B0002323645825N11905897WA0141801420005010023233218
B0002333645823N11905900WA0141801421005010022222207
B0002343645820N11905902WA0141901421005010024190193
B0002353645815N11905902WA0142001422005010038162167
B0002363645810N11905897WA0142101422005010046130142
B0002373645807N11905889WA0142101422005010052095113
B0002383645808N11905879WA0142101423005010054064081
B0002393645813N11905872WA0142101423005010051032050
B0002403645820N11905869WA0142101424010019047005018
B0002413645826N11905869WA0142001424010019040343350
B0002423645831N11905872WA0142001425010019033321326
B0002433645834N11905876WA0142101425010019028297304
B0002443645835N11905881WA0142201425010019025276281
B0002453645835N11905885WA0142301426010019024258264
B0002463645834N11905890WA0142301427010019025244250
B0002473645831N11905894WA0142301427005010025221241
B0002483645828N11905896WA0142401427005010029201223
B0002493645824N11905897WA0142501428005010031188212
B0002503645819N11905898WA0142501429005010028184211
B0002513645815N11905899WA0142601430005010026194215
B0002523645812N11905901WA0142701431005010030206223
B0002533645808N11905904WA0142801432005010031219234
B0002543645805N11905908WA0142801433005010030228221
B0002553645802N11905912WA0142901434005010028222205
B0002563645799N11905915WA0143001435005010025204193
B0002573645795N11905916WA0143001436005010031181183
B0002583645790N11905914WA0143101436005010040154174
B0002593645785N11905910WA0143201437005010041135158
B0003003645781N11905903WA0143201438005010041121146
B0003013645777N11905897WA0143301439005010038120133
B0003023645774N11905890WA0143401441005010038121133
B0003033645771N11905884WA0143401442005010038121127
B0003043645768N11905878WA0143401443005010039120132
B0003053645765N11905871WA0143501444005010041119129
B0003063645762N11905864WA0143601445005010041118136
B0003073645759N11905858WA0143701446005010039120139
B0003083645756N11905852WA0143701447005010036124140
B0003093645753N11905846WA0143801448005010033126142
B0003103645750N11905842WA0143901449005010033128147
B0003113645747N11905837WA0144001450005010037136144
B0003123645743N11905832WA0144101451005010037135152
B0003133645739N11905827WA0144201452005010034134149
B0003143645735N11905823WA0144301453005010032135164
B0003153645732N11905819WA0144501455005010030138189
B0003163645728N11905816WA0144601456005010030142205
B0003173645725N11905813WA0144701457005010029154216
B0003183645721N11905813WA0144801458005010033210225
B0003193645717N11905818WA0144801458005010033242250
B0003203645715N11905823WA0144701457005010033245267
B0003213645713N11905829WA0144701457005010032252268
B0003223645714N11905834WA0144701457010019028315269
B0003233645718N11905837WA0144601455010019028325300
B0003243645723N11905839WA0144601454030057031347308
B0003253645729N11905840WA0144701453030057034348328
B0003263645735N11905841WA0144701452030057037354331
B0003273645741N11905842WA0144801451010019036353335
B0003293645747N11905843WA0144901450010019036349329
B0003303645752N11905844WA0145001449010019033345327
B0003313645757N11905846WA0145101449010019031346324
B0003323645762N11905847WA0145201449010019031344326
B0003333645768N11905849WA0145301448010019034343327
B0003343645773N11905851WA0145401448010019036342334
B0003353645779N11905852WA0145501448010019038346334
B0003363645785N11905854WA0145601448010019036354327
B0003373645791N11905854WA0145701449005010034359324
B0003383645797N11905855WA0145801450005010033354310
B0003393645802N11905856WA0145901451005010032343304
B0003403645807N11905858WA0146001451005010035333304
B0003413645812N11905861WA0146101452005010035327296
B0003423645817N11905865WA0146101452005010034325295
B0003433645821N11905869WA0146201453005010030321292
B0003443645824N11905872WA0146301453005010027317296
B0003453645827N11905875WA0146301454005010026315295
B0003463645830N11905879WA0146301455005010026315303
B0003473645833N11905882WA0146401455005010028316313
B0003483645837N11905886WA0146501456005010030324317
B0003493645841N11905889WA0146601456005010032333319
B0003503645846N11905891WA0146701457005010033341317
B0003513645850N11905893WA0146701458005010032345316
B0003523645855N11905894WA0146801459005010031346315
B0003533645860N11905895WA0146901459005010031346317
B0003543645864N11905897WA0147001460005010031345310
B0003553645869N11905898WA0147101461005010032343309
B0003563645874N11905900WA0147201462005010033341299
B0003573645879N11905902WA0147301463005010033336296
B0003583645883N11905905WA0147301463005010031331298
B0003593645887N11905908WA0147401465005010029325298
B0004003645891N11905911WA0147501466005010029330302
B0004013645895N11905913WA0147601467005010030335295
B0004023645899N11905916WA0147601469005010030333284
B0004033645903N11905919WA0147801470005010031327274
B0004043645907N11905922WA0148001472005010027316270
B0004053645909N11905926WA0148101473005010024297271
B0004063645911N11905929WA0148101475005010022278267
B0004073645911N11905933WA0148301476005010022274258
B0004083645911N11905937WA0148501478005010022274254
B0004093645911N11905941WA0148601479005010023273246
B0004103645911N11905945WA0148601480005010023270251
B0004113645911N11905949WA0148701482005010021265245
B0004123645911N11905953WA0148901483005010020257245
B0004133645909N11905956WA0149001485005010019253243
B0004143645908N11905959WA0149001487005010019252230
B0004153645907N11905963WA0149201488005010020246224
B0004163645905N11905966WA0149301490005010019232224
B0004173645903N11905968WA0149501491005010020215217
B0004183645900N11905970WA0149501492005010019202212
B0004193645897N11905970WA0149701494005010018191206
B0004203645893N11905969WA0149901496005010024169199
B0004213645889N11905968WA0150001498005010026161183
B0004223645885N11905965WA0150001500005010027159178
B0004233645881N11905963WA0150301502005010027158174
B0004243645877N11905961WA0150501504005010028157169
B0004253645872N11905958WA0150801505005010031155168
B0004263645868N11905955WA0151001507005010033152166
B0004273645863N11905952WA0151001510005010032148164
B0004283645859N11905949WA0151301512005010031148169
B0004293645855N11905946WA0151601515005010029151165
B0004303645851N11905943WA0151901518005010028153155
B0004313645847N11905941WA0151901520005010030155157
B0004323645843N11905938WA0152201523005010031153146
B0004333645838N11905935WA0152501525005010033145141
B0004343645834N11905931WA0152801528005010035139139
B0004353645831N11905927WA0152801530005010033129144
B0004363645827N11905922WA0153001533005010034129148
B0004373645824N11905917WA0153301535005010035127151
B0004383645821N11905911WA0153501538005010035126156
B0004393645817N11905906WA0153501540005010034126153
B0004403645814N11905902WA0153801543005010030134160
B0004413645811N11905898WA0154101546005010026144159
B0004423645808N11905896WA0154501548005010024148161
B0004433645805N11905894WA0154501551005010024152160
B0004443645801N11905891WA0154801554005010025154160
B0004453645798N11905889WA0155101556005010027156161
B0004463645794N11905888WA0155401558005010028158163
B0004473645789N11905886WA0155401561005010031160169
B0004483645785N11905884WA0155601563005010032159147
B0004493645780N11905881WA0155701566005010031155140
B0004503645776N11905879WA0155901568005010032146137
B0004513645772N11905875WA0155901571005010033139140
B0004523645769N11905870WA0156101573005010035110141
B0004533645767N11905864WA0156201575005010035109129
B0004543645765N11905858WA0156401576005010035113132
B0004553645763N11905852WA0156401578005010033118130
B0004563645760N11905846WA0156601580005010033121139
B0004573645758N11905841WA0156701582005010033122152
B0004583645755N11905836WA0156801583005010032125159
B0004593645752N11905832WA0156801585005010031127160
B0005003645749N11905828WA0156901586005010031142176
B0005013645745N11905824WA0157001587005010030145188
B0005023645741N11905822WA0157001588005010028170195
B0005033645737N11905822WA0157001589005010030194206
B0005043645729N11905829WA0157101590005010030231218
B0005053645727N11905834WA0157101590005010029233228
B0005073645725N11905839WA0157101591005010028232222
B0005083645720N11905846WA0157101591005010025221221
B0005093645717N11905849WA0157201591005010024220223
B0005103645714N11905852WA0157301592005010024221223
B0005113645712N11905856WA0157301592005010024223228
B0005123645709N11905859WA0157401593005010024222223
B0005133645707N11905862WA0157501594005010023229224
B0005143645705N11905865WA0157701594005010022237231
B0005163645702N11905872WA0157901596005010024243221
B0005173645700N11905877WA0158101596005010027245225
B0005183645699N11905882WA0158301597005010029245228
B0005193645698N11905887WA0158301597005010030242229
B0005203645696N11905892WA0158401597005010028240230
B0005213645694N11905896WA0158401597005010027247228
B0005223645693N11905901WA0158301597005010027256219
B0005233645692N11905906WA0158301596005010026254218
B0005243645691N11905911WA0158301596005010023248218
B0005253645689N11905915WA0158201595005010023238219
B0005263645687N11905918WA0158101595005010025237219
B0005273645685N11905921WA0158101595005010021219225
B0005283645682N11905924WA0158101594005010021226213
B0005293645680N11905926WA0158001594005010020226218
B0005303645678N11905929WA0158001594005010019219222
B0005313645675N11905931WA0158001594005010020215219
B0005323645672N11905933WA0158101593005010023217217
B0005333645669N11905936WA0158101593005010025213213
B0005343645665N11905938WA0158101592005010024212206
B0005353645662N11905940WA0158101592005010023207205
B0005363645658N11905942WA0158001592005010023203205
B0005373645655N11905944WA0158001591005010024202209
B0005383645651N11905947WA0158001591005010028220215
B0005393645648N11905951WA0158001591005010032231223
B0005403645645N11905956WA0158101591005010035238229
B0005413645642N11905961WA0158201590005010034245224
B0005423645640N11905967WA0158301590005010034248231
B0005433645638N11905973WA0158301590005010031252219
B0005443645636N11905978WA0158401590005010032250231
B0005453645634N11905984WA0158401590005010033248230
B0005463645632N11905990WA0158401590005010039250236
B0005473645630N11905998WA0158401590005010043247225
B0005483645627N11906005WA0158401590005010040238212
B0005493645624N11906011WA0158401590005010036228212
B0005503645620N11906015WA0158401591005010030218215
B0005513645616N11906018WA0158401592005010030220214
B0005523645613N11906022WA0158401592005010031224212
B0005533645610N11906026WA0158401593005010033227208
B0005543645607N11906031WA0158501593005010033224209
B0005553645603N11906035WA0158501594005010033215212
B0005563645599N11906038WA0158501594005010032212209
B0005573645595N11906042WA0158501595005010032215207
B0005583645591N11906045WA0158501595005010032225203
B0005593645588N11906050WA0158501596005010032227208
B0006003645585N11906054WA0158501596005010030224213
B0006013645582N11906058WA0158501596005010029221216
B0006023645579N11906061WA0158601597005010029220215
B0006033645576N11906065WA0158601597005010030225214
B0006043645573N11906069WA0158601598005010030227212
B0006053645570N11906074WA0158701599005010031232214
B0006063645568N11906079WA0158701599005010033235215
B0006073645565N11906084WA0158701600005010034236219
B0006083645562N11906089WA0158801600005010034235223
B0006093645560N11906094WA0158901601005010033237219
B0006103645557N11906100WA0158901601005010029245223
B0006113645555N11906105WA0158901602005010031245225
B0006123645554N11906110WA0159001602005010031245228
B0006133645552N11906116WA0159001602005010032244228
B0006143645550N11906123WA0158901601005010050249224
B0006153645547N11906131WA0158901600005010046250218
B0006163645545N11906138WA0158701600005010039242232
B0006173645542N11906144WA0158501599005010033238220
B0006183645540N11906149WA0158201598005010032235221
B0006193645537N11906154WA0158201597005010033230224
B0006203645534N11906159WA0158001596005010034226220
B0006213645530N11906163WA0157801594005010033218218
B0006223645526N11906166WA0157601592005010030211213
B0006233645522N11906169WA0157601591005010029205209
B0006243645518N11906170WA0157401589005010023195207
B0006253645515N11906171WA0157201588005010022189203
B0006263645512N11906171WA0157001586005010021183201
B0006273645508N11906171WA0157001585005010021178197
B0006283645505N11906171WA0156801583005010021183195
B0006293645502N11906171WA0156701582005010021192199
B0006303645499N11906172WA0156601581005010021193205
B0006313645495N11906172WA0156601579005010023187206
B0006323645492N11906173WA0156501578005010022182201
B0006333645488N11906172WA0156401577005010023169198
B0006343645485N11906171WA0156201576005010021167189
B0006353645482N11906170WA0156201574005010019166188
B0006363645480N11906169WA0156101573005010018162189
B0006373645477N11906168WA0155901572005010016154188
B0006383645476N11906166WA0155701570005010015139185
B0006393645474N11906164WA0155701569005010016129178
B0006403645473N11906161WA0155501568005010016118170
B0006413645472N11906158WA0155301567005010017108160
B0006423645474N11906155WA0155101565005010017094147
B0006433645474N11906151WA0155101564005010018101134
B0006443645474N11906148WA0155001563005010016103142
B0006453645473N11906145WA0154801562005010014120145
B0006463645472N11906143WA0154701561005010016147145
B0006473645470N11906141WA0154701559005010017154157
B0006483645468N11906140WA0154601558005010017149165
B0006493645466N11906138WA0154501557005010018142167
B0006503645464N11906135WA0154401555005010018143167
B0006513645462N11906134WA0154401554005010018151168
B0006523645459N11906132WA0154201552005010019165172
B0006533645456N11906132WA0154001551005010020183178
B0006543645453N11906133WA0153801549005010023192178
B0006553645449N11906134WA0153801548005010026199191
B0006563645446N11906136WA0153601546005010028200185
B0006573645442N11906138WA0153301544005010032196194
B0006583645437N11906140WA0153101542005010032191189
B0006593645432N11906142WA0153101540005010031197190
B0007003645428N11906144WA0152801538005010029208189
B0007013645424N11906147WA0152601536005010030211194
B0007023645421N11906149WA0152301533005010031204193
B0007033645416N11906152WA0152301531005010031196199
B0007043645412N11906153WA0152101528005010032195194
B0007053645408N11906155WA0151801525005010029195186
B0007063645404N11906157WA0151501523005010025203192
B0007073645400N11906159WA0151501521005010025203199
B0007083645397N11906160WA0151301519005010024201204
B0007093645393N11906162WA0151001517005010025198203
B0007103645389N11906163WA0150701514005010029193200
B0007113645384N11906165WA0150701512005010031195193
B0007123645380N11906166WA0150401509005010032196192
B0007133645375N11906168WA0150101507005010036195192
B0007143645370N11906170WA0149701505005010037193187
B0007153645364N11906171WA0149701504005010037193196
B0007163645359N11906173WA0149401502005010036199195
B0007173645354N11906176WA0149201502005010036207194
B0007183645349N11906179WA0149101501005010033209189
B0007193645345N11906182WA0149101500005010033206192
B0007203645340N11906184WA0149101500005010033201191
B0007213645336N11906187WA0149101499005010033199192
B0007223645331N11906189WA0149101499005010034197197
B0007233645326N11906190WA0149101498005010035193186
B0007243645320N11906192WA0149101498005010037187194
B0007253645315N11906192WA0149001497005010039182193
B0007263645309N11906192WA0148901497005010036180185
B0007273645304N11906193WA0148901498005010031188195
B0007283645299N11906194WA0148901498005010032191179
B0007293645294N11906195WA0148901499005010033194179
B0007303645289N11906197WA0148901499005010033192186
B0007313645284N11906198WA0148901500005010037183182
B0007323645279N11906198WA0148901500005010037180194
B0007333645273N11906198WA0148901500005010034181188
B0007343645269N11906199WA0148801501005010029185185
B0007353645264N11906199WA0148801502005010027182190
B0007363645260N11906199WA0148801502005010030174174
B0007373645255N11906199WA0148801502005010031174183
B0007383645251N11906198WA0148701502005010032174189
B0007393645246N11906198WA0148701502005010032180186
B0007403645241N11906198WA0148701501005010032183186
B0007413645236N11906199WA0148601501005010033182185
B0007423645231N11906199WA0148501501005010034181184
B0007433645226N11906199WA0148501500005010035180188
B0007443645221N11906199WA0148401499005010036184194
B0007453645216N11906200WA0148301498005010037187198
B0007463645211N11906201WA0148201497005010036187194
B0007473645206N11906202WA0148101497005010033190197
B0007483645201N11906203WA0148101496005010030190198
B0007493645197N11906204WA0148101495005010031191196
B0007503645193N11906205WA0148001495005010033194202
B0007513645189N11906207WA0147901494005010037199201
B0007523645184N11906209WA0147901493005010037197197
B0007533645179N11906211WA0147901492005010036197201
B0007543645174N11906214WA0147801491005010036198201
B0007553645169N11906216WA0147601490005010036200201
B0007563645164N11906218WA0147601488005010036200201
B0007573645159N11906221WA0147501487005010037201198
B0007583645154N11906223WA0147301485005010038197202
B0007593645149N11906225WA0147101484005010036194201
B0008003645144N11906227WA0147101482005010036195200
B0008013645139N11906229WA0147001481005010034197192
B0008023645134N11906230WA0146801480005010032193192
B0008033645129N11906231WA0146601478005010032187193
B0008043645124N11906232WA0146601477005010033179177
B0008053645119N11906231WA0146501475005010034177193
B0008063645114N11906231WA0146301474005010034179175
B0008073645109N11906231WA0146201472005010033179183
B0008083645104N11906230WA0146201471005010032174182
B0008093645099N11906230WA0146101470005010031170178
B0008103645094N11906229WA0146001469005010030172184
B0008113645090N11906228WA0146001468005010031175184
B0008123645085N11906228WA0145801467005010032177185
B0008133645080N11906227WA0145701466005010034179188
B0008143645075N11906227WA0145601465005010035178181
B0008153645070N11906227WA0145401464005010035179188
B0008163645064N11906227WA0145401462005010035179186
B0008173645059N11906227WA0145201460005010036179206
B0008183645054N11906227WA0145001458005010036184184
B0008193645049N11906228WA0144801457005010035186185
B0008203645044N11906228WA0144801455005010030187200
B0008213645040N11906229WA0144601454005010030186188
B0008223645036N11906230WA0144401452005010030187189
B0008233645031N11906231WA0144401451005010030191197
B0008243645027N11906232WA0144201449005010033187188
B0008253645022N11906233WA0144001447005010039185196
B0008263645016N11906233WA0143801445005010036180194
B0008273645011N11906233WA0143801443005010034182193
B0008283645006N11906234WA0143501442005010032182192
B0008293645001N11906234WA0143301440005010032181186
B0008303644996N11906234WA0143101438005010034183179
B0008313644991N11906234WA0142901436005010036179172
B0008323644985N11906234WA0142901434005010036175172
B0008333644979N11906233WA0142701432005010036170169
B0008343644974N11906231WA0142401429005010036165168
B0008353644969N11906229WA0142401427005010037161162
B0008363644963N11906226WA0142201425005010039157163
B0008373644958N11906223WA0141901423005010039152165
B0008383644952N11906219WA0141601421005010039152155
B0008393644947N11906216WA0141601418005010038152160
B0008403644942N11906213WA0141301416005010038152153
B0008413644937N11906209WA0141001414005010039150152
B0008423644932N11906205WA0140801412005010040148155
B0008433644927N11906201WA0140801411005010039147157
B0008443644922N11906197WA0140501409005010037150152
B0008453644917N11906194WA0140301407005010035151157
B0008463644912N11906191WA0140101405005010035152154
B0008473644907N11906188WA0139901403005010037152150
B0008483644902N11906185WA0139901402005010039150156
B0008493644897N11906181WA0139701400005010038148155
B0008503644893N11906177WA0139501398005010037150159
B0008513644888N11906174WA0139301396005010036153161
B0008523644883N11906171WA0139301395005010036155161
B0008533644877N11906169WA0139001393005010038157158
B0008543644872N11906166WA0138801391005010041158167
B0008553644866N11906164WA0138501389005010041159168
B0008563644860N11906161WA0138501387005010040162174
B0008573644855N11906159WA0138201385005010038167172
B0008583644849N11906158WA0137901383005010038169161
B0008593644844N11906157WA0137701381005010036165159
B0009003644839N11906155WA0137701379005010036161155
B0009013644834N11906152WA0137501377005010036159160
B0009023644829N11906150WA0137301375005010037160159
B0009033644823N11906148WA0137101374005010037161159
B0009043644818N11906146WA0137101372005010035159157
B0009053644813N11906143WA0136901371005010033158154
B0009063644809N11906141WA0136801369005010033155149
B0009073644804N11906138WA0136601368005010033155152
B0009083644800N11906136WA0136601366005010032154153
B0009093644795N11906133WA0136401365005010032154154
B0009103644791N11906131WA0136201363005010031153148
B0009113644787N11906128WA0136101362005010031152152
B0009123644783N11906125WA0136101360005010032151143
B0009133644779N11906122WA0135901359005010031149147
B0009143644775N11906119WA0135801357005010032145144
B0009153644770N11906115WA0135601356005010034142152
B0009163644766N11906111WA0135601354005010035142140
B0009173644762N11906107WA0135401352005010034144143
B0009183644758N11906103WA0135201351005010032144146
B0009193644754N11906100WA0134901349005010031140132
B0009203644751N11906096WA0134901348005010031141144
B0009213644747N11906092WA0134801347005010031143150
B0009223644743N11906089WA0134601346005010031144136
B0009233644739N11906085WA0134501345005010032144150
B0009243644736N11906082WA0134501344005010033145139
B0009253644731N11906079WA0134401343005010033147147
B0009263644727N11906076WA0134301342005010033148144
B0009273644723N11906072WA0134201341005010032148149
B0009283644719N11906069WA0134201339005010033148144
B0009293644714N11906066WA0134001338005010034149148
B0009303644710N11906063WA0133901337005010034150144
B0009313644705N11906060WA0133701336005010035149144
B0009323644701N11906056WA0133701335005010033147149
B0009333644697N11906053WA0133501334005010031147147
B0009343644693N11906050WA0133301333005010031148151
B0009353644689N11906047WA0133101332005010031150151
B0009363644685N11906044WA0133101330005010032153149
B0009373644680N11906042WA0132901329005010034154148
B0009383644675N11906039WA0132801328005010035154147
B0009393644671N11906036WA0132501327005010035152148
B0009403644666N11906033WA0132501325005010034152147
B0009413644661N11906030WA0132301323005010034152142
B0009423644657N11906027WA0132001322005010034150146
B0009433644652N11906024WA0131801320005010035149143
B0009443644648N11906020WA0131801318005010036148143
B0009453644643N11906017WA0131501316005010036148147
B0009463644638N11906013WA0131201314005010036147143
B0009473644634N11906010WA0131001312005010036146139
B0009483644629N11906006WA0131001310005010035145138
B0009493644625N11906002WA0130701309005010034143134
B0009503644621N11905998WA0130401307005010034140133
B0009513644617N11905994WA0130201305005010035139134
B0009523644613N11905990WA0130201303005010038138135
B0009533644609N11905985WA0130001300005010039136132
B0009543644605N11905980WA0129701298005010037134127
B0009553644601N11905975WA0129501297005010034131129
B0009563644598N11905970WA0129501295005010033132132
B0009573644594N11905966WA0129301293005010034134135
B0009583644591N11905961WA0129101292005010036134141
B0009593644587N11905956WA0128901290005010037136138
B0010003644583N11905952WA0128901288005010038138136
B0010013644578N11905947WA0128701286005010038140136
B0010023644574N11905943WA0128501284005010037140143
B0010033644569N11905938WA0128301282005010037140141
B0010043644565N11905934WA0128301280005010037142148
B0010053644560N11905930WA0128101278005010037145144
B0010063644555N11905926WA0127901277005010037146143
B0010073644551N11905923WA0127801275005010037147140
B0010083644546N11905919WA0127801273005010037146141
B0010093644541N11905915WA0127601271005010038146149
B0010103644536N11905912WA0127401269005010038146145
B0010113644532N11905908WA0127201268005010036147144
B0010123644527N11905904WA0127201266005010035150153
B0010133644522N11905902WA0127101264005010034152147
B0010143644518N11905899WA0126901263005010034153152
B0010153644513N11905896WA0126701261005010035154155
B0010163644508N11905893WA0126701259005010036155147
B0010173644503N11905891WA0126601258005010036155147
B0010183644499N11905888WA0126401256005010033153139
B0010193644495N11905885WA0126201254005010030149145
B0010203644491N11905882WA0126201252005010031148154
B0010213644487N11905880WA0125901250005010030149149
B0010223644483N11905877WA0125701248005010033149147
B0010233644479N11905874WA0125401246005010035149138
B0010243644474N11905870WA0125401244005010036145139
B0010253644470N11905866WA0125001242005010034144150
B0010263644466N11905863WA0124801241005010031148147
B0010273644462N11905860WA0124501239005010030151148
B0010283644458N11905857WA0124501238005010027146140
B0010293644455N11905854WA0124301237005010027140142
B0010303644451N11905850WA0124101235005010029139148
B0010313644448N11905847WA0124001234005010029142151
B0010323644444N11905844WA0124001232005010028147140
B0010333644441N11905841WA0123901231005010027150141
B0010343644437N11905839WA0123701229005010026151146
B0010353644434N11905836WA0123601228005010027148151
B0010363644431N11905834WA0123601226005010028146148
B0010373644427N11905830WA0123501225005010031145144
B0010383644423N11905827WA0123301223005010030145142
B0010393644419N11905824WA0123101222005010027143144
B0010403644416N11905821WA0123101220005010027143150
B0010413644413N11905818WA0122901218005010027142146
B0010423644410N11905815WA0122701217005010030140147
B0010433644406N11905811WA0122401215005010032138148
B0010443644402N11905807WA0122401213005010033133138
B0010453644399N11905803WA0122101212005010031131146
B0010463644395N11905798WA0121901211005010030133147
B0010473644392N11905794WA0121701210005010030138138
B0010483644388N11905791WA0121701208005010032143136
B0010493644384N11905787WA0121501207005010036142135
B0010503644380N11905783WA0121401206005010035132136
B0010513644376N11905778WA0121301205005010033128142
B0010523644373N11905773WA0121301205005010033131144
B0010533644370N11905769WA0121101204005010033137143
B0010543644366N11905765WA0121101203005010033141131
B0010553644361N11905761WA0120901202005010034142138
B0010563644357N11905757WA0120901202005010035138130
B0010573644353N11905753WA0120901201005010034136134
B0010583644349N11905748WA0120801200005010034136129
B0010593644346N11905744WA0120701200005010035134137
B0011003644342N11905739WA0120701199005010036134129
B0011013644338N11905735WA0120601198005010034135135
B0011023644334N11905730WA0120501198005010030132134
B0011033644331N11905726WA0120401197005010029129129
B0011043644329N11905722WA0120401196005010032125136
B0011053644326N11905717WA0120301195005010034123125
B0011063644323N11905711WA0120101194005010039121137
B0011073644319N11905705WA0119801192005010038121117
B0011083644316N11905699WA0119801191005010036123127
B0011093644314N11905694WA0119601190005010027125121
B0011103644311N11905690WA0119501189005010026125119
B0011113644309N11905686WA0119401188005010027124133
B0011123644307N11905682WA0119401188005010028124132
B0011133644304N11905677WA0119401187005010031122133
B0011143644302N11905672WA0119401186005010032122126
B0011153644299N11905667WA0119401185005010032124133
B0011163644296N11905663WA0119401185005010031126137
B0011173644294N11905658WA0119301184005010027130134
B0011183644291N11905655WA0119301184005010028131131
B0011193644288N11905651WA0119301184005010028130128
B0011203644286N11905647WA0119301184005010026126133
B0011213644284N11905643WA0119301184005010024127136
B0011223644281N11905640WA0119401184005010024130143
B0011233644279N11905637WA0119401184005010024134145
B0011243644276N11905634WA0119401184005010026138149
B0011253644273N11905631WA0119401183005010028142138
B0011263644269N11905628WA0119401183005010027146148
B0011273644266N11905626WA0119401183005010026155143
B0011283644262N11905624WA0119401183005010026159157
B0011293644258N11905622WA0119301182005010027159173
B0011303644254N11905621WA0119201182005010031159197
B0011313644249N11905619WA0119101182005010032165211
B0011323644244N11905618WA0119101181005010034175224
B0011333644239N11905618WA0118901181005010034183225
B0011343644235N11905622WA0118801180005010045229225
B0011353644231N11905630WA0118701179005010041244240
B0011363644230N11905638WA0118701177005010041249252
B0011373644228N11905647WA0118601175005010041254259
B0011383644228N11905655WA0118501173005010042258268
B0011393644227N11905664WA0118301171005010043259268
B0011403644226N11905672WA0118301169005010045262271
B0011413644226N11905681WA0118201167010019046262273
B0011423644225N11905690WA0118101166010019042264275
B0011433644224N11905698WA0118001164010019039262281
B0011443644224N11905705WA0118001163005010037262273
B0011453644223N11905712WA0117901162005010038263280
B0011463644222N11905720WA0117801160005010042263282
B0011473644222N11905728WA0117701159005010045272275
B0011483644223N11905736WA0117701158005010045273287
B0011503644223N11905745WA0117601156005010043274276
B0011523644224N11905761WA0117401154005010041272281
B0011533644225N11905769WA0117401153005010041271279
B0011543644225N11905777WA0117201152005010042272277
B0011553644225N11905785WA0117101151005010041267278
B0011563644225N11905792WA0117101151005010039269283
B0011573644225N11905800WA0117101151005010038269281
B0011583644225N11905807WA0117101151005010037270277
B0011593644225N11905814WA0117101151005010039273286
B0012003644226N11905821WA0117101150005010042277284
B0012013644227N11905829WA0117101150005010044278282
B0012023644228N11905838WA0117201150005010045279285
B0012033644229N11905846WA0117201149005010044279274
B0012043644230N11905854WA0117101149005010042277283
B0012053644231N11905862WA0117101148005010040273287
B0012063644231N11905869WA0117101148005010040274287
B0012073644232N11905877WA0117101148005010042280291
B0012083644233N11905885WA0117001147005010045286290
B0012093644235N11905893WA0117001146005010046287281
B0012103644237N11905901WA0116901146005010044286289
B0012113644239N11905909WA0116801145005010041283282
B0012123644240N11905916WA0116701144005010039283293
B0012133644242N11905923WA0116701143005010039284298
B0012143644243N11905930WA0116601142005010040285297
B0012153644245N11905938WA0116401141005010041290302
B0012163644247N11905945WA0116301140005010041292299
B0012173644250N11905952WA0116301140005010040294316
B0012183644252N11905958WA0116201139005010039300297
B0012193644255N11905964WA0116101138005010039301303
B0012203644258N11905971WA0115901137005010040300292
B0012213644261N11905977WA0115901136005010041296291
B0012223644264N11905984WA0115801134005010042292292
B0012233644266N11905992WA0115601133005010042290293
B0012243644268N11905999WA0115401132005010041290298
B0012253644270N11906006WA0115401131005010040291296
B0012263644273N11906013WA0115301129005010039294305
B0012273644275N11906020WA0115101128005010040296312
B0012283644278N11906026WA0115001126005010044302304
B0012293644282N11906033WA0115001125005010046304315
B0012303644286N11906041WA0114801123005010050309308
B0012313644291N11906048WA0114601122005010050310304
B0012323644295N11906054WA0114401121005010042305305
B0012333644299N11906060WA0114401119005010039304310
B0012343644302N11906066WA0114201118005010040305309
B0012353644306N11906073WA0114001116005010044306316
B0012363644310N11906079WA0113901115005010046307312
B0012373644314N11906086WA0113901114005010045308312
B0012383644318N11906092WA0113801112005010042309303
B0012393644322N11906098WA0113601111005010041308292
B0012403644326N11906104WA0113501110005010041305282
B0012413644329N11906110WA0113501108005010041304292
B0012423644332N11906118WA0113401107005010048292294
B0012433644335N11906126WA0113201105005010052293293
B0012443644338N11906136WA0113001103005010054294285
B0012453644341N11906145WA0113001102005010054294287
B0012463644344N11906154WA0112801100005010052291259
B0012473644346N11906163WA0112501099005010047274273
B0012483644346N11906172WA0112301098005010045269282
B0012493644346N11906180WA0112301097005010040273281
B0012503644346N11906188WA0112201096005010038274270
B0012513644346N11906195WA0112101095005010037275267
B0012523644347N11906202WA0112101094005010045280263
B0012533644348N11906211WA0112101092005010049275272
B0012543644349N11906220WA0112001091005010049273266
E001255PEVBackground
B0012553644349N11906229WA0111801089005010045275262
B0012563644350N11906237WA0111601088005010043276334
B0012573644351N11906245WA0111601086005010042276313
B0012583644352N11906253WA0111401085005010042275321
B0012593644352N11906261WA0111101083005010045275274
B0013003644353N11906269WA0110901082005010046276274
B0013013644354N11906278WA0110901080005010044275274
B0013023644354N11906286WA0110601079005010042273274
B0013033644355N11906293WA0110401078005010042272277
B0013043644355N11906302WA0110101076005010044272280
B0013053644356N11906310WA0110101075005010050285278
B0013063644359N11906319WA0109901073005010051294278
B0013073644362N11906328WA0109801072005010051295277
B0013083644365N11906336WA0109601070005010044299276
B0013093644368N11906343WA0109601069005010044298277
B0013103644372N11906350WA0109401068005010043300276
B0013113644375N11906357WA0109401067005010044303276
B0013123644379N11906363WA0109301066005010044303275
B0013133644382N11906370WA0109201065005010044301275
B0013143644386N11906377WA0109201064005010042298276
B0013153644388N11906384WA0109201063005010041293277
B0013163644390N11906391WA0109201063005010040286281
B0013173644392N11906398WA0109101062005010039281281
B0013183644391N11906406WA0109101061005010039257276
B0013193644389N11906413WA0109101060005010039252274
B0013203644386N11906419WA0109001059005010038249269
B0013213644383N11906426WA0108801058005010042240261
B0013223644380N11906433WA0108801057005010040236260
B0013233644372N11906445WA0108701054005010036228275
B0013243644368N11906450WA0108501053005010038229266
B0013253644364N11906456WA0108301052005010040232265
B0013263644360N11906462WA0108101051005010041234256
B0013273644356N11906468WA0108101049005010040239257
B0013283644353N11906475WA0107801047005010040239242
B0013293644350N11906482WA0107601046005010040239252
B0013303644347N11906488WA0107301044005010041240261
B0013313644344N11906495WA0107301042005010042241258
B0013323644341N11906502WA0107101041005010043250257
B0013333644339N11906510WA0106801038005010042251260
B0013343644337N11906518WA0106501036005010041251246
B0013353644335N11906525WA0106501035005010039250247
B0013363644334N11906532WA0106201033005010037251249
B0013373644332N11906538WA0106001032005010037249250
B0013383644330N11906545WA0105901031005010037246252
B0013393644328N11906551WA0105901029005010037244254
B0013403644325N11906557WA0105701028005010036239254
B0013413644322N11906563WA0105601026005010032234256
B0013423644319N11906567WA0105501024005010031222258
B0013433644315N11906570WA0105501022005010031210260
B0013443644311N11906573WA0105301020005010031202262
B0013453644306N11906575WA0105001018005010029194263
B0013463644302N11906575WA0104701016005010024185266
B0013473644299N11906575WA0104701014005010023174266
B0013483644295N11906574WA0104401013005010021164267
B0013493644292N11906573WA0104101011005010021162269
B0013503644289N11906572WA0103901010005010022165270
B0013513644286N11906571WA0103601008005010025166270
B0013533644282N11906570WA0103601006005010025165271
B0013543644278N11906568WA0103501005005010024164271
B0013553644275N11906567WA0103201003005010024166272
B0013563644271N11906566WA0103001002005010024165272
B0013573644268N11906565WA0102801000005010025163272
B0013583644264N11906563WA0102800999005010026162272
B0013593644261N11906562WA0102600997005010025161273
B0014003644257N11906560WA0102400995005010025160273
B0014013644253N11906558WA0102200994005010026157273
B0014023644250N11906556WA0102200992005010025152273
B0014033644247N11906554WA0102000991005010024145273
B0014043644244N11906551WA0101800989005010024141273
B0014053644242N11906548WA0101600988005010021145273
B0014063644239N11906546WA0101600986005010022150273
B0014073644236N11906544WA0101500984005010023151273
B0014083644233N11906542WA0101300983005010024149273
B0014093644230N11906539WA0101300981005010024146273
B0014103644227N11906537WA0101100979005010023146273
B0014113644225N11906535WA0100900978005010023149273
B0014123644222N11906532WA0100700976005010023153273
B0014133644218N11906530WA0100500975005010025153274
B0014143644215N11906528WA0100500973005010027152274
B0014153644211N11906526WA0100300971005010029150274
B0014163644208N11906523WA0100100969005010028148274
B0014173644204N11906520WA0099800968005010026147274
B0014183644201N11906518WA0099800966005010024147274
B0014193644198N11906515WA0099600964005010024148274
B0014203644192N11906511WA0099300961005010024148274
B0014223644189N11906508WA0098800959005010026148274
B0014233644183N11906502WA0098800954005010029122274
B0014253644180N11906494WA0098000950005010019093274
B0014263644181N11906490WA0098000947005010017078274
B0014273644182N11906487WA0097600945005010015078274
B0014283644182N11906484WA0097200943005010012090269
B0014303644212N11906510WA0096800907010019035305256
B0014313644214N11906515WA0095800897030057034305288
B0014323644217N11906519WA0095800897050095033305282
B0014333644213N11906517WA0095200897050095029305277
B0014343644213N11906518WA0095200897050095028321271
B0014353644214N11906521WA0094500896050095031317258
B0014363644216N11906526WA0093600896050095029315251
B0014373644216N11906530WA0092800896050095027314294
B0014383644217N11906534WA0091900896050095026313278
B0014393644216N11906534WA0091900886030057023307276
B0014403644218N11906535WA0091000878030057024299265
B0014413644219N11906537WA0090100868010019020320254
B0014423644222N11906539WA0089200860010019020320248
B0014483644211N11906539WA0086100874014016027267260
B0014493644230N11906540WA0085600815004004023280258
B0014503644228N11906544WA0085300814004003023224260
B0014513644226N11906547WA0085000807004003024211263
B0014523644222N11906549WA0085000802004003030198262
B0014533644217N11906549WA0084800802004003035176263
B0014543644213N11906547WA0084600801004003030156263
B0014553644211N11906545WA0084300800004003023120264
B0014563644210N11906542WA0084300798004003018104266
B0014573644209N11906539WA0084000795004003022103266
B0014583644204N11906540WA0083800799005010024124267
B0014593644203N11906536WA0083800799005010028118268
B0015003644202N11906531WA0083500798005010034095269
B0015013644202N11906524WA0083300797005010035082278
B0015023644203N11906518WA0083200795005010035068277
B0015033644206N11906512WA0083200794005010034059276
B0015043644209N11906507WA0083000793005010034053276
B0015053644213N11906501WA0082700792005010033052275
B0015063644216N11906496WA0082500790005010034051275
B0015073644219N11906491WA0082500788005010035051275
B0015083644223N11906485WA0082300787005010037052275
B0015093644227N11906480WA0082100785005010037054273
B0015103644230N11906474WA0081900783005010036057273
B0015113644232N11906468WA0081900781005010035063273
B0015123644235N11906462WA0081700779005010034069273
B0015133644236N11906456WA0081400777005010032074273
B0015143644237N11906450WA0081200776005010031078273
B0015153644238N11906445WA0081200774005010030082273
B0015163644238N11906439WA0081000772005010031086273
B0015173644238N11906433WA0080800770005010034088273
B0015183644238N11906427WA0080500768005010035088273
B0015193644238N11906420WA0080500766005010034092273
B0015203644238N11906414WA0080300764005010033098273
B0015213644237N11906408WA0080100762005010032100273
B0015223644236N11906403WA0079800760005010033100274
B0015233644235N11906396WA0079800757005010037100274
B0015243644234N11906389WA0079600755005010037097274
B0015253644233N11906383WA0079300754005010033094274
B0015263644233N11906377WA0079100752005010030091274
B0015273644233N11906371WA0078800750005010030091274
B0015283644233N11906366WA0078800749005010029089274
B0015293644233N11906360WA0078500747005010029086274
B0015303644233N11906355WA0078300745005010029086274
B0015313644233N11906349WA0078000743005010029090274
B0015323644233N11906344WA0078000742005010030093274
B0015333644233N11906338WA0077700740005010032087274
B0015343644233N11906332WA0077500739005010034071274
B0015353644235N11906326WA0077300737005010033059274
B0015373644238N11906322WA0077300736005010031052274
B0015383644241N11906317WA0077100735005010029052274
B0015393644244N11906312WA0077000734005010031058274
B0015403644246N11906307WA0076900732005010033064274
B0015413644248N11906301WA0076700731005010035072274
B0015423644249N11906295WA0076700729005010034075274
B0015433644250N11906289WA0076600728005010027078274
B0015443644250N11906285WA0076400726005010023083274
B0015453644250N11906281WA0076200725005010024087274
B0015463644250N11906276WA0076200723005010024089274
B0015473644250N11906271WA0076000722005010031095274
B0015483644249N11906265WA0075800720005010035093274
B0015493644249N11906259WA0075600719005010032086274
B0015503644249N11906253WA0075600718005010029086274
B0015513644249N11906248WA0075400717005010026081274
B0015523644250N11906243WA0075200716005010026082274
B0015533644250N11906238WA0075100715005010028081274
B0015543644251N11906233WA0075100714005010029083274
B0015553644251N11906228WA0075000712005010028083274
B0015563644251N11906223WA0074900711005010026088274
B0015573644251N11906218WA0074800710005010025093274
B0015583644251N11906213WA0074800709005010026093274
B0015593644251N11906209WA0074700708005010027090274
B0016003644251N11906203WA0074500707005010029087274
B0016013644251N11906198WA0074400705005010027095274
B0016023644250N11906194WA0074400704005010025109274
B0016033644247N11906185WA0074300702005010024109274
B0016043644246N11906181WA0074100701005010027100274
B0016053644246N11906176WA0074000699005010030085274
B0016063644247N11906170WA0073800698005010031080274
B0016073644247N11906165WA0073800697005010027093274
B0016083644247N11906159WA0073600695005010026091274
B0016093644247N11906155WA0073400694005010021099274
B0016103644246N11906151WA0073200692005010020112274
B0016113644244N11906149WA0073200690005010020138273
B0016123644241N11906148WA0072900688010019010160273
B0016133644240N11906149WA0072600685010019007224277
B0016143644241N11906155WA0072300683010019031282280
B0016153644242N11906163WA0072300680010019031282270
B0016163644244N11906171WA0072100678010019035279257
B0016173644244N11906180WA0071900675010019031273246
B0016183644242N11906187WA0071700672005010028230241
B0016193644238N11906191WA0071700670005010027193241
B0016203644233N11906192WA0071500668005010024170245
B0016213644229N11906192WA0071300665005010025148250
B0016223644225N11906191WA0071100663005010023146256
B0016233644222N11906189WA0071100662005010019150262
B0016243644220N11906187WA0070900660005010019145265
B0016253644217N11906187WA0070700659005010022193269
B0016263644214N11906190WA0070600657005010027219271
B0016273644211N11906194WA0070600655010019029238270
B0016283644209N11906199WA0070400653010019029258269
B0016293644209N11906205WA0070300650010019030260271
B0016303644207N11906211WA0070100648010019031258276
B0016313644206N11906218WA0070100647010019034259273
B0016323644206N11906225WA0069900645010019036269267
B0016333644205N11906231WA0069700643010019033266259
B0016343644205N11906238WA0069500641005010033252252
B0016353644203N11906244WA0069500639005010034242249
B0016363644200N11906249WA0069300637005010034240253
B0016373644198N11906255WA0069000635005010033234259
B0016383644195N11906260WA0068700633005010030234256
B0016393644192N11906264WA0068700632005010029231254
B0016403644189N11906268WA0068500631005010030230253
B0016413644186N11906273WA0068300630005010031233258
B0016423644184N11906278WA0068100629005010032235260
B0016433644181N11906283WA0067900627005010033234261
B0016443644178N11906288WA0067900626005010033234262
B0016453644175N11906293WA0067800624005010030234264
B0016463644173N11906297WA0067600623005010024230261
B0016473644170N11906300WA0067400622005010018223270
B0016483644169N11906302WA0067400620005010013227297
B0016493644168N11906303WA0067300619005010005236282
B0016503644168N11906304WA0067200617005010001320295
B0016513644168N11906303WA0067200616005010002338289
B0016523644169N11906303WA0067200615005010001025289
B0016533644169N11906303WA0067200614005010001042288
B0016543644169N11906303WA0067200614005010001012282
B0016553644169N11906303WA0067300614005010000023280
B0016563644169N11906303WA0067300614005010001011279
B0016573644169N11906303WA0067300614005010000000278
B0016583644169N11906303WA0067200614005010000000278
B0016593644169N11906303WA0067200614005010000000277
B0017003644169N11906303WA0067200614005010000000276
B0017013644169N11906303WA0067200614005010000000275
B0017023644169N11906303WA0067200614005010001285275
B0017033644169N11906303WA0067200614005010001293275
B0017043644169N11906303WA0067200614005010001338274
B0017053644169N11906303WA0067200614005010001001274
B0017063644169N11906303WA0067200614005010000000274
B0017073644169N11906303WA0067200614005010001027274
B0017083644169N11906303WA0067200614005010001013274
B0017093644169N11906303WA0067200614005010001344274
B0017103644169N11906303WA0067200614005010001007274
B0017113644169N11906303WA0067200613005010001348274
B0017123644169N11906304WA0067200612005010001356274
B0017143644169N11906304WA0067200611005010001013274
B0017153644170N11906304WA0067200611005010001314274
B0017163644170N11906304WA0067200611005010001191273
B0017173644170N11906304WA0067200611005010000000273
B0017183644170N11906304WA0067200611005010001145273
B0017193644170N11906304WA0067200611005010001113273
B0017203644170N11906304WA0067200611005010001115273
B0017213644172N11906305WA0067200610005010001088273
B0017223644173N11906305WA0067200610005010001089273
G0rSw/1hzmlJg+/60LFd7hDzXjxR3HcpHmpLb2Np3Pgj7ZjF9ETAeabITz4Mewyjp
Ga1AqxGbeEkPrp4wdNGlFxWQCdPwkZrUlHLPG837kIXtGoA3yktCc9V3/vMPuMx/s
GM6YvZ1uqaa8OFYXMHjq/DFgs3BW8WlfGYYNe5pkIMto=

