AXFH000
HFDTE260425
HFPLTPILOT:Scott O’Brien
HFGTYGLIDERTYPE:Ozone Swift 6
HFDTM100GPSDATUM:WGS84
HFRFWFIRMWAREVERSION:8.2.6
HFRHWHARDWAREVERSION:iPhone 15
HFFTYFRTYPE:Flyskyhy,8.2.6
HFGPS:Internal
HFPRSVARIO:Internal Vario
HFCCLCOMPETITIONCLASS:Paraglider
HFTZNTIMEZONE:-7
HFSITSITE:Mission Ridge (Fremont- San Jose),US
I053638FXA3941VXA4244GSP4547CCO4850HDT
C260425195608260425000103TASK
C0000000N00000000ETAKEOFF
C3730317N12154316W00000000000100000000360000STARTAREA mission LZ
C3727936N12151061W00000000000200000000360000TURNAREA crosses
C3728301N12153970W00000000002900000000360000TURNAREA valley
C3727689N12151593W00000000000040000000360000TURNAREA Ed 600
C3730317N12154316W00000000000100000000360000FINISHAREA mission LZ
C0000000N00000000ELANDING
E195638PEVBackground
B1956383731052N12153509WA0059000591022003000359345
B1956393731052N12153509WA0059000591022003000359007
B1956403731052N12153509WA0059000590022003000049034
B1956413731052N12153508WA0059000590022003002081060
B1956423731052N12153508WA0059000590022003003081022
B1956433731052N12153507WA0059000589022003003081015
B1956443731052N12153507WA0059000588022003002081037
B1956453731052N12153507WA0058900589022003002081029
B1956463731052N12153508WA0058900589022003002171035
B1956473731051N12153508WA0058900588022003003171044
B1956483731051N12153509WA0058900588022003002171331
B1956493731051N12153509WA0058900588022003002171212
B1956503731050N12153509WA0058900588022003002171224
B1956513731050N12153510WA0058800589022003003171196
B1956523731050N12153510WA0058800588022003000171183
B1956533731051N12153510WA0058800589022003001171193
B1956543731050N12153510WA0058800590022003001171208
B1956553731050N12153511WA0058800590022003002228203
B1956563731050N12153512WA0058900588022003000251206
B1956573731049N12153513WA0058800588022003014253210
B1956583731049N12153516WA0058800587022003013276202
B1956593731050N12153518WA0058800587022003013280214
B1957003731050N12153520WA0058700586022003013274235
B1957013731050N12153522WA0058700588022003014266205
B1957023731050N12153525WA0058700588022003014256227
B1957033731049N12153528WA0058700587022003014259244
B1957043731048N12153530WA0058600585022003014252199
B1957053731046N12153534WA0058600584022003015226226
B1957063731043N12153537WA0058500585022003023228227
B1957073731042N12153541WA0058500587022003023255251
B1957083731043N12153546WA0058500587022003023287285
B1957093731044N12153551WA0058500588022003027298304
B1957103731046N12153555WA0058600590022003027313313
B1957113731049N12153558WA0058600590022003023327326
B1957123731052N12153560WA0058700590022003024336339
B1957133731055N12153563WA0058800588022003024328335
B1957143731059N12153566WA0058800586022003027323340
B1957153731062N12153571WA0058800585022003032307344
B1957163731065N12153575WA0058700585022003032311346
B1957173731069N12153579WA0058700585022003032318350
B1957183731072N12153582WA0058600586022003029320351
B1957193731074N12153585WA0058400586022003024326353
B1957203731077N12153587WA0058400585022003021327353
B1957213731080N12153590WA0058400584004003023327355
B1957223731083N12153593WA0058400583004003029320356
B1957233731086N12153597WA0058400582004003029316356
B1957243731090N12153601WA0058400581004003031317357
B1957253731093N12153604WA0058300582004003031313358
B1957263731096N12153607WA0058200583004003025320358
B1957273731100N12153611WA0058100582004003028324358
B1957283731104N12153614WA0058100581004003028328359
B1957293731108N12153618WA0058100582004003033327359
B1957303731113N12153621WA0058100583004003036329359
B1957313731117N12153623WA0058100586004003031335359
B1957323731121N12153625WA0058100588004003031337359
B1957333731124N12153627WA0058200588004003027335359
B1957343731128N12153629WA0058300589004003027331359
B1957353731131N12153631WA0058400588004003027330359
B1957363731135N12153633WA0058600589004003033335359
B1957373731139N12153636WA0058700591004003033328359
B1957383731141N12153639WA0058800591004003022316359
B1957393731142N12153641WA0058900590004003017295359
B1957403731144N12153644WA0058900588004003017291359
B1957413731146N12153647WA0059000589004003020306359
B1957423731142N12153649WA0059000586004004021201359
B1957433731139N12153650WA0058900583004004021187000
B1957443731135N12153648WA0058900585004003028151000
B1957453731131N12153644WA0058800587004003035134000
B1957463731129N12153639WA0058700586004003035114000
B1957473731127N12153633WA0058600587004003037105000
B1957483731125N12153626WA0058600588004003037102000
B1957493731124N12153618WA0058600588004003039099000
B1957503731124N12153611WA0058600589004003042088000
B1957513731124N12153603WA0058600591004003038091000
B1957523731122N12153596WA0058600592004003039100000
B1957533731119N12153590WA0058700590004003039130000
B1957543731116N12153584WA0058800591004003039132000
B1957553731113N12153579WA0058900594004003038128000
B1957563731110N12153575WA0058900594004003025133000
B1957573731107N12153574WA0059000596004003025159000
B1957593731104N12153572WA0059100597004003021169000
B1958003731101N12153571WA0059200598004003020166000
B1958013731098N12153570WA0059200599004003019158000
B1958023731096N12153570WA0059400599004003019176359
B1958033731093N12153570WA0059500599004003018206359
B1958043731091N12153572WA0059700600004003018224359
B1958053731089N12153574WA0059700601004003021221359
B1958063731088N12153578WA0059900602004003020244359
B1958073731088N12153581WA0060000601004004020260359
B1958083731093N12153584WA0060200604004003020324359
B1958093731094N12153588WA0060200605004003023305359
B1958103731097N12153591WA0060300607004003024313359
B1958113731099N12153595WA0060500607004003025317359
B1958123731102N12153598WA0060600607004003026318359
B1958133731105N12153601WA0060600607004003026323359
B1958143731109N12153604WA0060700607004003027330359
B1958153731113N12153606WA0060700609004003029329359
B1958163731116N12153609WA0060800610004003018312359
B1958173731117N12153612WA0060800611004003018275359
B1958183731118N12153614WA0060900611004003012294359
B1958193731120N12153616WA0060900609004003012314359
B1958203731122N12153619WA0061000609004003019322359
B1958213731126N12153621WA0061000610004003029337359
B1958223731129N12153623WA0061000609004003029337359
B1958233731131N12153624WA0061000610004003023344359
B1958243731134N12153625WA0061000608004003016329359
B1958253731136N12153627WA0061000607004003016329359
B1958263731140N12153630WA0060900603004003030321359
B1958273731143N12153633WA0060800601004003030319359
B1958283731148N12153635WA0060700601004003030348359
B1958293731151N12153636WA0060700599004003025349359
B1958303731155N12153637WA0060500599004003025344359
B1958313731159N12153638WA0060300597004003026342359
B1958323731163N12153640WA0060100593004004029338359
B1958333731167N12153643WA0060100592004003029334359
B1958343731170N12153644WA0059800592004003029336359
B1958353731174N12153646WA0059600590004003024330359
B1958363731177N12153649WA0059400589004003026324359
B1958373731181N12153652WA0059400587004003029325359
B1958383731184N12153654WA0059100586004003029328359
B1958393731187N12153658WA0058900584004003029326359
B1958403731191N12153660WA0058700583004003029328359
B1958413731195N12153664WA0058700583004003031330359
B1958423731200N12153666WA0058500585004003031335359
B1958433731203N12153668WA0058300585004003030341359
B1958443731207N12153670WA0058200585004003026335359
B1958453731210N12153672WA0058200584004003026329359
B1958463731218N12153678WA0058200584004003037329359
B1958473731223N12153681WA0058200584004003034337359
B1958483731227N12153683WA0058200585004003034338359
B1958493731231N12153685WA0058300585004003027334359
B1958503731235N12153687WA0058300586004003031334359
B1958513731239N12153690WA0058300585004003034332359
B1958523731243N12153693WA0058300586004003033333359
B1958533731248N12153694WA0058300588004003033347359
B1958543731252N12153697WA0058300589004003033342359
B1958553731257N12153699WA0058300589004003031332359
B1958563731261N12153702WA0058300588004003031330359
B1958573731265N12153706WA0058400589004003031324359
B1958583731268N12153709WA0058500589004003031319359
B1958593731272N12153712WA0058600590004003030320359
B1959003731275N12153715WA0058600592004003027332359
B1959013731279N12153717WA0058700593004003028343359
B1959023731283N12153719WA0058800592004003028344359
B1959033731287N12153721WA0059000590004003028341359
B1959043731292N12153724WA0059000588004003029336359
B1959053731298N12153727WA0059000592004003045338359
B1959063731304N12153728WA0059100596004003045343359
B1959073731308N12153730WA0059100602004003037343359
B1959083731313N12153732WA0059100605004003030337359
B1959093731317N12153735WA0059200608004003030331359
B1959103731321N12153737WA0059500611004003029337359
B1959113731326N12153738WA0059800614004003031344359
B1959123731330N12153740WA0059800616004003029341359
B1959133731333N12153742WA0060200618004003024333359
B1959143731335N12153745WA0060700615004003022302359
B1959153731337N12153749WA0061100614004003027298359
B1959163731338N12153754WA0061100614004003027272359
B1959173731336N12153757WA0061400614004003025233359
B1959183731334N12153760WA0061500613004003023221359
B1959193731332N12153760WA0061500612004003020180359
B1959203731329N12153758WA0061500612004003023154359
B1959213731326N12153757WA0061500611004003023147000
B1959223731323N12153754WA0061400611004003023151000
B1959233731320N12153752WA0061400610004003025145000
B1959243731316N12153748WA0061400610004003029141000
B1959253731313N12153743WA0061300614004003036126000
B1959263731310N12153740WA0061300615004003036133000
B1959273731306N12153737WA0061300616004003027146000
B1959283731304N12153734WA0061300616004003023159000
B1959293731300N12153733WA0061300616004003023171000
B1959303731297N12153732WA0061400616004003022167359
B1959313731293N12153733WA0061500616004003025196359
B1959323731290N12153735WA0061500616004003022202359
B1959333731288N12153736WA0061600617004003021202359
B1959343731286N12153737WA0061600619004004016200359
B1959353731284N12153736WA0061700620004003015168000
B1959363731281N12153735WA0061700621004003019163000
B1959373731279N12153733WA0061800621004003019141000
B1959383731276N12153728WA0061900621004003024119000
B1959393731274N12153723WA0062000622004003033113000
B1959403731274N12153716WA0062000619004004032098000
B1959413731285N12153705WA0062100621004003084037000
B1959423731290N12153700WA0062200621004003056037352
B1959433731296N12153694WA0062300622004004056034344
B1959443731306N12153693WA0062300624006006056018342
B1959453731304N12153704WA0062300622004004040270342
B1959463731306N12153707WA0062400624004003040289344
B1959473731307N12153711WA0062400625004003018302346
B1959483731309N12153715WA0062500625004003018298349
B1959493731311N12153719WA0062500625004003018293350
B1959503731311N12153723WA0062600626004003022260352
B1959513731310N12153727WA0062700626004003022247352
B1959523731309N12153728WA0062800627004003017219353
B1959533731308N12153729WA0062800625004003011196354
B1959543731307N12153729WA0062800622004003011181355
B1959553731304N12153729WA0062800619004003020182356
B1959563731301N12153730WA0062700617004003024174357
B1959573731297N12153728WA0062700615004003023163357
B1959583731294N12153729WA0062500613004003023186357
B1959593731290N12153730WA0062300612004004022188358
B2000003731287N12153730WA0062300608004006022184358
B2000013731285N12153731WA0062100609004004022191358
B2000023731282N12153732WA0061900611004004020191359
B2000033731279N12153733WA0061600610004004020182359
B2000053731276N12153732WA0061600609004003025163000
B2000063731273N12153730WA0061500607004003025155000
B2000073731270N12153728WA0061300604004003023150000
B2000083731267N12153725WA0061100603004003023141000
B2000093731263N12153722WA0061100602004003029138000
B2000103731260N12153718WA0060900600004003031126000
B2000113731257N12153714WA0060700597004003031129000
B2000123731255N12153710WA0060500595004003029130000
B2000133731252N12153707WA0060500591004003028150000
B2000143731248N12153704WA0060200589004003028157000
B2000153731243N12153702WA0060000587004003031148000
B2000163731240N12153697WA0059700588004003033130359
B2000173731237N12153694WA0059400588004003031131000
B2000183731234N12153691WA0059400588004003028155000
B2000193731230N12153689WA0059200588004003026165359
B2000203731227N12153687WA0059100589004003025162359
B2000213731224N12153686WA0059000591004003025160359
B2000223731221N12153686WA0059000590004003022176359
B2000233731220N12153688WA0059000590004003017241359
B2000243731218N12153689WA0059100591004003017218359
B2000253731216N12153690WA0059100593004003014208359
B2000263731213N12153692WA0059100594004003018198359
B2000273731211N12153693WA0059100595004003014213359
B2000283731209N12153695WA0059100594004003015208359
B2000293731207N12153696WA0059200595004003015201359
B2000303731203N12153698WA0059200596004003027200359
B2000313731199N12153699WA0059200596004003030199359
B2000323731196N12153701WA0059300597004003027206359
B2000333731193N12153704WA0059300596004003027215359
B2000343731189N12153706WA0059300596004003024206359
B2000353731184N12153710WA0059400594004003019192359
B2000363731181N12153711WA0059400592004003019188359
B2000373731178N12153712WA0059400590004003022184359
B2000383731174N12153712WA0059400589004003026178359
B2000393731170N12153711WA0059300589004003025166000
B2000403731167N12153708WA0059200588004003025143000
B2000413731164N12153705WA0059200587004003025136000
B2000423731162N12153701WA0059100584004003025125000
B2000433731160N12153695WA0058900580004003031115000
B2000443731158N12153688WA0058700576004003039110000
B2000453731156N12153682WA0058700575004003039110000
B2000463731153N12153675WA0058500575004003039118000
B2000473731151N12153668WA0058200575004003040115000
B2000483731149N12153661WA0058000575004003040111000
B2000493731147N12153655WA0058000577004003034100000
B2000503731145N12153648WA0057800578004003035111000
B2000513731143N12153642WA0057700580004003035112000
B2000523731139N12153635WA0057700582004003037127000
B2000533731136N12153629WA0057700584004003044125000
B2000543731132N12153623WA0057800587004003036130000
B2000553731130N12153618WA0058000588004003036125000
B2000563731128N12153615WA0058200589004003026125000
B2000573731125N12153611WA0058200591004003024133000
B2000583731120N12153608WA0058500590004003024145000
B2000593731116N12153605WA0058700592004003033154359
B2001003731111N12153606WA0058800593004003033173359
B2001013731108N12153605WA0058800596004003033179359
B2001023731105N12153605WA0059000598004003021172359
B2001033731103N12153604WA0059100599004004019150359
B2001043731099N12153603WA0059300597004004022177359
B2001053731095N12153604WA0059300594004004026186359
B2001063731090N12153603WA0059400593004003026175359
B2001073731085N12153602WA0059500592004003036170000
B2001083731081N12153600WA0059600591004003036158000
B2001093731077N12153597WA0059600587004003031155000
B2001103731072N12153595WA0059600583004004031157359
B2001113731067N12153595WA0059400582004003031172359
B2001123731063N12153594WA0059200582004003031171359
B2001133731058N12153599WA0059200578004004035206359
B2001143731057N12153604WA0058900578004003031258359
B2001153731056N12153609WA0058700577004003031275359
B2001163731057N12153613WA0058500578004003027295359
B2001173731058N12153617WA0058500577004003024296359
B2001183731060N12153622WA0058200578004004024303359
B2001193731063N12153624WA0058100580022003022328359
B2001203731066N12153626WA0058000583022003023330359
B2001213731068N12153629WA0058000587022003022332359
B2001223731070N12153630WA0058000590022003019335359
B2001233731072N12153631WA0058000592022003017326359
B2001243731074N12153633WA0058200595022003013324359
B2001253731077N12153634WA0058200596022003016339359
B2001263731079N12153635WA0058500598022004016332359
B2001273731083N12153637WA0058800594004004018346359
B2001283731085N12153639WA0059000596004004021312359
B2001293731085N12153643WA0059000596004003023261359
B2001303731085N12153648WA0059300595004004023267359
B2001313731084N12153651WA0059400594005006023250000
B2001323731077N12153644WA0059400586004006023151000
B2001333731070N12153630WA0059400589004003027113000
B2001343731067N12153623WA0059400590004004044117000
B2001353731068N12153613WA0059300589004004050103001
B2001363731074N12153607WA0059200592004003050063357
B2001373731076N12153601WA0059200592004004050060346
B2001383731080N12153594WA0059200594005006041058343
B2001393731083N12153605WA0059200598004004032303346
B2001403731086N12153606WA0059300600004003032346349
B2001413731090N12153607WA0059300603004004022344353
B2001423731093N12153607WA0059400600004003022001354
B2001433731097N12153608WA0059500599004003024343356
B2001443731101N12153610WA0059600600004003026339356
B2001453731105N12153611WA0059600600004003026344356
B2001463731108N12153611WA0059700600004003022354357
B2001473731111N12153612WA0059700600004003022349358
B2001483731115N12153614WA0059700597004003022342358
B2001493731119N12153616WA0059700595004003029332358
B2001503731122N12153618WA0059700592004003029331358
B2001513731126N12153620WA0059700591004003028335359
B2001523731129N12153621WA0059600589004003026336358
B2001533731131N12153624WA0059600588004003021318359
B2001543731134N12153626WA0059500584004003025323359
B2001553731137N12153630WA0059300581004003028318359
B2001563731141N12153633WA0059000580004003027318359
B2001573731143N12153636WA0059000580004003027320359
B2001583731146N12153639WA0058700580004003024320359
B2001593731149N12153643WA0058500581004003025317359
B2002003731152N12153646WA0058300582004003025318359
B2002013731154N12153648WA0058300582004003024320359
B2002023731156N12153650WA0058100582004003018325359
B2002033731159N12153652WA0058000582004003018325359
B2002043731161N12153655WA0058000581004003024324359
B2002053731164N12153657WA0058000582004003024323359
B2002063731167N12153659WA0058000583004003021330359
B2002073731169N12153661WA0058100583004003021326359
B2002083731171N12153663WA0058100584004003018323359
B2002093731173N12153664WA0058100586004003016331359
B2002113731176N12153666WA0058200588004003021338359
B2002123731179N12153667WA0058200590004003020348359
B2002133731182N12153667WA0058400592004003020358359
B2002143731184N12153668WA0058400593004003018356359
B2002153731187N12153668WA0058500592004003018349359
B2002163731190N12153669WA0058700591004003018343359
B2002173731192N12153671WA0058900589004003021332359
B2002183731194N12153673WA0058900589004003020308359
B2002193731196N12153676WA0059000589004003020293359
B2002203731197N12153679WA0059000589004003018293359
B2002213731197N12153682WA0059000588004003015272359
B2002223731198N12153685WA0059000588004003015279359
B2002233731198N12153688WA0059000587004003020275359
B2002243731199N12153692WA0058900587004003022275359
B2002253731199N12153696WA0058800588004003022280359
B2002263731200N12153699WA0058800588004003022284359
B2002273731201N12153702WA0058700589004003018294359
B2002283731202N12153705WA0058700588004003015300359
B2002293731204N12153707WA0058700588004003018320359
B2002303731208N12153713WA0058700588004003020317359
B2002313731210N12153715WA0058700587004003022320359
B2002323731213N12153718WA0058700586004003023327359
B2002333731216N12153720WA0058700587004003023324359
B2002343731219N12153723WA0058700587004004022319359
B2002353731221N12153726WA0058700587004004022318359
B2002363731225N12153728WA0058600586004004026328359
B2002373731229N12153730WA0058600587004003032344359
B2002383731234N12153731WA0058500587004003034003357
B2002393731238N12153730WA0058500587004003032005357
B2002403731243N12153727WA0058400587004003034030002
B2002413731248N12153724WA0058400586004003036027001
B2002423731252N12153720WA0058400585004003036033001
B2002433731257N12153717WA0058400584004003036030356
B2002443731262N12153715WA0058300582004004036025349
B2002453731267N12153713WA0058300583004003036017341
B2002463731272N12153711WA0058300582004003036011337
B2002473731276N12153710WA0058200583004003032002332
B2002483731281N12153710WA0058100582004003032353334
B2002493731286N12153711WA0058100582004003030345337
B2002503731290N12153712WA0058100581004003028346339
B2002513731294N12153714WA0058100580004003028342342
B2002523731298N12153715WA0058000579004003030340344
B2002533731302N12153718WA0058000578004003030325345
B2002543731306N12153721WA0058000578004003030324347
B2002553731309N12153724WA0057900577004003027328348
B2002563731313N12153726WA0057900577004003025333352
B2002573731316N12153729WA0057900577004003027330354
B2002583731320N12153732WA0057800575004003030325354
B2002593731324N12153735WA0057800575004003030327355
B2003003731328N12153738WA0057700574004003031327356
B2003013731331N12153741WA0057700574004003031324357
B2003023731334N12153744WA0057700574004003025325357
B2003033731338N12153746WA0057700573004003025325357
B2003043731341N12153749WA0057600571004003025323358
B2003053731345N12153753WA0057600571004003030326358
B2003063731349N12153756WA0057500570004003031331358
B2003073731353N12153758WA0057400571004003030331359
B2003083731357N12153761WA0057300570004003030330359
B2003093731360N12153764WA0057300570004003028325359
B2003103731365N12153767WA0057200569004003028330359
B2003113731368N12153770WA0057100568004003030329359
B2003123731372N12153773WA0057100569004003029334359
B2003133731376N12153775WA0057100568004003029336359
B2003143731380N12153777WA0057000568004003029333359
B2003153731384N12153780WA0057000566004003030328359
B2003163731388N12153783WA0056900564004003033327359
B2003173731392N12153786WA0056900563004003032328359
B2003183731396N12153790WA0056900563004003032323359
B2003193731400N12153794WA0056800562004003032321359
B2003203731405N12153798WA0056700564004003036323359
B2003213731408N12153801WA0056700565004003036331359
B2003223731412N12153805WA0056600569004003030325359
B2003233731416N12153807WA0056500571004003030330359
B2003243731419N12153809WA0056500574004003026330359
B2003253731422N12153811WA0056500573004003023339359
B2003263731426N12153813WA0056600572004003023341359
B2003273731429N12153815WA0056800572004003029333359
B2003283731433N12153818WA0057000571004003029329359
B2003293731436N12153821WA0057000571004003029316359
B2003303731438N12153825WA0057100571004003028316359
B2003313731442N12153827WA0057200571004003027327359
B2003323731446N12153830WA0057200570004003032325359
B2003333731449N12153834WA0057200569004003034319359
B2003343731453N12153837WA0057100570004003032319359
B2003353731457N12153841WA0057000570004003032325359
B2003363731461N12153843WA0057000568004003030331359
B2003373731464N12153846WA0057000567004003029332359
B2003383731468N12153849WA0056900565004003032324359
B2003393731472N12153853WA0056800563004003032316359
B2003403731475N12153858WA0056700561004003034312359
B2003413731478N12153862WA0056700561004003034315359
B2003423731482N12153866WA0056600561004003028315359
B2003433731484N12153870WA0056400562004003028308359
B2003443731486N12153875WA0056300561004003027300359
B2003453731487N12153880WA0056300559004003027273359
B2003463731488N12153886WA0056100559004003028270359
B2003473731488N12153891WA0056000557004003030272359
B2003483731489N12153897WA0055900560004003030277359
B2003493731490N12153902WA0055900562004003030290359
B2003503731491N12153907WA0055900563004003025276359
B2003513731491N12153911WA0055900563004003023272359
B2003523731489N12153915WA0055900563004003023242359
B2003533731488N12153919WA0055900562004003023228359
B2003543731485N12153920WA0056000562004003023192359
B2003553731482N12153921WA0056100560004004022186000
B2003563731479N12153920WA0056100558004004022177359
B2003573731476N12153920WA0056100557004003021174000
B2003583731473N12153919WA0056100555004003022168000
B2003593731469N12153917WA0056000554004004022157000
B2004003731466N12153913WA0055900551004003024138000
B2004013731463N12153909WA0055900550004003031129000
B2004023731461N12153904WA0055700549004003036110000
B2004033731460N12153898WA0055600549004003036099000
B2004043731459N12153891WA0055400547004003033091000
B2004053731459N12153885WA0055400547004003033091000
B2004063731460N12153879WA0055300545004004034081000
B2004073731463N12153873WA0055100546004004041066001
B2004083731466N12153866WA0055000544004004041062002
B2004093731473N12153862WA0055000543004006041038357
B2004103731480N12153861WA0054900541004006045021347
B2004113731486N12153860WA0054700543004004045004343
B2004123731491N12153861WA0054600542004003033342345
B2004133731495N12153863WA0054600541004003033343346
B2004143731500N12153864WA0054400538004003032346349
B2004153731506N12153868WA0054300536004003032335349
B2004173731511N12153873WA0054100536004004042329348
B2004183731515N12153878WA0054100535004003042316349
B2004193731517N12153883WA0054000533004003038309349
B2004203731519N12153888WA0053800533004003033285350
B2004213731520N12153893WA0053700533004003028280351
B2004223731521N12153898WA0053700533004004026276352
B2004233731521N12153903WA0053500534004004026270353
B2004243731521N12153905WA0053500533004004021269354
B2004253731522N12153909WA0053400532004004020281355
B2004263731521N12153912WA0053400531004004016249355
B2004273731519N12153914WA0053400528004004019211356
B2004283731516N12153915WA0053400526004004024185356
B2004293731513N12153914WA0053300523004004024166002
B2004303731509N12153912WA0053300521004003028153001
B2004313731505N12153910WA0053100519004004029157001
B2004323731501N12153908WA0052900519004003028159001
B2004333731498N12153907WA0052600517004004029160001
B2004343731493N12153904WA0052600516004006029163000
B2004353731490N12153900WA0052400517004006030151000
B2004363731486N12153897WA0052200518004006033148000
B2004373731482N12153896WA0052100516004004030162000
B2004383731478N12153894WA0052100515004004030157000
B2004393731473N12153892WA0052000515004003029161000
B2004403731469N12153890WA0051900514004003029166000
B2004413731465N12153890WA0051800514004004029170000
B2004423731461N12153889WA0051800515004003025162000
B2004433731459N12153887WA0051700518004003025140000
B2004443731457N12153885WA0051600518004003019129000
B2004453731453N12153881WA0051600516004003016157000
B2004463731451N12153879WA0051600515004003015153000
B2004473731446N12153877WA0051600514004003031157000
B2004483731443N12153874WA0051600514004003026143000
B2004493731440N12153871WA0051600511004003026133000
B2004503731437N12153868WA0051600509004003023137000
B2004513731434N12153866WA0051500506004003025156000
B2004523731430N12153864WA0051300505004003035159000
B2004533731425N12153863WA0051300507004003034163000
B2004543731422N12153860WA0051200510004003034144000
B2004553731419N12153858WA0051000513004003027142000
B2004563731416N12153856WA0050900514004003018141000
B2004573731414N12153853WA0050900516004003021133000
B2004583731411N12153850WA0050900518005006021142000
B2004593731405N12153850WA0051000516004003022171000
B2005003731401N12153849WA0051200518004003027177000
B2005013731399N12153848WA0051200519004003017161000
B2005023731396N12153847WA0051300521004003020165000
B2005033731393N12153844WA0051500520004003020135000
B2005043731390N12153840WA0051700518004003024139000
B2005053731387N12153837WA0051700517004003027133000
B2005063731385N12153833WA0051700515004003025133000
B2005073731382N12153831WA0051700515004003025141000
B2005083731379N12153829WA0051700513004003025155000
B2005093731376N12153827WA0051600511004003025154000
B2005103731372N12153825WA0051600507004003025163000
B2005113731369N12153824WA0051500507004003026159000
B2005123731364N12153823WA0051200506004003030169000
B2005133731359N12153822WA0051000504004003030171000
B2005143731355N12153821WA0051000505004003032170000
B2005153731350N12153820WA0050700502004003032166000
B2005163731347N12153819WA0050400501004003025172000
B2005173731342N12153818WA0050200500004003028181000
B2005183731337N12153819WA0050200499004004028184000
B2005193731333N12153819WA0050000497004003031177000
B2005203731328N12153818WA0049800495004003032168000
B2005213731324N12153818WA0049700494004003025170000
B2005223731320N12153818WA0049700490004003025192359
B2005233731316N12153819WA0049600488004003025194359
B2005243731312N12153820WA0049400485004003029196359
B2005253731308N12153823WA0049200486004003029210359
B2005263731305N12153826WA0049200486004003027217359
B2005273731303N12153829WA0048900485004004027231359
B2005283731300N12153833WA0048700483004003027235359
B2005293731297N12153837WA0048500479004003028231359
B2005303731294N12153841WA0048500477004003030226359
B2005313731290N12153845WA0048300475004004037221359
B2005323731284N12153848WA0048100474004004037209359
B2005333731281N12153851WA0047900474004004037212359
B2005343731278N12153856WA0047900474004003030230359
B2005353731275N12153860WA0047700474004003030226359
B2005363731273N12153863WA0047500474004004021219359
B2005373731267N12153867WA0047300475004003037215359
B2005383731264N12153869WA0047300478004003025195359
B2005393731260N12153870WA0047300479004003025190359
B2005403731257N12153871WA0047300481004003020194359
B2005413731255N12153873WA0047400484004003021215359
B2005423731252N12153876WA0047400485004004023215359
B2005433731249N12153879WA0047600487022004023219359
B2005443731246N12153883WA0047800488022004027226359
B2005453731244N12153886WA0048100488022004027236359
B2005463731242N12153889WA0048100492022004017243359
B2005473731241N12153892WA0048300491022003017258359
B2005483731240N12153894WA0048600492022004014240359
B2005493731239N12153896WA0048800489022003013218359
B2005503731236N12153897WA0048800488022003013194359
B2005513731232N12153897WA0048900485022003029181000
B2005523731229N12153895WA0049000484022003029165000
B2005533731225N12153894WA0049000482022004029164000
B2005543731221N12153892WA0049000479022004026162000
B2005553731218N12153892WA0049000477022004026169359
B2005563731213N12153891WA0048800473022003028172359
B2005573731210N12153891WA0048500471022003028173359
B2005583731205N12153890WA0048500469022003028170000
B2005593731201N12153889WA0048200467022003027166359
B2006003731198N12153888WA0047900464022003027166359
B2006013731194N12153888WA0047500461022003027183359
B2006023731189N12153889WA0047500458022003032194359
B2006033731184N12153891WA0047200455022003032197359
B2006043731180N12153892WA0046900453022003035189359
B2006053731175N12153893WA0046500453022003035183359
B2006063731171N12153893WA0046500452022003026188359
B2006073731167N12153895WA0046200450022003027202359
B2006083731164N12153898WA0045900446022003027229359
B2006093731161N12153901WA0045600444022003030218359
B2006103731157N12153904WA0045600445022004031215359
B2006113731153N12153907WA0045300443022004028210359
B2006123731151N12153909WA0045100442022003028209359
B2006133731148N12153912WA0044900440022003022219359
B2006143731144N12153914WA0044900439022003022207359
B2006153731141N12153918WA0044700437022004031219359
B2006163731138N12153923WA0044500437022003033223359
B2006173731135N12153926WA0044200436022003033221359
B2006183731132N12153929WA0044200435022003023221359
B2006193731130N12153932WA0044000433022003018226359
B2006203731126N12153934WA0043800430022003018208359
B2006213731122N12153938WA0043600428022003039210359
B2006233731117N12153941WA0043600430022003039198359
B2006243731113N12153941WA0043300431022003035180359
B2006253731109N12153941WA0043200432022003028176000
B2006263731105N12153940WA0043100435022003025170000
B2006273731102N12153938WA0043100439022003025153000
B2006283731099N12153935WA0043100440022003023145000
B2006293731096N12153933WA0043200441022003023142000
B2006303731093N12153931WA0043500441022003025151000
B2006313731089N12153929WA0043500440022003031161000
B2006323731084N12153928WA0043700439022003033169000
B2006333731079N12153926WA0043900438022003033166000
B2006343731075N12153926WA0044100439022003033183359
B2006353731071N12153928WA0044100437022003029207359
B2006363731069N12153931WA0044200435022003027245359
B2006373731068N12153936WA0044200432022003029272359
B2006383731069N12153941WA0044100431004003028296359
B2006393731071N12153944WA0044100429004003028314359
B2006403731073N12153946WA0043900427004003023334359
B2006413731076N12153947WA0043700424004003024346358
B2006423731080N12153949WA0043500422004003027349359
B2006433731086N12153947WA0043500420004003027016002
B2006443731091N12153944WA0043200417004003039035011
B2006453731095N12153939WA0042800416004003042049020
B2006463731099N12153933WA0042500416004003042058022
B2006473731101N12153927WA0042500416004003042071019
B2006483731102N12153919WA0042200415004003040090019
B2006493731099N12153904WA0041800416004003046113020
B2006503731097N12153898WA0041800417004003035124020
B2006513731094N12153893WA0041700418004003035132018
B2006523731091N12153890WA0041700419004003027130017
B2006533731088N12153887WA0041700418004004027151345
B2006543731082N12153886WA0041700417004003027178348
B2006553731078N12153885WA0041700416004003027176351
B2006563731075N12153886WA0041700416004003027192352
B2006573731074N12153887WA0041700413004003020209354
B2006583731072N12153887WA0041700409004003013206355
B2006593731071N12153888WA0041700407004003013210356
B2007003731068N12153891WA0041500407004004022223357
B2007013731065N12153895WA0041300405004004032222357
B2007023731062N12153899WA0041300406004003023221358
B2007033731059N12153902WA0041100406004004023221358
B2007043731057N12153904WA0040800406005006023219358
B2007053731053N12153905WA0040600407004006025201358
B2007063731050N12153907WA0040600403014006025199359
B2007073731046N12153908WA0040400399014008022197359
B2007083731042N12153914WA0040200404005006022209359
B2007093731039N12153916WA0040100404004006022196359
E200710PEVForeground
E200710PEVVario Device removed
B2007103731035N12153917WA0040100404004006027193359
B2007113731033N12153919WA0040000400004006027207200
B2007123731029N12153921WA0039900396004006021196207
B2007133731025N12153921WA0039800390005006021185201
B2007143731020N12153925WA0039800393004004023194197
B2007153731015N12153926WA0039600393004004030185197
B2007163731011N12153927WA0039500392004004030187197
B2007173731006N12153928WA0039400390004004030191197
B2007183731002N12153929WA0039400390004004030194192
B2007193730997N12153931WA0039300390004003031187190
B2007203730992N12153931WA0039100390004003035181179
B2007213730986N12153933WA0039000390004004039189174
B2007223730981N12153931WA0039000391004003035159177
B2007233730978N12153929WA0038900392004003032159167
B2007243730973N12153927WA0038900392004003028160168
B2007253730969N12153925WA0038900392004003031159164
B2007263730964N12153923WA0038900391004003037157163
B2007273730959N12153920WA0038900391004004037158159
B2007283730954N12153917WA0038900390004003037153163
B2007293730949N12153914WA0038900388004003037154162
B2007303730945N12153912WA0038900388004003033155161
B2007313730940N12153909WA0038900388004003034157162
B2007323730935N12153907WA0038800387004003034160162
B2007333730930N12153904WA0038700386004003037159160
B2007343730925N12153902WA0038700386004003037157160
B2007353730921N12153899WA0038700386004003035156165
B2007363730916N12153897WA0038600386004003035159167
B2007373730911N12153894WA0038500385004003035161165
B2007383730905N12153892WA0038500385004003035165162
B2007393730899N12153891WA0038500386004003038167166
B2007403730894N12153889WA0038400387004003035164168
B2007413730890N12153887WA0038400389004003035159155
B2007423730886N12153885WA0038400390004003030156156
B2007433730881N12153882WA0038400390004003030149161
B2007443730877N12153878WA0038500389004003034139148
B2007453730872N12153873WA0038600389004003041140136
B2007463730869N12153868WA0038600389004003041133130
B2007473730865N12153863WA0038700390004003041130139
B2007483730862N12153858WA0038800390004003036131128
B2007493730858N12153855WA0038800391004003033138162
B2007503730854N12153852WA0038800390004003031147151
B2007513730849N12153850WA0038800391004003032166154
B2007523730845N12153849WA0038800391004003032168152
B2007533730840N12153847WA0038900393004003032163165
B2007543730835N12153845WA0038900393004003032156158
B2007553730832N12153843WA0038900394004003030152157
B2007563730828N12153840WA0038900393004003030151164
B2007573730823N12153837WA0039000392004003030153162
B2007583730819N12153835WA0039000393004004031156156
B2007593730815N12153832WA0039000392004003031155155
B2008003730810N12153830WA0039000391004004032157151
B2008013730806N12153826WA0039000391004004032152153
B2008023730802N12153824WA0039000389004003032152143
B2008033730797N12153821WA0039000390004003034156144
B2008043730793N12153819WA0038900390004003034152143
B2008053730790N12153815WA0038900390004003028139137
B2008063730786N12153812WA0038900390004003029149148
B2008073730783N12153808WA0038900390004003029147142
B2008083730779N12153805WA0038900390004003029149145
B2008093730775N12153803WA0038900390004003030157144
B2008103730772N12153799WA0038900390004003029147146
B2008113730768N12153796WA0038900389004003029137148
B2008123730765N12153793WA0039000388004003029139155
B2008133730762N12153789WA0039000387004003028138158
B2008143730759N12153787WA0039000386004003027146163
B2008153730755N12153785WA0039000385004003025155165
B2008163730752N12153782WA0038900384004003025152173
B2008173730749N12153780WA0038800383004003025152176
B2008183730744N12153779WA0038800382004003025159175
B2008193730740N12153777WA0038700382004003028167190
B2008203730737N12153776WA0038600380004003026169185
B2008213730733N12153777WA0038400380004003026185182
B2008223730730N12153776WA0038400379004003021176198
B2008233730727N12153775WA0038300377004003021172191
B2008243730724N12153775WA0038100374004003020177196
B2008253730720N12153776WA0038000371004003025193193
B2008263730717N12153776WA0038000369004003026196198
B2008273730713N12153777WA0037800368004003025192194
B2008283730709N12153779WA0037500367004003025188194
B2008293730706N12153779WA0037300365004003023185199
B2008303730703N12153780WA0037300363004003023191195
B2008313730699N12153782WA0037000360004003023208201
B2008323730696N12153784WA0036800358004003025208205
B2008333730692N12153786WA0036500357004003028205200
B2008343730688N12153788WA0036500355004003028200197
B2008353730685N12153790WA0036300354004003028197200
B2008363730682N12153792WA0036000353004003025213205
B2008373730679N12153795WA0035800351004003023215207
B2008383730675N12153797WA0035800349004003027209211
B2008393730671N12153800WA0035600347004003027199197
B2008403730667N12153802WA0035400347004003033205200
B2008413730662N12153805WA0035200347004003031209198
B2008423730658N12153807WA0035200348004003031204206
B2008433730654N12153809WA0035100349004003028191202
B2008443730650N12153809WA0034900350004003027185198
B2008453730647N12153810WA0034800352004003027187191
B2008463730644N12153811WA0034800355004003020187202
B2008473730641N12153811WA0034800356004003021182186
B2008483730637N12153811WA0035000357004003021179182
B2008493730633N12153810WA0035100359004003024165163
B2008503730630N12153808WA0035100359004003026150138
B2008513730626N12153804WA0035400362004003038145123
B2008523730624N12153797WA0035600361004003044119096
B2008533730624N12153788WA0035800361004003044080083
B2008543730625N12153780WA0035800361004003044082058
B2008553730630N12153775WA0035900361004003045034053
B2008563730634N12153770WA0036000361004003036040018
B2008573730640N12153767WA0036100361004004043027018
B2008583730646N12153766WA0036100360005006042014007
B2008593730648N12153773WA0036100361004006042318355
B2009003730648N12153780WA0036100358004004031298305
B2009013730648N12153785WA0036100358004004027258286
B2009023730647N12153790WA0036100360004003027259253
B2009033730646N12153795WA0036000362004003025245250
B2009043730645N12153796WA0035900364004003021239243
B2009053730645N12153798WA0035900364004003009259245
B2009063730645N12153800WA0035900364004003006267249
B2009073730645N12153802WA0036000362004003014253243
B2009083730643N12153805WA0036100360004003014231230
B2009093730641N12153808WA0036100360004003022226229
B2009103730639N12153811WA0036100360004003022228231
B2009113730637N12153813WA0036100359004003015222234
B2009123730636N12153816WA0036100358004004015242244
B2009133730635N12153818WA0036100357004003015250233
B2009143730633N12153820WA0036100356004004015230235
B2009153730631N12153823WA0036000354004004019223218
B2009163730627N12153825WA0035900354004003030206204
B2009173730624N12153826WA0035800353004003030187210
B2009183730621N12153827WA0035800355004003023183202
B2009193730618N12153828WA0035600354004004020194208
B2009203730614N12153829WA0035500353004004020192219
B2009213730611N12153833WA0035300350004004032209213
B2009223730607N12153834WA0035300349004004032204209
B2009233730604N12153836WA0035100351004004027196215
B2009243730600N12153837WA0035000347004004023202218
B2009253730598N12153839WA0034800344004003023216222
B2009263730595N12153842WA0034800342004003023207224
B2009273730592N12153846WA0034700340004004029221220
B2009283730587N12153849WA0034400338004004029211217
B2009293730584N12153852WA0034200338004003029208221
B2009303730581N12153854WA0034200334004004026213230
B2009313730578N12153857WA0034000330004004024213238
B2009323730575N12153861WA0033800325004004030221241
B2009333730572N12153866WA0033500322004004030237246
B2009343730569N12153871WA0033500320004003035243243
B2009353730567N12153876WA0033100316004004035238247
B2009363730566N12153881WA0032800318004003028247254
B2009373730563N12153885WA0032500315004003028242247
B2009383730562N12153890WA0032500314004004027248249
B2009393730561N12153895WA0032100314004004027252256
B2009403730560N12153902WA0031900313004003029260257
B2009413730558N12153909WA0031600314004003040249249
B2009423730556N12153915WA0031600317004003040242228
B2009433730553N12153918WA0031400322004003034227266
B2009443730552N12153920WA0031400323004003023230259
B2009453730550N12153922WA0031400326004003014228264
B2009463730553N12153925WA0031400320004003024311271
B2009473730553N12153928WA0031500318004003024308296
B2009483730555N12153930WA0031700317004003023320303
B2009493730558N12153931WA0031800317004003021352320
B2009503730561N12153931WA0031800316004003021016340
B2009513730564N12153929WA0031800314004003027031352
B2009523730567N12153926WA0031800312004003027034012
B2009533730572N12153924WA0031700309004003027024349
B2009543730576N12153922WA0031500305004003032018336
B2009553730580N12153925WA0031500304004003032339334
B2009563730584N12153927WA0031300302004003028320305
B2009573730586N12153930WA0031100300004003028290281
B2009583730587N12153935WA0030800299004003028266266
B2009593730586N12153940WA0030800297004003028254253
B2010003730586N12153944WA0030400296004003026263242
B2010013730585N12153947WA0030100295004003015247252
B2010023730585N12153950WA0030100293004003017251241
B2010033730583N12153954WA0029900291004003017237237
B2010043730581N12153957WA0029700288004003023226232
B2010053730579N12153960WA0029500286004003023222225
B2010063730576N12153964WA0029500285004003024223232
B2010073730573N12153967WA0029200284004003033222229
B2010083730569N12153971WA0028900285004003033217235
B2010093730566N12153975WA0028700286004003033223218
B2010103730564N12153979WA0028700286004003027230248
B2010113730561N12153982WA0028500287004003027228225
B2010123730558N12153985WA0028300288004003027220222
B2010133730556N12153987WA0028300291004003024210231
B2010143730553N12153990WA0028300291004003021230240
B2010153730551N12153994WA0028300293004003021231251
B2010163730549N12153997WA0028400294004004020236249
B2010173730548N12153999WA0028600295004004020221250
B2010183730547N12154002WA0028600295004004017234254
B2010193730547N12154004WA0028800294004004013265264
B2010203730546N12154006WA0029000292004004013267276
B2010213730550N12154011WA0029100292004003034316275
B2010223730553N12154013WA0029100293004003034335305
B2010233730556N12154014WA0029200295004003027004321
B2010243730559N12154012WA0029200293004003023027344
B2010253730562N12154011WA0029200292004003023026348
B2010263730566N12154009WA0029200290004003029018332
B2010273730570N12154009WA0029200286004003029358326
B2010283730573N12154010WA0029100283004003027337306
B2010293730576N12154013WA0029000279004003026312288
B2010303730578N12154016WA0028800275004003024300275
B2010313730577N12154020WA0028800273004003025243262
B2010323730576N12154024WA0028400269004003025234235
B2010333730574N12154028WA0028000267004003025225226
B2010343730571N12154031WA0027500265004003024222225
B2010353730568N12154033WA0027500263004003025220216
B2010363730565N12154037WA0027100260004003028221215
B2010373730562N12154040WA0026600257004003027221216
B2010383730558N12154044WA0026300253004003028213212
B2010393730554N12154048WA0026300249004004031217211
B2010403730551N12154050WA0025900249004003031211212
B2010413730548N12154053WA0025600246004003027215208
B2010423730545N12154056WA0025200243004003023216212
B2010433730541N12154059WA0025200241004003030220214
B2010443730538N12154062WA0024900238004004030217215
B2010453730534N12154065WA0024500235004003030211206
B2010463730530N12154068WA0024200234004003027204209
B2010473730527N12154071WA0024200232004004027207206
B2010483730524N12154073WA0023900230004003027216208
B2010493730520N12154076WA0023600228004003027216209
B2010503730515N12154079WA0023300225004003032211205
B2010513730511N12154082WA0023300224004003034207207
B2010523730507N12154084WA0023000221004003032204204
B2010533730503N12154086WA0022800220004003032207216
B2010543730500N12154089WA0022500218004003029211211
B2010553730496N12154093WA0022500217004003029215209
B2010563730491N12154098WA0022300214004003033210209
B2010573730485N12154101WA0022100214004003040207206
B2010583730481N12154105WA0021900217004003040212201
B2010593730478N12154107WA0021900219004003032208213
B2011003730475N12154109WA0021700221004003023198214
B2011013730472N12154110WA0021700223004003021199216
B2011023730469N12154112WA0021700223004003022202216
B2011033730466N12154115WA0021700224004003030216227
B2011043730461N12154119WA0021900223004003030214212
B2011053730457N12154121WA0022000221004004030213222
B2011063730455N12154124WA0022100222004003030212212
B2011073730450N12154128WA0022100222004003036215217
B2011083730448N12154131WA0022100219004003036214218
B2011093730444N12154133WA0022100217004003030211217
B2011103730439N12154137WA0022000216004003030209213
B2011113730435N12154140WA0022000215004003031208210
B2011123730431N12154143WA0021900213004003028213210
B2011133730428N12154146WA0021800210004003028214228
B2011143730424N12154148WA0021600206004003027211228
B2011153730421N12154151WA0021600204004003027212227
B2011163730416N12154156WA0021300200004004027216236
B2011173730411N12154160WA0021000198004003043216229
B2011183730406N12154164WA0020700196004003043203211
B2011193730402N12154166WA0020700194004003038203232
B2011203730398N12154169WA0020300191004003031215227
B2011213730395N12154173WA0019900189004003028221251
B2011223730393N12154178WA0019500186004003030232254
B2011233730390N12154183WA0019500185004003033234251
B2011243730388N12154187WA0019200184004003030241270
B2011253730386N12154192WA0018900184004003028252266
B2011263730386N12154195WA0018700182004003022265282
B2011273730385N12154199WA0018700182004003023256277
B2011283730383N12154204WA0018500180004003031246260
B2011293730381N12154209WA0018300181004003031244239
B2011303730378N12154213WA0018100182004003031219237
B2011313730375N12154216WA0018100181004003029209216
B2011323730371N12154219WA0018100179004003028214220
B2011333730368N12154222WA0018000177004003030217217
B2011343730363N12154226WA0018000174004003030211210
B2011353730358N12154228WA0018000170004003036207198
B2011363730353N12154229WA0017800169004003037193189
B2011373730348N12154231WA0017700169004003031191202
B2011383730345N12154233WA0017500168004003031213221
B2011393730342N12154237WA0017500168004003029220245
B2011403730340N12154242WA0017300166004003029250269
B2011413730339N12154247WA0017200165004003029267283
B2011423730340N12154250WA0017100163004003024307301
B2011433730343N12154253WA0017100161004003031339317
B2011443730347N12154254WA0017000163004003028000340
B2011453730350N12154253WA0016800166004003028018341
B2011463730353N12154252WA0016700166004003024034350
B2011473730356N12154250WA0016700167004003024029358
B2011483730359N12154248WA0016600167004003024023351
B2011493730362N12154246WA0016500167004003023022350
B2011503730366N12154245WA0016500167004003023014333
B2011513730369N12154244WA0016500169004004023011335
B2011523730372N12154247WA0016500166004003028316308
B2011533730375N12154250WA0016600166004003028297290
B2011543730375N12154254WA0016600168004003025253273
B2011553730375N12154259WA0016600169004003025257240
B2011563730370N12154259WA0016500168004003025176226
B2011573730367N12154260WA0016500168004003022183194
B2011583730363N12154259WA0016500165004003026167192
B2011593730360N12154259WA0016500163004003026176186
B2012003730356N12154259WA0016500161004003027183188
B2012013730351N12154259WA0016500159004003028193197
B2012023730348N12154260WA0016400158004003026202210
B2012033730345N12154263WA0016400157004003026218222
E201203TPCWaypoint mission LZ reached
B2012043730342N12154265WA0016200154004003023216240
B2012053730340N12154268WA0016000150004003023241255
B2012063730341N12154273WA0015700149004003022272275
B2012073730340N12154276WA0015700147004003020267274
B2012083730340N12154279WA0015400145004003020264279
B2012093730340N12154279WA0015200147004003017263321
B2012103730339N12154279WA0014900146004003008117046
B2012113730339N12154279WA0014900147004003003262070
B2012123730339N12154279WA0014800147004003000262326
B2012133730339N12154279WA0014600147004003000262001
B2012143730339N12154278WA0014500147004003000109005
B2012153730339N12154279WA0014500147004003000110009
B2012163730338N12154278WA0014500147004003002110013
B2012173730338N12154277WA0014500146004003002110037
B2012183730338N12154277WA0014500146004003002082037
B2012193730338N12154277WA0014500146004003000086037
B2012203730338N12154277WA0014500145004003000087028
B2012213730338N12154277WA0014500145004003000085032
B2012223730338N12154277WA0014500145004003000085035
B2012233730338N12154276WA0014500145004003000089039
B2012243730338N12154276WA0014500145004003000084042
B2012253730338N12154276WA0014500144004003000084044
B2012263730338N12154276WA0014500145004003000084047
B2012273730338N12154276WA0014500145004003000084050
B2012283730338N12154276WA0014500145004003000084052
B2012293730338N12154275WA0014500145004003000084054
B2012303730338N12154275WA0014500145004003000084056
B2012313730338N12154275WA0014500145004003000084058
B2012323730338N12154275WA0014500145004003000084059
B2012333730338N12154275WA0014500145004003000084061
B2012343730338N12154275WA0014500145004003000084063
B2012353730338N12154275WA0014500145004003000084064
B2012363730338N12154275WA0014500145004003000084065
B2012373730338N12154275WA0014500145004003000084067
B2012383730338N12154275WA0014500145004003000084068
B2012393730338N12154274WA0014500145004003000084069
B2012403730338N12154274WA0014500145004003000084070
B2012413730338N12154274WA0014500145004003000084071
GzVndPMseTfLaMbqTFMhlMqKddgkPrCsXVbxXMsm4GLbXOL4e5uETA+EJTu8lVL6f
GeAWO/3sY8UJ4Lc0Vhx0Cm5EOoYXRGBzFzPQqaq0KQtLYglQ/PB+a1wtupOcW9poJ
GNGCETlazKxjz4rHfvfK+oj2CnU59nekeaaXlbUgcPUI=

