AXFH000
HFDTE280326
HFPLTPILOT:Scott O’Brien
HFGTYGLIDERTYPE:Ozone Swift 6
HFDTM100GPSDATUM:WGS84
HFRFWFIRMWAREVERSION:9.5.1
HFRHWHARDWAREVERSION:iPhone 15
HFFTYFRTYPE:Flyskyhy,9.5.1
HFGPS:Bluetooth vario
HFPRSVARIO:Bluetooth vario
HFCCLCOMPETITIONCLASS:Paraglider
HFTZNTIMEZONE:-7
HFSITSITE:Ed Levin,US
I053638FXA3941VXA4244GSP4547CCO4850HDT
C280326192810280326000102TASK
C0000000N00000000ETAKEOFF
C1956332N10339238W00010009999999000000360000STARTAREA Tapalpa
C2003837N10343513W00000000001000000000360000TURNAREA ATV
C1958948N10346610W00000000001000000000360000TURNAREA Rocks
C1956335N10336845W00000000001000000000360000FINISHAREA TapalpaLZ
C0000000N00000000ELANDING
B1928393728540N12151678WA0069900699001100000039141
B1928403728540N12151678WA0069900698001100000039142
B1928413728540N12151678WA0069900698001100000039142
B1928423728540N12151678WA0069900698001100000039139
B1928433728540N12151678WA0069800698001100001039097
B1928443728540N12151678WA0069900698001100001039080
B1928453728540N12151678WA0069900698001100001039101
B1928463728540N12151678WA0069800698001100000039159
B1928473728541N12151678WA0069800698001100000039198
B1928483728541N12151678WA0069900698001100000039203
B1928493728541N12151678WA0069800698001100000039200
B1928503728541N12151678WA0069800698001100000039198
B1928513728540N12151678WA0069800698001100000039149
B1928523728540N12151679WA0069900698001100000039051
B1928533728540N12151679WA0069800698001100001039050
B1928543728541N12151680WA0069800697001100001039333
B1928553728540N12151680WA0069800697001100001039032
B1928563728540N12151679WA0069800698001100002119083
B1928573728540N12151679WA0069800698001100002111068
B1928583728540N12151679WA0069800698001100000111071
B1928593728540N12151679WA0069800698001100001111076
B1929003728540N12151679WA0069800698001100000111089
B1929013728540N12151679WA0069800698001100001111080
B1929023728540N12151680WA0069800698001100003247353
B1929033728539N12151681WA0069600698001100004234353
B1929043728538N12151682WA0069500698001100005234270
B1929053728538N12151683WA0069500698001100009250265
B1929063728538N12151685WA0069400698001100012262238
B1929073728537N12151687WA0069200698001100014254238
B1929083728536N12151690WA0069200698001100016241220
B1929093728535N12151693WA0069200698001100017231200
B1929103728532N12151695WA0069500698001100018213129
B1929113728529N12151696WA0069400697001100020204176
B1929123728526N12151698WA0069400697001100024203185
B1929133728523N12151700WA0069300697001100025205177
B1929143728519N12151702WA0069400697001100023201174
B1929153728515N12151703WA0069500698001100022182176
B1929163728512N12151702WA0069400698001100022170168
B1929173728509N12151700WA0069200697001100025158163
B1929183728505N12151697WA0069100695001100028148155
B1929193728501N12151694WA0069000693001100032147146
B1929203728497N12151691WA0068900692001100031152141
B1929213728492N12151688WA0068800691001100030157145
B1929223728488N12151686WA0068600689001100030159145
B1929233728484N12151684WA0068400686001100031158150
B1929243728480N12151681WA0068300684001100034154141
B1929253728475N12151678WA0068100682001100035153145
B1929263728470N12151675WA0067900680001100034150139
B1929273728466N12151672WA0067800678001100035147151
B1929283728461N12151668WA0067600677001100036144138
B1929293728457N12151664WA0067600676001100035141135
B1929303728453N12151660WA0067400674001100034143135
B1929313728448N12151656WA0067300673001100034148144
B1929323728444N12151653WA0067200671001100036152142
B1929333728439N12151649WA0067200670001100036152148
B1929343728434N12151646WA0067100669001100037153149
B1929353728429N12151643WA0067200669001100037152158
B1929363728424N12151639WA0067100668001100035148131
B1929373728420N12151636WA0067100667001100034142152
B1929383728415N12151631WA0067000667001100037138144
B1929393728411N12151627WA0066900666001100039139165
B1929403728407N12151622WA0066900666001100038139171
B1929413728402N12151617WA0067000666001100037138128
B1929423728398N12151613WA0067100666001100033137137
B1929433728395N12151609WA0067000666001100033136120
B1929443728391N12151604WA0066900664001100036139150
B1929453728387N12151600WA0066700662001100041140147
B1929463728382N12151595WA0066600661001100040140154
B1929473728377N12151590WA0066500660001100039142165
B1929483728372N12151586WA0066400660001100037146163
B1929493728368N12151583WA0066300658001100036151157
B1929503728363N12151580WA0066100657001100035152156
B1929513728358N12151577WA0065900655001100036153151
B1929523728353N12151574WA0065700653001100036152151
B1929533728348N12151571WA0065600651001100037152147
B1929543728343N12151568WA0065400649001100039152149
B1929553728338N12151565WA0065200648001100039150161
B1929563728333N12151561WA0065100646001100039151174
B1929573728327N12151558WA0065100646001100039154183
B1929583728322N12151555WA0065000646001100037159189
B1929593728317N12151554WA0065000645001100037163177
B1930003728311N12151552WA0064800644001100036163175
B1930013728306N12151550WA0064800643001100037162167
B1930023728301N12151548WA0064600642001100035162168
B1930033728296N12151546WA0064500640001100036163166
B1930043728290N12151545WA0064400639001100037164157
B1930053728285N12151543WA0064200637001100038164158
B1930063728280N12151541WA0064200637001100038158151
B1930073728274N12151538WA0064000636001100039153170
B1930083728269N12151534WA0064100636001100038150170
B1930093728264N12151531WA0064100636001100034154176
B1930103728260N12151529WA0064200637001100033160183
B1930113728255N12151527WA0064300636001100032162172
B1930123728251N12151525WA0064100635001100030161176
B1930133728246N12151524WA0064100634001100029165182
B1930143728242N12151523WA0063900632001100031175166
B1930153728237N12151523WA0063700631001100034184163
B1930163728232N12151524WA0063700631001100035186158
B1930173728227N12151524WA0063700631001100032180152
B1930183728222N12151524WA0063700630001100028174159
B1930193728218N12151523WA0063700630001100027173167
B1930203728214N12151523WA0063600629001100027175163
B1930213728210N12151523WA0063500628001100030176158
B1930223728205N12151522WA0063600628001100031170157
B1930233728200N12151520WA0063500628001100032162154
B1930243728196N12151518WA0063600628001100032153150
B1930253728192N12151515WA0063600628001100030151162
B1930263728188N12151513WA0063600628001100030156158
B1930273728183N12151511WA0063600627001100031161166
B1930283728179N12151509WA0063500627001100033163174
B1930293728174N12151507WA0063500627001100034163171
B1930303728169N12151505WA0063500628001100033161178
B1930313728164N12151504WA0063700629001100031163186
B1930323728160N12151502WA0063700629001100029172186
B1930333728156N12151502WA0063600629001100027185204
B1930343728152N12151504WA0063500629001100027198231
B1930353728149N12151506WA0063400628001100025214226
B1930363728147N12151510WA0063300628001100024229250
B1930373728146N12151515WA0063300627001100022259258
B1930383728147N12151519WA0063200627001100021282274
B1930393728149N12151522WA0063200627001100020305287
B1930403728153N12151524WA0063000626001100022330303
B1930413728157N12151525WA0063000625001100026342320
B1930423728161N12151526WA0063000625001100029354337
B1930433728166N12151525WA0063100625001100031005328
B1930443728171N12151524WA0063200625001100031013342
B1930453728176N12151522WA0063300626001100029014345
B1930463728180N12151521WA0063400627001100031012353
B1930473728185N12151520WA0063300626001100035010350
B1930483728191N12151518WA0063300626001100035011349
B1930493728196N12151517WA0063400627001100033005350
B1930503728201N12151517WA0063300627001100031356346
B1930513728205N12151518WA0063200627001100029348336
B1930523728209N12151520WA0063100626001100027335329
B1930533728213N12151523WA0063000625001100028331317
B1930543728216N12151526WA0062900624001100026320313
B1930553728219N12151530WA0062700623001100024303303
B1930563728220N12151534WA0062500622001100025284288
B1930573728220N12151539WA0062300621001100024264274
B1930583728218N12151543WA0062300619001100022249259
B1930593728215N12151546WA0062300619001100023227248
B1931003728212N12151548WA0062400618001100023208232
B1931013728208N12151550WA0062400618001100025198218
B1931023728204N12151551WA0062400617001100025187209
B1931033728201N12151551WA0062600618001100025175200
B1931043728197N12151550WA0062700618001100026161190
B1931053728193N12151548WA0062800619001100027150177
B1931063728190N12151545WA0062800618001100027139167
B1931073728187N12151541WA0062600617001100028132156
B1931083728184N12151537WA0062500616001100032132147
B1931093728180N12151532WA0062400615001100037133145
B1931103728176N12151527WA0062300614001100039135144
B1931113728171N12151522WA0062400614001100039135146
B1931123728167N12151516WA0062500615001100035130146
B1931133728164N12151512WA0062500615001100033129140
B1931143728161N12151507WA0062500615001100034131137
B1931153728157N12151502WA0062300614001100035133142
B1931163728153N12151497WA0062300614001100037135129
B1931173728149N12151492WA0062300613001100036139141
B1931183728145N12151488WA0062100613001100032142140
B1931193728141N12151485WA0061900611001100033144124
B1931203728137N12151481WA0061700609001100036145145
B1931213728132N12151477WA0061400607001100039146150
B1931223728127N12151473WA0061200604001100041154151
B1931233728121N12151470WA0060900602001100040160159
B1931243728116N12151468WA0060700600001100037162165
B1931253728110N12151466WA0060400597001100036162169
B1931263728105N12151463WA0060200594001100039162171
B1931273728099N12151461WA0059900591001100043164171
B1931283728092N12151459WA0059700589001100046167172
B1931293728085N12151457WA0059600587001100046168174
B1931303728079N12151455WA0059500586001100043169176
B1931313728073N12151454WA0059500586001100039173179
B1931323728067N12151454WA0059300584001100040174184
B1931333728060N12151453WA0059100582001100044171185
B1931343728053N12151451WA0058900580001100049167181
B1931353728046N12151449WA0058800579001100049165176
B1931363728039N12151446WA0058900577001100046163175
B1931373728033N12151443WA0058900577001100041157173
B1931383728028N12151440WA0058900576001100038149169
B1931393728023N12151436WA0058800575001100042148162
B1931403728018N12151432WA0058700574001100041150160
B1931413728013N12151428WA0058500574001100040146162
B1931423728008N12151423WA0058400573001100040140159
B1931433728004N12151418WA0058200571001100040134152
B1931443727999N12151412WA0058100569001100041132145
B1931453727995N12151406WA0057900568001100044132143
B1931463727991N12151400WA0057700566001100047129140
B1931473727987N12151393WA0057700566001100047124131
B1931483727983N12151385WA0057600565001100046122125
B1931493727979N12151378WA0057600565001100044123124
B1931503727975N12151371WA0057600566001100043124115
B1931513727972N12151365WA0057700567001100042122115
B1931523727968N12151358WA0057800568001100040118109
B1931533727966N12151352WA0057900568001100038115109
B1931543727964N12151345WA0057800568001100037114109
B1931553727961N12151339WA0057700567001100038114106
B1931563727959N12151332WA0057600567001100041113102
B1931573727956N12151325WA0057600566001100043114091
B1931583727954N12151318WA0057600566001100040115087
B1931593727951N12151312WA0057800567001100035115101
B1932003727950N12151306WA0058000568001100032108120
B1932013727948N12151301WA0058100570001100031112119
B1932023727946N12151296WA0058200570001100032126143
B1932033727942N12151291WA0058200571001100034133158
B1932043727938N12151288WA0058200572001100032145184
B1932053727932N12151288WA0058100572001100030171197
B1932063727927N12151292WA0058100572001100031213221
B1932073727923N12151296WA0057800572001100028224245
B1932083727923N12151302WA0057800571001100024268257
B1932093727924N12151306WA0057800571001100019283288
B1932103727925N12151309WA0057600570001100016296295
B1932113727927N12151311WA0057500569001100015318300
B1932123727930N12151310WA0057200568001100017356311
B1932133727934N12151306WA0057300567001100025043336
B1932143727938N12151300WA0057300566001100027053024
B1932153727939N12151294WA0057500566001100028071037
B1932163727939N12151288WA0057800568001100028087059
B1932173727938N12151282WA0057900569001100026097070
B1932183727937N12151277WA0057900570001100026100092
B1932193727936N12151271WA0057800568001100031104084
B1932203727935N12151264WA0057800569001100037104076
B1932213727934N12151257WA0057900569001100040097079
B1932223727933N12151250WA0058100570001100037092066
B1932233727933N12151243WA0058200571001100030087072
B1932243727933N12151238WA0058200571001100030086073
B1932253727934N12151232WA0058100570001100034089062
B1932263727933N12151225WA0058100571001100039094062
B1932273727933N12151217WA0058200572001100038090061
B1932283727933N12151210WA0058300573001100034084060
B1932293727934N12151204WA0058300573001100032085068
B1932303727934N12151198WA0058200572001100032092076
B1932313727934N12151192WA0058000571001100036096076
B1932323727933N12151185WA0057900569001100039103069
B1932333727931N12151177WA0057800569001100040103078
B1932343727929N12151170WA0057700569001100039104100
B1932353727928N12151163WA0057800568001100038111085
B1932363727925N12151156WA0057700567001100037117098
B1932373727923N12151150WA0057600568001100034118114
B1932383727920N12151144WA0057600567001100036119107
B1932393727917N12151139WA0057700568001100035122115
B1932403727914N12151134WA0057800568001100032131131
B1932413727911N12151130WA0057800568001100031141137
B1932423727907N12151126WA0057800568001100034142136
B1932433727903N12151122WA0057700568001100036136133
B1932443727899N12151117WA0057700569001100038136166
B1932453727894N12151112WA0057700569001100037136139
B1932463727891N12151108WA0057800569001100033139149
B1932473727887N12151104WA0057700569001100031142125
B1932483727883N12151101WA0057600567001100031145137
B1932493727879N12151097WA0057400566001100031150132
B1932503727875N12151095WA0057300565001100031158154
B1932513727871N12151093WA0057000563001100029168171
B1932523727867N12151093WA0056900561001100028176158
B1932533727862N12151093WA0056600559001100028185170
B1932543727858N12151094WA0056500558001100030193182
B1932553727854N12151096WA0056300556001100031198193
B1932563727849N12151098WA0056100554001100030198200
B1932573727845N12151099WA0056100553001100028195193
B1932583727841N12151100WA0056000552001100024195206
B1932593727838N12151102WA0055800549001100023200214
B1933003727834N12151104WA0055600547001100028204220
B1933013727830N12151106WA0055300545001100032208219
B1933023727826N12151109WA0055100543001100031212223
B1933033727822N12151113WA0055000542001100029216229
B1933043727819N12151116WA0054900540001100031218233
B1933053727815N12151120WA0054800540001100031221235
B1933063727812N12151124WA0054800539001100029220237
B1933073727808N12151127WA0054700539001100026217240
B1933083727805N12151130WA0054600538001100024214236
B1933093727802N12151132WA0054400536001100027216235
B1933103727799N12151136WA0054300534001100032218234
B1933113727795N12151140WA0054100533001100034215234
B1933123727791N12151143WA0053900531001100030213232
B1933133727787N12151146WA0053700529001100031216233
B1933143727784N12151150WA0053400526001100033223236
B1933153727780N12151155WA0053200524001100036224241
B1933163727776N12151160WA0053000522001100039227240
B1933173727772N12151166WA0053000520001100039228241
B1933183727768N12151171WA0053000519001100036229242
B1933193727765N12151176WA0053100518001100032227245
B1933203727762N12151180WA0053100518001100028223245
B1933213727758N12151183WA0053200519001100029215245
B1933223727754N12151187WA0053400519001100031217237
B1933233727751N12151190WA0053500521001100029222237
B1933243727748N12151194WA0053700523001100026221241
B1933253727745N12151197WA0053600522001100026216243
B1933263727741N12151200WA0053500521001100029214234
B1933273727738N12151203WA0053300521001100032220235
B1933283727734N12151208WA0053000519001100034228230
B1933293727731N12151213WA0052900518001100034234234
B1933303727728N12151218WA0052800517001100031234238
B1933313727726N12151222WA0052800518001100030234245
B1933323727723N12151227WA0052800518001100027240255
B1933333727722N12151231WA0052900518001100026247256
B1933343727721N12151236WA0052900518001100024258259
B1933353727720N12151240WA0052800518001100021264261
B1933363727720N12151244WA0052900518001100018269264
B1933373727720N12151247WA0052700516001100017271265
B1933383727720N12151250WA0052600515001100020274270
B1933393727721N12151254WA0052400513001100022276255
B1933403727721N12151259WA0052200512001100023281272
B1933413727722N12151263WA0052100511001100024277274
B1933423727722N12151267WA0051900509001100024272277
B1933433727723N12151272WA0051600506001100027270270
B1933443727723N12151278WA0051400504001100029276269
B1933453727724N12151283WA0051300503001100029285272
B1933463727725N12151288WA0051200502001100026292275
B1933473727727N12151292WA0051200502001100025291278
B1933483727728N12151297WA0051200501001100026286283
B1933493727729N12151302WA0051100500001100029283283
B1933503727730N12151307WA0051000500001100030285283
B1933513727731N12151313WA0051200501001100030286287
B1933523727732N12151318WA0051200501001100029285284
B1933533727733N12151323WA0051100500001100023284288
B1933543727734N12151326WA0051100500001100019281290
B1933553727734N12151330WA0050900499001100019280290
B1933563727735N12151334WA0050700498001100023280289
B1933573727736N12151339WA0050600496001100027279288
B1933583727736N12151344WA0050600496001100027274288
B1933593727736N12151349WA0050600496001100026269281
B1934003727736N12151353WA0050600496001100024269280
B1934013727736N12151357WA0050500495001100024268274
B1934023727736N12151361WA0050300494001100025269273
B1934033727736N12151365WA0050100493001100026270268
B1934043727736N12151370WA0050000491001100026274268
B1934053727737N12151374WA0049900491001100024280272
B1934063727737N12151378WA0049800490001100022280269
B1934073727738N12151382WA0049800489001100023281274
B1934083727739N12151385WA0049700488001100020287276
B1934093727739N12151389WA0049600487001100022281282
B1934103727740N12151394WA0049600486001100023277284
B1934113727740N12151398WA0049500485001100022278280
B1934123727740N12151401WA0049400484001100021280286
B1934133727741N12151405WA0049400483001100021285284
B1934143727742N12151408WA0049300483001100020290296
B1934153727743N12151412WA0049200481001100019287292
B1934163727744N12151415WA0049000480001100019290292
B1934173727745N12151419WA0048700479001100023294289
B1934183727747N12151423WA0048400477001100027297281
B1934193727749N12151428WA0048200475001100032300287
B1934203727752N12151433WA0048300473001100032300282
B1934213727754N12151438WA0048500472001100029300287
B1934223727755N12151442WA0048700471001100023300293
B1934233727756N12151444WA0048800471001100013288291
B1934243727756N12151446WA0048600470001100012291291
B1934253727757N12151448WA0048400469001100014291288
B1934263727758N12151451WA0048100467001100020288289
B1934273727759N12151454WA0047900465001100021288281
B1934283727760N12151458WA0047800464001100021291285
B1934293727761N12151461WA0047800464001100018293285
B1934303727762N12151464WA0047700463001100018294289
B1934313727763N12151467WA0047500462001100020297289
B1934323727764N12151470WA0047400460001100023299290
B1934333727766N12151474WA0047300460001100024297291
B1934343727767N12151478WA0047200459001100022296288
B1934353727769N12151481WA0047300460001100022306293
B1934363727771N12151485WA0047300460001100024315289
B1934373727774N12151487WA0047500460001100021320292
B1934383727776N12151490WA0047600461001100016322305
B1934393727777N12151491WA0047600461001100011326309
B1934403727779N12151492WA0047400461001100012328312
B1934413727781N12151493WA0047100460001100017328310
B1934423727784N12151495WA0046900460001100025329307
B1934433727787N12151498WA0047000459001100023325315
B1934443727790N12151501WA0047100459001100024326306
B1934453727793N12151503WA0047200459001100019336298
B1934463727796N12151504WA0047200459001100017344311
B1934473727799N12151505WA0047100459001100018340314
B1934483727801N12151507WA0046800457001100020321316
B1934493727804N12151510WA0046800456001100022313308
B1934503727806N12151513WA0046700456001100021313305
B1934513727808N12151516WA0046700456001100018315303
B1934523727810N12151518WA0046600455001100017314307
B1934533727812N12151521WA0046500453001100018304307
B1934543727813N12151524WA0046400452001100020290295
B1934553727814N12151528WA0046300451001100022286293
B1934563727815N12151532WA0046300450001100022289279
B1934573727816N12151535WA0046300451001100020289272
B1934583727817N12151539WA0046300451001100019276276
B1934593727817N12151542WA0046400451001100018262282
B1935003727816N12151546WA0046400451001100019250277
B1935013727815N12151549WA0046400451001100016262281
B1935023727816N12151552WA0046400450001100016285282
B1935033727816N12151555WA0046300450001100020293292
B1935043727818N12151559WA0046400451001100023293299
B1935053727819N12151563WA0046500452001100023303317
B1935063727822N12151566WA0046600453001100024323336
B1935073727825N12151568WA0046800455001100025340350
B1935083727829N12151568WA0046900455001100024353005
B1935093727832N12151567WA0046900456001100024018018
B1935103727836N12151564WA0046800456001100029037036
B1935113727838N12151558WA0046800457001100032059050
B1935123727838N12151550WA0046700457001100036084071
B1935133727836N12151543WA0046800457001100036109094
B1935143727830N12151537WA0046700457001100040137125
B1935153727824N12151534WA0046900458001100036162154
B1935163727818N12151533WA0047000459001100035171184
B1935173727814N12151534WA0047100461001100026194193
B1935183727811N12151536WA0047200461001100021208221
B1935193727808N12151538WA0047200460001100018222236
B1935203727806N12151541WA0047200459001100016239248
B1935213727805N12151544WA0047000459001100017250261
B1935223727805N12151547WA0046800458001100017269267
B1935233727806N12151551WA0046800458001100021292279
B1935243727808N12151555WA0046800457001100022299289
B1935253727810N12151558WA0047000457001100018306289
B1935263727811N12151561WA0047000458001100013300293
B1935273727812N12151563WA0047000456001100013278288
B1935283727813N12151566WA0046900455001100018275278
B1935293727813N12151570WA0046700454001100023274275
B1935303727813N12151575WA0046500452001100026270264
B1935313727813N12151579WA0046400451001100026262256
B1935323727812N12151584WA0046300450001100025253255
B1935333727811N12151589WA0046300450001100023253260
B1935343727810N12151593WA0046200449001100024254258
B1935353727809N12151597WA0046100447001100026249246
B1935363727808N12151602WA0045900446001100027240244
B1935373727805N12151606WA0045700445001100028229238
B1935383727802N12151610WA0045600444001100029220227
B1935393727798N12151613WA0045600443001100029214215
B1935403727795N12151616WA0045500442001100028209213
B1935413727791N12151618WA0045400441001100029202203
B1935423727786N12151620WA0045300440001100032195188
B1935433727781N12151621WA0045300440001100034189173
B1935443727776N12151622WA0045200440001100034184176
B1935453727771N12151622WA0045200439001100033177177
B1935463727766N12151622WA0045200439001100032174183
B1935473727762N12151621WA0045100437001100031178186
B1935483727757N12151621WA0044900436001100031184179
B1935493727752N12151622WA0044800435001100033183178
B1935503727747N12151622WA0044800435001100034180170
B1935513727742N12151622WA0044700434001100032178175
B1935523727738N12151622WA0044700434001100030179175
B1935533727733N12151622WA0044600433001100029181179
B1935543727729N12151622WA0044500432001100030180164
B1935553727724N12151622WA0044500432001100031177168
B1935563727719N12151622WA0044700432001100032177173
B1935573727715N12151621WA0044900433001100031177175
B1935583727710N12151621WA0044900433001100028184180
B1935593727706N12151622WA0044800433001100027190183
B1936003727702N12151623WA0044700432001100027195192
B1936013727698N12151625WA0044500431001100031200190
B1936023727694N12151627WA0044400430001100031203199
B1936033727690N12151630WA0044300429001100030208202
B1936043727686N12151632WA0044300429001100028210204
B1936053727682N12151635WA0044200428001100026212220
B1936063727679N12151638WA0044100426001100025215227
B1936073727676N12151641WA0043900425001100026223235
B1936083727674N12151644WA0043700424001100027231235
B1936093727671N12151649WA0043500422001100029239233
B1936103727669N12151653WA0043400421001100027240232
B1936113727667N12151657WA0043400421001100023240233
B1936123727666N12151661WA0043300420001100023242236
B1936133727665N12151665WA0043200418001100024248238
B1936143727663N12151670WA0043000417001100027252233
B1936153727662N12151675WA0043000416001100026250232
B1936163727661N12151679WA0043000416001100023252243
B1936173727660N12151683WA0043000416001100019263242
B1936183727660N12151686WA0042900415001100017281258
B1936193727661N12151689WA0042700413001100017282257
B1936203727661N12151693WA0042500411001100018270241
B1936213727661N12151696WA0042300410001100022262264
B1936223727661N12151701WA0042000407001100025262263
B1936233727661N12151706WA0041800405001100026271263
B1936243727661N12151711WA0041600404001100029283261
B1936253727662N12151716WA0041600403001100029289264
B1936263727664N12151721WA0041500402001100026290273
B1936273727665N12151725WA0041400401001100023286275
B1936283727666N12151729WA0041300400001100022284279
B1936293727667N12151733WA0041100398001100023282271
B1936303727667N12151738WA0040900396001100024279272
B1936313727668N12151742WA0040700394001100025274268
B1936323727668N12151747WA0040600392001100025276269
B1936333727669N12151751WA0040300390001100023280267
B1936343727669N12151756WA0040100388001100024286273
B1936353727671N12151760WA0039800385001100025287268
B1936363727672N12151765WA0039500383001100027283270
B1936373727672N12151770WA0039400381001100029280265
B1936383727673N12151775WA0039300379001100029285269
B1936393727675N12151781WA0039100378001100029292249
B1936403727676N12151785WA0039300377001100025292264
B1936413727678N12151789WA0039400376001100022288268
B1936423727678N12151793WA0039400375001100017273275
B1936433727678N12151795WA0039400375001100015272273
B1936443727678N12151798WA0039300374001100015281285
B1936453727679N12151801WA0039200372001100018281291
B1936463727679N12151804WA0039100371001100019277291
B1936473727679N12151808WA0038900370001100021279291
B1936483727680N12151812WA0038800369001100023283284
B1936493727681N12151816WA0038700368001100024282275
B1936503727681N12151820WA0038700368001100022277276
B1936513727681N12151824WA0038800368001100021270273
B1936523727681N12151828WA0038800369001100021268282
B1936533727681N12151833WA0038900370001100022270283
B1936543727681N12151837WA0039000372001100023274302
B1936553727682N12151841WA0039200374001100025283318
B1936563727683N12151845WA0039400376001100025295338
B1936573727685N12151849WA0039600377001100025304351
B1936583727688N12151851WA0039600378001100023324001
B1936593727693N12151850WA0039500379001100026009013
B1937003727698N12151845WA0039600380001100037042040
B1937013727701N12151838WA0039500380001100035066070
B1937023727701N12151830WA0039500381001100034092090
B1937033727698N12151823WA0039500383001100037111112
B1937043727694N12151819WA0039600384001100025123129
B1937053727689N12151820WA0039900385001100020178142
B1937063727685N12151822WA0040200387001100023200205
B1937073727681N12151825WA0040300389001100024212222
B1937083727677N12151828WA0040500390001100025221229
B1937093727674N12151831WA0040600391001100026227235
B1937103727671N12151835WA0040600392001100023235241
B1937113727669N12151839WA0040700392001100020250247
B1937123727669N12151843WA0040600393001100021266259
B1937133727669N12151847WA0040600393001100024289270
B1937143727672N12151852WA0040700394001100028306287
B1937153727675N12151855WA0040900394001100027322301
B1937163727679N12151855WA0041000395001100023349314
B1937173727683N12151851WA0041000396001100027037335
B1937183727686N12151847WA0041100397001100030051026
B1937193727688N12151840WA0041200398001100033069044
B1937203727689N12151833WA0041400399001100033085066
B1937213727687N12151826WA0041400400001100034112087
B1937223727684N12151820WA0041500400001100035126118
B1937233727680N12151817WA0041600401001100030138135
B1937243727675N12151816WA0041800403001100026171150
B1937253727670N12151818WA0042000404001100026191184
B1937263727666N12151820WA0042000405001100025203202
B1937273727664N12151824WA0042000405001100022223213
B1937283727663N12151829WA0042000405001100022251230
B1937293727664N12151835WA0042000406001100025278253
B1937303727666N12151839WA0042000406001100025300274
B1937313727668N12151843WA0042100407001100025317293
B1937323727672N12151845WA0042300407001100024334307
B1937333727676N12151844WA0042300408001100023015323
B1937343727680N12151840WA0042500409001100027034002
B1937353727683N12151834WA0042600410001100028056025
B1937363727684N12151828WA0042700412001100028069051
B1937373727681N12151820WA0042800412001100032113067
B1937383727678N12151814WA0042800413001100034120118
B1937393727674N12151811WA0042800414001100031141126
B1937403727669N12151809WA0042900415001100026162149
B1937413727664N12151812WA0042900415001100030208173
B1937423727660N12151816WA0042900414001100028232215
B1937433727658N12151821WA0042800413001100028254237
B1937443727658N12151827WA0042900413001100029270256
B1937453727658N12151832WA0043000414001100029281270
B1937463727660N12151836WA0043000415001100024303280
B1937473727663N12151838WA0043100415001100021330298
B1937483727667N12151838WA0043100415001100020000321
B1937493727671N12151836WA0043000415001100022017348
B1937503727674N12151833WA0042900415001100027032007
B1937513727678N12151829WA0042900414001100030043024
B1937523727680N12151823WA0042800414001100033060036
B1937533727681N12151816WA0042800414001100036075055
B1937543727680N12151807WA0042900414001100040103072
B1937553727677N12151800WA0043100415001100039115103
B1937563727672N12151796WA0043300416001100034136117
B1937573727667N12151793WA0043500417001100032150141
B1937583727661N12151793WA0043700419001100032167156
B1937593727655N12151794WA0043700420001100029185175
B1938003727651N12151796WA0043700421001100029213194
B1938013727647N12151799WA0043600422001100028219221
B1938023727646N12151805WA0043500422001100027251227
B1938033727646N12151811WA0043500423001100029269256
B1938043727647N12151816WA0043500424001100027285272
B1938053727649N12151820WA0043500424001100023301285
B1938063727652N12151823WA0043400424001100022319299
B1938073727656N12151821WA0043300423001100022014314
B1938083727660N12151818WA0043100422001100025030005
B1938093727663N12151814WA0043000421001100030046022
B1938103727667N12151809WA0042900421001100035049040
B1938113727670N12151803WA0043000421001100034050039
B1938123727673N12151798WA0043000421001100029054045
B1938133727675N12151794WA0043000420001100028062061
B1938143727677N12151788WA0042900417001100031067071
B1938153727679N12151782WA0042700416001100036073092
B1938163727681N12151775WA0042600415001100042080098
B1938173727681N12151766WA0042600415001100045089108
B1938183727680N12151757WA0042700414001100045096113
B1938193727678N12151749WA0043000415001100046104108
B1938203727676N12151742WA0043300415001100041105109
B1938213727674N12151736WA0043500416001100035108114
B1938223727672N12151732WA0043600418001100031111124
B1938233727669N12151727WA0043700418001100034118126
B1938243727666N12151722WA0043900420001100038128137
B1938253727662N12151717WA0044000422001100038139149
B1938263727657N12151714WA0044300424001100035147158
B1938273727651N12151715WA0044400426001100034179165
B1938283727645N12151717WA0044700429001100033190195
B1938293727641N12151720WA0045000432001100030201208
B1938303727637N12151723WA0045200434001100025219222
B1938313727636N12151727WA0045200435001100022237239
B1938323727637N12151732WA0045100437001100020288256
B1938333727639N12151735WA0045200438001100018303294
B1938343727642N12151736WA0045300440001100017333306
B1938353727646N12151733WA0045200441001100020036327
B1938363727649N12151726WA0045200441001100035064020
B1938373727651N12151719WA0045200442001100041074057
B1938383727653N12151711WA0045400442001100044080069
B1938393727652N12151702WA0045700445001100045101076
B1938403727650N12151694WA0046100447001100043106100
B1938413727646N12151688WA0046300449001100037123104
B1938423727642N12151684WA0046400451001100034134125
B1938433727637N12151682WA0046500453001100031150139
B1938443727632N12151681WA0046400453001100032160158
B1938453727626N12151682WA0046500454001100034175171
B1938463727620N12151685WA0046600455001100036204186
B1938473727616N12151688WA0046800457001100032212215
B1938483727614N12151692WA0046900458001100022242224
B1938493727616N12151696WA0047000459001100018294255
B1938503727617N12151699WA0047100459001100016314295
B1938513727620N12151701WA0047100459001100017331309
B1938523727623N12151702WA0047100459001100021344322
B1938533727626N12151702WA0047100459001100023000333
B1938543727630N12151702WA0047200460001100024015346
B1938553727633N12151698WA0047200460001100029037000
B1938563727637N12151693WA0047300461001100036051023
B1938573727640N12151687WA0047400462001100040063040
B1938583727642N12151679WA0047500462001100039069054
B1938593727641N12151671WA0047700463001100041092059
B1939003727638N12151663WA0047900465001100042118087
B1939013727634N12151658WA0048000465001100037129118
B1939023727630N12151653WA0048000467001100033133131
B1939033727625N12151654WA0048000467001100027168137
B1939043727620N12151656WA0048000468001100030188183
B1939053727615N12151659WA0048100469001100033203202
B1939063727610N12151663WA0048200470001100034213216
B1939073727607N12151667WA0048300471001100030230226
B1939083727605N12151672WA0048400472001100023256242
B1939093727606N12151676WA0048500473001100021277267
B1939103727608N12151679WA0048400474001100018294283
B1939113727610N12151681WA0048400474001100016319296
B1939123727613N12151681WA0048400473001100015346312
B1939133727618N12151678WA0048100472001100024026330
B1939143727622N12151674WA0048100470001100035040008
B1939153727627N12151669WA0048100469001100036041027
B1939163727631N12151664WA0048300470001100036046028
B1939173727634N12151658WA0048500470001100035055034
B1939183727635N12151652WA0048500470001100035073042
B1939193727634N12151644WA0048500471001100037086062
B1939203727632N12151637WA0048600471001100036104078
B1939213727629N12151631WA0048700471001100034114099
B1939223727624N12151629WA0048700471001100033147112
B1939233727619N12151627WA0048600471001100033160156
B1939243727613N12151627WA0048600471001100032177172
B1939253727607N12151630WA0048700473001100036202191
B1939263727603N12151634WA0048800473001100034216215
B1939273727601N12151640WA0048800473001100028240229
B1939283727599N12151644WA0048800473001100024261252
B1939293727599N12151649WA0048800474001100021277270
B1939303727601N12151652WA0048800474001100017299283
B1939313727602N12151654WA0048600474001100016303299
B1939323727605N12151655WA0048300472001100017332301
B1939333727608N12151655WA0048200471001100021353321
B1939343727611N12151655WA0048200471001100018357339
B1939353727614N12151655WA0048100470001100013003343
B1939363727616N12151654WA0047900469001100013014342
B1939373727618N12151653WA0047600468001100016014346
B1939383727621N12151652WA0047400465001100022011352
B1939393727625N12151652WA0047200463001100022000339
B1939403727628N12151653WA0047100462001100020344327
B1939413727630N12151654WA0047000461001100017323319
B1939423727632N12151657WA0046900460001100014305321
B1939433727633N12151659WA0046700458001100013306320
B1939443727634N12151661WA0046600456001100014306321
B1939453727636N12151663WA0046400454001100017301308
B1939463727637N12151666WA0046300452001100017296304
B1939473727638N12151669WA0046300451001100016298303
B1939483727639N12151671WA0046200451001100015303303
B1939493727641N12151674WA0046200451001100016298287
B1939503727641N12151676WA0046100449001100015285298
B1939513727642N12151679WA0045900448001100019280297
B1939523727643N12151683WA0045900447001100024286301
B1939533727644N12151687WA0045800446001100023293298
B1939543727645N12151691WA0045900445001100019291283
B1939553727646N12151694WA0046000445001100017277286
B1939563727645N12151696WA0046100444001100014248297
B1939573727644N12151699WA0046000444001100016240298
B1939583727643N12151702WA0045900443001100018252288
B1939593727642N12151705WA0045800442001100021260283
B1940003727642N12151709WA0045800443001100022258273
B1940013727641N12151713WA0045900443001100020252281
B1940023727640N12151716WA0045800443001100016243284
B1940033727639N12151718WA0045800443001100014245284
B1940043727638N12151721WA0045700442001100018256284
B1940053727637N12151725WA0045600441001100021259284
B1940063727637N12151729WA0045700442001100021256276
B1940073727636N12151732WA0045800443001100017251285
B1940083727635N12151735WA0045900444001100014256291
B1940093727635N12151737WA0045900444001100015264296
B1940103727635N12151740WA0045900443001100017269284
B1940113727635N12151744WA0045800442001100020271289
B1940123727635N12151748WA0045700441001100021271293
B1940133727635N12151752WA0045400441001100023269226
B1940143727635N12151756WA0045400440001100024270292
B1940153727635N12151761WA0045400439001100024269287
B1940163727635N12151765WA0045300438001100024274299
B1940173727636N12151770WA0045100437001100026282289
B1940183727637N12151775WA0045000437001100028284288
B1940193727638N12151780WA0044900436001100028280282
B1940203727638N12151785WA0045000437001100027271283
B1940213727638N12151790WA0044900436001100026269283
B1940223727638N12151795WA0044900435001100025271278
B1940233727638N12151800WA0044800434001100026273287
B1940243727639N12151805WA0044600433001100027271288
B1940253727639N12151810WA0044500432001100026269292
B1940263727639N12151815WA0044400431001100026270296
B1940273727639N12151820WA0044300430001100026273294
B1940283727639N12151824WA0044200429001100026275293
B1940293727639N12151829WA0044200429001100024274291
B1940303727640N12151833WA0044100428001100022276280
B1940313727640N12151837WA0044100428001100021275225
B1940323727640N12151841WA0044200428001100021277290
B1940333727641N12151845WA0044300429001100020276297
B1940343727641N12151849WA0044300429001100016276283
B1940353727642N12151851WA0044300429001100015287305
B1940363727642N12151854WA0044200429001100018291294
B1940373727643N12151858WA0044000428001100023285289
B1940383727644N12151862WA0044000428001100023279279
B1940393727644N12151866WA0044100428001100020274274
B1940403727645N12151869WA0044100428001100015273295
B1940413727645N12151872WA0044000427001100014284301
B1940423727646N12151875WA0043900426001100018291296
B1940433727647N12151878WA0043900427001100022290278
B1940443727648N12151883WA0044000427001100023285278
B1940453727649N12151887WA0044100428001100021275280
B1940463727649N12151891WA0044200429001100019272278
B1940473727649N12151894WA0044300430001100018278288
B1940483727650N12151897WA0044300429001100021280279
B1940493727650N12151902WA0044200429001100025277287
B1940503727650N12151906WA0044200428001100026269277
B1940513727650N12151911WA0044100427001100023263273
B1940523727650N12151915WA0044000426001100019263276
B1940533727649N12151918WA0043800424001100019264273
B1940543727649N12151922WA0043500423001100022262266
B1940553727648N12151926WA0043200420001100025250256
B1940563727645N12151932WA0043100419001100031242249
B1940573727643N12151937WA0043000419001100033237256
B1940583727640N12151942WA0043000419001100029236261
B1940593727638N12151947WA0043000418001100028232251
B1941003727635N12151951WA0042900416001100030230262
B1941013727632N12151956WA0042800415001100030232252
B1941023727629N12151960WA0042700414001100029231257
B1941033727626N12151964WA0042600413001100028226262
B1941043727623N12151968WA0042400411001100030222261
B1941053727620N12151972WA0042200409001100032225270
B1941063727616N12151977WA0042100408001100032229265
B1941073727613N12151981WA0042000408001100032234254
B1941083727611N12151986WA0042100408001100030236264
B1941093727608N12151991WA0042100407001100029234254
B1941103727605N12151995WA0041900406001100030226255
B1941113727602N12151999WA0041800404001100031225260
B1941123727599N12152004WA0041600403001100031230262
B1941133727596N12152009WA0041500402001100031236270
B1941143727593N12152013WA0041400401001100029233240
B1941153727590N12152017WA0041400400001100028221240
B1941163727586N12152020WA0041200399001100031205208
B1941173727582N12152022WA0040900397001100035196184
B1941183727576N12152022WA0040600395001100036181163
B1941193727569N12152018WA0040400393001100044152138
B1941203727564N12152012WA0040000390001100042147106
B1941213727561N12152007WA0039300387001100033138086
B1941223727561N12152002WA0038400388001100025130185
B1941233727561N12152000WA0037700387001100023133150
B1941243727558N12151998WA0036900385001100024142136
B1941253727555N12151993WA0036100383001100029135123
B1941263727552N12151989WA0035500381001100028132187
B1941273727550N12151986WA0034300378001100027133154
B1941283727549N12151981WA0033400375001100026131138
B1941293727547N12151974WA0032500372001100031127121
B1941303727545N12151972WA0031800370001100028126099
B1941313727546N12151970WA0031300366001100021119151
B1941323727548N12151971WA0030500363001100016113132
B1941333727547N12151972WA0030800360001100013116116
B1941343727546N12151972WA0031200357001100015134128
B1941353727543N12151970WA0031500355001100021124153
B1941363727540N12151965WA0031500352001100023116136
B1941373727538N12151961WA0031200346001100031119121
B1941383727538N12151955WA0030700340001100032122119
B1941393727535N12151948WA0030500335001100049118111
B1941403727533N12151940WA0030500331001100052116137
B1941413727531N12151931WA0030600327001100041123143
B1941423727530N12151923WA0030500314001100040128155
B1941433727528N12151919WA0030100305001100027140158
B1941443727526N12151919WA0029900299001100023170176
B1941453727524N12151922WA0029700294001100015215212
B1941463727525N12151926WA0029500288001100011291252
B1941473727530N12151929WA0029200285001100023330292
B1941483727536N12151929WA0029100282001100028358313
B1941493727541N12151927WA0029300285001100030013328
B1941503727545N12151927WA0029200283001100027006337
B1941513727549N12151929WA0028700279001100020332329
B1941523727551N12151932WA0028500275001100021313306
B1941533727553N12151937WA0028400273001100022289296
B1941543727554N12151941WA0028600270001100022286283
B1941553727554N12151945WA0028700269001100020279283
B1941563727554N12151949WA0028800268001100019260278
B1941573727553N12151952WA0028700268001100019250264
B1941583727552N12151956WA0028700269001100021257260
B1941593727551N12151959WA0028700269001100019266259
B1942003727551N12151963WA0028600269001100017271265
B1942013727551N12151966WA0028500268001100016273273
B1942023727552N12151969WA0028300265001100017279276
B1942033727553N12151973WA0028100263001100020292282
B1942043727554N12151976WA0027900261001100021304287
B1942053727556N12151979WA0027900260001100021317296
B1942063727559N12151981WA0027800260001100022329309
B1942073727562N12151983WA0027800260001100023335312
B1942083727565N12151985WA0027800259001100023342309
B1942093727568N12151986WA0027800259001100023340300
B1942103727571N12151988WA0027800259001100020327277
B1942113727572N12151991WA0027700258001100017301264
B1942123727573N12151994WA0027600258001100017269254
B1942133727571N12151997WA0027400257001100020223235
B1942143727566N12151998WA0027200255001100032186209
B1942153727560N12151997WA0027100254001100034165179
B1942163727554N12151992WA0027100254001100042152160
B1942173727550N12151985WA0027200253001100037134147
B1942183727551N12151976WA0027400253001100036096135
B1942193727551N12151968WA0027400254001100037088086
B1942203727552N12151959WA0027400254001100040087080
B1942213727552N12151951WA0027300253001100044086075
B1942223727553N12151942WA0027200252001100045080068
B1942233727555N12151934WA0027000251001100043076064
B1942243727556N12151926WA0027000250001100041075074
B1942253727557N12151918WA0026800249001100041081109
B1942263727558N12151910WA0026700248001100043094111
B1942273727556N12151901WA0026400247001100043100136
B1942283727553N12151894WA0026200245001100044120143
B1942293727548N12151889WA0026000244001100036131168
B1942303727542N12151889WA0025700242001100032153181
B1942313727541N12151892WA0025500241001100010179203
B1942323727543N12151896WA0025500240001100008330249
B1942333727546N12151899WA0025600239001100015349301
B1942343727550N12151900WA0025700240001100020358311
B1942353727554N12151902WA0025600238001100018343316
B1942363727557N12151905WA0025400237001100020326307
B1942373727559N12151908WA0025200235001100022308299
B1942383727561N12151913WA0025200234001100022290287
B1942393727562N12151917WA0025300234001100020279274
B1942403727561N12151921WA0025500234001100017249272
B1942413727560N12151924WA0025600234001100015234256
B1942423727559N12151926WA0025600234001100011231249
B1942433727558N12151928WA0025600234001100013238253
B1942443727557N12151930WA0025500233001100016240249
B1942453727556N12151933WA0025400233001100015251261
B1942463727555N12151935WA0025400233001100012279297
B1942473727557N12151938WA0025300233001100014315288
B1942483727559N12151939WA0025300233001100020340305
B1942493727562N12151940WA0025400233001100021344282
B1942503727565N12151941WA0025300232001100016332290
B1942513727567N12151943WA0025300232001100014309287
B1942523727567N12151946WA0025200231001100014277274
B1942533727567N12151948WA0025100231001100014249261
B1942543727566N12151951WA0025000230001100015223249
B1942553727563N12151952WA0024900230001100018207237
B1942563727560N12151953WA0024800229001100021191226
B1942573727556N12151953WA0024800228001100023176213
B1942583727552N12151950WA0024700227001100027161201
B1942593727547N12151948WA0024500226001100032157186
B1943003727543N12151946WA0024400225001100030164188
B1943013727538N12151944WA0024300224001100026173195
B1943023727535N12151944WA0024200223001100022177200
B1943033727531N12151944WA0024000221001100022178202
B1943043727528N12151944WA0023800219001100024183210
B1943053727524N12151945WA0023600216001100025191231
B1943063727521N12151946WA0023500215001100023205241
B1943073727518N12151948WA0023400214001100019215263
B1943083727517N12151951WA0023300213001100015238257
B1943093727517N12151953WA0023200212001100014267271
B1943103727517N12151956WA0023200211001100016287277
B1943113727519N12151959WA0023300211001100018300296
B1943123727520N12151961WA0023300212001100017322299
B1943133727522N12151963WA0023300212001100013331278
B1943143727524N12151964WA0023300212001100011322278
B1943153727525N12151965WA0023200211001100010302271
B1943163727526N12151967WA0023000209001100011287272
B1943173727526N12151969WA0022900208001100012277267
B1943183727526N12151971WA0022800207001100011253263
B1943193727525N12151973WA0022600205001100014225253
B1943203727523N12151975WA0022500204001100017208244
B1943213727521N12151976WA0022400204001100021198230
B1943223727517N12151977WA0022300203001100022188221
B1943233727514N12151978WA0022100201001100024178212
B1943243727510N12151977WA0022000200001100028171203
B1943253727506N12151976WA0021900198001100029174202
B1943263727502N12151977WA0021800197001100029188217
B1943273727498N12151978WA0021600196001100028199242
B1943283727495N12151981WA0021700196001100024220243
B1943293727494N12151986WA0021600194001100019244257
B1943303727494N12151989WA0021600194001100014265267
B1943313727497N12151991WA0021700194001100014314274
B1943323727499N12151993WA0021700195001100013317287
B1943333727500N12151995WA0021600194001100011290286
B1943343727501N12151997WA0021500192001100012269276
B1943353727501N12151999WA0021400191001100015258266
B1943363727500N12152002WA0021300189001100017236260
B1943373727498N12152004WA0021200190001100020216248
B1943383727495N12152006WA0021200190001100024200230
B1943393727491N12152008WA0021200190001100025191225
B1943403727488N12152008WA0021200190001100025189217
B1943413727484N12152009WA0021000189001100021193216
B1943423727481N12152010WA0021000188001100021199223
B1943433727478N12152011WA0020900187001100024191219
B1943443727474N12152012WA0020800186001100029180203
B1943453727470N12152011WA0020700185001100033168191
B1943463727465N12152009WA0020600186001100032165190
B1943473727460N12152008WA0020700186001100029165188
B1943483727456N12152007WA0020600186001100028177191
B1943493727452N12152008WA0020600185001100026195203
B1943503727449N12152010WA0020500184001100025214222
B1943513727447N12152013WA0020400184001100022228251
B1943523727447N12152018WA0020300184001100022277278
B1943533727448N12152022WA0020300184001100022301306
B1943543727451N12152024WA0020500184001100020332330
B1943553727455N12152023WA0020400183001100022008329
B1943563727458N12152022WA0020200184001100022019324
B1943573727461N12152020WA0019800183001100019008322
B1943583727464N12152020WA0019400182001100017353305
B1943593727467N12152022WA0019200181001100020326301
B1944003727469N12152025WA0019200181001100023315293
B1944013727471N12152028WA0019200180001100017305290
B1944023727473N12152030WA0019200180001100013289277
B1944033727473N12152033WA0019000179001100013279267
B1944043727474N12152035WA0018900177001100014279277
B1944053727474N12152038WA0018800176001100014275270
B1944063727474N12152040WA0018800175001100010265273
B1944073727474N12152042WA0018800175001100005265281
B1944083727474N12152042WA0018900174001100000265031
B1944093727473N12152042WA0018900174001100000265164
B1944103727473N12152042WA0018900174001100000265190
B1944113727473N12152042WA0018900173001100000265217
B1944123727473N12152041WA0018900173001100000265222
B1944133727473N12152041WA0018900173001100000265246
B1944143727473N12152041WA0018900172001100000265242
B1944153727472N12152041WA0018900172001100000265259
B1944163727472N12152041WA0018900172001100000265253
B1944173727472N12152040WA0018900172001100000265261
B1944183727472N12152041WA0018900172001100000265262
B1944193727472N12152041WA0018900172001100000265269
B1944203727472N12152041WA0018900172001100000265270
B1944213727472N12152041WA0018900172001100000265273
B1944223727472N12152041WA0018900172001100000265274
B1944233727472N12152041WA0018900172001100000265276
B1944243727472N12152041WA0018900172001100000265278
B1944253727472N12152041WA0018900172001100000265278
B1944263727472N12152041WA0018900172001100000265279
B1944273727472N12152041WA0018900172001100000265279
B1944283727472N12152041WA0018900172001100000265280
B1944293727472N12152041WA0018900172001100000265280
B1944303727472N12152041WA0018900172001100000265281
B1944313727472N12152041WA0018900172001100000265281
B1944323727472N12152041WA0018900172001100000265281
B1944333727472N12152041WA0018900172001100000265281
B1944343727472N12152041WA0018900172001100000265282
B1944353727472N12152041WA0018900172001100000265282
B1944363727472N12152041WA0018900172001100000265282
B1944373727472N12152041WA0018900172001100000265282
GZ1cMPW9XGeHPlXjmqVSxCptinFkZqN4sOovine2sx9eVs49Vak91AYBXg39pa5dp
G6ti69UlRyRVagF5G4BoTAYCAx6E8YwawXQH4Ioeom6rAMM1fbWjRc1K208jRz8Y9
GbQEggs3C/jYbt4N26jWegcB/b2gA+6bmABM1e0a9neM=

