AXFH000
HFDTE021125
HFPLTPILOT:Scott O’Brien
HFGTYGLIDERTYPE:Ozone SwiftSix
HFDTM100GPSDATUM:WGS84
HFRFWFIRMWAREVERSION:9.3
HFRHWHARDWAREVERSION:iPhone 15
HFFTYFRTYPE:Flyskyhy,9.3
HFGPS:Bluetooth vario
HFPRSVARIO:Bluetooth vario
HFCCLCOMPETITIONCLASS:Paraglider
HFTZNTIMEZONE:-8
HFSITSITE:Ed Levin 600ft,US
I053638FXA3941VXA4244GSP4547CCO4850HDT
C021125180015021125000100TASK
C0000000N00000000ETAKEOFF
C3731062N12153514W00000000000400000000360000STARTAREA 
C3726317N12149880W00000000000400000000360000FINISHAREA Big Dog Vineyards
C0000000N00000000ELANDING
E180045PEVBackground
B1800453727684N12151586WA0036000360001010001291162
B1800463727684N12151586WA0036000360001010001291162
B1800473727684N12151586WA0036000360001010001291161
B1800483727684N12151586WA0036000359001010001291161
B1800493727684N12151586WA0036000359001010001291161
B1800503727684N12151586WA0036000359001010001291163
B1800513727684N12151586WA0035900359001010001291166
B1800523727684N12151586WA0036000359001010001291164
B1800533727684N12151586WA0036000359001010001291161
B1800543727684N12151586WA0036000359001010001291160
B1800553727684N12151586WA0036000359001010000291160
B1800563727684N12151586WA0036000359001010000291160
B1800573727684N12151586WA0035900359001010000291160
B1800583727684N12151586WA0035900359001010000291160
B1800593727684N12151586WA0035900359001010000291189
B1801003727684N12151586WA0036000359001010000291150
B1801013727684N12151586WA0036000359001010000291114
B1801023727684N12151586WA0035900359001010001291136
B1801033727684N12151586WA0036000359001010003131148
B1801043727684N12151586WA0035900359001010004131144
B1801053727683N12151586WA0035900360001010004130148
B1801063727683N12151585WA0035900361001010004131144
B1801073727683N12151585WA0036000361001010004129144
B1801083727682N12151584WA0036000362001010006128166
B1801093727682N12151584WA0036000362001010006148180
B1801103727681N12151584WA0036000363001010012154169
B1801113727680N12151584WA0036100364001010009154176
B1801123727679N12151583WA0036100365001010012152176
B1801133727678N12151583WA0036100367001010012151220
B1801143727678N12151583WA0036200369001010012148183
B1801153727678N12151582WA0036300371001010012143166
B1801163727678N12151582WA0036300374001010010135218
B1801173727677N12151582WA0036200376001010009121117
B1801183727677N12151581WA0036200379001010009109000
B1801193727677N12151580WA0036300381001010009111000
B1801203727676N12151578WA0036200384001010011116000
B1801213727676N12151578WA0036200387001010009128000
B1801223727675N12151577WA0036300390001010009142000
B1801233727674N12151578WA0036200392001010008146000
B1801243727674N12151578WA0036200393001010006152000
B1801253727675N12151579WA0036300387001010004152000
B1801263727674N12151579WA0036300389001010000152000
B1801273727674N12151579WA0036300388001010000152000
B1801283727674N12151579WA0036300388001100000152000
B1801293727674N12151579WA0036300388001100000152000
B1801303727674N12151579WA0036300388001100000152000
B1801313727674N12151579WA0036300388001100000152000
B1801323727674N12151579WA0036300388001100000152000
B1801333727674N12151579WA0036300388001100000152000
B1801343727674N12151579WA0036300388001100000152000
B1801353727674N12151579WA0036300388001100000152000
B1801363727674N12151579WA0036300388001100000152000
B1801373727674N12151579WA0036300388001100000152000
B1801383727674N12151579WA0036300388001100000152000
B1801393727674N12151579WA0036300388001100000152000
B1801403727674N12151579WA0036200388001100000152000
B1801413727674N12151579WA0036300388001100000152000
B1801423727674N12151579WA0036300388001100000152000
B1801433727674N12151579WA0036300388001100000152000
B1801443727674N12151579WA0036300388001100000152000
B1801453727674N12151579WA0036300388001100000152000
B1801463727674N12151579WA0036300388001100000152000
B1801473727674N12151579WA0036300388001100000152000
B1801483727674N12151579WA0036300388001100000152000
B1801493727674N12151579WA0036200388001100000152000
B1801503727674N12151579WA0036300388001100000152000
B1801513727674N12151579WA0036300388001100000152000
Gy5jDOcSZARAHjVERFvbWImdKVfQ9+blCNri5JxkBHufqVUH97VEMRrqySL1yuDF/
GNNDMBsdujF3LwziMWLVuZLNlshw/uy04vBl78+VhNYEfwhPdV7oBaDV+Nh7dB/DT
GgklHIWvFgtBptclisk09AJb5JkyW/o+qVrBleC2UgJU=

