AXFH000
HFDTE051124
HFPLTPILOT:Scott O’Brien
HFGTYGLIDERTYPE:Ozone Swift 6
HFDTM100GPSDATUM:WGS84
HFRFWFIRMWAREVERSION:8.2.5
HFRHWHARDWAREVERSION:iPhone 15
HFFTYFRTYPE:Flyskyhy,8.2.5
HFGPS:Internal
HFPRSVARIO:Internal Vario
HFCCLCOMPETITIONCLASS:Paraglider
HFTZNTIMEZONE:-3
HFSITSITE:Alto Hospicio,CL
I053638FXA3941VXA4244GSP4547CCO4850HDT
C051124125355051124000105TASK
C0000000N00000000ETAKEOFF
C3832449N11204411W00000000001000000000360000STARTAREA T04
C3832449N11204411W00030009999999000000360000TURNAREA T04
C3833533N11148217W00000000002000000000360000TURNAREA P30
C3845304N11125100W00000000006000000000360000TURNAREA S08
C3913309N11109083W00000000002000000000360000TURNAREA F04
C3935774N11050460W00000000003000000000360000TURNAREA G14
C3935774N11050460W00000000000400000000360000FINISHAREA G14
C0000000N00000000ELANDING
E125425PEVBackground
B1254252016419S07006621WA0054200542005010000000037
B1254262016419S07006621WA0054200542005010000000038
B1254272016419S07006621WA0054200542005010000000041
B1254282016419S07006621WA0054200542005010000000040
B1254292016419S07006621WA0054200542005010000000029
B1254302016419S07006621WA0054200542005010000000021
B1254322016419S07006621WA0054200542005010000000022
B1254332016419S07006621WA0054200542005010000000022
B1254342016419S07006621WA0054200542005010000000023
B1254352016419S07006621WA0054200542005010000000025
B1254362016419S07006621WA0054200542005010000000050
B1254372016419S07006621WA0054200542005010000000067
B1254382016419S07006621WA0054200542005010000000051
B1254392016419S07006621WA0054200542005010000000052
B1254402016419S07006621WA0054200542005010003251048
B1254412016419S07006621WA0054200542005010004335079
B1254422016418S07006622WA0054200542005010005326265
B1254432016418S07006623WA0054200542005010008278258
B1254442016418S07006624WA0054200542005010010264255
B1254452016418S07006626WA0054100542005010014249253
B1254462016419S07006629WA0054100541005010012260261
B1254472016419S07006632WA0054000540005010017272254
B1254482016419S07006635WA0053900539005010024270266
B1254492016419S07006640WA0053800538005010026267269
B1254502016420S07006644WA0053700537005010022268267
B1254512016420S07006648WA0053700536005010020269258
B1254522016420S07006651WA0053600535005010023266256
B1254532016420S07006655WA0053500535005010028257254
B1254542016422S07006660WA0053400534005010033250233
B1254552016424S07006665WA0053300533005010031243246
B1254562016426S07006669WA0053200533005010027244262
B1254572016427S07006673WA0053100532005010025247290
B1254582016428S07006676WA0053000531005010025249296
B1254592016430S07006680WA0052900530005010029248310
B1255002016432S07006685WA0052800529005010031246318
B1255012016433S07006689WA0052700529005010031247327
B1255022016435S07006694WA0052500528005010029251334
B1255032016436S07006698WA0052400527005010029255339
B1255042016437S07006703WA0052300526005010030256342
B1255052016438S07006708WA0052200525005010031256346
B1255062016440S07006713WA0052100523005010035255349
B1255072016441S07006718WA0051900522005010036256351
B1255082016443S07006730WA0051800520005010035263352
B1255092016444S07006735WA0051600519005010033261354
B1255102016444S07006741WA0051500518005010033259355
B1255112016445S07006746WA0051400517005010033260355
B1255122016446S07006751WA0051400515005010034267356
B1255132016446S07006756WA0051300514005010035272357
B1255142016446S07006762WA0051200513005010035274358
B1255152016445S07006767WA0051000512005010033271358
B1255172016445S07006777WA0050900510005010030268358
B1255182016445S07006782WA0050800508005010033270359
B1255192016445S07006788WA0050700507005010037272359
B1255202016445S07006794WA0050600506005010036276359
B1255212016444S07006799WA0050500506005010031274359
B1255222016444S07006803WA0050500506005010026268359
B1255232016444S07006807WA0050500506005010024270359
B1255242016444S07006811WA0050600506005010027271359
B1255252016444S07006816WA0050700506005010031269359
B1255262016444S07006821WA0050700505005010032268359
B1255272016444S07006826WA0050800506005010030269359
B1255282016444S07006830WA0050800506005010028266359
B1255292016445S07006834WA0050800506005010027263359
B1255302016445S07006839WA0050800507005010028261359
B1255312016446S07006843WA0050800507005010031262359
B1255322016446S07006848WA0050900507005010034263359
B1255332016447S07006854WA0050900508005010034262359
B1255342016448S07006859WA0050900508005010034257359
B1255352016449S07006864WA0050900508005010033252359
B1255362016451S07006869WA0050900509005010032247359
B1255372016453S07006874WA0050900509005010030246359
B1255382016454S07006878WA0050900510005010030249359
B1255392016456S07006883WA0051000510005010030252359
B1255402016457S07006887WA0051000511005010032250359
B1255412016459S07006892WA0051100511005010036249359
B1255422016461S07006898WA0051100511005010038250359
B1255432016463S07006903WA0051100511005010034250359
B1255442016465S07006908WA0051200512005010033246359
B1255452016467S07006913WA0051200512005010034242359
B1255462016469S07006918WA0051300513005010036244359
B1255472016471S07006924WA0051300513005010034249359
B1255482016473S07006928WA0051400513005010031252359
B1255492016474S07006933WA0051400513005010029251359
B1255502016476S07006938WA0051400513005010031249359
B1255512016477S07006943WA0051300512005010033250359
B1255522016479S07006948WA0051300512005010035254359
B1255532016480S07006953WA0051200511005010034253359
B1255542016482S07006958WA0051100510005010033250359
B1255552016484S07006963WA0051000510005010032249359
B1255562016485S07006968WA0050900509005010032253359
B1255572016486S07006973WA0050800508005010033257359
B1255582016487S07006978WA0050700507005010033258359
B1255592016488S07006983WA0050700506005010034257359
B1256002016490S07006989WA0050600505005010035256359
B1256012016491S07006994WA0050500505005010033258359
B1256022016492S07006999WA0050400504005010029258359
B1256032016493S07007003WA0050300503005010026259359
B1256042016493S07007007WA0050200503005010024261359
B1256052016494S07007011WA0050200502005010023265359
B1256062016494S07007015WA0050200502005010027267359
B1256072016494S07007019WA0050200501005010030265359
B1256082016494S07007024WA0050100501005010031261359
B1256092016495S07007029WA0050000500005010030258359
B1256102016496S07007033WA0049900499005010028255359
B1256112016497S07007037WA0049700499005010027253359
B1256122016498S07007042WA0049600498005010027253359
B1256132016500S07007046WA0049500497005010029253359
B1256142016501S07007050WA0049500497005010031252359
B1256152016503S07007055WA0049400496005010030249359
B1256162016504S07007059WA0049300495005010028245359
B1256172016506S07007064WA0049200494005010027245359
B1256182016508S07007068WA0049100493005010028246359
B1256192016510S07007072WA0049000492005010029248359
B1256202016511S07007077WA0048900491005010030249359
B1256212016513S07007081WA0048800489005010030252359
B1256222016514S07007086WA0048700488005010029256359
B1256232016515S07007090WA0048700487005010029259359
B1256242016516S07007095WA0048600486005010029261359
B1256252016516S07007099WA0048400485005010029262359
B1256262016517S07007104WA0048300484005010029260359
B1256272016518S07007108WA0048200482005010028256359
B1256282016519S07007113WA0048100481005010028252359
B1256292016520S07007117WA0048000480005010028252359
B1256302016522S07007121WA0047900479005010028251359
B1256312016523S07007125WA0047800478005010028249359
B1256322016524S07007129WA0047700476005010028247359
B1256332016526S07007133WA0047700475005010027243359
B1256342016528S07007137WA0047600474005010026237359
B1256352016530S07007140WA0047500473005010026233359
B1256362016533S07007144WA0047400472005010027233359
B1256372016535S07007147WA0047300470005010028232359
B1256382016538S07007151WA0047200469005010029227359
B1256392016541S07007154WA0047000468005010029221359
B1256402016544S07007157WA0046900467005010028222359
B1256412016547S07007160WA0046900466005010027229359
B1256422016550S07007164WA0046700464005010028236359
B1256432016552S07007168WA0046600463005010028236359
B1256442016554S07007171WA0046500462005010027233359
B1256452016557S07007174WA0046500461005010025231359
B1256462016559S07007178WA0046400460005010024235359
B1256472016561S07007181WA0046300459005010025239359
B1256482016563S07007184WA0046200458005010028240359
B1256492016565S07007188WA0046100457005010029238359
B1256502016567S07007192WA0046000455005010028236359
B1256512016569S07007196WA0045800454005010026234359
B1256522016572S07007199WA0045600453005010026234359
B1256532016574S07007203WA0045500452005010028233359
B1256542016577S07007206WA0045300451005010030233359
B1256552016579S07007210WA0045200449005010031234359
B1256562016582S07007214WA0045000448005010029235359
B1256572016584S07007218WA0044900447005010028236359
B1256582016587S07007222WA0044900445005010028235359
B1256592016589S07007226WA0044800444005010029234359
B1257002016592S07007230WA0044600443005010029235359
B1257012016594S07007233WA0044500442005010028236359
B1257022016597S07007237WA0044500441005010028238359
E125702PEVForeground
B1257032016599S07007241WA0044500440005010029238359
B1257042016601S07007245WA0044400439005010030238239
B1257052016604S07007249WA0044400438005010030236238
B1257062016606S07007253WA0044300438005010030236240
B1257072016609S07007256WA0044300438005010029236236
B1257082016611S07007260WA0044300437005010030238243
B1257092016613S07007264WA0044200437005010028246252
B1257102016614S07007268WA0044200437005010026271270
B1257112016613S07007272WA0044200436005010027291295
B1257122016610S07007276WA0044200436005010037322309
B1257132016605S07007279WA0044100435005010040331325
B1257142016600S07007282WA0044000434005010038328321
B1257152016595S07007286WA0044000434005010034320314
B1257162016591S07007289WA0043900433005010031315309
B1257172016588S07007292WA0043800432005010031319315
B1257182016584S07007295WA0043700432005010034329328
B1257192016579S07007298WA0043600430005010035327326
B1257202016575S07007301WA0043500430005010033323331
B1257212016571S07007304WA0043400429005010030318316
B1257222016568S07007307WA0043200428005010029320324
B1257232016564S07007310WA0043100426005010029323318
B1257242016561S07007313WA0043000425005010031318317
B1257252016558S07007317WA0042800424005010032309305
B1257262016555S07007321WA0042700422005010032301304
B1257272016553S07007325WA0042600421005010031300299
B1257282016550S07007329WA0042500419005010029303304
B1257292016548S07007333WA0042300418005010028303299
B1257302016546S07007337WA0042200417005010029298297
B1257312016544S07007341WA0042100415005010030292289
B1257322016543S07007346WA0042000414005010030288288
B1257332016541S07007350WA0042000412005010030284283
B1257342016540S07007355WA0041800411005010029280281
B1257352016540S07007359WA0041700409005010028276276
B1257362016540S07007363WA0041600408005010028273276
B1257372016539S07007368WA0041500407005010028272275
B1257382016539S07007372WA0041300405005010029271275
B1257392016539S07007377WA0041200404005010028269272
B1257402016539S07007381WA0041100403005010028265260
B1257412016540S07007386WA0041000402005010028263265
B1257422016540S07007390WA0040800401005010031263261
B1257432016541S07007396WA0040600399005010036264263
B1257442016541S07007402WA0040300398005010039263264
B1257452016542S07007408WA0040000396005010037263264
B1257462016543S07007413WA0039800395005010034264263
B1257472016543S07007419WA0039600394005010032264265
B1257482016544S07007424WA0039400393005010031264263
B1257492016544S07007428WA0039300392005010032262261
B1257502016545S07007434WA0039300391005010034261261
B1257512016546S07007439WA0039200390005010035261262
B1257522016547S07007445WA0039100389005010035263264
B1257532016547S07007450WA0038900388005010034265263
B1257542016547S07007455WA0038800386005010033264265
B1257552016548S07007461WA0038600385005010033262262
B1257562016549S07007466WA0038500384005010033262262
B1257572016549S07007471WA0038300383005010034263267
B1257582016550S07007476WA0038200382005010034264265
B1257592016550S07007482WA0038100381005010034261265
B1258002016551S07007487WA0038000380005010034254266
B1258012016553S07007492WA0037800378005010033246258
B1258022016555S07007497WA0037800377005010031244255
B1258032016557S07007502WA0037700376005010028248257
B1258042016558S07007505WA0037600375005010025252262
B1258052016559S07007509WA0037500374005010026250257
B1258062016561S07007513WA0037400372005010028242243
B1258072016563S07007517WA0037300371005010031236245
B1258082016566S07007521WA0037300369005010032230231
B1258092016570S07007525WA0037100367005010032225227
B1258102016573S07007528WA0036900366005010031216214
B1258112016577S07007531WA0036700364005010031212223
B1258122016581S07007534WA0036500363005010030215214
B1258132016584S07007537WA0036400361005010028221222
B1258142016587S07007540WA0036300360005010027231229
B1258152016590S07007543WA0036200358005010027228223
B1258162016593S07007546WA0036100357005010028221222
B1258172016596S07007549WA0036000355005010028223227
B1258182016599S07007553WA0035900354005010028234233
B1258192016601S07007557WA0035700352005010029245241
B1258202016602S07007561WA0035600351005010029247238
B1258212016604S07007565WA0035500349005010028241236
B1258222016606S07007569WA0035300348005010028237237
B1258232016608S07007573WA0035200346005010028241239
B1258242016610S07007577WA0035100345005010029253248
B1258252016611S07007581WA0035100344005010029257251
B1258262016612S07007585WA0035000342005010029260252
B1258272016612S07007590WA0034800341005010028254250
B1258282016614S07007594WA0034700339005010027253249
B1258292016614S07007598WA0034600338005010026258251
B1258302016615S07007602WA0034500336005010027261252
B1258312016616S07007606WA0034400335005010027256249
B1258322016617S07007611WA0034300334005010027253244
B1258332016618S07007615WA0034200332005010027248241
B1258342016620S07007619WA0034100331005010027250242
B1258352016621S07007623WA0034000329005010026250238
B1258362016623S07007627WA0033900328005010026241228
B1258372016625S07007630WA0033800326005010024232217
B1258382016628S07007633WA0033600325005010026214207
B1258392016631S07007635WA0033500324005010031204210
B1258402016636S07007637WA0033400323005010029207198
B1258412016640S07007639WA0033300322005010027211209
B1258422016643S07007641WA0033100321005010027208207
B1258432016647S07007642WA0033000319005010028199195
B1258442016651S07007644WA0033000318005010030196196
B1258452016656S07007645WA0032900317005010031195194
B1258462016660S07007647WA0032800316005010030195196
B1258472016665S07007648WA0032700314005010029193193
B1258482016669S07007649WA0032500313005010028187190
B1258492016673S07007649WA0032400312005010029185187
B1258502016678S07007649WA0032300311005010030184190
B1258512016682S07007650WA0032200310005010029186191
B1258522016687S07007651WA0032100309005010029188196
B1258532016691S07007651WA0032000308005010028191197
B1258542016695S07007652WA0031900307005010028194201
B1258552016699S07007654WA0031800306005010029200203
B1258562016704S07007655WA0031700305005010028203203
B1258572016708S07007657WA0031600304005010028201208
B1258582016712S07007658WA0031500303005010028196201
B1258592016716S07007660WA0031400302005010030193196
B1259002016721S07007661WA0031400302005010031194200
B1259012016725S07007662WA0031300301005010031195198
B1259022016730S07007664WA0031200300005010030195200
B1259032016734S07007665WA0031100299005010029194197
B1259042016738S07007666WA0031000298005010029194198
B1259052016742S07007667WA0030900297005010030196198
B1259062016747S07007669WA0030800297005010030197199
B1259072016751S07007670WA0030700296005010030196199
B1259082016755S07007672WA0030600295005010030196198
B1259092016759S07007674WA0030500294005010029196200
B1259102016764S07007675WA0030400293005010029198199
B1259112016768S07007677WA0030300292005010029198201
B1259122016772S07007678WA0030200292005010029198201
B1259132016776S07007679WA0030100291005010030199201
B1259142016780S07007681WA0030000290005010030199203
B1259152016785S07007683WA0029900289005010030201202
B1259162016789S07007685WA0029800288005010029202204
B1259172016793S07007686WA0029700287005010029202203
B1259182016797S07007688WA0029600287005010029201203
B1259192016801S07007690WA0029600286005010030201206
B1259202016805S07007691WA0029500285005010030204206
B1259212016809S07007693WA0029400284005010029208210
B1259222016813S07007696WA0029300284005010029209207
B1259232016817S07007698WA0029200283005010029206208
B1259242016820S07007700WA0029100282005010029204206
B1259252016824S07007702WA0029000281005010029205214
B1259262016828S07007705WA0028900280005010030215225
B1259272016831S07007708WA0028800279005010030228235
B1259282016834S07007712WA0028700278005010030241248
B1259292016835S07007716WA0028600277005010030252255
B1259302016836S07007721WA0028500276005010029259261
B1259312016837S07007725WA0028400275005010027265265
B1259322016837S07007730WA0028300274005010028273277
B1259332016836S07007734WA0028200273005010031281282
B1259342016835S07007739WA0028100271005010034290289
B1259352016833S07007744WA0027900270005010038299300
B1259362016829S07007749WA0027900269005010038309306
B1259372016826S07007754WA0027800268005010036315309
B1259382016822S07007757WA0027600267005010033318315
B1259392016818S07007761WA0027500266005010031318312
B1259402016814S07007764WA0027400265005010033319312
B1259412016810S07007768WA0027300264005010034321316
B1259422016806S07007771WA0027200263005010035324320
B1259432016802S07007774WA0027100263005010036327329
B1259442016797S07007777WA0027000262005010035332331
B1259452016792S07007779WA0026900261005010035339349
B1259462016787S07007781WA0026700260005010032350003
B1259472016783S07007780WA0026700259005010031014023
B1259482016778S07007778WA0026600258005010034038041
B1259492016775S07007774WA0026500257005010039056060
B1259502016772S07007768WA0026500256005010041071077
B1259512016771S07007761WA0026400255005010039085093
B1259522016771S07007755WA0026200254005010037096106
B1259532016772S07007750WA0026100253005010035105118
B1259542016774S07007744WA0026100252005010036112125
B1259552016777S07007739WA0026000252005010037118133
B1259562016780S07007734WA0025900251005010038124139
B1259572016783S07007729WA0025900250005010038132146
B1259582016787S07007725WA0025800249005010037138151
B1259592016792S07007721WA0025700248005010036141154
B1300002016796S07007718WA0025600247005010035143156
B1300012016800S07007714WA0025500246005010035144159
B1300022016805S07007711WA0025400245005010035148161
B1300032016809S07007708WA0025300244005010035152165
B1300042016814S07007706WA0025200243005010035153165
B1300052016819S07007704WA0025200242005010034154168
B1300062016824S07007701WA0025100241005010033156171
B1300072016828S07007699WA0025000240005010033159173
B1300082016833S07007697WA0024900239005010033162176
B1300092016838S07007696WA0024800238005010033164175
B1300102016843S07007694WA0024700238005010033163175
B1300112016848S07007693WA0024700237005010033162176
B1300122016853S07007691WA0024600236005010033162177
B1300132016857S07007690WA0024500235005010032164179
B1300142016862S07007689WA0024400234005010032166180
B1300152016867S07007688WA0024300233005010033167182
B1300162016871S07007687WA0024200232005010034167176
B1300172016876S07007686WA0024100231005010035169183
B1300182016882S07007685WA0024000230005010035172180
B1300192016887S07007684WA0023900229005010033173183
B1300202016891S07007684WA0023800229005010032173184
B1300212016896S07007683WA0023700228005010032173183
B1300222016901S07007683WA0023600227005010033174186
B1300232016906S07007682WA0023500226005010033176187
B1300242016911S07007682WA0023400225005010033178191
B1300252016915S07007682WA0023300224005010033182195
B1300262016920S07007683WA0023200223005010032189204
B1300272016925S07007684WA0023000221005010032198212
B1300282016929S07007686WA0022900220005010032206217
B1300292016933S07007689WA0022900219005010031215225
B1300302016937S07007692WA0022800218005010030221229
B1300312016940S07007695WA0022700217005010030226234
B1300322016943S07007699WA0022600216005010030232240
B1300332016945S07007703WA0022500215005010030240244
B1300342016947S07007707WA0022400213005010030247252
B1300352016949S07007712WA0022300212005010029253255
B1300362016950S07007716WA0022100211005010029257259
B1300372016951S07007721WA0022000210005010029261262
B1300382016951S07007725WA0021900209005010029265267
B1300392016951S07007729WA0021800208005010029272271
B1300402016951S07007734WA0021700207005010029277274
B1300412016950S07007738WA0021600206005010028281278
B1300422016949S07007742WA0021500205005010027283279
B1300432016948S07007747WA0021400204005010028286284
B1300442016946S07007751WA0021300203005010029293288
B1300452016944S07007755WA0021200202005010030300296
B1300462016942S07007759WA0021200201005010031305301
B1300472016939S07007763WA0021100200005010029310307
B1300482016936S07007766WA0021000199005010029313308
B1300492016933S07007770WA0020900198005010029317310
B1300502016929S07007773WA0020800197005010029319309
B1300512016926S07007776WA0020700196005010029318305
B1300522016923S07007779WA0020600195005010028313300
B1300532016920S07007782WA0020500194005010028306296
B1300542016918S07007786WA0020400193005010028303294
B1300552016916S07007789WA0020300192005010028304295
B1300562016913S07007793WA0020200191005010028306299
B1300572016911S07007797WA0020100190005010029306300
B1300582016908S07007800WA0020000190005010029308303
B1300592016906S07007804WA0019900189005010029311305
B1301002016903S07007808WA0019800188005010029314307
B1301012016900S07007811WA0019700187005010028314306
B1301022016897S07007814WA0019500186005010029314307
B1301032016894S07007817WA0019400185005010029314307
B1301042016891S07007820WA0019300184005010029316309
B1301052016887S07007824WA0019300183005010029318310
B1301062016884S07007827WA0019200182005010029319310
B1301072016881S07007830WA0019100181005010029319310
B1301082016878S07007833WA0019000180005010029318310
B1301092016874S07007835WA0018900179005010029319311
B1301102016871S07007838WA0018800178005010029322314
B1301112016867S07007841WA0018700177005010029323314
B1301122016864S07007844WA0018600176005010029323313
B1301132016861S07007847WA0018500175005010029322315
B1301142016857S07007849WA0018400174005010030323316
B1301152016854S07007852WA0018300173005010030325318
B1301162016850S07007855WA0018200173005010030329322
B1301172016846S07007857WA0018100172005010031331320
B1301182016841S07007859WA0018000171005010030330321
B1301192016837S07007862WA0017900170005010030329320
B1301202016833S07007864WA0017800169005010030330321
B1301212016829S07007866WA0017700168005010030333327
B1301222016825S07007868WA0017700168005010031337328
B1301232016821S07007870WA0017700167005010031339329
B1301242016816S07007872WA0017600166005010031339330
B1301252016812S07007873WA0017500165005010031340330
B1301262016807S07007875WA0017400165005010031342334
B1301272016803S07007876WA0017300164005010032347338
B1301282016798S07007877WA0017200163005010033351344
B1301292016793S07007878WA0017100163005010033355346
B1301302016788S07007878WA0017000162005010033357348
B1301312016783S07007878WA0016900161005010033000353
B1301322016778S07007878WA0016700160005010033004357
B1301332016773S07007877WA0016600159005010034009007
B1301342016768S07007876WA0016500158005010035015011
B1301352016763S07007874WA0016400157005010036022020
B1301362016758S07007871WA0016300156005010036028025
B1301372016753S07007868WA0016200155005010036033031
B1301382016748S07007865WA0016100155005010037038038
B1301392016744S07007861WA0016000154005010037043042
B1301402016740S07007856WA0016000154005010038049049
B1301412016737S07007851WA0015900153005010039054054
B1301422016733S07007846WA0015800152005010039059061
B1301432016731S07007841WA0015700151005010039063064
B1301442016728S07007835WA0015600150005010038068071
B1301452016726S07007829WA0015500149005010038073078
B1301462016725S07007823WA0015400148005010039078083
B1301472016724S07007817WA0015300148005010040083088
B1301482016724S07007811WA0015100147005010040087091
B1301492016724S07007804WA0015000146005010039091100
B1301502016724S07007798WA0014900145005010038097104
B1301512016725S07007793WA0014800144005010038101108
B1301522016727S07007787WA0014700143005010038105110
B1301532016728S07007781WA0014600141005010038107112
B1301542016730S07007775WA0014500140005010037108114
B1301552016732S07007770WA0014400139005010037109115
B1301562016734S07007765WA0014300138005010037112118
B1301572016737S07007759WA0014200137005010037115121
B1301582016739S07007754WA0014200136005010036117123
B1301592016742S07007749WA0014100135005010035119130
B1302002016745S07007744WA0014000133005010035123141
B1302012016748S07007740WA0013900132005010034133152
B1302022016752S07007737WA0013800131005010034145159
B1302032016756S07007734WA0013700130005010034153163
B1302042016761S07007732WA0013500129005010034155168
B1302052016765S07007730WA0013400127005010033156166
B1302062016770S07007728WA0013300126005010032159173
B1302072016775S07007726WA0013200125005010031167181
B1302082016779S07007725WA0013100124005010032177187
B1302092016784S07007726WA0013000123005010033185197
B1302102016789S07007727WA0012900121005010032192202
B1302112016793S07007728WA0012800120005010031201215
B1302122016797S07007730WA0012700119005010030213221
B1302132016801S07007733WA0012500118005010030223229
B1302142016804S07007737WA0012400117005010030230231
B1302152016807S07007740WA0012400116005010030234236
B1302162016809S07007745WA0012300114005010030240242
B1302172016811S07007749WA0012200113005010030249249
B1302182016812S07007754WA0012100112005010031258258
B1302192016813S07007759WA0012000111005010032266262
B1302202016813S07007764WA0011900110005010032270266
B1302212016813S07007770WA0011800109005010030274275
B1302222016813S07007774WA0011700108005010030281285
B1302232016811S07007779WA0011600107005010031291291
B1302242016809S07007783WA0011600106005010032302301
B1302252016806S07007787WA0011500105005010034309308
B1302262016802S07007791WA0011400104005010034316318
B1302272016799S07007795WA0011200103005010033320316
B1302282016795S07007798WA0011100102005010033323324
B1302292016791S07007801WA0011100101005010032327328
B1302302016786S07007804WA0011000100005010032329336
B1302312016782S07007806WA0010900099005010031339350
B1302322016777S07007807WA0010800098005010031357006
B1302332016772S07007806WA0010800097005010034015018
B1302342016767S07007804WA0010700096005010036026029
B1302352016763S07007801WA0010600095005010037032039
B1302362016758S07007797WA0010500094005010036036042
B1302372016754S07007794WA0010400093005010034038043
B1302382016750S07007791WA0010300092005010033038044
B1302392016746S07007787WA0010200092005010034037041
B1302402016741S07007784WA0010100091005010035036041
B1302412016737S07007780WA0010000091005010035036038
B1302422016733S07007777WA0009900090005010034036036
B1302432016729S07007774WA0009900090005010034034032
B1302442016725S07007771WA0009800088005010034030026
B1302452016720S07007769WA0009700087005010034025023
B1302462016715S07007767WA0009600086005010034023017
B1302472016710S07007765WA0009500086005010034018013
B1302482016706S07007763WA0009300085005010033015005
B1302492016701S07007762WA0009200084005010032007358
B1302502016696S07007762WA0009200083005010032001351
B1302512016691S07007762WA0009100082005010033357350
B1302522016686S07007763WA0009000080005010033355349
B1302532016681S07007763WA0008900079005010033353345
B1302542016677S07007764WA0008800078005010032349342
B1302552016672S07007765WA0008700077005010030344338
B1302562016668S07007766WA0008600076005010030341336
B1302572016664S07007768WA0008500075005010030340336
B1302582016660S07007769WA0008400074005010031340336
B1302592016655S07007771WA0008300073005010031340335
B1303002016651S07007773WA0008200072005010031338330
B1303012016647S07007775WA0008100071005010031334328
B1303022016643S07007777WA0008000070005010030329321
B1303032016639S07007780WA0007900069005010030325317
B1303042016635S07007782WA0007800068005010029323314
B1303052016632S07007785WA0007700067005010029320312
B1303062016629S07007788WA0007600065005010030314304
B1303072016626S07007792WA0007500065005010029309297
B1303082016624S07007796WA0007500064005010029303288
B1303092016622S07007800WA0007400063005010029296276
B1303102016620S07007804WA0007300062005010028286264
B1303112016619S07007808WA0007200061005010027271248
B1303122016620S07007812WA0007100060005010027252236
B1303132016622S07007816WA0007000060005010028231221
B1303142016625S07007818WA0006900059005010027207206
B1303152016629S07007820WA0006800058005010028181187
B1303162016633S07007819WA0006700057005010029157165
B1303172016637S07007816WA0006600056005010030139145
B1303182016640S07007813WA0006500056005010030125137
B1303192016642S07007809WA0006400055005010029118141
B1303202016644S07007805WA0006300054005010028121150
B1303212016647S07007802WA0006200054005010025135161
B1303222016650S07007799WA0006100053005010024151171
B1303232016653S07007798WA0006000052005010026168183
B1303242016657S07007798WA0005900051005010021193195
B1303262016660S07007801WA0005700050005010023234213
B1303272016661S07007805WA0005600048005010024251243
B1303282016663S07007809WA0005600047005010024253249
B1303292016664S07007814WA0005500046005010024249240
B1303302016666S07007818WA0005400045005010024237227
B1303312016668S07007821WA0005400044005010026225211
B1303322016672S07007824WA0005300043005010026200198
B1303332016675S07007825WA0005200043005010026179181
B1303342016679S07007824WA0005100042005010029144166
B1303352016682S07007820WA0004900041005010031115137
B1303362016684S07007815WA0004800041005010031099116
B1303372016684S07007810WA0004700040005010028097115
B1303382016685S07007806WA0004500039005010027105125
B1303392016687S07007802WA0004400038005010027129136
B1303402016690S07007799WA0004300037005010024145157
B1303412016693S07007798WA0004200036005010024161173
B1303422016697S07007797WA0004100035005010024173186
B1303432016701S07007797WA0003900034005010022183193
B1303442016704S07007798WA0003700032005010019200197
B1303452016706S07007800WA0003600031005010019230206
B1303462016708S07007804WA0003600031005010017220216
B1303472016710S07007808WA0003500029005010022185208
B1303482016715S07007808WA0003400028005010031166181
B1303492016718S07007807WA0003200027005010029140162
B1303502016721S07007805WA0003100025005010026118137
B1303512016723S07007802WA0003000024005010026107124
B1303522016724S07007798WA0002900023005010027107124
B1303532016725S07007795WA0002800022005010028112130
B1303542016727S07007791WA0002700020005010029120137
B1303552016730S07007787WA0002600019005010029129145
B1303562016733S07007785WA0002500018005010027135155
B1303572016736S07007782WA0002400017005010026138165
B1303582016739S07007780WA0002300016005010024146173
B1303592016742S07007778WA0002200015005010024159181
B1304002016746S07007778WA0002100015005010025170190
B1304012016749S07007778WA0002000014005010025183198
B1304022016753S07007780WA0001900013005010025203198
B1304032016756S07007782WA0001800011005010024201190
B1304042016759S07007784WA0001700011005010023189178
B1304052016763S07007784WA0001600010005010023181171
B1304062016766S07007784WA0001600009005010024178174
B1304072016770S07007784WA0001500008005010025175177
B1304082016774S07007783WA0001400007005010025171167
B1304092016778S07007783WA0001200007005010024167174
B1304102016781S07007782WA0001100006005010024166170
B1304112016785S07007781WA0001000005005010021166265
B1304122016787S07007780WA0001000004005010016170173
B1304132016789S07007780WA0000900003005010005170177
B1304142016790S07007780WA0000900002005010004164191
B1304152016790S07007779WA0000900001005010004122192
B1304162016790S07007778WA0000900000005010002133187
B1304172016790S07007778WA0000900000005010001106193
B1304182016790S07007778WA0000900000005010000000193
B1304192016790S07007778WA0000900000005010000343193
B1304202016790S07007778WA0000900000005010000237193
B1304212016790S07007778WA0000900000005010000000193
B1304222016790S07007778WA0000900000005010001212193
B1304232016790S07007778WA0000900000005010001206193
B1304242016790S07007778WA0000900000005010000000193
B1304252016790S07007778WA0000900000005010000000193
B1304262016790S07007778WA0000900000005010000000193
B1304272016790S07007778WA0000900000005010000000193
B1304282016790S07007778WA0000900000005010000000193
B1304292016790S07007778WA0000900000005010000246193
B1304302016790S07007778WA0000900000005010000000193
B1304312016790S07007778WA0000900000005010000000193
B1304322016790S07007778WA0000900000005010000000193
B1304332016790S07007778WA0000900000005010000000193
B1304342016790S07007778WA0000900000005010000000193
B1304352016790S07007778WA0000900000005010000000193
B1304362016790S07007778WA0000900000005010000245193
B1304372016790S07007778WA0000900000005010000000193
B1304382016790S07007778WA0000900000005010000000193
B1304392016790S07007778WA0000900000005010000171193
B1304402016790S07007778WA0000900000005010001170193
B1304412016790S07007778WA0000900000005010001168193
B1304422016790S07007778WA0000900000005010000000193
B1304432016790S07007778WA0000900000005010000000193
B1304442016790S07007778WA0000900000005010000000193
B1304452016790S07007778WA0000900000005010000000193
B1304462016790S07007778WA0000900000005010000000193
GC1AkSBmtUfWlh8EMer9K5Z4hc29RSqbnxe9Jg+dilZbsdFH78G1R/gdcahTbPnA/
G5C5aAWMgcTZLsnX14AbyEjP4MoUyX/hQNwb/bq8k0YBzgpf3sKF10YsSSuerX5CK
G/uIbiamicmlX4SAHSVGNZ12mwg2bH1k5DY0Nv39WO7o=

