AXFH000
HFDTE040826
HFPLTPILOT:Scott O’Brien
HFGTYGLIDERTYPE:Ozone Swift 6
HFDTM100GPSDATUM:WGS84
HFRFWFIRMWAREVERSION:9.7
HFRHWHARDWAREVERSION:iPhone 15
HFFTYFRTYPE:Flyskyhy,9.7
HFGPS:Internal
HFPRSVARIO:Internal Vario
HFCCLCOMPETITIONCLASS:Paraglider
HFTZNTIMEZONE:-7
HFSITSITE:Mission Ridge (Fremont- San Jose),US
I053638FXA3941VXA4244GSP4547CCO4850HDT
B0030033731051N12153511WA0059100592004003001008054
B0030043731051N12153511WA0059100592004003002004049
B0030053731051N12153511WA0059100593004003000000050
B0030063731051N12153511WA0059200593004003001347051
B0030073731051N12153511WA0059200592004003000325051
B0030083731051N12153511WA0059200591004003000311051
B0030093731051N12153511WA0059200591004003000282050
B0030103731051N12153511WA0059200591004003000344051
B0030113731051N12153511WA0059100591004003000356051
B0030123731051N12153511WA0059100590004003000002051
B0030133731051N12153511WA0059100590004003000343063
B0030143731051N12153511WA0059100590004003000359065
B0030153731052N12153511WA0059100591004003001005069
B0030163731052N12153511WA0059100592004003000007065
B0030173731051N12153511WA0059100592004003000035070
B0030183731051N12153511WA0059100590004003000191058
B0030193731050N12153511WA0059100592004003003207083
B0030203731050N12153512WA0059100591004003003200103
B0030213731050N12153512WA0059100591004003002192090
B0030223731049N12153512WA0059100591004003002153074
B0030233731049N12153512WA0059100591004003002216081
B0030243731049N12153512WA0059100591004003001216107
B0030253731049N12153512WA0059100590004003001216097
B0030263731049N12153512WA0059100591004003003263063
B0030273731049N12153513WA0059100590004003003263095
B0030283731049N12153514WA0059100589004003005263020
B0030293731048N12153516WA0059000590004003007256240
B0030303731048N12153517WA0059000590004003011252237
B0030313731047N12153520WA0059000588004003011243243
B0030323731047N12153521WA0059000586004003011246250
B0030333731046N12153523WA0058900586004003015239232
B0030343731045N12153525WA0058800586004003020239245
B0030353731043N12153528WA0058700585004004015235237
B0030363731041N12153531WA0058600581004003020234231
B0030373731039N12153535WA0058400579004003027230232
B0030383731035N12153539WA0058300580004003035227226
B0030393731032N12153543WA0058100579004003027225245
B0030403731030N12153546WA0057900577004003023225243
B0030413731027N12153549WA0057800575004003025230243
B0030423731025N12153553WA0057700573004003029243231
B0030433731024N12153559WA0057600572004003029253244
B0030443731023N12153564WA0057500569004003029260253
B0030453731023N12153569WA0057500568004004029263262
B0030463731024N12153574WA0057400569004003030276267
B0030473731025N12153580WA0057200569004003029285285
B0030483731027N12153585WA0057100568004004030295294
B0030493731029N12153590WA0057000567004004026294296
B0030503731032N12153594WA0057000565004003026300293
B0030513731034N12153598WA0056900563004003026307294
B0030523731037N12153602WA0056800561004003027310299
B0030533731040N12153606WA0056700561004003028304308
B0030543731042N12153610WA0056500561004003028301312
B0030553731045N12153614WA0056400561004003026307322
B0030563731048N12153617WA0056200560004003026320320
B0030573731052N12153619WA0056100561004003028334320
B0030583731056N12153621WA0056100562004003028339327
B0030593731060N12153622WA0056100562004003027342329
B0031003731063N12153623WA0056100563004003026340329
B0031013731067N12153625WA0056100563004003027339338
B0031023731071N12153626WA0056100561004003027339320
B0031033731074N12153628WA0056100561004003024341328
B0031043731078N12153629WA0056100559004003024343320
B0031053731083N12153630WA0056100559004003035343315
B0031063731088N12153632WA0056100559004003035343330
B0031073731093N12153634WA0056100558004003035339319
B0031083731097N12153637WA0056000558004003032335333
B0031093731101N12153639WA0055900558004003030332340
B0031103731104N12153641WA0055800559004003030334335
B0031113731107N12153643WA0055800558004003024338332
B0031123731110N12153644WA0055800556004003022337325
B0031133731114N12153647WA0055700553004003031333319
B0031143731118N12153650WA0055700551004003037330310
B0031153731123N12153653WA0055600550004003037328326
B0031163731128N12153657WA0055500551004003037328325
B0031173731131N12153659WA0055400554004003019329312
B0031183731133N12153661WA0055400553004003019335315
B0031193731136N12153662WA0055300553004003019337324
B0031203731140N12153665WA0055200552004003025333327
B0031213731145N12153668WA0055200552004003034329341
B0031223731149N12153671WA0055200552004003035329335
B0031233731154N12153674WA0055300552004003034335346
B0031243731158N12153676WA0055300552004003032340333
B0031253731162N12153678WA0055300550004003028340331
B0031263731166N12153680WA0055300549004003031335327
B0031273731170N12153683WA0055200549004003031331332
B0031283731174N12153685WA0055200550004003031332333
B0031293731178N12153688WA0055100550004003028334334
B0031303731182N12153690WA0055000550004003030336339
B0031313731187N12153692WA0054900551004003030336327
B0031323731191N12153694WA0054900553004003030339331
B0031333731194N12153696WA0055000556004003019338346
B0031343731196N12153697WA0055100558004003019338327
B0031353731198N12153698WA0055100559004003014333328
B0031363731199N12153699WA0055200558004003014331335
B0031373731202N12153701WA0055400558004003025331327
B0031383731205N12153703WA0055600559004003025335331
B0031393731209N12153705WA0055700562004003025340341
B0031403731212N12153706WA0055800564004003024346334
B0031413731215N12153707WA0055900567004003020345318
B0031423731219N12153708WA0056000568004003024348331
B0031433731223N12153709WA0056200568004003024346324
B0031443731227N12153710WA0056300568004003029347337
B0031453731231N12153711WA0056500568004003026346342
B0031463731235N12153712WA0056600568004003028351336
B0031473731239N12153712WA0056700568004003028359351
B0031483731244N12153712WA0056800568004003029004332
B0031493731248N12153711WA0056800569004003030004331
B0031503731253N12153711WA0056800568004003030002327
B0031513731257N12153710WA0056800567004003028000335
B0031523731261N12153711WA0056800566004003028357336
B0031533731266N12153711WA0056800564004003030354338
B0031543731271N12153712WA0056700563004003035351328
B0031553731276N12153713WA0056700563004003035353317
B0031563731281N12153714WA0056600562004003034349318
B0031573731285N12153715WA0056400562004004033350320
B0031583731290N12153717WA0056300565004003033339321
B0031593731294N12153720WA0056200567004003027333312
B0032003731297N12153723WA0056200570004003027322316
B0032013731300N12153725WA0056200572004003022322308
B0032023731302N12153728WA0056300572004003022328308
B0032033731306N12153731WA0056500574004003026332316
B0032043731310N12153734WA0056700576004003031329300
B0032053731314N12153737WA0056900578004003031324301
B0032063731316N12153740WA0057100579004003025314291
B0032073731317N12153743WA0057200578004003019298291
B0032083731317N12153747WA0057200578004003019273279
B0032093731316N12153752WA0057400579004003019259261
B0032103731315N12153755WA0057500578004003019247243
B0032113731313N12153758WA0057600579004003019229233
B0032123731310N12153760WA0057600579004003020212216
B0032133731306N12153761WA0057600578004003021192199
B0032143731301N12153761WA0057600576004003033169182
B0032153731296N12153757WA0057600575004003039149164
B0032163731292N12153751WA0057600574004003039132151
B0032173731289N12153745WA0057500575004003039123144
B0032183731286N12153739WA0057500575004003035123146
B0032193731283N12153734WA0057400574004003033134150
B0032203731279N12153730WA0057300574004003035148161
B0032213731274N12153728WA0057300573004003033161179
B0032223731270N12153727WA0057200573004003031178190
B0032233731265N12153729WA0057200572004003030202206
B0032243731264N12153733WA0057200568004003022236226
B0032253731266N12153739WA0057200572004003045297251
B0032263731271N12153744WA0057100572004003037337296
B0032273731277N12153745WA0057000574004003037355327
B0032283731282N12153744WA0057000574004003031011345
B0032293731287N12153743WA0057000573004003027011357
B0032303731292N12153741WA0056900571004003036007357
B0032313731298N12153740WA0056900569004003036004357
B0032323731304N12153740WA0056900568004003036004359
B0032333731310N12153739WA0056900569004003042007347
B0032343731316N12153738WA0056800568004003033008335
B0032353731321N12153737WA0056700567004003035004344
B0032363731327N12153738WA0056600567004003034354324
B0032373731332N12153739WA0056600566004003035345305
B0032383731336N12153741WA0056500567004003028341315
B0032393731340N12153744WA0056500567004003028334302
B0032403731343N12153746WA0056400565004003025322302
B0032413731344N12153750WA0056400565004003022304300
B0032423731346N12153754WA0056400564004003023297288
B0032433731348N12153758WA0056400565004003025301298
B0032443731350N12153762WA0056300564004003024309304
B0032453731352N12153765WA0056300565004003024315317
B0032463731354N12153767WA0056300565004003020323313
B0032473731357N12153769WA0056300565004003020333300
B0032483731360N12153771WA0056200563004003020336299
B0032493731363N12153773WA0056200562004003023328295
B0032503731366N12153776WA0056200564004006028315284
B0032513731369N12153781WA0056200565004003034301291
B0032523731370N12153786WA0056200567004003028295257
B0032533731371N12153789WA0056200568004003021284251
B0032543731371N12153793WA0056100565004003018267247
B0032553731368N12153797WA0056000561004004033234236
B0032563731365N12153801WA0055900559004004028216213
B0032573731360N12153803WA0055900557004003031199205
B0032583731356N12153803WA0055800557004003030181196
B0032593731351N12153802WA0055700557004004030166179
B0033003731347N12153799WA0055700556004003030155174
B0033013731343N12153796WA0055700556004003029150166
B0033023731339N12153793WA0055600556004003031150163
B0033033731335N12153789WA0055500555004003035148153
B0033043731331N12153785WA0055400554004003033141142
B0033053731327N12153780WA0055400555004003034134134
B0033063731324N12153775WA0055400555004004032127138
B0033073731322N12153770WA0055300557004004032124158
B0033083731320N12153765WA0055300560004004029121160
B0033093731318N12153762WA0055300557004004023125157
B0033103731316N12153759WA0055300556004004022134161
B0033113731314N12153756WA0055400553004004022142162
B0033123731310N12153753WA0055400555004004022145174
B0033133731306N12153750WA0055400556004004032149174
B0033143731302N12153747WA0055400557004004028154175
B0033153731298N12153745WA0055400557004003028159170
B0033163731293N12153743WA0055400556004003028160169
B0033173731289N12153741WA0055400556004003030159183
B0033183731284N12153739WA0055400556004003034159174
B0033193731280N12153737WA0055400557004003034159177
B0033203731275N12153736WA0055400557004003029159175
B0033213731271N12153734WA0055400557004003029158180
B0033223731267N12153731WA0055500556004003030158171
B0033233731263N12153730WA0055500557004004033163177
B0033243731258N12153728WA0055500559004004033166171
B0033253731253N12153727WA0055500561004003033166161
B0033263731249N12153725WA0055500563004003026161169
B0033273731245N12153723WA0055600564004003026155165
B0033283731242N12153721WA0055700565004004026150192
B0033293731238N12153718WA0055700564004003026149179
B0033303731234N12153715WA0055800564004003032148179
B0033313731230N12153712WA0056000564004003032149179
B0033323731226N12153709WA0056200564004003031152160
B0033333731222N12153706WA0056200565004003031151162
B0033343731218N12153703WA0056300565004003031148151
B0033353731214N12153700WA0056300565004003031142146
B0033363731211N12153696WA0056300565004003031139155
B0033373731207N12153691WA0056300565004003033138151
B0033383731203N12153687WA0056400565004003035138163
B0033393731199N12153682WA0056400565004003036138173
B0033403731195N12153678WA0056400565004003035140188
B0033413731191N12153675WA0056400564004003034149202
B0033423731187N12153674WA0056400562004003028168216
B0033433731183N12153676WA0056400561004003034201229
B0033443731180N12153681WA0056300560004003034243250
B0033453731182N12153689WA0056300558004003036287274
B0033463731187N12153694WA0056200558004003042324300
B0033473731192N12153697WA0056100561004003042344324
B0033483731197N12153697WA0056000562004003028353333
B0033493731201N12153697WA0056000560004003022358330
B0033503731205N12153697WA0055900559004003026352335
B0033513731210N12153698WA0055900558004003030347331
B0033523731215N12153699WA0055800557004003030338328
B0033533731220N12153702WA0055800557004003032339337
B0033543731224N12153703WA0055800558004003027342321
B0033553731228N12153704WA0055800558004003027348319
B0033563731232N12153705WA0055700557004003025348317
B0033573731236N12153707WA0055700556004003025341324
B0033583731241N12153709WA0055600555004003034337325
B0033593731246N12153712WA0055500555004003041339331
B0034003731252N12153714WA0055500557004003040346322
B0034013731257N12153714WA0055500559004003040352314
B0034023731261N12153715WA0055400562004003028354316
B0034033731264N12153715WA0055400560004003015350315
B0034043731266N12153716WA0055500561004003022339317
B0034053731270N12153719WA0055500558004003022330325
B0034063731275N12153723WA0055600559004003035331337
B0034073731281N12153726WA0055600561004003039335345
B0034083731286N12153728WA0055700564004003029343336
B0034093731290N12153728WA0055700565004003029354320
B0034103731293N12153728WA0055800565004003026000329
B0034113731298N12153728WA0055900565004003026357326
B0034123731302N12153729WA0056000564004003029353330
B0034133731308N12153730WA0056000562004003035350308
B0034143731312N12153732WA0056100563004003035341296
B0034153731316N12153735WA0056200562004003033322288
B0034163731318N12153739WA0056200562004003030289277
B0034173731316N12153745WA0056200561004003029252261
B0034183731313N12153749WA0056200561004003024227239
B0034193731310N12153752WA0056200561004003024216224
B0034203731307N12153754WA0056100560004003021214217
B0034213731303N12153756WA0056100560004003021216204
B0034223731299N12153759WA0056000558004003025206201
B0034233731294N12153760WA0056000558004003035194181
B0034243731288N12153761WA0055900559004003035181182
B0034253731284N12153760WA0055900561004003032172184
B0034263731280N12153758WA0055800562004003027165185
B0034273731276N12153756WA0055800563004003023160196
B0034283731273N12153754WA0055800563004003026163210
B0034293731268N12153753WA0055900563004003026177223
B0034303731264N12153755WA0055900561004003030205240
B0034313731262N12153761WA0056000558004003039245256
B0034323731263N12153769WA0056000557004003046287279
B0034333731268N12153775WA0056000557004003046319306
B0034343731275N12153777WA0056000559004003046351331
B0034353731281N12153777WA0056000559004003028001355
B0034363731286N12153775WA0056000559004003029014000
B0034373731291N12153772WA0055900558004003029026017
B0034383731296N12153767WA0055800557004003035030022
B0034393731302N12153762WA0055800558004003044032021
B0034403731308N12153757WA0055800559004003044033019
B0034413731313N12153753WA0055800560004003042030007
B0034423731318N12153750WA0055800560004003036025005
B0034433731322N12153748WA0055800559004003031015359
B0034443731327N12153747WA0055800559004003033004349
B0034453731332N12153748WA0055900557004003033351340
B0034463731336N12153750WA0055900556004003033336325
B0034473731339N12153753WA0055800555004003025314311
B0034483731340N12153758WA0055800555004003025281288
B0034493731339N12153763WA0055800554004003024247262
B0034503731335N12153766WA0055700552004003024205234
B0034513731329N12153766WA0055600553004003039175203
B0034523731323N12153763WA0055600553004003039155175
B0034533731318N12153759WA0055500555004003037141164
B0034543731316N12153754WA0055400555004003030134158
B0034553731313N12153751WA0055400553004003022138153
B0034563731309N12153748WA0055400551004003028155156
B0034573731305N12153746WA0055300552004003028165170
B0034583731300N12153745WA0055300553004003033168180
B0034593731295N12153743WA0055300554004003025165183
B0035003731292N12153742WA0055300554004003025163184
B0035013731289N12153741WA0055200552004003023164187
B0035023731285N12153740WA0055200551004003023172188
B0035033731281N12153740WA0055200550004003029178183
B0035043731276N12153740WA0055200550004003030182191
B0035053731272N12153740WA0055200551004003029179185
B0035063731268N12153740WA0055100551004003028177190
B0035073731264N12153740WA0055100552004003026174189
B0035083731260N12153739WA0055100553004003027172183
B0035093731256N12153738WA0055100553004003027170190
B0035103731251N12153737WA0055100554004003030169169
B0035113731247N12153736WA0055200555004003033168171
B0035123731242N12153734WA0055200556004003033163147
B0035133731238N12153732WA0055300558004003031159163
B0035143731233N12153729WA0055300560004003031152176
B0035153731229N12153726WA0055400561004003035150179
B0035163731224N12153723WA0055400563004003035155212
B0035173731220N12153721WA0055500566004003034165214
B0035183731217N12153721WA0055700567004003025182215
B0035193731214N12153723WA0055900567004003024206226
B0035203731212N12153728WA0055900566004003031235240
B0035213731211N12153735WA0056000565004003031264259
B0035223731213N12153742WA0056200565004003040293286
B0035233731219N12153748WA0056300567004003048323309
B0035243731226N12153750WA0056300570004003048007334
B0035253731233N12153747WA0056400572004003045021012
B0035263731238N12153741WA0056500575004003043042026
B0035273731241N12153735WA0056600577004003031054047
B0035283731244N12153729WA0056600578004003033060065
B0035293731245N12153721WA0056800577004003033083072
B0035303731245N12153712WA0057100575004003040103097
B0035313731241N12153704WA0057300574004003054124116
B0035323731235N12153699WA0057300577004003054150134
B0035333731229N12153698WA0057400580004003039176158
B0035343731226N12153700WA0057400582004003025200182
B0035353731224N12153703WA0057500583004003012227203
B0035363731222N12153706WA0057500581004003014245227
B0035373731221N12153710WA0057600579004003014245237
B0035383731218N12153716WA0057700578004003025243242
B0035393731216N12153722WA0057800579004003034243252
B0035403731214N12153728WA0057800581004003034247254
B0035413731212N12153733WA0057800584004003030253267
B0035423731211N12153739WA0057900585004003028258266
B0035433731211N12153744WA0057900587004003028258265
B0035443731210N12153749WA0057900589004003028256273
B0035453731209N12153755WA0058000590004003028260268
B0035463731209N12153761WA0058100592004003030268276
B0035473731209N12153767WA0058300592004003031276281
B0035483731211N12153772WA0058300593004003031288291
B0035493731213N12153776WA0058600592004003030309302
B0035503731218N12153778WA0058800591004003030338320
B0035513731225N12153778WA0058900590004003043004345
B0035523731230N12153774WA0058900590004003043028011
B0035533731234N12153768WA0059000591004003039055036
B0035543731235N12153761WA0059000591004003037079063
B0035553731235N12153754WA0059000590004003031095088
B0035563731233N12153747WA0059000589004003036108107
B0035573731229N12153740WA0058900588004003036120120
B0035583731224N12153735WA0058900588004003037139132
B0035593731218N12153731WA0058800588004003041165149
B0036003731212N12153731WA0058800591004003042178173
B0036013731206N12153733WA0058800595004003041195185
B0036023731202N12153736WA0058800597004003033214200
B0036033731200N12153741WA0058800595004003022238216
B0036043731200N12153746WA0058800594004003022270237
B0036053731201N12153750WA0058900592004003022297266
B0036063731204N12153755WA0059000589004003024305291
B0036073731208N12153760WA0059000588004003029320301
B0036083731214N12153763WA0059000586004003040341317
B0036093731220N12153762WA0059000585004003043008339
B0036103731226N12153758WA0059000585004003041035006
B0036113731229N12153752WA0058800585004003041054034
B0036123731231N12153746WA0058800585004003033066059
B0036133731232N12153739WA0058600584004003032073078
B0036143731233N12153732WA0058500582004003039083090
B0036153731232N12153723WA0058400581004003039094105
B0036163731230N12153713WA0058400581004003047102116
B0036173731228N12153705WA0058300581004003047112121
B0036183731224N12153699WA0058200583004003040126131
B0036193731220N12153694WA0058200588004003040132145
B0036203731215N12153690WA0058200591004003035139148
B0036213731212N12153687WA0058200593004003028150156
B0036223731208N12153686WA0058200594004003025164164
B0036233731204N12153686WA0058400595004003026178185
B0036243731199N12153687WA0058400595004003028182191
B0036253731195N12153687WA0058600597004003027182201
B0036263731191N12153688WA0058800597004003027186201
B0036273731187N12153690WA0059000597004003026201202
B0036283731184N12153693WA0059000596004003023225216
B0036293731183N12153698WA0059200595004003024254233
B0036303731184N12153703WA0059300593004003024278255
B0036313731185N12153708WA0059300591004003027291273
B0036323731189N12153714WA0059300589004003036304285
B0036333731194N12153718WA0059300588004003043325299
B0036343731201N12153721WA0059200587004003043348320
B0036353731208N12153720WA0059000588004003045007344
B0036363731214N12153716WA0059000589004003038023004
B0036373731219N12153712WA0058900590004003038033008
B0036383731222N12153708WA0058800587004003031035020
B0036393731226N12153705WA0058700585004003030020018
B0036403731231N12153704WA0058700583004003034001004
B0036413731235N12153705WA0058700582004003034344347
B0036423731239N12153708WA0058600582004003032333329
B0036433731242N12153710WA0058500582004003025324314
B0036443731243N12153713WA0058500580004003019309304
B0036453731244N12153717WA0058300578004003027290287
B0036463731244N12153723WA0058200576004003027268272
B0036473731242N12153729WA0057900575004003030249256
B0036483731240N12153733WA0057900574004003026232249
B0036493731237N12153736WA0057700574004003026224248
B0036503731234N12153739WA0057600573004003023225242
B0036513731231N12153743WA0057400570004003022239237
B0036523731230N12153747WA0057400569004003029246233
B0036533731227N12153752WA0057200568004003035239226
B0036543731224N12153757WA0057100565004004035219219
B0036553731218N12153759WA0056900564004004036198208
B0036563731211N12153760WA0056900566004004041183190
B0036573731205N12153758WA0056700568004003041172172
B0036583731201N12153756WA0056600567004003035161163
B0036593731198N12153753WA0056400565004003025149163
B0037003731194N12153749WA0056400563004003035143157
B0037013731189N12153744WA0056300561004003040143151
B0037023731184N12153739WA0056200561004003040142153
B0037033731180N12153734WA0056100560004003040140154
B0037043731175N12153729WA0056100563004003043142164
B0037053731170N12153724WA0056000562004004043146173
B0037063731166N12153721WA0056000558004003034149169
B0037073731161N12153718WA0055900556004003034157166
B0037083731156N12153716WA0055900555004003039159163
B0037093731151N12153714WA0055700553004003039159160
B0037103731146N12153711WA0055600553004003037149157
B0037113731141N12153707WA0055500555004003037148157
B0037123731137N12153703WA0055500555004003032145153
B0037133731133N12153700WA0055400556004003034146152
B0037143731128N12153696WA0055300558004003034148156
B0037153731124N12153693WA0055300555004003034145153
B0037163731120N12153689WA0055300554004003036143145
B0037173731115N12153684WA0055300553004003042144159
B0037183731110N12153680WA0055300554004003042148152
B0037193731104N12153676WA0055300557004003042148163
B0037203731099N12153672WA0055300560004003036145186
B0037213731095N12153668WA0055300561004003036141190
B0037223731092N12153665WA0055400563004003029140172
B0037233731089N12153661WA0055500563004003029146155
B0037243731084N12153658WA0055500563004003039152163
B0037253731079N12153655WA0055700563004003039152173
B0037263731074N12153651WA0055900564004003037148162
B0037273731071N12153648WA0055900564004003033142173
B0037283731067N12153644WA0056000562004003031138156
B0037293731064N12153640WA0056200562004003037137161
B0037303731059N12153635WA0056200561004003041139158
B0037313731054N12153630WA0056200561004003040143164
B0037323731050N12153626WA0056200562004003040144165
B0037333731046N12153623WA0056100561004003029143173
B0037343731043N12153619WA0056100559004003030142169
B0037353731039N12153616WA0056100558004003030144173
B0037363731034N12153612WA0056000556004003037148171
B0037373731028N12153608WA0055900558004003037151174
B0037383731024N12153605WA0055900562004003037152188
B0037393731020N12153603WA0055900563004003035151167
B0037403731017N12153600WA0055800562004003025149172
B0037413731013N12153598WA0055800562004003027149167
B0037423731009N12153596WA0055900561004003031151163
B0037433731005N12153593WA0055900560004003031151163
B0037443731001N12153589WA0055900559004003034149153
B0037453730996N12153586WA0056000558004003036148161
B0037463730991N12153582WA0056000559004003036148171
B0037473730987N12153579WA0056000560004003036148175
B0037483730984N12153576WA0055900562004003031146172
B0037493730981N12153573WA0055800562004003022144180
B0037503730978N12153571WA0055800562004003025148183
B0037513730974N12153569WA0055800562004003025156178
B0037523730970N12153567WA0055900563004003030158175
B0037533730966N12153564WA0055900564004003029155157
B0037543730962N12153561WA0056000563004003031145164
B0037553730958N12153557WA0056000562004003031138166
B0037563730954N12153553WA0056100562004003035136167
B0037573730951N12153548WA0056100561004003031136177
B0037583730947N12153544WA0056100559004003031140177
B0037593730944N12153541WA0056100557004003031148171
B0038003730939N12153539WA0056100555004003031156181
B0038013730934N12153536WA0056000554004003039160183
B0038023730928N12153535WA0055800553004003039164194
B0038033730924N12153534WA0055800553004003035172198
B0038043730919N12153535WA0055700553004003031183204
B0038053730916N12153536WA0055500552004003024193207
B0038063730912N12153538WA0055300550004003024202215
B0038073730909N12153541WA0055300547004003024213222
B0038083730906N12153545WA0055100544004003027221230
B0038093730902N12153549WA0055000543004003030221227
B0038103730899N12153553WA0054900541004003032218230
B0038113730895N12153557WA0054900540004003030217223
B0038123730893N12153560WA0054700539004003028221220
B0038133730890N12153563WA0054500537004003022223218
B0038143730888N12153566WA0054300535004003027221211
B0038153730884N12153570WA0054300533004003035217220
B0038163730880N12153573WA0054000532004003035214208
B0038173730875N12153577WA0053800532004003035213213
B0038183730871N12153580WA0053600533004003034211207
B0038193730868N12153582WA0053600532004003025206204
B0038203730864N12153584WA0053500531004003027196193
B0038213730860N12153584WA0053300530004003027188209
B0038223730856N12153585WA0053200529004003027183213
B0038233730851N12153585WA0053200530004003029185196
B0038243730847N12153585WA0053100531004003022188227
B0038253730844N12153586WA0053100530004003022194211
B0038263730841N12153588WA0053100529004003022202209
B0038273730837N12153591WA0053100528004003027209223
B0038283730833N12153594WA0053000528004003031210217
B0038293730829N12153596WA0053000528004003026208230
B0038303730826N12153598WA0052900527004003026203229
B0038313730822N12153600WA0052900525004003025203240
B0038323730819N12153603WA0052900523004003025211242
B0038333730815N12153607WA0052800522004003030220247
B0038343730812N12153611WA0052700522004003033227257
B0038353730809N12153616WA0052700523004003033233255
B0038363730807N12153621WA0052600523004003030242274
B0038373730806N12153626WA0052600525004003026258268
B0038383730807N12153631WA0052500524004003026279282
B0038393730809N12153636WA0052500526004003028297294
B0038403730813N12153640WA0052500526004003028317308
B0038413730818N12153642WA0052500527004003028344326
B0038423730823N12153640WA0052500528004003032013345
B0038433730828N12153636WA0052500529004003040038014
B0038443730832N12153629WA0052600529004003040058040
B0038453730833N12153621WA0052700528004003040089062
B0038463730832N12153612WA0052800527004003044109097
B0038473730828N12153604WA0052800527004003048139118
B0038483730822N12153599WA0052900527004003048149149
B0038493730815N12153598WA0052900529004003040170159
B0038503730809N12153598WA0052900529004003035182185
B0038513730804N12153599WA0052900529004003031185201
B0038523730799N12153601WA0052900529004003032190216
B0038533730794N12153603WA0052900528004003032200215
B0038543730789N12153608WA0052900526004003033218231
B0038553730786N12153614WA0052900526004003038238243
B0038563730784N12153621WA0052900527004003038254255
B0038573730784N12153627WA0052800529004003033265272
B0038583730785N12153631WA0052800530004003025275279
B0038593730786N12153635WA0052800530004003020284290
B0039003730787N12153639WA0052800529004003023294297
B0039013730790N12153643WA0052900528004003023306304
B0039023730794N12153647WA0052900526004003028325314
B0039033730799N12153649WA0052900525004003035344327
B0039043730804N12153648WA0052900525004003035005344
B0039053730809N12153646WA0052900526004003032026359
B0039063730812N12153641WA0052800526004003029047015
B0039073730814N12153636WA0052800526004003028061036
B0039083730816N12153630WA0052800526004003032067053
B0039093730817N12153623WA0052700525004003032073064
B0039103730818N12153615WA0052700524004003037082072
B0039113730817N12153606WA0052700522004003046095082
B0039123730815N12153597WA0052700521004003050108097
B0039133730811N12153589WA0052700522004003047119110
B0039143730806N12153582WA0052600524004003047128123
B0039153730801N12153577WA0052600525004003034138133
B0039163730797N12153574WA0052500527004003034149145
B0039173730792N12153573WA0052500527004003031161158
B0039183730788N12153572WA0052500525004003027165173
B0039193730784N12153572WA0052500524004003035179180
B0039203730779N12153574WA0052500523004003035197194
B0039213730774N12153578WA0052500522004003033214213
B0039223730771N12153583WA0052500522004003032225222
B0039233730768N12153587WA0052500522004003024221226
B0039243730765N12153590WA0052500522004003024210230
B0039253730761N12153593WA0052400520004003024203233
B0039263730758N12153596WA0052300519004003024214238
B0039273730755N12153600WA0052300520004003031227248
B0039283730752N12153605WA0052200522004003032233245
B0039293730749N12153610WA0052100521004003031230237
B0039303730746N12153615WA0052000524004003032228244
B0039313730743N12153620WA0052000523004003026231241
B0039323730741N12153624WA0052000522004003026234253
B0039333730739N12153628WA0052000522004003026234253
B0039343730736N12153633WA0052000520004003029234245
B0039353730734N12153637WA0052000519004003031234237
B0039363730731N12153642WA0052000517004003031234218
B0039373730728N12153646WA0052000516004003031227221
B0039383730725N12153650WA0052000516004003031219216
B0039393730720N12153654WA0052000516004004034215207
B0039403730716N12153657WA0052000515004004034210187
B0039413730711N12153659WA0051800514004003034200188
B0039423730706N12153659WA0051700513004003034185188
B0039433730700N12153658WA0051700510004003046175196
B0039443730693N12153657WA0051600509004003046174197
B0039453730687N12153656WA0051500510004003045180198
B0039463730681N12153656WA0051400511004003039187197
B0039473730677N12153657WA0051400510004003027191175
B0039483730673N12153658WA0051300508004003029189187
B0039493730668N12153658WA0051200505004003029183187
B0039503730662N12153658WA0051100501004003034176182
B0039513730654N12153656WA0051100497004003049174180
B0039523730647N12153655WA0051000496004003051174192
B0039533730640N12153655WA0050800495004003049178195
B0039543730634N12153656WA0050500495004003044189196
B0039553730628N12153657WA0050500495004003040191189
B0039563730622N12153659WA0050200493004003042190180
B0039573730616N12153660WA0050000492004003042186187
B0039583730609N12153660WA0049800491004003042183185
B0039593730603N12153660WA0049800490004003043181178
B0040003730596N12153660WA0049700490004003045171171
B0040013730590N12153658WA0049600489004003043168173
B0040023730584N12153656WA0049500489004003043162180
B0040033730578N12153653WA0049500488004003042161179
B0040043730572N12153650WA0049400486004003046164181
B0040053730565N12153648WA0049300485004003046166176
B0040063730558N12153646WA0049200485004003048166179
B0040073730551N12153643WA0049200486004003045164189
B0040083730545N12153641WA0049100486004003045164178
B0040093730539N12153639WA0049100485004003038166179
B0040103730533N12153638WA0049100483004003038171178
B0040113730526N12153637WA0049100481004003049176173
B0040123730519N12153637WA0049000481004003049176172
B0040133730512N12153636WA0048900483004003049175157
B0040143730507N12153636WA0048900483004003042174159
B0040153730502N12153635WA0048900483004003032170174
B0040163730497N12153633WA0048800482004003034166178
B0040173730492N12153631WA0048700480004003034164177
B0040183730486N12153629WA0048600479004003039164175
B0040193730480N12153627WA0048600478004003040163174
B0040203730474N12153624WA0048500478004003040159169
B0040213730469N12153621WA0048400478004003040154171
B0040223730464N12153618WA0048400477004003040150177
B0040233730459N12153614WA0048400476004003038150179
B0040243730454N12153610WA0048200475004003038153181
B0040253730448N12153607WA0048100474004003041156189
B0040263730442N12153604WA0048000474004003045158181
B0040273730436N12153601WA0048000474004003041160193
B0040283730431N12153599WA0047900476004003041161188
B0040293730426N12153597WA0047900476004003035163175
B0040303730422N12153596WA0047800474004003030165179
B0040313730418N12153595WA0047800473004003031169165
B0040323730413N12153594WA0047800471004003031171180
B0040333730408N12153593WA0047700469004003033169164
B0040343730403N12153592WA0047700468004003034165178
B0040353730398N12153590WA0047700467004003032163174
B0040363730394N12153588WA0047600466004003032163182
B0040373730389N12153587WA0047400465004003032163178
B0040383730384N12153585WA0047300466004003034163177
B0040393730379N12153583WA0047300467004003036162172
B0040403730374N12153581WA0047100469004003028162169
B0040413730370N12153580WA0047000469004003028163196
B0040423730366N12153578WA0047000467004003028162158
B0040433730361N12153576WA0047000465004003032162182
B0040443730356N12153574WA0047000463004003040165194
B0040453730350N12153573WA0047000462004003040169174
B0040463730345N12153571WA0047000463004003039166174
B0040473730340N12153569WA0046900464004003034161200
B0040483730336N12153567WA0046800465004003028156217
B0040493730332N12153566WA0046700467004003028167219
B0040503730328N12153566WA0046700464004003028188222
B0040513730324N12153570WA0046700464004003028216238
B0040523730322N12153575WA0046700464004003027237254
B0040533730321N12153580WA0046700463004003027261272
B0040543730323N12153585WA0046700462004003027292286
B0040553730327N12153590WA0046700460004003030320307
B0040563730333N12153593WA0046700460004003036338327
B0040573730338N12153593WA0046700459004003036358342
B0040583730344N12153591WA0046700459004003036021356
B0040593730349N12153586WA0046600458004003038041015
B0041003730352N12153579WA0046500458004003038060036
B0041013730353N12153571WA0046400457004003040079055
B0041023730352N12153563WA0046400455004003040099078
B0041033730349N12153554WA0046300455004003043117103
B0041043730344N12153547WA0046200456004003044130123
B0041053730339N12153542WA0046200457004003044142139
B0041063730333N12153540WA0046200458004003037156152
B0041073730328N12153539WA0046100459004003033170170
B0041083730323N12153539WA0046100459004003030182187
B0041093730318N12153540WA0046100459004003030186204
B0041103730313N12153542WA0046100459004003029188207
B0041113730309N12153542WA0046100460004003028185214
B0041123730305N12153543WA0046200460004003021182212
B0041133730302N12153543WA0046300460004003023183218
B0041143730298N12153544WA0046300460004003023190213
B0041153730294N12153546WA0046300460004003026198231
B0041163730291N12153548WA0046400460004003026203233
B0041173730287N12153551WA0046400461004003026208233
B0041183730284N12153554WA0046400461004003026216248
B0041193730282N12153558WA0046500462004003026229262
B0041203730280N12153562WA0046500462004003026246262
B0041213730280N12153568WA0046500462004003028266279
B0041223730282N12153573WA0046500461004003028288291
B0041233730285N12153578WA0046500461004003029317307
B0041243730291N12153580WA0046500462004003035342326
B0041253730297N12153579WA0046500462004003042024346
B0041263730303N12153573WA0046500462004003042037024
B0041273730306N12153565WA0046500461004003043062038
B0041283730307N12153556WA0046500460004003042081063
B0041293730306N12153547WA0046500460004003043096086
B0041303730304N12153539WA0046500460004003043113103
B0041313730299N12153533WA0046400461004003043131124
B0041323730294N12153529WA0046400461004004033146143
B0041333730289N12153527WA0046400460004004033165163
B0041343730284N12153528WA0046400462004004029180181
B0041353730280N12153529WA0046400462004004027197200
B0041363730276N12153531WA0046400461004003018199220
B0041373730273N12153533WA0046500460004003030201222
B0041383730267N12153536WA0046500460004003030200220
B0041393730262N12153539WA0046500464004003036203233
B0041403730258N12153542WA0046600465004003029207242
B0041413730254N12153546WA0046600467004003029217236
B0041423730252N12153549WA0046600468004004023223249
B0041433730250N12153552WA0046700468005006021235252
B0041443730250N12153559WA0046800466004003041266266
B0041453730252N12153566WA0046900467004003041294284
B0041463730256N12153570WA0046900466004004030316306
B0041473730263N12153570WA0047000463004003030004319
B0041483730270N12153565WA0047000463004003047040359
B0041493730273N12153556WA0047000463004003047068040
B0041503730273N12153547WA0047000463004003045091071
B0041513730271N12153539WA0046900465004003042109097
B0041523730268N12153532WA0046800467004003041122121
B0041533730263N12153525WA0046800468004003043128139
B0041543730259N12153520WA0046800469004004041133144
B0041553730255N12153516WA0046900470004004029140162
B0041563730251N12153514WA0046900469004004027153168
B0041573730247N12153512WA0047100468004004027163180
B0041583730243N12153512WA0047100468004004027174184
B0041593730237N12153512WA0047200469004004030183187
B0042003730231N12153513WA0047300469004003038180174
B0042013730225N12153513WA0047400470004003038181173
B0042023730221N12153513WA0047400470004003032176178
B0042033730217N12153513WA0047400468004003028169168
B0042043730213N12153511WA0047400467004003033162170
B0042053730207N12153509WA0047300465004003044158161
B0042063730201N12153505WA0047300467004003041156164
B0042073730196N12153502WA0047200469004003041152160
B0042083730193N12153499WA0047200470004003027148164
B0042093730189N12153496WA0047200470004003029149178
B0042103730185N12153494WA0047200466004003029156182
B0042113730178N12153491WA0047200464004003039167197
B0042123730171N12153491WA0047200464004003045178214
B0042133730166N12153493WA0047200463004003045194224
B0042143730162N12153497WA0047200461004003035220234
B0042153730161N12153502WA0047100462004003031253248
B0042163730161N12153508WA0047000462004003024278270
B0042173730163N12153513WA0046800464004003024294286
B0042183730166N12153516WA0046800463004003022318299
B0042193730170N12153517WA0046700462004003022343314
B0042203730175N12153517WA0046700459004003036009334
B0042213730181N12153514WA0046600458004003040023003
B0042223730186N12153509WA0046600459004003040036018
B0042233730191N12153503WA0046600459004003040047032
B0042243730194N12153497WA0046500459004003037054042
B0042253730196N12153492WA0046400461004003028055038
B0042263730199N12153487WA0046400461004003031048041
B0042273730203N12153484WA0046300460004003028037029
B0042283730206N12153481WA0046300460004003030028022
B0042293730211N12153478WA0046300459004003030023005
B0042303730215N12153477WA0046300459004003031019000
B0042313730220N12153475WA0046300459004003031012349
B0042323730224N12153475WA0046400460004003031004351
B0042333730229N12153475WA0046400460004003029356333
B0042343730233N12153476WA0046400459004003029351340
B0042353730238N12153478WA0046400458004003033343321
B0042363730242N12153481WA0046400459004003037334337
B0042373730247N12153485WA0046400461004003033326346
B0042383730250N12153488WA0046400464004003031328340
B0042393730253N12153490WA0046400465004003023342345
B0042403730256N12153490WA0046400466004003023001336
B0042413730260N12153490WA0046500467004003024001004
B0042423730263N12153491WA0046500467004003024346334
B0042433730266N12153493WA0046600466004003024339355
B0042443730269N12153494WA0046800467004003021344341
B0042453730272N12153494WA0046900465004003018358335
B0042463730275N12153494WA0046900463004003021000318
B0042473730278N12153495WA0047000460004003021349313
B0042483730282N12153497WA0047000458004003024330315
B0042493730284N12153500WA0046900457004003024316308
B0042503730286N12153503WA0046900456004003019307321
B0042513730288N12153506WA0046700456004003019304298
B0042523730289N12153509WA0046600453004003018299293
B0042533730289N12153513WA0046400450004003018288288
B0042543730289N12153516WA0046400445004003015272298
B0042553730289N12153521WA0046200446004003031273293
B0042563730290N12153527WA0046000446004003031283304
B0042573730291N12153531WA0045800446004003027291274
B0042583730292N12153535WA0045800445004003020294287
B0042593730293N12153538WA0045600441004003020291271
B0043003730295N12153543WA0045400439004003031288266
B0043013730296N12153549WA0045200441004003031279249
B0043023730295N12153555WA0045200444004003031261236
B0043033730294N12153560WA0045000446004006031249246
B0043043730290N12153563WA0044900450004003032218248
B0043053730286N12153565WA0044900449004003019209254
B0043063730283N12153567WA0044900446004003024212259
B0043073730282N12153572WA0045000444004003024267257
B0043083730284N12153578WA0045100444004003037294286
B0043093730287N12153583WA0045100446004003030311303
B0043103730291N12153586WA0045100445004003030322311
B0043113730293N12153587WA0045100443004003021329303
B0043123730296N12153588WA0045100441004003021326310
B0043133730299N12153591WA0045000439004003029320311
B0043143730303N12153594WA0045000437004003029317297
B0043153730306N12153598WA0044800438004003029312285
B0043163730308N12153602WA0044700437004003027304283
B0043173730309N12153606WA0044500436004003023288274
B0043183730310N12153611WA0044500433004003028271290
B0043193730309N12153616WA0044400434004003028260271
B0043203730308N12153621WA0044200434004003028252265
B0043213730306N12153624WA0044100435004003023238244
B0043223730303N12153627WA0044100434004003026218222
B0043233730298N12153629WA0044100433004003026201207
B0043243730293N12153631WA0044100431004004031192185
B0043253730286N12153630WA0044100432004004045175168
B0043263730280N12153627WA0044100431004003045157154
B0043273730275N12153620WA0044000429004003045132134
B0043283730272N12153611WA0044000428004003047111124
B0043293730271N12153602WA0043900429004003041097093
B0043303730271N12153593WA0043900429004003041091080
B0043313730272N12153586WA0043700431004003037086074
B0043323730274N12153579WA0043700427004003035077068
B0043333730277N12153572WA0043600427004003044058059
B0043343730282N12153567WA0043600426004003044039041
B0043353730288N12153564WA0043600424004003042023021
B0043363730293N12153563WA0043500424004003034005009
B0043373730297N12153565WA0043400424004003024349352
B0043383730301N12153567WA0043400422004003024339331
B0043393730305N12153569WA0043200421004003024335320
B0043403730309N12153572WA0043100421004003026332311
B0043413730313N12153576WA0043000420004003030322302
B0043423730316N12153581WA0043000420004003031312302
B0043433730319N12153586WA0042900419004003030303298
B0043443730321N12153590WA0042800421004003027299288
B0043453730322N12153594WA0042700421004003021299288
B0043463730324N12153598WA0042700421004003025299285
B0043473730326N12153603WA0042600420004003025296277
B0043483730327N12153608WA0042500422004003026287281
B0043493730328N12153612WA0042500424004004022282280
B0043503730328N12153616WA0042500426004004022281299
B0043513730329N12153620WA0042500429004003020292313
B0043523730330N12153622WA0042500429004003017298304
B0043533730331N12153624WA0042600429004003012300305
B0043543730332N12153626WA0042600427004003013294299
B0043553730333N12153629WA0042800425004003013295284
B0043563730334N12153634WA0042900423004003022289267
B0043573730335N12153640WA0043000423004003037275255
B0043583730334N12153647WA0043000422004003040252229
B0043593730330N12153653WA0043000422004003040229221
B0044003730323N12153657WA0042900422004004044198209
B0044013730316N12153657WA0042800421004004041185188
B0044023730310N12153655WA0042800419004003041168177
B0044033730305N12153650WA0042700418004003039149160
B0044043730300N12153643WA0042700412004003039137142
B0044053730296N12153635WA0042600410004004045114130
B0044063730294N12153625WA0042600409004003051102105
B0044073730295N12153615WA0042400409004003045080092
B0044083730299N12153607WA0042200410004004044055068
B0044093730303N12153602WA0042200409004003036030041
B0044103730308N12153599WA0042000410004003036025014
B0044113730313N12153598WA0041900410004003029006010
B0044123730318N12153599WA0041800410004003027350351
B0044133730322N12153602WA0041700411004003029324336
B0044143730325N12153607WA0041700413004003029298316
B0044153730325N12153612WA0041700416004003029273295
B0044163730324N12153617WA0041700417004003027247275
B0044173730321N12153621WA0041700417004003025222255
B0044183730317N12153624WA0041800416004003029203236
B0044193730312N12153626WA0041900414004003029197227
B0044203730307N12153628WA0042000412004003030202227
B0044213730303N12153631WA0042000410004003030215232
B0044223730300N12153635WA0042100410004004034229241
B0044233730299N12153641WA0042100409004003032258251
B0044243730300N12153646WA0042100408004003032280271
B0044253730303N12153650WA0042100408004003020307287
B0044263730306N12153652WA0041900406004003020309308
B0044273730308N12153655WA0041800405004003020312314
B0044283730312N12153658WA0041700404004003022315318
B0044293730315N12153661WA0041700403004003025319326
B0044303730318N12153664WA0041500402004003024325329
B0044313730322N12153666WA0041400401004003024329326
B0044323730325N12153668WA0041300400004003021328318
B0044333730327N12153670WA0041300399004003021317315
B0044343730330N12153674WA0041100396004003024307308
B0044353730332N12153678WA0041000394004003025301310
B0044363730333N12153682WA0040800393004003025299317
B0044373730336N12153686WA0040800393004003026300323
B0044383730338N12153690WA0040600392004003020305332
B0044393730340N12153693WA0040500392004003021316324
B0044403730342N12153695WA0040300391004003020324323
B0044413730345N12153696WA0040300389004003019330317
B0044423730347N12153698WA0040200387004003021320308
B0044433730349N12153701WA0040000385004003024311321
B0044443730352N12153705WA0039900385004003024312336
B0044453730356N12153708WA0039900384004003028327340
B0044463730361N12153709WA0039800382004003034349341
B0044473730366N12153708WA0039600382004003034004325
B0044483730370N12153707WA0039500382004003031008326
B0044493730373N12153707WA0039500380004003025356331
B0044503730377N12153708WA0039300378004003024333330
B0044513730380N12153711WA0039200379004003026320313
B0044523730382N12153714WA0039100378004003025319308
B0044533730385N12153718WA0039100377004003026322303
B0044543730388N12153721WA0039000376004003028320296
B0044553730391N12153725WA0038900375004003029310292
B0044563730393N12153729WA0038800375004003028304282
B0044573730395N12153734WA0038800374004003027299281
B0044583730397N12153738WA0038700374004003025294283
B0044593730398N12153743WA0038600373004003026289280
B0045003730399N12153748WA0038600373004003025288290
B0045013730400N12153752WA0038600373004003025292281
B0045023730401N12153756WA0038500372004003023293273
B0045033730402N12153760WA0038400371004003025287266
B0045043730403N12153765WA0038300371004003025277271
B0045053730403N12153770WA0038300370004003025271270
B0045063730402N12153774WA0038200370004003021270263
B0045073730402N12153778WA0038200369004003023268257
B0045083730402N12153782WA0038100368004003023264253
B0045093730401N12153787WA0038100367004003024257254
B0045103730399N12153791WA0038000367004003024251248
B0045113730398N12153795WA0037900366004003024246259
B0045123730396N12153799WA0037800364004003024241249
B0045133730394N12153803WA0037800362004003024238251
B0045143730391N12153808WA0037800361004003031237255
B0045153730389N12153812WA0037600360004003031239274
B0045163730386N12153817WA0037500358004003030239261
B0045173730384N12153822WA0037500357004003029241274
B0045183730383N12153826WA0037400355004003027245279
B0045193730381N12153831WA0037200354004003029253290
B0045203730381N12153836WA0037100353004003027265314
B0045213730382N12153841WA0037100350004003028290313
B0045223730386N12153845WA0036900347004003037322301
B0045233730391N12153848WA0036700347004003037334291
B0045243730396N12153850WA0036500345004003032329284
B0045253730399N12153853WA0036500344004004031315280
B0045263730386N12153859WA0036200338004003069203289
B0045273730381N12153864WA0035900338004003069221229
B0045283730379N12153870WA0035600335004003037264248
B0045293730379N12153876WA0035600332004003033259282
B0045303730382N12153882WA0035300328004003045302277
B0045313730388N12153886WA0035000330004003045335304
B0045323730393N12153888WA0034700329004003036337320
B0045333730396N12153889WA0034700328004003022340325
B0045343730399N12153890WA0034400326004003020334309
B0045353730403N12153891WA0034200324004003027331312
B0045363730407N12153894WA0034000324004003027323300
B0045373730411N12153897WA0034000325004003027316299
B0045383730413N12153900WA0033800327004003017309299
B0045393730414N12153902WA0033800327004003017305302
B0045403730416N12153905WA0033800324004003016306296
B0045413730418N12153908WA0033800321004003016306291
B0045423730420N12153912WA0033700319004003031300285
B0045433730422N12153917WA0033600318004003031294261
B0045443730423N12153922WA0033600317004003029283260
B0045453730422N12153926WA0033600315004003027259255
B0045463730420N12153931WA0033400313004003034233250
B0045473730415N12153936WA0033200313004003037221240
B0045483730411N12153940WA0033000313004003035220249
B0045493730407N12153943WA0033000315004003035220237
B0045503730404N12153946WA0032900315004003023220240
B0045513730400N12153949WA0032800315004003024216235
B0045523730397N12153952WA0032700313004003024213235
B0045533730393N12153955WA0032700311004003029212231
B0045543730388N12153958WA0032700311004003039213229
B0045553730383N12153963WA0032600312004003040215222
B0045563730378N12153967WA0032500315004003039215229
B0045573730375N12153969WA0032500315004003031210229
B0045583730371N12153971WA0032500315004003026200243
B0045593730367N12153973WA0032500314004003030200246
B0046003730363N12153976WA0032500312004003030216268
B0046013730360N12153982WA0032500311004003036238271
B0046023730358N12153988WA0032500313004003030255277
B0046033730359N12153992WA0032600313004003030270284
B0046043730360N12153996WA0032600313004003020281287
B0046053730361N12154000WA0032600313004003019288299
B0046063730362N12154004WA0032600312004003022288303
B0046073730364N12154008WA0032500312004003023293309
B0046083730366N12154011WA0032500311004003023306316
B0046093730370N12154015WA0032500310004003026327328
B0046103730375N12154016WA0032500308004003032351339
B0046113730380N12154014WA0032400308004003035016355
B0046123730385N12154009WA0032400308004003035039012
B0046133730388N12154003WA0032400308004003037060030
B0046143730390N12153995WA0032200307004003042071051
B0046153730390N12153986WA0032100306004003047087065
B0046163730388N12153977WA0032000305004003047103085
B0046173730385N12153968WA0032000306004003048115104
B0046183730380N12153960WA0032000306004003047128119
B0046193730374N12153955WA0031900307004003047141134
B0046203730367N12153951WA0031900307004003046155151
B0046213730361N12153950WA0031900307004003042168167
B0046223730355N12153950WA0031900308004003036178186
B0046233730349N12153951WA0031900308004003036183201
B0046243730343N12153952WA0031900308004003036184206
B0046253730338N12153953WA0031900307004003034183216
B0046263730333N12153954WA0032000307004003032183215
B0046273730328N12153955WA0032000308004003034187215
B0046283730323N12153956WA0032000307004003034191213
B0046293730317N12153958WA0032000308004003034190205
B0046303730312N12153959WA0032000307004003037184209
B0046313730306N12153959WA0032000306004003039179206
B0046323730300N12153959WA0031900305004003039178208
B0046333730293N12153959WA0031900305004003041182224
B0046343730288N12153960WA0031900305004003034190243
B0046353730283N12153962WA0031800304004003034203246
B0046363730280N12153966WA0031700303004003031226250
B0046373730279N12153971WA0031700301004003028246260
B0046383730278N12153977WA0031700299004003026257266
B0046393730278N12153982WA0031600297004003024255279
B0046403730277N12153986WA0031500295004003025252271
B0046413730276N12153991WA0031500295004003024249276
B0046423730275N12153995WA0031300294004003023249279
B0046433730274N12154000WA0031100292004003023254275
B0046443730274N12154005WA0031000291004003028264290
B0046453730274N12154010WA0031000290004003030272273
B0046463730274N12154015WA0030800290004003028275301
B0046473730275N12154020WA0030700290004003026274277
B0046483730276N12154024WA0030600290004003024275297
B0046493730276N12154028WA0030600290004003020275280
B0046503730277N12154032WA0030500289004003021277287
B0046513730277N12154036WA0030500288004003021273273
B0046523730277N12154041WA0030400288004003024272287
B0046533730277N12154046WA0030400288004003026272294
B0046543730278N12154051WA0030400288004003027279291
B0046553730279N12154056WA0030400289004003027286286
B0046563730280N12154059WA0030300289004003022291289
B0046573730281N12154063WA0030300288004003022286282
B0046583730282N12154067WA0030300286004003022280285
B0046593730283N12154072WA0030200285004003027277283
B0047003730283N12154077WA0030200286004003027274296
B0047013730283N12154081WA0030200286004003022268277
B0047023730283N12154084WA0030200285004003018264301
B0047033730282N12154088WA0030100283004003018267301
B0047043730283N12154092WA0030100281004003024277293
B0047053730284N12154096WA0030100279004003026283302
B0047063730285N12154101WA0030000278004003025287304
B0047073730286N12154106WA0029900278004003025289314
B0047083730288N12154110WA0029700277004003025294322
B0047093730290N12154113WA0029700275004003024308323
B0047103730293N12154116WA0029600273004003028324304
B0047113730297N12154119WA0029400273004003028329314
B0047123730301N12154122WA0029200271004003031321314
B0047133730304N12154126WA0029200270004003031306305
B0047143730306N12154131WA0029100268004003032298311
B0047153730309N12154136WA0028900265004003032302313
B0047163730313N12154141WA0028700263004003032321311
B0047173730318N12154145WA0028700261004003041329313
B0047183730323N12154149WA0028500260004003039324312
B0047193730327N12154154WA0028300259004003039307308
B0047203730329N12154160WA0028100259004003037297308
B0047213730332N12154165WA0028100258004003033298306
B0047223730334N12154170WA0027900256004003033309313
B0047233730338N12154175WA0027700254004003037314303
B0047243730342N12154180WA0027500251004003037315309
B0047253730346N12154185WA0027500249004003038315304
B0047263730350N12154190WA0027300248004003039319317
B0047273730355N12154194WA0027100248004003040324331
B0047283730360N12154196WA0026900249004003039334319
B0047293730363N12154198WA0026900249004003027338322
B0047303730366N12154198WA0026700248004003014339324
B0047313730368N12154200WA0026600246004003019324318
B0047323730370N12154202WA0026500243004003019312312
B0047333730373N12154206WA0026500243004003022315310
B0047343730376N12154210WA0026400244004003027315309
B0047353730378N12154213WA0026400244004003027312313
B0047363730380N12154216WA0026300244004003023306313
B0047373730382N12154218WA0026300244004003017307310
B0047383730383N12154221WA0026200242004003017315304
B0047393730385N12154223WA0026100241004003019317303
B0047403730387N12154226WA0026000238004003019308302
B0047413730390N12154230WA0026000237004003024301296
B0047423730392N12154235WA0026000236004003028303299
B0047433730394N12154239WA0025900235004003028308303
B0047443730397N12154242WA0025900233004003026311299
B0047453730399N12154246WA0025700232004003026311299
B0047463730402N12154250WA0025500231004003032310302
B0047473730405N12154255WA0025300231004003032312300
B0047483730409N12154259WA0025300230004003032312303
B0047493730411N12154263WA0025200231004003031309300
B0047503730414N12154268WA0025000231004003029303298
B0047513730416N12154272WA0024900232004003029301306
B0047523730418N12154277WA0024900232004003028305304
B0047533730421N12154280WA0024900232004003027309295
B0047543730423N12154285WA0024900232004003028305276
B0047553730425N12154290WA0024900233004003029295291
B0047563730427N12154294WA0024900235004003028289306
B0047573730428N12154299WA0024900236004003026290297
B0047583730429N12154302WA0024900236004003015296296
B0047593730430N12154304WA0025100235004003016299299
B0048003730431N12154307WA0025100233004003016296297
B0048013730432N12154311WA0025200232004003020295300
B0048023730434N12154315WA0025200233004003024300298
B0048033730436N12154318WA0025200234004003024307314
B0048043730438N12154321WA0025200233004003018314297
B0048053730440N12154322WA0025200233004003016318307
B0048063730442N12154325WA0025200231004003021318305
B0048073730444N12154327WA0025100231004003022315305
B0048083730446N12154330WA0025100231004003021312296
B0048093730448N12154333WA0025100231004003020307283
B0048103730449N12154336WA0025100231004003019294273
B0048113730450N12154340WA0025000229004003022275262
B0048123730449N12154345WA0025000228004003022255255
B0048133730447N12154349WA0025000226004003026238241
B0048143730443N12154354WA0024900225004003036222231
B0048153730438N12154357WA0024900224004003040206223
B0048163730431N12154359WA0024900225004003040194210
B0048173730425N12154359WA0024700226004003040186206
B0048183730420N12154359WA0024600231004004032186194
B0048193730415N12154359WA0024500227004003033184195
B0048203730409N12154359WA0024500226004003033181180
B0048213730403N12154358WA0024400225004003038174179
B0048223730396N12154356WA0024400226004003045168166
B0048233730390N12154353WA0024300225004003045161168
B0048243730384N12154349WA0024300224004003043154163
B0048253730379N12154345WA0024300222004003039152159
B0048263730374N12154341WA0024200220004003041152148
B0048273730368N12154337WA0024100218004003046150139
B0048283730362N12154331WA0024100216004003046145136
B0048293730357N12154325WA0024000215004003047139134
B0048303730352N12154319WA0023900214004003043135135
B0048313730348N12154313WA0023800213004003043133131
B0048323730344N12154307WA0023800213004003043132142
B0048333730339N12154300WA0023600212004003043132154
B0048343730335N12154294WA0023400211004003040133166
B0048353730331N12154289WA0023300209004003040139159
B0048363730326N12154285WA0023300207004003040146164
B0048373730321N12154281WA0023100205004003040149156
B0048383730315N12154276WA0023000203004003046144130
B0048393730310N12154271WA0022800202004003046135122
B0048403730306N12154264WA0022800201004003046124108
B0048413730304N12154256WA0022600199004003044115094
B0048423730302N12154248WA0022400198004003044106077
B0048433730301N12154240WA0022200196004003044095069
B0048443730302N12154232WA0022200195004003044085059
B0048453730304N12154224WA0022000194004003043075048
B0048463730307N12154217WA0021800192004003040067033
B0048473730310N12154211WA0021700191004003038059023
B0048483730314N12154206WA0021700188004003032049010
B0048493730318N12154203WA0021500186004003032037000
B0048503730322N12154201WA0021300184004003031022352
B0048513730327N12154200WA0021100182004003029006343
B0048523730331N12154202WA0021100181004003028348305
B0048533730334N12154204WA0020900180004003020333328
B0048543730337N12154207WA0020700179004003020320004
B0048553730339N12154210WA0020500177004003018314316
B0048563730341N12154213WA0020500177004003018317313
B0048573730344N12154215WA0020300175004003019330323
B0048583730348N12154217WA0020200174004003030346333
B0048593730353N12154217WA0020000173004003033000341
B0049003730357N12154217WA0020000173004003030004343
B0049013730362N12154216WA0019900172004003029003336
B0049023730366N12154216WA0019800171004003029354322
B0049033730369N12154217WA0019700171004003019344312
B0049043730371N12154219WA0019700169004003019322293
B0049053730371N12154223WA0019500166004003019277282
B0049063730368N12154227WA0019400164004003023222263
B0049073730363N12154229WA0019300164004003035193239
B0049083730358N12154229WA0019300165004003023180215
B0049093730355N12154228WA0019100163004003023180227
B0049103730353N12154229WA0019000162004003017207229
B0049113730351N12154231WA0018800161004003017234242
B0049123730349N12154234WA0018800160004003021231245
B0049133730346N12154236WA0018700160004003024213241
B0049143730343N12154238WA0018500158004003024206246
B0049153730341N12154240WA0018400156004003019220259
B0049163730340N12154243WA0018400154004003019258271
B0049173730340N12154248WA0018300153004003023277281
B0049183730342N12154252WA0018100152004003021286286
B0049193730343N12154255WA0017900151004004021292287
B0049203730345N12154259WA0017900151004003020298290
B0049213730346N12154261WA0017700150004003017298289
B0049223730347N12154263WA0017500149004003008296324
B0049233730347N12154264WA0017400148004003008292294
B0049243730347N12154264WA0017400149004003002292293
B0049253730348N12154264WA0017200148004003002030293
B0049263730348N12154263WA0017200148004003002030293
B0049273730348N12154263WA0017200147004003002030293
B0049283730349N12154263WA0017200147004003001030293
B0049293730349N12154263WA0017100147004003001030293
B0049303730349N12154262WA0017100146004003001030293
B0049313730349N12154262WA0017100146004003000030293
B0049323730349N12154262WA0017100146004003000030293
B0049333730349N12154262WA0017100145004003000030293
B0049343730349N12154262WA0017100146004003001030293
B0049353730349N12154262WA0017100147004004000030293
B0049363730349N12154262WA0017100146004004000030293
B0049373730349N12154262WA0017100145004004000030293
B0049383730349N12154262WA0017100145004004001030293
B0049393730349N12154262WA0017100145004004001030293
B0049403730350N12154262WA0017100145004004001030293
B0049413730350N12154262WA0017100146005006001030293
B0049423730350N12154262WA0017100145004004001030293
B0049433730350N12154262WA0017100145004004001030293
B0049443730350N12154262WA0017100145004004000030293
B0049453730350N12154262WA0017100146004004000030293
B0049463730350N12154262WA0017100146004003001030293
B0049473730350N12154261WA0017100147004004001030293
B0049483730350N12154261WA0017100147004003000030293
B0049493730350N12154261WA0017100148004004001030293
B0049503730350N12154261WA0017100147004004000030293
B0049513730350N12154261WA0017100147004003001030293
B0049523730350N12154261WA0017100148004004000030293
B0049533730350N12154261WA0017100148004004001030293
B0049543730351N12154260WA0017100149004004006013293
GoErRtYylgMJPni6XSFKYJ8TpVAfXhnnBFkXeLrWpiq0k+vpk6PwYQ82keR4CscXD
GlAk9IwtV2MiffAmSV9KqgmIHfhsVkv6pLckLnKC+yYkq9vOeq0mDROJXvgoh4G1h
GNYnsv0YDEllwLIGI/H784bEJScmfNyxAoHCuIZ2AqVM=

