AXFH000
HFDTE230826
HFPLTPILOT:Scott O’Brien
HFGTYGLIDERTYPE:Ozone Swift 6
HFDTM100GPSDATUM:WGS84
HFRFWFIRMWAREVERSION:9.7.1
HFRHWHARDWAREVERSION:iPhone 15
HFFTYFRTYPE:Flyskyhy,9.7.1
HFGPS:Internal
HFPRSVARIO:Internal Vario
HFCCLCOMPETITIONCLASS:Paraglider,EN-B
HFTZNTIMEZONE:-7
HFSITSITE:Mission Ridge (Fremont- San Jose),US
I053638FXA3941VXA4244GSP4547CCO4850HDT
B1923243731052N12153508WA0058300583005010001176055
B1923253731052N12153508WA0058300583005010000064013
B1923263731052N12153508WA0058300583005010001162348
B1923273731052N12153508WA0058300583005010000000338
B1923283731052N12153508WA0058300583005010000000355
B1923293731052N12153508WA0058300583005010000000019
B1923303731052N12153508WA0058300583005010000000006
B1923313731052N12153508WA0058300583005010000000356
B1923323731052N12153508WA0058300583005010000000002
B1923333731052N12153508WA0058300583005010000000002
B1923343731052N12153508WA0058300583005010000000000
B1923353731052N12153508WA0058300583005010000000002
B1923363731052N12153508WA0058300583005010000000002
B1923373731052N12153508WA0058300583005010000000014
B1923383731052N12153508WA0058300583005010000000043
B1923393731052N12153508WA0058300583005010000000043
B1923403731052N12153508WA0058300583005010000000040
B1923413731052N12153508WA0058300583005010001242043
B1923423731052N12153508WA0058300583005010004237055
B1923433731052N12153509WA0058300583005010002239040
B1923443731051N12153509WA0058300583005010003242039
B1923453731051N12153510WA0058300584005010004258225
B1923463731050N12153511WA0058300583005010007184217
B1923473731049N12153512WA0058300583005010009228231
B1923483731049N12153514WA0058200583005010011233224
B1923493731047N12153516WA0058200583005010011226227
B1923503731046N12153518WA0058200582005010015221230
B1923513731044N12153520WA0058200582005010015222227
B1923523731042N12153522WA0058100581005010011213220
B1923533731040N12153524WA0058100581005010013189207
B1923543731038N12153526WA0058000580005010021214226
B1923553731035N12153528WA0057900579005010024220224
B1923563731032N12153532WA0057800579005010029226245
B1923573731029N12153536WA0057600578005010026228255
B1923583731027N12153540WA0057500578005010019234223
B1923593731026N12153543WA0057500577005010020242226
B1924003731024N12153547WA0057400577005010025244230
B1924013731022N12153552WA0057400576005010033230231
B1924023731018N12153556WA0057300575005010036214221
B1924033731013N12153559WA0057200575005010033196207
B1924043731008N12153561WA0057100575005010032190192
B1924053731004N12153561WA0057100575005010029183188
B1924063730999N12153562WA0057100574005010031181183
B1924073730994N12153562WA0057100574005010035181188
B1924083730989N12153562WA0057100573005010038186191
B1924093730983N12153563WA0057100572005010035190200
B1924103730978N12153565WA0057000572005010031192194
B1924113730974N12153566WA0057000572005010028188186
B1924123730970N12153566WA0057000572005010026177170
B1924133730966N12153565WA0057000571005010029169161
B1924143730962N12153564WA0057000571005010034159147
B1924153730957N12153561WA0057000571005010040150131
B1924173730952N12153556WA0057000570005010040135135
B1924183730948N12153550WA0057000570005010038126127
B1924193730945N12153545WA0056900570005010035123134
B1924203730942N12153539WA0056900569005010036122126
B1924213730939N12153533WA0056800569005010038123131
B1924223730936N12153527WA0056800569005010036127150
B1924233730933N12153522WA0056800569005010030133151
B1924243730930N12153519WA0056800568005010025134154
B1924253730927N12153515WA0056700568005010033144167
B1924263730922N12153511WA0056600568005010039147162
B1924273730917N12153507WA0056400567005010044153179
B1924283730911N12153504WA0056400567005010042156163
B1924293730905N12153501WA0056100566005010039155171
B1924303730901N12153498WA0056100566005010034147166
B1924313730896N12153494WA0055900566005010035147174
B1924323730892N12153491WA0055900565005010035152167
B1924333730887N12153488WA0055900565005010031155161
B1924343730883N12153485WA0055900564005010030149158
B1924353730879N12153482WA0055900564005010030148178
B1924363730875N12153479WA0055800563005010035146163
B1924373730870N12153475WA0055800562005010039149176
B1924383730865N12153472WA0055700562005010036152168
B1924393730860N12153469WA0055700562005010034154181
B1924403730856N12153467WA0055800563005010029157203
B1924413730852N12153465WA0055800563005010026162217
B1924423730849N12153464WA0056000563005010024174221
B1924433730845N12153465WA0056000564005010023202225
B1924443730842N12153468WA0056000564005010029237243
B1924453730841N12153473WA0056000564005010032266264
B1924463730842N12153479WA0056000564005010034289282
B1924473730844N12153484WA0055900564005010029318301
B1924483730848N12153487WA0055800564005010024348325
B1924493730852N12153487WA0055800564005010024010354
B1924503730856N12153485WA0055800564005010027024020
B1924513730863N12153478WA0055800563005010040052036
B1924523730866N12153471WA0055700563005010041077061
B1924533730867N12153463WA0055700563005010038088085
B1924543730867N12153456WA0055600563005010031092095
B1924553730865N12153452WA0055600563005010029139099
B1924563730861N12153448WA0055700563005010032147149
B1924573730856N12153446WA0055700563005010032152158
B1924583730851N12153443WA0055800563005010032160162
B1924593730846N12153442WA0055800562005010033164168
B1925003730841N12153440WA0055800561005010033162173
B1925013730836N12153439WA0055700560005010034157168
B1925023730831N12153436WA0055700559005010035156170
B1925033730826N12153434WA0055600558005010033155161
B1925043730821N12153431WA0055500557005010031153160
B1925053730817N12153428WA0055500556005010032152160
B1925063730812N12153425WA0055400554005010035153162
B1925073730807N12153422WA0055300553005010036155162
B1925083730802N12153420WA0055200552005010036155166
B1925093730798N12153417WA0055200550005010034154165
B1925103730793N12153414WA0055100549005010033154173
B1925113730789N12153412WA0055000548005010033156169
B1925123730784N12153409WA0054900546005010035159173
B1925133730779N12153407WA0054700545005010036160169
B1925143730774N12153405WA0054600543005010036160181
B1925153730769N12153402WA0054500542005010035162181
B1925163730764N12153401WA0054400540005010034165190
B1925173730759N12153399WA0054300539005010033167187
B1925183730754N12153398WA0054200537005010035174183
B1925193730748N12153398WA0054000536005010038176193
B1925203730742N12153397WA0054000534005010040174190
B1925213730736N12153397WA0053800532005010042174201
B1925223730730N12153396WA0053600530005010042175202
B1925233730724N12153396WA0053500529005010041181208
B1925243730718N12153396WA0053500528005010035178191
B1925253730713N12153396WA0053300528005010031175185
B1925263730709N12153395WA0053200528005010030164167
B1925273730704N12153393WA0053200527005010033159178
B1925283730699N12153390WA0053200527005010039154174
B1925293730694N12153387WA0053300527005010041152171
B1925303730689N12153383WA0053300527005010038150164
B1925313730684N12153379WA0053400527005010034147162
B1925323730680N12153376WA0053400528005010036146167
B1925333730675N12153372WA0053400527005010038144163
B1925343730670N12153368WA0053400527005010039146168
B1925353730665N12153364WA0053300527005010039148172
B1925363730661N12153360WA0053300527005010038147177
B1925373730656N12153356WA0053300527005010034148175
B1925383730652N12153353WA0053200527005010032151180
B1925393730647N12153350WA0053200527005010031156177
B1925403730643N12153348WA0053200527005010030161178
B1925413730639N12153347WA0053100526005010031164179
B1925423730634N12153345WA0053100525005010034165188
B1925433730628N12153344WA0053000524005010038169195
B1925443730623N12153343WA0053000523005010039174193
B1925453730617N12153342WA0052900523005010033175198
B1925463730613N12153342WA0052800523005010027172194
B1925473730609N12153341WA0052800522005010024174190
B1925483730605N12153341WA0052800522005010024177191
B1925493730602N12153341WA0052800521005010026184192
B1925503730597N12153342WA0052800521005010029192202
B1925513730593N12153343WA0052700520005010030198208
B1925523730589N12153345WA0052700520005010031207214
B1925533730585N12153348WA0052700519005010030208222
B1925543730581N12153351WA0052500519005010028214230
B1925553730578N12153354WA0052400518005010026212233
B1925563730575N12153356WA0052400518005010022220236
B1925573730572N12153359WA0052300517005010023227246
B1925583730570N12153363WA0052300517005010024235252
B1925593730568N12153367WA0052300516005010022245261
B1926003730568N12153370WA0052300516005010019265270
B1926013730568N12153374WA0052300516005010019281286
B1926023730569N12153377WA0052300515005010012289298
B1926033730570N12153379WA0052200514005010009316304
B1926043730572N12153380WA0052200514005010001014323
B1926053730572N12153380WA0052000514005010008099322
B1926063730573N12153376WA0051900513005010017094071
B1926073730573N12153370WA0051700512005010026091084
B1926083730573N12153362WA0051700511005010035097086
B1926103730573N12153354WA0051500511005010033116094
B1926113730572N12153347WA0051300510005010036142115
B1926123730567N12153343WA0051100509005010036161145
B1926133730563N12153340WA0051000509005010033179167
B1926143730559N12153340WA0051000509005010031193188
B1926153730556N12153340WA0050900508005010026199204
B1926163730553N12153342WA0050900508005010026206217
B1926173730550N12153344WA0050900507005010025213227
B1926183730547N12153347WA0050900507005010029222233
B1926193730545N12153350WA0051100506005010030221235
B1926203730542N12153353WA0051200506005010028215233
B1926213730539N12153356WA0051300506005010027214243
B1926223730536N12153358WA0051300506005010027218234
B1926233730533N12153361WA0051300506005010028221227
B1926243730530N12153364WA0051400506005010027219229
B1926253730527N12153367WA0051400506005010024215222
B1926263730522N12153371WA0051500507005010023207229
B1926273730518N12153372WA0051500506005010027192242
B1926283730514N12153373WA0051500506005010029200232
B1926293730510N12153375WA0051400506005010030212239
B1926303730507N12153378WA0051200505005010031217233
B1926313730503N12153382WA0051200505005010029216236
B1926323730500N12153385WA0051100505005010027217243
B1926333730497N12153388WA0050900505005010027217249
B1926343730494N12153391WA0050700504005010025227257
B1926353730491N12153394WA0050700504005010029221247
B1926363730488N12153398WA0050500504005010030221244
B1926373730484N12153401WA0050400503005010034213241
B1926383730480N12153404WA0050300503005010028216246
B1926393730477N12153407WA0050300503005010027215241
B1926403730473N12153410WA0050100503005010026219237
B1926413730470N12153413WA0050000503005010027215231
B1926423730467N12153416WA0049900503005010029213243
B1926433730463N12153419WA0049900502005010029214245
B1926443730460N12153422WA0049800502005010028218237
B1926453730457N12153425WA0049700502005010027220241
B1926463730454N12153429WA0049600501005010027219232
B1926473730451N12153432WA0049600501005010027216232
B1926483730447N12153435WA0049500500005010030215238
B1926493730444N12153438WA0049400500005010032219235
B1926503730440N12153442WA0049300500005010034221227
B1926513730436N12153447WA0049300499005010034219229
B1926523730432N12153451WA0049200499005010032215213
B1926533730428N12153454WA0049100498005010029213227
B1926543730425N12153456WA0049000498005010027205222
B1926553730421N12153458WA0049000497005010028206225
B1926563730417N12153460WA0048900495005010033208219
B1926573730412N12153463WA0048800494005010036208217
B1926583730407N12153466WA0048700493005010036206210
B1926593730403N12153469WA0048700492005010033206227
B1927003730398N12153472WA0048600491005010030206218
B1927013730394N12153474WA0048400490005010029205217
B1927023730390N12153476WA0048300489005010031206221
B1927033730386N12153479WA0048300487005010035206217
B1927043730381N12153482WA0048100486005010037205234
B1927053730376N12153485WA0048000484005010034203227
B1927063730371N12153487WA0047800483005010029202229
B1927073730368N12153489WA0047800482005010026201230
B1927083730364N12153491WA0047700480005010028200229
B1927093730360N12153493WA0047500479005010033205242
B1927103730355N12153496WA0047300478005010033212249
B1927113730351N12153500WA0047300476005010033216245
B1927123730348N12153503WA0047200475005010027222245
B1927133730345N12153507WA0047100473005010025224259
B1927143730342N12153510WA0046900472005010026216255
B1927153730339N12153513WA0046900470005010026221267
B1927163730336N12153517WA0046700469005010031233261
B1927173730333N12153522WA0046500467005010034238267
B1927183730330N12153528WA0046300466005010032236267
B1927193730328N12153533WA0046300464005010031236273
B1927203730325N12153537WA0046100463005010026242271
B1927213730324N12153542WA0045900462005010025242278
B1927223730322N12153546WA0045800460005010027250268
B1927233730321N12153551WA0045800459005010031250277
B1927243730319N12153557WA0045600457005010030249258
B1927253730317N12153562WA0045400456005010030248261
B1927263730316N12153567WA0045300454005010023252258
B1927273730315N12153570WA0045300453005010021246243
B1927283730314N12153574WA0045200452005010022238238
B1927293730311N12153578WA0045100450005010030227226
B1927303730308N12153582WA0045100449005010029225224
B1927313730304N12153585WA0045100447005010031200210
B1927323730300N12153586WA0045000446005010031187197
B1927333730295N12153586WA0045000445005010033176188
B1927343730290N12153585WA0044800443005010034171186
B1927353730285N12153584WA0044800442005010034167188
B1927363730280N12153583WA0044700440005010034170204
B1927373730275N12153582WA0044600439005010035179210
B1927383730269N12153582WA0044500437005010038188218
B1927393730263N12153584WA0044500436005010040195230
B1927403730258N12153586WA0044300434005010038196241
B1927413730253N12153590WA0044100433005010036230250
B1927423730250N12153595WA0043900431005010035240271
B1927433730248N12153601WA0043900430005010034252275
B1927443730248N12153607WA0043700429005010029276283
B1927453730249N12153612WA0043500428005010024294299
B1927463730251N12153616WA0043400426005010021319311
B1927473730255N12153618WA0043400425005010021327325
B1927483730258N12153621WA0043400424005010029331335
B1927493730262N12153624WA0043300422005010031329336
B1927503730267N12153627WA0043100420005010030328334
B1927513730271N12153630WA0043100419005010030329335
B1927523730275N12153633WA0042900417005010031327341
B1927533730279N12153637WA0042700416005010032318311
B1927543730282N12153641WA0042500415005010029310353
B1927553730285N12153645WA0042500413005010023308318
B1927563730287N12153649WA0042400413005010026308324
B1927573730290N12153652WA0042300412005010023313325
B1927583730291N12153655WA0042200411005010019303310
B1927593730294N12153658WA0042200410005010034306311
B1928003730297N12153664WA0042100408005010037303336
B1928013730300N12153669WA0041900407005010027300324
B1928023730302N12153672WA0041600406005010018313326
B1928033730304N12153675WA0041600405005010021309319
B1928043730305N12153677WA0041300404005010017305321
B1928053730308N12153681WA0041000403005010034314335
B1928063730312N12153686WA0040700401005010036313317
B1928073730316N12153690WA0040700400005010030326332
B1928083730319N12153692WA0040500400005010022329307
B1928093730322N12153694WA0040400399005010022327309
B1928103730325N12153697WA0040200399005010024319328
B1928113730329N12153700WA0040200398005010034312318
B1928123730332N12153704WA0040200398005010031325346
B1928133730336N12153707WA0040200398005010023341329
B1928143730339N12153707WA0040300399005010016352328
B1928153730342N12153708WA0040300399005010015349329
B1928163730344N12153709WA0040400399005010018340322
B1928173730347N12153710WA0040500400005010026333317
B1928183730351N12153713WA0040500400005010030325324
B1928193730354N12153716WA0040500400005010026316308
B1928203730356N12153720WA0040600401005010020308297
B1928213730358N12153723WA0040600401005010018303292
B1928223730359N12153726WA0040500401005010018294288
B1928233730360N12153729WA0040500402005010022285281
B1928243730361N12153733WA0040400402005010025277273
B1928253730361N12153738WA0040400402005010025268277
B1928263730361N12153743WA0040300402005010022263272
B1928273730360N12153747WA0040300402005010021263283
B1928283730360N12153751WA0040200402005010023266283
B1928293730360N12153756WA0040100402005010027269285
B1928303730359N12153761WA0040000402005010029270286
B1928313730359N12153767WA0040000401005010028273290
B1928323730360N12153772WA0039800401005010027273290
B1928333730360N12153777WA0039800401005010028273288
B1928343730360N12153782WA0039700400005010029275276
B1928353730360N12153788WA0039700399005010028272290
B1928363730360N12153793WA0039600398005010027266280
B1928373730360N12153798WA0039500398005010026262291
B1928383730360N12153803WA0039400397005010029266294
B1928393730360N12153808WA0039400396005010031276297
B1928403730361N12153814WA0039300395005010030287294
B1928413730362N12153819WA0039100393005010026292279
B1928423730363N12153823WA0038900392005010022288275
B1928433730364N12153827WA0038900391005010022278277
B1928443730364N12153831WA0038800389005010025272274
B1928453730365N12153836WA0038600388005010028271295
B1928463730365N12153842WA0038500387005010030272297
B1928473730365N12153848WA0038500386005010029278304
B1928483730366N12153853WA0038300385005010026284303
B1928493730368N12153857WA0038200384005010023290298
B1928503730369N12153861WA0038200383005010024290295
B1928513730370N12153866WA0038200381005010026288301
B1928523730371N12153871WA0038100380005010029288291
B1928533730373N12153876WA0038100379005010030290294
B1928543730374N12153881WA0038100378005010029292293
B1928553730376N12153886WA0038100377005010029289287
B1928563730377N12153892WA0038100376005010030282282
B1928573730378N12153897WA0038000375005010031277284
B1928583730379N12153903WA0037900374005010030276288
B1928593730379N12153909WA0037900372005010029278287
B1929003730380N12153914WA0037800371005010028280288
B1929013730381N12153919WA0037700370005010027278286
B1929023730381N12153924WA0037500369005010025278287
B1929033730382N12153929WA0037500368005010025278287
B1929043730382N12153934WA0037400366005010025277283
B1929053730383N12153938WA0037200365005010025278282
B1929063730384N12153943WA0037000363005010025280288
B1929073730384N12153948WA0037000362005010026282284
B1929083730385N12153953WA0036800361005010029283286
B1929093730386N12153958WA0036500359005010031283296
B1929103730387N12153964WA0036200357005010029286280
B1929113730389N12153969WA0036200356005010026291293
B1929123730390N12153973WA0035900354005010025290283
B1929133730391N12153978WA0035700353005010026284289
B1929143730392N12153983WA0035500352005010029281284
B1929153730393N12153988WA0035500350005010029279275
B1929163730393N12153993WA0035300348005010026278274
B1929173730393N12153998WA0035100347005010024276267
B1929183730393N12154003WA0034900345005010023273268
B1929193730393N12154007WA0034900343005010024270263
B1929203730393N12154012WA0034700342005010028263264
B1929213730392N12154018WA0034500340005010032256261
B1929223730391N12154023WA0034300339005010031254260
B1929233730389N12154029WA0034300338005010030250272
B1929243730387N12154034WA0034100336005010030246275
B1929253730385N12154039WA0033900334005010033248287
B1929263730384N12154045WA0033700333005010035254290
B1929273730383N12154052WA0033700331005010036258289
B1929283730382N12154058WA0033500330005010030266275
B1929293730382N12154063WA0033300328005010025268279
B1929303730382N12154068WA0033100326005010024262289
B1929313730381N12154072WA0033100325005010025261280
B1929323730381N12154077WA0033000323005010026265296
B1929333730380N12154082WA0032800321005010029268298
B1929343730380N12154088WA0032700319005010029268292
B1929353730380N12154093WA0032700317005010029270300
B1929363730381N12154098WA0032600316005010025274300
B1929373730381N12154102WA0032500315005010023286320
B1929383730383N12154106WA0032400313005010020297337
B1929393730384N12154109WA0032400312005010018313342
B1929403730387N12154111WA0032400311005010020345356
B1929413730390N12154111WA0032500309005010019002013
B1929423730393N12154110WA0032600308005010019023026
B1929433730395N12154109WA0032600306005010018036034
B1929443730399N12154104WA0032600305010019021045043
B1929453730403N12154099WA0032500304010019026053047
B1929463730404N12154093WA0032400304005010022071058
B1929473730405N12154089WA0032400303005010021086064
B1929483730401N12154083WA0032300302005010015098078
B1929493730398N12154080WA0032200301005010011140040
B1929503730394N12154078WA0032100300010019014165100
B1929513730389N12154077WA0032100299010019020181158
B1929523730384N12154078WA0032100298010019027185181
B1929533730379N12154078WA0032100297010019024189184
B1929543730375N12154080WA0032100296005010024199186
B1929553730371N12154083WA0032100295005010026204186
B1929563730366N12154085WA0032300294005010031200185
B1929573730362N12154087WA0032500293005010032192180
B1929583730356N12154088WA0032600292005010031177165
B1929593730353N12154085WA0032600291005010043115150
B1930003730350N12154078WA0032700290005010039110098
B1930013730349N12154072WA0032700289005010034091090
B1930023730350N12154066WA0032700288005010026056074
B1930033730352N12154063WA0032700289005010024037043
B1930043730356N12154061WA0032700289005010024016028
B1930053730360N12154060WA0032800289005010028358012
B1930063730363N12154062WA0032900289005010031313357
B1930073730367N12154068WA0032900289005010033306320
B1930083730369N12154073WA0033000289005010035299313
B1930093730371N12154080WA0033100290005010031281306
B1930103730371N12154085WA0033100290005010025263290
B1930113730370N12154090WA0033100291005010020248276
B1930123730369N12154093WA0033200291005010021221263
B1930133730365N12154095WA0033300291005010027209231
B1930143730360N12154098WA0033400291005010051188214
B1930153730352N12154099WA0033400292005010051184189
B1930163730344N12154100WA0033500293005010052177184
B1930173730336N12154099WA0033600293005010052166176
B1930183730331N12154095WA0033600294005010038129164
B1930193730327N12154089WA0033600294005010038125117
B1930203730324N12154083WA0033600294005010037117113
B1930213730323N12154076WA0033700294005010035103104
B1930223730322N12154069WA0033700294005010035082088
B1930233730324N12154063WA0033700294005010038069069
B1930243730326N12154056WA0033700294005010035057057
B1930253730330N12154052WA0033700294005010032036045
B1930263730333N12154048WA0033700295005010031018027
B1930273730338N12154047WA0033700296005010031005006
B1930283730342N12154046WA0033800297005010031353353
B1930293730347N12154047WA0033800299005010029338341
B1930303730351N12154049WA0033900301005010029326333
B1930313730354N12154053WA0033900301005010030314317
B1930323730357N12154058WA0034100302005010032305310
B1930333730359N12154064WA0034200303005010036285301
B1930343730361N12154070WA0034200303005010036283274
B1930353730361N12154077WA0034200304005010034265279
B1930363730361N12154082WA0034300306005010030248265
B1930373730359N12154087WA0034300307005010028240264
B1930383730357N12154092WA0034400308005010026241262
B1930393730355N12154096WA0034400310005010025241257
B1930403730353N12154100WA0034500311005010024238247
B1930413730351N12154104WA0034600312005010025233234
B1930423730348N12154107WA0034700313005010026217217
B1930433730344N12154110WA0034700313005010034203203
B1930443730338N12154112WA0034700314005010042188189
B1930453730332N12154112WA0034700314005010041181164
B1930463730325N12154110WA0034600315005010048156157
B1930473730319N12154107WA0034600315005010047150138
B1930483730313N12154102WA0034500316005010039129133
B1930493730310N12154096WA0034400316005010039114114
B1930503730308N12154089WA0034400317005010040103097
B1930513730307N12154081WA0034400317005010039098083
B1930523730307N12154074WA0034400317005010036091069
B1930533730307N12154067WA0034400318005010035080058
B1930543730308N12154061WA0034400318005010035069049
B1930553730311N12154055WA0034400319005010035057040
B1930563730314N12154051WA0034300319005010036028030
B1930573730320N12154049WA0034200319005010034016010
B1930583730325N12154048WA0034100319005010033001003
B1930593730329N12154049WA0034100319005010027343348
B1931003730333N12154051WA0034000319005010025328330
B1931013730336N12154055WA0034000319010019026318320
B1931023730339N12154058WA0033900319005010027315307
B1931033730342N12154062WA0033900319005010027308300
B1931043730344N12154067WA0033900319005010027298294
B1931053730346N12154071WA0033900319005010027282283
B1931063730346N12154077WA0033900319005010027270276
B1931073730346N12154081WA0033900319005010024259277
B1931083730345N12154086WA0033900319005010022251258
B1931093730343N12154090WA0033900319005010024243255
B1931103730341N12154094WA0033900319005010028235245
B1931113730338N12154098WA0033900319005010034225219
B1931123730334N12154103WA0033800318005010037214210
B1931133730328N12154106WA0033700318005010039202195
B1931143730322N12154108WA0033600318005010039188182
B1931153730316N12154108WA0033600318005010041173171
B1931163730310N12154106WA0033600318005010044162155
B1931173730304N12154103WA0033500317005010046153135
B1931183730298N12154098WA0033400317005010046141126
B1931193730293N12154092WA0033400316005010042126119
B1931203730291N12154085WA0033400316005010041110105
B1931213730289N12154078WA0033400315005010040096093
B1931223730289N12154070WA0033300315005010037085075
B1931243730290N12154064WA0033300314005010036075056
B1931253730296N12154053WA0033300314005010035039037
B1931273730300N12154050WA0033200313005010032025016
B1931283730309N12154049WA0033200312005010024351353
B1931303730312N12154051WA0033200312005010024324336
B1931313730317N12154059WA0033100312005010028298306
B1931333730318N12154063WA0033000311005010025287301
B1931343730320N12154071WA0033000311005010018282301
B1931353730321N12154075WA0033000311005010018287306
B1931373730321N12154078WA0032900311005010019291308
B1931383730323N12154085WA0032900311005010019292314
B1931403730324N12154088WA0032900310005010020297300
B1931423730327N12154096WA0032700309005010025288275
B1931433730328N12154101WA0032500309005010026276287
B1931443730328N12154106WA0032500308005010029265281
B1931453730327N12154111WA0032300307005010032255294
B1931463730326N12154117WA0032100306005010029257290
B1931473730325N12154122WA0031800305005010026256303
B1931483730324N12154127WA0031800304005010027260310
B1931493730324N12154132WA0031600303005010028281309
B1931503730326N12154137WA0031400302005010029307320
B1931513730329N12154141WA0031200300005010030333333
B1931523730333N12154142WA0031200298005010030358345
B1931533730338N12154141WA0031000297005010028013359
B1931543730342N12154139WA0030800295005010029025014
B1931553730346N12154137WA0030600294005010032032022
B1931563730350N12154133WA0030600292005010035037034
B1931573730354N12154129WA0030400291005010037039040
B1931583730358N12154124WA0030200289005010039044052
B1931593730362N12154118WA0030100288005010038050053
B1932003730365N12154112WA0030100287005010038061052
B1932013730367N12154106WA0030000286005010039067057
B1932023730370N12154099WA0029900285005010039066059
B1932033730372N12154092WA0029900284005010039063052
B1932043730375N12154086WA0029900283005010038061048
B1932053730378N12154080WA0029800282005010037055042
B1932063730381N12154074WA0029800282005010035050019
B1932073730384N12154070WA0029900282005010032040015
B1932083730388N12154066WA0029900282005010031031000
B1932093730393N12154064WA0029900282005010032015359
B1932103730397N12154064WA0029900281005010033002343
B1932113730402N12154064WA0030000281005010033351328
B1932123730407N12154066WA0030000280005010029337322
B1932133730410N12154069WA0030000280005010025304318
B1932143730412N12154073WA0029900280005010026291297
B1932153730413N12154078WA0029900280005010026279283
B1932163730413N12154082WA0029900280005010021272274
B1932173730413N12154086WA0029900280005010019260273
B1932183730411N12154090WA0030000280005010023235265
B1932193730409N12154094WA0030000280005010027227246
B1932203730405N12154097WA0030000280005010037205237
B1932213730400N12154099WA0030000280005010032196210
B1932223730395N12154100WA0030000280005010027179202
B1932233730391N12154100WA0030000280005010027173187
B1932243730387N12154098WA0030000280005010030150179
B1932253730383N12154093WA0030000280005010040123150
B1932263730380N12154086WA0030000279005010040119117
B1932273730378N12154079WA0030100278005010038105113
B1932283730377N12154072WA0030100278005010035095095
B1932293730378N12154065WA0030100277005010037075083
B1932303730380N12154058WA0030100276005010036065059
B1932313730382N12154052WA0030200276005010035052049
B1932323730387N12154047WA0030200275005010039024036
B1932333730392N12154045WA0030200275005010038011011
B1932343730397N12154045WA0030200274005010031355355
B1932353730402N12154046WA0030200274005010027341341
B1932363730405N12154047WA0030200274005010025328326
B1932373730409N12154050WA0030200274005010024315310
B1932383730411N12154054WA0030200274005010024300304
B1932393730412N12154058WA0030200274005010024284291
B1932403730413N12154062WA0030200274005010024272279
B1932413730413N12154066WA0030200275005010023265268
B1932423730412N12154070WA0030300275005010023247259
B1932433730411N12154074WA0030300275005010024226249
B1932443730407N12154076WA0030300275005010029200232
B1932453730403N12154077WA0030300275005010032178209
B1932463730398N12154076WA0030300275005010034157184
B1932473730393N12154073WA0030300275005010033146155
B1932483730390N12154069WA0030300275005010031133139
B1932493730387N12154064WA0030200274005010034119121
B1932503730385N12154058WA0030200274005010040106103
B1932513730384N12154050WA0030100273005010045089085
B1932523730385N12154041WA0030100272005010046075071
B1932533730387N12154033WA0030000271005010041066059
B1932543730390N12154026WA0030000271005010037050049
B1932553730394N12154022WA0029900270005010035040030
B1932563730398N12154018WA0029900270005010031035013
B1932573730402N12154015WA0029800269005010030029004
B1932583730406N12154013WA0029800269005010029013004
B1932593730410N12154013WA0029800269005010029355351
B1933003730415N12154014WA0029800268005010032340338
B1933013730420N12154016WA0029700268005010032333326
B1933023730424N12154019WA0029600268005010029330314
B1933033730427N12154022WA0029400268005010025325317
B1933043730430N12154025WA0029400268005010023319312
B1933053730433N12154028WA0029300268005010022310319
B1933063730435N12154031WA0029200268005010023306317
B1933073730437N12154035WA0029000268005010025302316
B1933083730438N12154040WA0029000267005010025300315
B1933093730440N12154044WA0028900267005010025300319
B1933103730442N12154048WA0028700267005010024301320
B1933113730444N12154052WA0028600267005010023302319
B1933123730446N12154056WA0028600266005010024307311
B1933133730448N12154059WA0028400266005010024310319
B1933143730450N12154063WA0028200265005010023309311
B1933153730452N12154066WA0028200265005010023304307
B1933163730454N12154070WA0028100264005010022303315
B1933173730456N12154073WA0028000263005010023305318
B1933183730458N12154077WA0027800263005010027307332
B1933193730460N12154081WA0027700262005010026308325
B1933203730462N12154085WA0027700262005010023313334
B1933213730465N12154087WA0027600261005010021321333
B1933223730467N12154090WA0027500261005010022326334
B1933233730470N12154092WA0027400260005010023329332
B1933243730473N12154095WA0027400259005010025330330
B1933253730477N12154097WA0027400259005010026332319
B1933263730480N12154099WA0027400258005010025329322
B1933273730483N12154102WA0027300258005010024322316
B1933283730486N12154105WA0027300258005010023317330
B1933293730488N12154107WA0027300257005010022316349
B1933303730491N12154110WA0027300257005010021321001
B1933313730494N12154112WA0027400257005010022341009
B1933323730497N12154112WA0027400257005010022006026
B1933333730500N12154111WA0027500257005010022022036
B1933343730503N12154108WA0027600257005010028038043
B1933353730506N12154105WA0027600256005010023050055
B1933363730508N12154101WA0027600256005010023064055
B1933373730509N12154097WA0027600256005010025073066
B1933383730510N12154092WA0027500255005010021073076
B1933393730510N12154088WA0027300255005010015087071
B1933403730508N12154085WA0027300255005010021127077
B1933413730504N12154081WA0027200255005010019131143
B1933423730502N12154079WA0027000254005010013144152
B1933433730500N12154077WA0026700254005010009149184
B1933443730498N12154075WA0026700253005010003179215
B1933453730498N12154075WA0026500253005010019350214
B1933463730499N12154074WA0026300252005010026347335
B1933473730501N12154075WA0026100252005010028334331
B1933483730503N12154077WA0026100251005010025321327
B1933493730505N12154080WA0026000251005010024320329
B1933503730507N12154083WA0026000251005010025321329
B1933513730509N12154087WA0026100250005010027323338
B1933523730512N12154090WA0026100250005010027329333
B1933533730514N12154092WA0026200250005010024336332
B1933543730516N12154095WA0026300249005010023356334
B1933553730519N12154097WA0026300249005010025357338
B1933563730521N12154100WA0026400248005010028354344
B1933573730524N12154103WA0026400248005010030348349
B1933583730528N12154106WA0026500248005010031343354
B1933593730532N12154109WA0026500248005010033340350
B1934003730536N12154112WA0026500248005010034343349
B1934013730540N12154115WA0026600249005010032347340
B1934023730543N12154117WA0026700250005010026354347
B1934033730547N12154117WA0026700251005010024355340
B1934043730550N12154118WA0026800251005010024355343
B1934053730553N12154119WA0026900252005010025353348
B1934063730557N12154121WA0027000253005010029350341
B1934073730561N12154122WA0027000253005010031349355
B1934083730565N12154124WA0027000254005010030347359
B1934093730569N12154125WA0027000254005010029350004
B1934103730573N12154126WA0027000255005010027356002
B1934113730577N12154126WA0027000255005010027005002
B1934123730581N12154126WA0027000255005010028010358
B1934133730585N12154125WA0027000256005010029009003
B1934143730590N12154124WA0027000256005010031006357
B1934153730594N12154124WA0027000256005010031007002
B1934163730599N12154123WA0027000257005010031009005
B1934173730603N12154122WA0027000257005010031011008
B1934183730612N12154120WA0027000259005010031013007
B1934193730617N12154119WA0027100260005010028012023
B1934203730620N12154118WA0027100261005010024018027
B1934213730624N12154116WA0027200263005010023015008
B1934223730627N12154115WA0027400265005010022016006
B1934233730630N12154114WA0027600266005010022015351
B1934243730634N12154114WA0027600268005010027353344
B1934253730638N12154115WA0027700269005010037345332
B1934263730643N12154118WA0027800270005010036338309
B1934273730648N12154121WA0027900271005010033323286
B1934283730651N12154126WA0027900271005010031292280
B1934293730651N12154132WA0027900272005010035260259
B1934303730649N12154138WA0027900271005010038235238
B1934313730646N12154144WA0027900271005010035227216
B1934323730642N12154148WA0027900271005010031222210
B1934333730638N12154152WA0027900270010019030216207
B1934343730634N12154151WA0027900270005010038136206
B1934353730630N12154144WA0027800270005010041129132
B1934363730627N12154136WA0027700269005010040121123
B1934373730624N12154129WA0027700269005010039110113
B1934383730622N12154121WA0027700268005010042102102
B1934393730622N12154113WA0027700268005010037093091
B1934403730622N12154106WA0027700267005010032085082
B1934413730623N12154100WA0027700267005010029064073
B1934423730627N12154099WA0027700267005010029346048
B1934433730632N12154101WA0027900266005010029339332
B1934443730637N12154103WA0028000266005010032324322
B1934453730641N12154107WA0028000266005010035319309
B1934463730645N12154111WA0028000266005010034315295
B1934473730649N12154116WA0028100266005010034304291
B1934483730651N12154122WA0028200266005010031286286
B1934493730651N12154128WA0028200266005010032248274
B1934503730648N12154133WA0028200266005010032238244
B1934513730645N12154138WA0028200266005010031223231
B1934523730642N12154141WA0028200265005010031207219
B1934533730637N12154143WA0028200265005010031195212
B1934543730633N12154145WA0028200265005010029194209
B1934553730629N12154146WA0028100264005010029195213
B1934563730624N12154148WA0028000264005010031195211
B1934573730620N12154149WA0028000263005010034195226
B1934583730615N12154151WA0027900262005010032200224
B1934593730610N12154153WA0027700262005010030210195
B1935003730607N12154156WA0027500261005010028218220
B1935013730603N12154160WA0027500260005010029217229
B1935023730600N12154163WA0027300260005010030214224
B1935033730596N12154166WA0027100259005010030213222
B1935043730592N12154170WA0026900257005010030214222
B1935053730589N12154173WA0026900256005010031216222
B1935063730585N12154176WA0026700254005010033214214
B1935073730581N12154180WA0026500251005010036213215
B1935083730576N12154184WA0026200249005010038213218
B1935093730571N12154188WA0026200247005010039213224
B1935103730566N12154192WA0026000245005010038213209
B1935113730562N12154196WA0025700243005010037211214
B1935123730557N12154199WA0025500240005010037208212
B1935133730552N12154202WA0025500238005010038205202
B1935143730546N12154205WA0025300236005010039202198
B1935153730541N12154207WA0025200234005010041190200
B1935163730534N12154208WA0025000231005010040187207
B1935173730529N12154209WA0025000229005010034184209
B1935183730524N12154209WA0024800227005010032186202
B1935193730519N12154210WA0024600225005010032191198
B1935203730514N12154211WA0024400223005010036185198
B1935213730508N12154212WA0024400220005010041187201
B1935223730502N12154213WA0024100218005010043186218
B1935233730496N12154214WA0023800215005010043186191
B1935243730490N12154215WA0023500213005010039185191
B1935253730484N12154215WA0023500210005010034182191
B1935263730479N12154215WA0023200208005010035181188
B1935273730474N12154215WA0022900205005010034185189
B1935283730469N12154217WA0022600203005010036202196
B1935293730464N12154220WA0022600201005010034202207
B1935303730459N12154222WA0022300199005010033196205
B1935313730454N12154223WA0022100196005010033180203
B1935323730450N12154223WA0021800194005010033183197
B1935333730445N12154224WA0021800192005010031190202
B1935343730440N12154225WA0021500190005010030193206
B1935353730436N12154226WA0021300188005010030193209
B1935363730432N12154228WA0021100186005010032197208
B1935373730427N12154230WA0021100184005010033200201
B1935383730422N12154232WA0020800183005010031197198
B1935393730418N12154233WA0020600181005010029190187
B1935403730414N12154234WA0020500180005010028184188
B1935413730410N12154234WA0020500178005010030181180
B1935423730405N12154234WA0020300177005010035178175
B1935433730400N12154234WA0020200175005010037171167
B1935443730394N12154232WA0020000174005010039162157
B1935453730389N12154230WA0020000172005010036156153
B1935463730384N12154227WA0019800170005010034154159
B1935473730380N12154224WA0019600169005010034153167
B1935483730375N12154221WA0019300167005010035155180
B1935493730370N12154219WA0019300165005010034167197
B1935503730365N12154218WA0019000163005010034184203
B1935513730360N12154220WA0018700162005010032207216
B1935523730356N12154223WA0018400160005010031219229
B1935533730353N12154227WA0018400159005010029216232
B1935543730349N12154230WA0018200158005010027209231
B1935553730346N12154232WA0018000156005010025208246
B1935563730343N12154235WA0017900155005010024223257
B1935573730341N12154239WA0017900154005010026236269
B1935583730339N12154243WA0017800152005010027249279
B1935593730338N12154248WA0017600150005010027266282
B1936003730340N12154253WA0017300148005010027301291
B1936013730343N12154255WA0017300147005010017333310
B1936023730345N12154257WA0017100145005010016316321
B1936033730348N12154259WA0016900144005010020316313
B1936043730351N12154261WA0016700143005010022318315
B1936053730353N12154264WA0016700141005010018306295
B1936063730355N12154266WA0016500140005010014311308
B1936073730357N12154267WA0016400139005010007298312
B1936083730357N12154268WA0016300138005010003295304
B1936093730357N12154269WA0016300137005010002262304
B1936103730357N12154269WA0016200137005010001245304
B1936113730357N12154269WA0016200137005010001245304
B1936123730357N12154269WA0016200137005010001151304
B1936133730357N12154269WA0016200137005010001129304
B1936143730357N12154269WA0016200137005010002119304
B1936153730357N12154269WA0016200137005010002120304
B1936163730357N12154269WA0016200137005010002121304
B1936173730357N12154269WA0016200137005010002118304
B1936183730357N12154269WA0016200137005010002121304
B1936193730357N12154269WA0016200137005010002115304
B1936203730357N12154269WA0016200137005010002114304
B1936213730357N12154269WA0016200137005010002115304
B1936223730357N12154269WA0016200137005010002118304
B1936233730357N12154269WA0016200137005010001120304
B1936243730357N12154269WA0016200137005010001118304
B1936253730357N12154269WA0016200137005010001119304
B1936263730357N12154269WA0016200137005010001123304
B1936273730357N12154269WA0016200137005010001121304
B1936283730357N12154269WA0016200137005010001121304
B1936293730357N12154269WA0016200137005010001119304
B1936303730357N12154269WA0016200137005010002112304
B1936313730357N12154269WA0016200137005010002108304
B1936323730357N12154269WA0016200137005010001099304
B1936333730357N12154269WA0016200137005010001094304
B1936343730357N12154269WA0016200137005010001106304
B1936353730357N12154269WA0016200137005010001107304
B1936363730357N12154269WA0016200137005010001120304
B1936373730357N12154269WA0016200137005010001116304
B1936383730357N12154269WA0016200137005010001114304
B1936393730357N12154269WA0016200137005010001118304
B1936403730357N12154269WA0016200137005010001127304
GprZ1U2pkmtqhSvHDyuTp2CaV6t+2smmF2De/ACaUITuemNQhsbocTUCPFofTJ5Tl
GU6sefvagqixnFmtvxqMlEvhBeoDD5+/AJ4ciTYUbgVgVUyJbHZFDpIX6g6jMmWnD
Gxl9OWy7B+5IdrNjUP2lK11cqMAg+Ew8/GpHd5KfWx8I=

