AXFH000
HFDTE100226
HFPLTPILOT:Scott O’Brien
HFGTYGLIDERTYPE:Ozone Swift 6
HFDTM100GPSDATUM:WGS84
HFRFWFIRMWAREVERSION:9.4
HFRHWHARDWAREVERSION:iPhone 15
HFFTYFRTYPE:Flyskyhy,9.4
HFGPS:Bluetooth vario
HFPRSVARIO:Bluetooth vario
HFCCLCOMPETITIONCLASS:Paraglider
HFTZNTIMEZONE:-6
HFSITSITE:Gravedad Cero, Tapalpa, Jalisco,MX
I053638FXA3941VXA4244GSP4547CCO4850HDT
B1621151956520N10339241WA0222702227001100000163273
B1621161956520N10339241WA0222702227001100000163273
B1621171956520N10339241WA0222702227001100000163273
B1621181956520N10339241WA0222702227001100000163276
B1621191956520N10339241WA0222602227001100000163276
B1621201956521N10339241WA0222702227001100000163281
B1621211956521N10339241WA0222702227001100000163266
B1621221956520N10339241WA0222702227001100000163263
B1621231956520N10339241WA0222702227001100000163283
B1621241956520N10339240WA0222702227001100000163265
B1621251956520N10339240WA0222702227001100000163261
B1621261956521N10339240WA0222702227001100000163260
B1621271956521N10339240WA0222702227001100000163225
B1621281956521N10339240WA0222702227001100000163243
B1621291956521N10339240WA0222702227001100000163253
B1621301956521N10339241WA0222702227001100000163252
B1621311956521N10339241WA0222702227001100000163231
B1621321956521N10339241WA0222702227001100000163235
B1621331956521N10339240WA0222702227001100000163227
B1621341956521N10339240WA0222702227001100003093225
B1621351956521N10339239WA0222602227001100004087225
B1621361956521N10339238WA0222602227001100004085257
B1621371956521N10339237WA0222602227001100004088209
B1621381956521N10339236WA0222602227001100004093288
B1621391956521N10339236WA0222402227001100005082202
B1621401956522N10339234WA0222302226001100008067181
B1621411956522N10339233WA0222202226001100010049135
B1621421956524N10339231WA0221902226001100013051183
B1621431956525N10339229WA0222102226001100016050137
B1621441956527N10339227WA0222202226001100018048119
B1621451956528N10339225WA0222502227001100018057099
B1621461956530N10339222WA0222502226001100019055086
B1621471956532N10339219WA0222402226001100022048074
B1621481956535N10339215WA0222302226001100026047084
B1621491956538N10339212WA0222302226001100026054074
B1621501956540N10339208WA0222302226001100026063076
B1621511956542N10339204WA0222402226001100024068082
B1621521956543N10339200WA0222402226001100021070083
B1621531956544N10339197WA0222302225001100020071082
B1621541956545N10339194WA0222202224001100022069078
B1621551956546N10339191WA0222102222001100024076076
B1621561956547N10339186WA0222102221001100028088081
B1621571956546N10339181WA0222102221001100026092089
B1621581956546N10339177WA0222102220001100024091091
B1621591956546N10339173WA0221902218001100025093089
B1622001956546N10339169WA0221702217001100027090092
B1622011956545N10339164WA0221402215001100030091095
B1622021956545N10339159WA0221302214001100031091094
B1622031956545N10339154WA0221002211001100028091095
B1622041956545N10339150WA0220802208001100027088096
B1622051956545N10339146WA0220602207001100024088100
B1622061956545N10339142WA0220502205001100021088095
B1622071956545N10339138WA0220602204001100019092093
B1622081956545N10339135WA0220502203001100020091092
B1622091956544N10339131WA0220402200001100024092100
B1622101956544N10339127WA0220102198001100027089094
B1622111956544N10339123WA0219902196001100032087093
B1622121956544N10339117WA0219902195001100035089097
B1622131956544N10339111WA0220002192001100034091102
B1622141956544N10339106WA0220202190001100034091106
B1622151956544N10339100WA0220402189001100032090112
B1622161956544N10339096WA0220502188001100028089103
B1622171956545N10339092WA0220502187001100026087100
B1622181956545N10339087WA0220302185001100029081107
B1622191956546N10339082WA0220302185001100033076075
B1622201956548N10339076WA0220302185001100036075089
B1622211956549N10339071WA0220602185001100034076088
B1622221956550N10339065WA0221002185001100032074085
B1622231956552N10339061WA0221302185001100031072091
B1622241956553N10339056WA0221602187001100027071092
B1622251956554N10339053WA0221802189001100022078082
B1622261956554N10339050WA0221802191001100019090087
B1622271956553N10339047WA0221902191001100021091089
B1622281956553N10339043WA0221602192001100023088069
B1622291956553N10339039WA0221502192001100026086081
B1622301956553N10339035WA0221502192001100031085079
B1622311956553N10339030WA0221402192001100031084084
B1622321956553N10339025WA0221202191001100031089093
B1622331956553N10339020WA0220902191001100031093088
B1622341956552N10339015WA0220802190001100030102090
B1622351956551N10339011WA0220702189001100027109074
B1622361956550N10339007WA0220402186001100026103068
B1622371956549N10339003WA0220202185001100026096075
B1622381956549N10338999WA0219902183001100026085074
B1622391956550N10338994WA0219702181001100028077073
B1622401956551N10338990WA0219302179001100030076062
B1622411956552N10338985WA0219102177001100030074063
B1622421956553N10338980WA0219002176001100030074068
B1622431956554N10338976WA0218902175001100030079077
B1622441956555N10338970WA0219002175001100033082038
B1622451956556N10338965WA0218902174001100030082084
B1622461956556N10338961WA0218902174001100027080066
B1622471956557N10338957WA0218802172001100027075054
B1622481956558N10338953WA0218602172001100027076070
B1622491956559N10338948WA0218502171001100029070057
B1622501956561N10338944WA0218402169001100030057040
B1622511956564N10338941WA0218202168001100031044040
B1622521956568N10338938WA0218102167001100030033055
B1622531956572N10338935WA0218002165001100030033059
B1622541956576N10338932WA0217802163001100033042061
B1622551956579N10338928WA0217602162001100035051057
B1622561956583N10338923WA0217802161001100038054057
B1622571956586N10338918WA0218002160001100037054063
B1622581956589N10338914WA0218202159001100034053075
B1622591956592N10338910WA0218302159001100030050084
B1623001956594N10338907WA0218202159001100026057074
B1623011956596N10338904WA0218102157001100026064073
B1623021956598N10338899WA0218002157001100030070069
B1623031956600N10338895WA0218102157001100031066076
B1623041956602N10338891WA0218202158001100028062080
B1623051956604N10338888WA0218302159001100023054084
B1623061956606N10338885WA0218102158001100023054077
B1623071956608N10338882WA0217902158001100025054074
B1623081956610N10338878WA0217702157001100027060088
B1623091956611N10338874WA0217702157001100028071090
B1623101956610N10338870WA0217602156001100030107096
B1623111956607N10338865WA0217502155001100031118115
B1623121956604N10338861WA0217402155001100029129127
B1623131956600N10338859WA0217402154001100026140129
B1623141956597N10338856WA0217302153001100027142136
B1623151956593N10338854WA0217002152001100030145135
B1623161956589N10338851WA0216802150001100034145137
B1623171956584N10338848WA0216702149001100035143144
B1623181956580N10338845WA0216802148001100034144142
B1623191956576N10338842WA0216802147001100031146123
B1623201956572N10338840WA0216802148001100026148119
B1623211956569N10338838WA0216602146001100027142111
B1623221956566N10338835WA0216302144001100029138109
B1623231956562N10338830WA0216202144001100036130115
B1623241956558N10338826WA0216502143001100036131080
B1623251956555N10338821WA0216902142001100037129125
B1623261956552N10338816WA0217202142001100035125123
B1623271956550N10338812WA0217202141001100032119119
B1623281956548N10338807WA0217002142001100032106112
B1623291956547N10338802WA0217202141001100035103099
B1623301956547N10338796WA0217602142001100035101097
B1623311956546N10338791WA0217902143001100033094094
B1623321956548N10338787WA0217802141001100024066089
B1623331956552N10338785WA0217802140001100027023064
B1623341956557N10338784WA0217802142001100031015028
B1623351956562N10338783WA0217902143001100034014018
B1623361956568N10338782WA0217902145001100033010024
B1623371956573N10338781WA0218102147001100033011033
B1623381956578N10338779WA0218202149001100032019036
B1623391956583N10338777WA0218202150001100032027037
B1623401956587N10338774WA0218202150001100033036040
B1623411956591N10338771WA0218102150001100036042049
B1623421956595N10338767WA0218102151001100035042044
B1623431956599N10338763WA0218202153001100032040051
B1623441956603N10338760WA0218202155001100029040056
B1623451956606N10338757WA0218302156001100027038045
B1623461956610N10338755WA0218302157001100028032039
B1623471956613N10338753WA0218302157001100029025039
B1623481956618N10338751WA0218302157001100031020042
B1623491956622N10338749WA0218302158001100032019047
B1623501956627N10338747WA0218302158001100031022053
B1623511956631N10338745WA0218302159001100030026044
B1623521956635N10338743WA0218302159001100030025036
B1623531956639N10338741WA0218302160001100028027060
B1623541956642N10338739WA0218202160001100027036071
B1623551956645N10338736WA0218002160001100024048091
B1623561956646N10338733WA0217702160001100023078097
B1623571956645N10338729WA0217102159001100020104117
B1623581956641N10338727WA0217002158001100021142125
B1623591956636N10338729WA0217102157001100017189143
B1624001956630N10338732WA0217502158001100023204162
B1624011956626N10338733WA0217602157001100022194176
B1624021956621N10338733WA0217402156001100020157173
B1624031956617N10338732WA0217102155001100023145145
B1624041956613N10338729WA0216902153001100028143141
B1624051956608N10338727WA0217002152001100031146146
B1624061956603N10338725WA0217102152001100030149137
B1624071956597N10338722WA0217302152001100030153126
B1624081956593N10338720WA0217202152001100027144127
B1624091956590N10338717WA0217002152001100026137128
B1624101956586N10338714WA0216902151001100028135119
B1624111956584N10338711WA0216502151001100029127126
B1624121956581N10338706WA0216802151001100032118109
B1624131956578N10338702WA0216902152001100030120114
B1624141956577N10338697WA0217002153001100027115100
B1624151956575N10338693WA0217102152001100024103093
B1624161956574N10338690WA0216902153001100025106092
B1624171956574N10338685WA0216902152001100028105091
B1624181956573N10338680WA0216702151001100031097068
B1624191956573N10338675WA0216602149001100033090095
B1624201956574N10338669WA0216402148001100033084041
B1624211956575N10338664WA0216302146001100036076076
B1624221956577N10338658WA0216102144001100038073078
B1624231956578N10338652WA0216002143001100038081076
B1624241956579N10338646WA0216002143001100037086060
B1624251956579N10338640WA0216002142001100034078052
B1624261956581N10338635WA0215902141001100033064053
B1624271956584N10338630WA0215902141001100034056048
B1624281956587N10338625WA0216002142001100035058046
B1624291956590N10338620WA0216302142001100035059049
B1624301956593N10338616WA0216502143001100030055038
B1624311956596N10338612WA0216702143001100029048047
B1624321956599N10338608WA0216602143001100033050049
B1624331956602N10338604WA0216502143001100037051067
B1624341956606N10338599WA0216602145001100038060063
B1624351956608N10338593WA0216702145001100037064080
B1624361956610N10338588WA0216902146001100034072068
B1624371956611N10338583WA0217002147001100033080082
B1624381956612N10338577WA0217002147001100034079068
B1624391956613N10338572WA0216802147001100034079066
B1624401956614N10338567WA0216702145001100036077068
B1624411956615N10338561WA0216502144001100038078048
B1624421956617N10338555WA0216302142001100037079063
B1624431956618N10338550WA0216202140001100036073062
B1624441956620N10338544WA0215902139001100035068016
B1624451956622N10338539WA0215602137001100036063026
B1624461956625N10338534WA0215302136001100038059034
B1624471956629N10338529WA0215102134001100039051014
B1624481956633N10338524WA0214802132001100040042024
B1624491956639N10338521WA0214602130001100040031031
B1624501956645N10338518WA0214302127001100039026034
B1624511956650N10338515WA0213902124001100041029034
B1624521956656N10338512WA0213502122001100044034035
B1624531956662N10338508WA0213102117001100045038047
B1624541956667N10338503WA0212802113001100044042053
B1624551956672N10338499WA0212502110001100043042044
B1624561956677N10338494WA0212402108001100041041072
B1624571956682N10338490WA0212402106001100037042067
B1624581956685N10338486WA0212302103001100035049060
B1624591956688N10338481WA0212102101001100034059056
B1625001956690N10338476WA0211902098001100039065067
B1625011956692N10338470WA0211802097001100043063073
B1625021956695N10338464WA0211702095001100041063078
B1625031956698N10338458WA0211802093001100040064079
B1625041956700N10338452WA0211902092001100037068081
B1625051956701N10338447WA0211802091001100034075074
B1625061956702N10338442WA0211702091001100032080081
B1625071956703N10338436WA0211702090001100035074079
B1625081956704N10338431WA0211602089001100036071085
B1625091956705N10338426WA0211502089001100036073086
B1625101956706N10338420WA0211402088001100037081086
B1625111956707N10338414WA0211202087001100038089096
B1625121956706N10338408WA0211102087001100037096100
B1625131956705N10338402WA0211002086001100037103108
B1625141956703N10338397WA0211002086001100037107095
B1625151956702N10338391WA0210902085001100039102103
B1625161956700N10338385WA0210802083001100040100099
B1625171956699N10338378WA0210602082001100041099101
B1625181956698N10338372WA0210502081001100040104106
B1625191956696N10338366WA0210502081001100039110102
B1625201956694N10338360WA0210402080001100038107096
B1625211956692N10338354WA0210302080001100040102087
B1625221956692N10338348WA0210102078001100042095093
B1625231956691N10338341WA0210002077001100043091089
B1625241956691N10338334WA0209802077001100042088079
B1625251956691N10338327WA0209902076001100042084083
B1625261956692N10338321WA0209902076001100040078085
B1625271956693N10338315WA0209802075001100038079091
B1625281956694N10338309WA0209602074001100037085084
B1625291956694N10338303WA0209402073001100040085086
B1625301956694N10338296WA0209202071001100044087073
B1625311956695N10338289WA0209002069001100048083051
B1625321956696N10338281WA0209002068001100046083050
B1625331956697N10338274WA0209102067001100043080062
B1625341956698N10338268WA0209102067001100039074063
B1625351956700N10338262WA0208902066001100039074063
B1625361956701N10338256WA0208602064001100041075058
B1625371956703N10338249WA0208302063001100044074054
B1625381956705N10338243WA0208002060001100046068051
B1625391956708N10338236WA0207902058001100046063050
B1625401956712N10338229WA0207702057001100045061047
B1625411956715N10338223WA0207502055001100044059047
B1625421956719N10338217WA0207302052001100044057049
B1625431956722N10338211WA0207002050001100045059053
B1625441956726N10338205WA0206802048001100045063061
B1625451956728N10338198WA0206702046001100045068060
B1625461956731N10338192WA0206502044001100045070060
B1625471956733N10338185WA0206302042001100044067054
B1625481956736N10338179WA0206202041001100043063047
B1625491956739N10338173WA0206002039001100044065058
B1625501956742N10338166WA0205802037001100045070061
B1625511956744N10338159WA0205602035001100045074058
B1625521956746N10338153WA0205502033001100043071007
B1625531956748N10338146WA0205402032001100040065037
B1625541956751N10338141WA0205402030001100035061051
B1625551956753N10338136WA0205202029001100033063059
B1625561956755N10338131WA0204902027001100036067057
B1625571956757N10338126WA0204702024001100040071048
B1625581956759N10338120WA0204502022001100041071050
B1625591956761N10338114WA0204302021001100038068042
B1626001956763N10338108WA0204102019001100037067047
B1626011956765N10338102WA0204002017001100037066045
B1626021956767N10338097WA0203802015001100037064047
B1626031956770N10338092WA0203602013001100039063049
B1626041956772N10338086WA0203502012001100037067049
B1626051956774N10338081WA0203302011001100037070051
B1626061956776N10338075WA0203302010001100037073061
B1626071956777N10338070WA0203102008001100037076061
B1626081956778N10338064WA0203002007001100037077067
B1626091956780N10338058WA0202902006001100038075052
B1626101956781N10338052WA0202802004001100039073055
B1626111956783N10338046WA0202702003001100038072050
B1626121956785N10338040WA0202602002001100038071057
B1626131956787N10338035WA0202502001001100039070048
B1626141956789N10338029WA0202402000001100039068050
B1626151956791N10338023WA0202301999001100039066045
B1626161956793N10338017WA0202301997001100039067049
B1626171956795N10338011WA0202101996001100040068047
B1626181956797N10338006WA0202001995001100040069048
B1626191956800N10338000WA0201901994001100039068055
B1626201956802N10337994WA0201701992001100039069052
B1626211956804N10337988WA0201601991001100041070055
B1626221956806N10337982WA0201501990001100041069044
B1626231956808N10337976WA0201501989001100039065042
B1626241956811N10337970WA0201401989001100038064047
B1626251956813N10337965WA0201201988001100038066046
B1626261956815N10337959WA0201101986001100040070058
B1626271956817N10337953WA0200901985001100044072049
B1626281956819N10337946WA0200701983001100042071052
B1626291956821N10337940WA0200701983001100038069051
B1626301956823N10337935WA0200701982001100033069055
B1626311956825N10337930WA0200501980001100033069052
B1626321956826N10337925WA0200301978001100036069050
B1626331956828N10337920WA0200101975001100040069055
B1626341956831N10337914WA0199801974001100041068055
B1626351956833N10337908WA0199701973001100039070056
B1626361956835N10337902WA0199701972001100037071057
B1626371956836N10337897WA0199601971001100035070056
B1626381956838N10337892WA0199401969001100037069055
B1626391956840N10337886WA0199201967001100039068050
B1626401956843N10337880WA0199101965001100040067054
B1626411956845N10337874WA0198901964001100039067052
B1626421956847N10337869WA0198801963001100038068058
B1626431956849N10337863WA0198701961001100038069052
B1626441956851N10337857WA0198501959001100039068049
B1626451956853N10337852WA0198401958001100039064050
B1626461956856N10337846WA0198201956001100038063049
B1626471956858N10337841WA0198101955001100037064055
B1626481956861N10337835WA0198001953001100036065053
B1626491956863N10337830WA0197801952001100036063046
B1626501956866N10337825WA0197601951001100036061058
B1626511956868N10337820WA0197501949001100036061087
B1626521956870N10337815WA0197401948001100036072118
B1626531956871N10337809WA0197001946001100036082128
B1626541956870N10337804WA0196601943001100037100127
B1626551956866N10337798WA0196301940001100036121131
B1626561956862N10337795WA0196301938001100030134126
B1626571956857N10337791WA0196501937001100031133113
B1626581956854N10337788WA0196401935001100029125113
B1626591956852N10337783WA0196101932001100033099106
B1627001956853N10337777WA0195801930001100038074081
B1627011956855N10337772WA0195701929001100039064056
B1627021956858N10337767WA0195701927001100038053058
B1627031956862N10337763WA0195801927001100036044045
B1627041956866N10337759WA0195601926001100036040036
B1627051956871N10337756WA0195401924001100038041036
B1627061956875N10337751WA0195001921001100041044038
B1627071956879N10337746WA0194801919001100047048042
B1627081956884N10337739WA0194801918001100050053042
B1627091956889N10337733WA0194801917001100049051045
B1627101956893N10337727WA0194801917001100044052047
B1627111956896N10337722WA0194801917001100040056054
B1627121956899N10337716WA0194601917001100041059056
B1627131956903N10337710WA0194401915001100044059058
B1627141956905N10337704WA0194201913001100047062051
B1627151956908N10337697WA0194101912001100048065053
B1627161956911N10337690WA0194001911001100045062060
B1627171956915N10337684WA0194101911001100041062058
B1627181956917N10337678WA0194201911001100037063061
B1627191956919N10337674WA0194001910001100033068056
B1627201956920N10337669WA0193701909001100033068055
B1627211956922N10337663WA0193501907001100038068056
B1627221956924N10337657WA0193401907001100039071059
B1627231956925N10337652WA0193401907001100037076055
B1627241956926N10337646WA0193401906001100035079049
B1627251956927N10337641WA0193401906001100032078051
B1627261956928N10337636WA0193301904001100033075057
B1627271956929N10337631WA0193101902001100035076054
B1627281956930N10337625WA0192901900001100036078051
B1627291956931N10337620WA0192801899001100035077051
B1627301956933N10337614WA0192701898001100034073052
B1627311956934N10337609WA0192701897001100032072055
B1627321956935N10337604WA0192501896001100032073053
B1627331956936N10337599WA0192401895001100033075051
B1627341956938N10337594WA0192301894001100033073043
B1627351956939N10337589WA0192301894001100033070052
B1627361956940N10337584WA0192201894001100032073067
B1627371956942N10337580WA0192201895001100031077055
B1627381956942N10337575WA0192101894001100031079060
B1627391956943N10337570WA0192001893001100031075042
B1627401956945N10337566WA0191901891001100030062035
B1627411956947N10337562WA0191701890001100030050033
B1627421956951N10337559WA0191501889001100032035026
B1627431956956N10337556WA0191301888001100033023031
B1627441956961N10337554WA0191301888001100033023031
B1627451956965N10337552WA0191201887001100031030034
B1627461956969N10337550WA0191101886001100031036035
B1627471956973N10337547WA0190901884001100032032033
B1627481956977N10337545WA0190701882001100035031042
B1627491956981N10337541WA0190601881001100036039050
B1627501956985N10337538WA0190501880001100035047051
B1627511956989N10337533WA0190401879001100033055053
B1627521956991N10337529WA0190401878001100032054048
B1627531956994N10337525WA0190201877001100032050046
B1627541956997N10337521WA0190001875001100032050051
B1627551957000N10337517WA0189901873001100032054053
B1627561957003N10337513WA0189701872001100032058054
B1627571957006N10337509WA0189601871001100031059051
B1627581957008N10337505WA0189501869001100030058051
B1627591957010N10337501WA0189301867001100030058054
B1628001957013N10337497WA0189101865001100029060056
B1628011957015N10337493WA0188901864001100029063056
B1628021957017N10337488WA0188801862001100029064055
B1628031957019N10337484WA0188701861001100029062058
B1628041957021N10337480WA0188601859001100029058047
B1628051957023N10337476WA0188401857001100028056059
B1628061957025N10337473WA0188201855001100029055050
B1628071957028N10337469WA0188001853001100030056058
B1628081957030N10337465WA0187801851001100033059056
B1628091957033N10337460WA0187601849001100034063062
B1628101957035N10337455WA0187401846001100035065060
B1628111957037N10337450WA0187201845001100036064051
B1628121957040N10337445WA0187101844001100034063063
B1628131957042N10337440WA0187201843001100033067069
B1628141957044N10337435WA0187201842001100032070077
B1628151957045N10337430WA0187001841001100034075068
B1628161957046N10337425WA0186801839001100035080081
B1628171957046N10337419WA0186601837001100036089105
B1628181957046N10337414WA0186401835001100038098118
B1628191957044N10337408WA0186201833001100038108122
B1628201957041N10337403WA0186001831001100037121109
B1628211957038N10337398WA0186001829001100035129091
B1628221957035N10337394WA0185901829001100033122085
B1628231957032N10337389WA0185801827001100032111092
B1628241957031N10337384WA0185601825001100031104092
B1628251957030N10337380WA0185401824001100030104087
B1628261957029N10337375WA0185301822001100030100089
B1628271957028N10337370WA0185201821001100031092087
B1628281957028N10337365WA0185101819001100031084083
B1628291957029N10337360WA0184901818001100031086075
B1628301957029N10337356WA0184701817001100030092071
B1628311957028N10337351WA0184601815001100029090072
B1628321957029N10337346WA0184501814001100029080070
B1628331957030N10337342WA0184301812001100030069064
B1628341957032N10337338WA0184101810001100031060053
B1628351957034N10337333WA0183901809001100030058041
B1628361957037N10337330WA0183901808001100027053033
B1628371957040N10337326WA0183701806001100028042023
B1628381957043N10337324WA0183601804001100030032034
B1628391957047N10337321WA0183401803001100032028041
B1628401957051N10337319WA0183401802001100031034040
B1628411957055N10337316WA0183401801001100030038038
B1628421957059N10337313WA0183201801001100030038035
B1628431957062N10337310WA0183101800001100030037036
B1628441957066N10337307WA0183001798001100031038039
B1628451957069N10337304WA0182801796001100032040043
B1628461957073N10337301WA0182701795001100032043049
B1628471957076N10337297WA0182701795001100030044050
B1628481957079N10337294WA0182601795001100029047053
B1628491957082N10337290WA0182501794001100030051050
B1628501957085N10337286WA0182401792001100031056057
B1628511957088N10337282WA0182301791001100031055052
B1628521957090N10337278WA0182201791001100028050042
B1628531957093N10337275WA0182101790001100027041028
B1628541957096N10337273WA0181901788001100027031024
B1628551957100N10337271WA0181801786001100028027032
B1628561957104N10337269WA0181601784001100028027022
B1628571957108N10337266WA0181501783001100028027033
B1628581957111N10337264WA0181401782001100027027032
B1628591957115N10337262WA0181201781001100028028030
B1629001957119N10337260WA0181101779001100027032042
B1629011957122N10337258WA0181001778001100027033038
B1629021957125N10337255WA0180901777001100027036037
B1629031957128N10337253WA0180701776001100029038038
B1629041957132N10337250WA0180501774001100029040048
B1629051957135N10337247WA0180401772001100029043042
B1629061957138N10337243WA0180301771001100029046048
B1629071957141N10337240WA0180201770001100028049048
B1629081957144N10337237WA0180101768001100027050045
B1629091957146N10337233WA0179901767001100027047040
B1629101957149N10337230WA0179801765001100027044044
B1629111957152N10337227WA0179601764001100028043044
B1629121957155N10337224WA0179501762001100030045052
B1629131957158N10337221WA0179301760001100031046051
B1629141957162N10337217WA0179101758001100031046054
B1629151957165N10337213WA0178901756001100030049063
B1629161957168N10337210WA0178801755001100029053062
B1629171957170N10337206WA0178701754001100030056062
B1629181957173N10337202WA0178501752001100031058062
B1629191957175N10337197WA0178401751001100032062071
B1629201957177N10337193WA0178201749001100032070069
B1629211957178N10337188WA0178101748001100033076075
B1629221957179N10337183WA0178001746001100033080058
B1629231957180N10337177WA0177801745001100033079056
B1629241957181N10337172WA0177801743001100032074058
B1629251957182N10337167WA0177601742001100031070053
B1629261957184N10337163WA0177601741001100030068059
B1629271957186N10337158WA0177501740001100031068057
B1629281957187N10337154WA0177301739001100032068052
B1629291957189N10337149WA0177301738001100033065053
B1629301957191N10337144WA0177201736001100032063051
B1629311957193N10337140WA0177101736001100031063048
B1629321957195N10337136WA0177001735001100031064038
B1629331957198N10337131WA0176801733001100031062030
B1629341957200N10337127WA0176701732001100031058032
B1629351957202N10337123WA0176501730001100031057040
B1629361957205N10337119WA0176301728001100030057050
B1629371957207N10337115WA0176201727001100029056051
B1629381957209N10337111WA0176001725001100030057062
B1629391957212N10337107WA0175801723001100031064067
B1629401957213N10337102WA0175601722001100032074074
B1629411957214N10337097WA0175501720001100032083059
B1629421957215N10337092WA0175501719001100030082046
B1629431957216N10337088WA0175301718001100029072047
B1629441957217N10337083WA0175101715001100029065044
B1629451957219N10337079WA0174901713001100034060053
B1629461957222N10337074WA0174801712001100036060061
B1629471957224N10337069WA0174701712001100034064072
B1629481957226N10337064WA0174701712001100032071082
B1629491957228N10337059WA0174601711001100031078073
B1629501957228N10337055WA0174401710001100032083069
B1629511957229N10337049WA0174201707001100034080055
B1629521957230N10337044WA0174001706001100035075054
B1629531957232N10337039WA0174001704001100034069048
B1629541957234N10337034WA0173901704001100031063040
B1629551957236N10337030WA0173801703001100030057045
B1629561957238N10337026WA0173601701001100030053037
B1629571957241N10337022WA0173501699001100031050044
B1629581957244N10337018WA0173301697001100031047035
B1629591957248N10337015WA0173201696001100031042031
B1630001957251N10337012WA0173101694001100031036038
B1630011957255N10337009WA0173001693001100031033050
B1630021957259N10337006WA0172901692001100032039055
B1630031957263N10337002WA0172801690001100033045050
B1630041957266N10336999WA0172601689001100032048054
B1630051957269N10336995WA0172601689001100029045053
B1630061957272N10336992WA0172601688001100026041055
B1630071957275N10336989WA0172501688001100026040050
B1630081957278N10336987WA0172401686001100028039042
B1630091957281N10336984WA0172301685001100031037042
B1630101957285N10336981WA0172201683001100031034047
B1630111957289N10336978WA0172101682001100031037050
B1630121957293N10336974WA0172101682001100030046053
B1630131957295N10336971WA0171901681001100030056056
B1630141957298N10336967WA0171801679001100030061059
B1630151957300N10336963WA0171701678001100030061062
B1630161957302N10336958WA0171401676001100030062068
B1630171957304N10336954WA0171301674001100030067077
B1630181957305N10336950WA0171101674001100029077083
B1630191957306N10336945WA0170901672001100029087095
B1630201957306N10336941WA0170801670001100028093104
B1630211957305N10336936WA0170601668001100032094093
B1630221957305N10336931WA0170301666001100037098097
B1630231957304N10336925WA0170301664001100037099094
B1630241957303N10336919WA0170201663001100035099086
B1630251957301N10336914WA0170301661001100032104082
B1630261957300N10336910WA0170301661001100026109078
B1630271957299N10336906WA0170301660001100028103091
B1630281957298N10336901WA0170401660001100032098088
B1630291957297N10336896WA0170401659001100030101072
B1630301957296N10336892WA0170601659001100027107082
B1630311957295N10336888WA0170701660001100023101103
B1630321957294N10336884WA0170701660001100023100088
B1630331957293N10336881WA0170601659001100025097083
B1630341957293N10336877WA0170501658001100029087076
B1630351957294N10336872WA0170501657001100030078080
B1630361957295N10336867WA0170501659001100028076077
B1630371957295N10336863WA0170401659001100026078069
B1630381957296N10336859WA0170401659001100024077053
B1630391957297N10336855WA0170301659001100026075045
B1630401957299N10336851WA0170201658001100032065046
B1630411957301N10336846WA0170101657001100032060034
B1630421957303N10336842WA0170201658001100029055022
B1630431957306N10336839WA0170201658001100029045006
B1630441957310N10336836WA0170001657001100030031356
B1630451957314N10336835WA0169901657001100032019355
B1630461957320N10336836WA0169701656001100031351346
B1630471957324N10336838WA0169801655001100031340324
B1630481957328N10336841WA0169901655001100028324312
B1630491957331N10336845WA0169701655001100025309303
B1630501957332N10336849WA0169601655001100025292294
B1630511957331N10336854WA0169601654001100026272282
B1630521957329N10336859WA0169501654001100027251265
B1630531957327N10336864WA0169401653001100029234249
B1630541957323N10336867WA0169401653001100032215235
B1630551957318N10336870WA0169301653001100031205216
B1630561957313N10336871WA0169301652001100031196208
B1630571957308N10336871WA0169301652001100032178198
B1630581957303N10336870WA0169301652001100032163182
B1630591957299N10336868WA0169201652001100032148166
B1631001957295N10336864WA0169101651001100035130149
B1631011957293N10336859WA0169101650001100032114130
B1631021957292N10336854WA0169001649001100030097113
B1631031957294N10336849WA0168801649001100028064094
B1631041957297N10336845WA0168701648001100028045059
B1631051957301N10336843WA0168601646001100031026039
B1631061957306N10336841WA0168401645001100032015015
B1631071957311N10336840WA0168301644001100031003005
B1631081957315N10336841WA0168101643001100030353354
B1631091957319N10336843WA0167901642001100028341346
B1631101957323N10336845WA0167601639001100028332336
B1631111957326N10336848WA0167201638001100031331335
B1631121957331N10336851WA0166901635001100037334340
B1631131957336N10336854WA0166701634001100038335337
B1631141957342N10336857WA0166701633001100035334343
B1631151957346N10336859WA0166601632001100030333349
B1631161957350N10336862WA0166401629001100030336352
B1631171957354N10336863WA0166201627001100031340356
B1631181957359N10336865WA0165901624001100033345350
B1631191957364N10336866WA0165701621001100033349018
B1631201957369N10336867WA0165601620001100030349351
B1631211957373N10336869WA0165401618001100027345004
B1631221957377N10336870WA0165201615001100027346001
B1631231957381N10336870WA0164901613001100029354015
B1631241957386N10336870WA0164601610001100032005026
B1631251957391N10336869WA0164401607001100032015037
B1631261957395N10336867WA0164201605001100029025046
B1631271957398N10336863WA0164101603001100026041052
B1631281957397N10336857WA0164001602001100029088058
B1631291957396N10336852WA0163801600001100029101096
B1631301957395N10336847WA0163701598001100029102107
B1631311957394N10336843WA0163501597001100030107113
B1631321957392N10336838WA0163301595001100032118127
B1631331957389N10336834WA0163201593001100034130139
B1631351957380N10336827WA0163001590001100034149140
B1631361957375N10336825WA0163001590001100034151144
B1631371957371N10336822WA0162901589001100032155157
B1631381957366N10336820WA0162901587001100035162164
B1631391957360N10336819WA0162601586001100037173187
B1631401957355N10336819WA0162501585001100038182184
B1631411957349N10336820WA0162501584001100037188186
B1631421957343N10336821WA0162401583001100036190193
B1631431957338N10336822WA0162201581001100036196214
B1631441957333N10336824WA0162001579001100040203223
B1631451957328N10336827WA0161901578001100040212247
B1631471957320N10336836WA0161701575001100036235253
B1631481957318N10336841WA0161601573001100036247256
B1631491957316N10336847WA0161401572001100036256247
B1631501957315N10336853WA0161301570001100037256240
B1631511957314N10336858WA0161101568001100037250240
B1631521957312N10336864WA0161001567001100038246235
B1631531957310N10336869WA0160801565001100037242227
B1631541957307N10336875WA0160601564001100037234211
B1631551957303N10336879WA0160501562001100039224197
B1631561957298N10336882WA0160301560001100037212184
B1631571957292N10336882WA0160001558001100034181170
B1631581957287N10336879WA0159801556001100033151143
B1631591957284N10336875WA0159501554001100029126116
B1632001957285N10336869WA0159301551001100023084094
B1632011957289N10336865WA0159101548001100026044055
B1632021957293N10336864WA0159001546001100020014023
B1632031957298N10336867WA0158901544001100026321001
B1632041957302N10336871WA0158901542001100028306325
B1632051957305N10336875WA0158801540001100030304319
B1632061957308N10336879WA0158601538001100032319325
B1632071957313N10336882WA0158201536001100033326335
B1632081957318N10336884WA0158101534001100034338338
B1632091957323N10336886WA0158001533001100032345346
B1632101957328N10336886WA0158001532001100028353351
B1632111957332N10336887WA0157801531001100027352000
B1632121957336N10336887WA0157501528001100027351355
B1632131957340N10336888WA0157201525001100029355000
B1632141957345N10336888WA0156801523001100033358005
B1632151957350N10336888WA0156601520001100035000005
B1632161957356N10336888WA0156401518001100037359008
B1632171957362N10336888WA0156401516001100035001011
B1632181957367N10336888WA0156401515001100031007019
B1632191957371N10336887WA0156301514001100029013028
B1632201957375N10336885WA0156001511001100029019028
B1632211957379N10336884WA0155601509001100031023028
B1632221957384N10336881WA0155401506001100034026027
B1632231957388N10336878WA0155101504001100038029030
B1632241957393N10336875WA0155001503001100036031031
B1632251957398N10336872WA0155001501001100033033037
B1632261957402N10336869WA0155001500001100031036048
B1632271957406N10336866WA0154901499001100031038049
B1632281957409N10336863WA0154801498001100033038043
B1632291957413N10336860WA0154701497001100036034035
B1632301957418N10336857WA0154601496001100036030031
B1632311957423N10336854WA0154701495001100034027061
B1632321957428N10336851WA0154701494001100033028054
B1632331957431N10336849WA0154801493001100028038048
B1632341957434N10336846WA0154801493001100027045051
B1632351957437N10336843WA0154601492001100028045057
B1632361957440N10336839WA0154401491001100029050061
B1632371957442N10336835WA0154301489001100031060073
B1632381957444N10336830WA0154201489001100033070072
B1632391957445N10336825WA0154301488001100032076088
B1632401957446N10336820WA0154301488001100029082095
B1632411957446N10336816WA0154401488001100028088087
B1632421957446N10336811WA0154501489001100026089093
B1632431957446N10336807WA0154601490001100025089099
B1632441957445N10336803WA0154601491001100026096110
B1632451957444N10336799WA0154601491001100027108116
B1632461957442N10336795WA0154601492001100028121126
B1632471957439N10336792WA0154701493001100027132144
B1632481957436N10336789WA0154901493001100025147158
B1632491957432N10336788WA0155001494001100023165168
B1632501957428N10336790WA0154901495001100026198180
B1632511957424N10336794WA0154901496001100030221211
B1632521957421N10336799WA0155101498001100032230230
B1632531957418N10336804WA0155201500001100033244242
B1632541957417N10336810WA0155301501001100032257255
B1632551957416N10336815WA0155301503001100033267269
B1632561957418N10336820WA0155301503001100035297279
B1632571957421N10336825WA0155301504001100033306308
B1632581957426N10336828WA0155401505001100032322317
B1632591957431N10336827WA0155401505001100027359332
B1633001957435N10336825WA0155501507001100027020005
B1633011957439N10336822WA0155501508001100027029024
B1633021957441N10336818WA0155601509001100025055033
B1633031957442N10336814WA0155701511001100025078056
B1633041957440N10336810WA0155801512001100024119075
B1633051957436N10336808WA0155901512001100027157112
B1633061957431N10336808WA0155901513001100032185151
B1633071957426N10336810WA0156001514001100033201183
B1633081957421N10336813WA0156101516001100034210201
B1633091957418N10336817WA0156201517001100032227211
B1633101957417N10336823WA0156201517001100034257229
B1633111957416N10336828WA0156201518001100032267262
B1633121957419N10336833WA0156001518001100029300273
B1633131957424N10336834WA0155901518001100029342308
B1633141957429N10336834WA0155901517001100030008348
B1633151957434N10336831WA0156001518001100030025012
B1633161957437N10336828WA0156201519001100026046028
B1633171957437N10336822WA0156501521001100026078046
B1633181957436N10336818WA0156701522001100022104075
B1633191957435N10336815WA0156801524001100020108101
B1633201957434N10336811WA0156901525001100020103109
B1633211957433N10336808WA0156901525001100023114108
B1633221957431N10336805WA0156801524001100022127119
B1633231957428N10336803WA0156701524001100024143131
B1633241957425N10336802WA0156601524001100023160145
B1633251957421N10336804WA0156701524001100023206162
B1633261957418N10336808WA0156901525001100025227209
B1633271957418N10336813WA0157101525001100025268233
B1633281957420N10336819WA0157201526001100029300278
B1633291957425N10336823WA0157401528001100030334310
B1633301957430N10336824WA0157501528001100031002342
B1633311957435N10336824WA0157501528001100029014009
B1633321957439N10336822WA0157601529001100025022020
B1633331957440N10336819WA0157601530001100022065027
B1633341957441N10336816WA0157501530001100021082065
B1633351957440N10336812WA0157501530001100023097079
B1633361957438N10336809WA0157601530001100023127093
B1633371957435N10336807WA0157801530001100022138120
B1633381957431N10336806WA0157901531001100024178130
B1633391957427N10336808WA0157801531001100034201171
B1633401957423N10336811WA0157701531001100036218200
B1633411957419N10336816WA0157901533001100036226223
B1633421957417N10336822WA0158101535001100035255232
B1633431957417N10336828WA0158201536001100034273263
B1633441957420N10336833WA0158101537001100032303282
B1633451957426N10336835WA0158101537001100032339314
B1633461957431N10336835WA0158201537001100031010349
B1633471957436N10336833WA0158201537001100031017017
B1633481957439N10336830WA0158301539001100022030024
B1633491957438N10336825WA0158401540001100020089037
B1633501957436N10336822WA0158501541001100021133087
B1633511957433N10336820WA0158501542001100023158125
B1633521957428N10336821WA0158501542001100027194150
B1633531957424N10336824WA0158501542001100034227188
B1633541957422N10336830WA0158601543001100035252225
B1633551957423N10336836WA0158601543001100039282254
B1633561957425N10336842WA0158701544001100038293286
B1633571957429N10336846WA0158901544001100036305298
B1633581957434N10336848WA0159001544001100031332311
B1633591957439N10336846WA0159001544001100031003340
B1634001957443N10336843WA0158901545001100030033009
B1634011957447N10336839WA0159001546001100027043037
B1634021957447N10336834WA0159001547001100024090046
B1634031957446N10336830WA0159001547001100024107086
B1634041957442N10336828WA0158901547001100025154102
B1634051957437N10336829WA0159001547001100023192144
B1634061957434N10336833WA0159101547001100029223183
B1634071957432N10336837WA0159201548001100026248219
B1634081957432N10336843WA0159401550001100027275248
B1634091957436N10336848WA0159401551001100028299279
B1634101957441N10336850WA0159401552001100028346306
B1634111957447N10336849WA0159401551001100029023354
B1634121957451N10336847WA0159401550001100030035029
B1634131957453N10336842WA0159501551001100028078039
B1634141957453N10336838WA0159501551001100025096077
B1634151957451N10336834WA0159501551001100023116093
B1634161957448N10336832WA0159601551001100022142109
B1634171957445N10336831WA0159701551001100023163132
B1634181957441N10336831WA0159701552001100025170158
B1634191957437N10336831WA0159801553001100027182166
B1634201957432N10336832WA0159701554001100029195179
B1634211957429N10336837WA0159701553001100037229193
B1634221957426N10336842WA0159801553001100037244230
B1634231957425N10336849WA0159901554001100039270246
B1634241957427N10336856WA0160101555001100041280275
B1634251957431N10336861WA0160101556001100036312286
B1634261957436N10336863WA0160201557001100035329319
B1634271957442N10336865WA0160201557001100034344337
B1634281957448N10336864WA0160201558001100034357352
B1634291957453N10336863WA0160401559001100036009005
B1634301957459N10336862WA0160501560001100036023016
B1634311957463N10336859WA0160401560001100035028029
B1634321957466N10336854WA0160301560001100031057034
B1634331957467N10336849WA0160401562001100032071060
B1634341957466N10336843WA0160401562001100028091073
B1634351957464N10336839WA0160501562001100028111090
B1634361957461N10336835WA0160501562001100030132107
B1634371957457N10336832WA0160501562001100032147126
B1634381957452N10336832WA0160401562001100032172142
B1634391957447N10336832WA0160401561001100031188168
B1634401957442N10336833WA0160301561001100032199183
B1634411957438N10336836WA0160101560001100035214194
B1634421957433N10336842WA0160101560001100042234214
B1634431957430N10336848WA0160201560001100040238239
B1634441957428N10336854WA0160401560001100039245252
B1634451957426N10336860WA0160601561001100037252258
B1634461957426N10336866WA0160601562001100037269262
B1634471957428N10336872WA0160701562001100039278277
B1634481957429N10336878WA0160701562001100035283297
B1634491957431N10336883WA0160701562001100030286299
B1634501957432N10336887WA0160701562001100029290306
B1634511957434N10336892WA0160501561001100031294321
B1634521957437N10336896WA0160401560001100034308318
B1634531957441N10336900WA0160301560001100035322333
B1634541957446N10336902WA0160301560001100035332347
B1634551957452N10336903WA0160001559001100033344346
B1634561957458N10336903WA0159801558001100037359349
B1634571957464N10336903WA0159701555001100038356352
B1634581957470N10336903WA0159601554001100039347356
B1634591957475N10336905WA0159501553001100035344353
B1635001957481N10336905WA0159401553001100034350359
B1635011957486N10336906WA0159301550001100034359015
B1635021957491N10336905WA0159101549001100036008024
B1635031957497N10336904WA0158901547001100037018032
B1635041957502N10336901WA0158701545001100037028048
B1635051957507N10336898WA0158701544001100036033057
B1635061957510N10336894WA0158601543001100032042064
B1635071957513N10336891WA0158601542001100028053053
B1635081957515N10336887WA0158301540001100029058061
B1635091957517N10336882WA0158101538001100033062056
B1635101957520N10336877WA0157901536001100038064053
B1635111957522N10336871WA0157801535001100038062067
B1635121957525N10336866WA0157801534001100035062061
B1635131957526N10336861WA0157801534001100033071059
B1635141957528N10336856WA0157701532001100031075058
B1635151957529N10336851WA0157401531001100031073077
B1635161957530N10336847WA0157201529001100031067073
B1635171957533N10336842WA0157001527001100034058067
B1635181957536N10336837WA0156801526001100038049057
B1635191957540N10336832WA0156701524001100041052053
B1635201957543N10336827WA0156601523001100041057054
B1635211957546N10336821WA0156601522001100040061057
B1635221957549N10336816WA0156601521001100036062061
B1635231957551N10336811WA0156501521001100031068068
B1635241957552N10336806WA0156401520001100031076072
B1635251957553N10336801WA0156301518001100033083078
B1635261957553N10336795WA0156201517001100037091070
B1635271957553N10336789WA0156101517001100037093069
B1635281957552N10336784WA0156101516001100034089074
B1635291957553N10336778WA0156001515001100033086079
B1635301957553N10336773WA0155801514001100034090084
B1635311957552N10336768WA0155701512001100035100087
B1635321957551N10336762WA0155501510001100036104086
B1635331957550N10336757WA0155301508001100036101078
B1635341957549N10336751WA0155101506001100035096080
B1635351957548N10336746WA0155001505001100034096093
B1635361957547N10336740WA0154801503001100033103100
B1635371957546N10336735WA0154601501001100034110092
B1635381957544N10336730WA0154501500001100035111082
B1635391957542N10336725WA0154401499001100038110081
B1635401957540N10336719WA0154301498001100036109076
B1635411957538N10336714WA0154301498001100032109073
B1635421957537N10336709WA0154401497001100027106099
B1635431957536N10336705WA0154301496001100027103098
B1635441957534N10336701WA0154201494001100030106101
B1635451957533N10336696WA0154001493001100034111101
B1635461957531N10336691WA0154001492001100035115098
B1635471957529N10336686WA0154001492001100032116106
B1635481957526N10336681WA0154001492001100031117102
B1635491957524N10336677WA0153901491001100032114111
B1635501957523N10336672WA0153701489001100033108104
B1635511957521N10336667WA0153601488001100035104109
B1635521957520N10336662WA0153501486001100034109122
B1635531957517N10336657WA0153401485001100032121151
B1635541957514N10336654WA0153201484001100032134151
B1635551957510N10336651WA0153101482001100033147162
B1635561957505N10336649WA0152901481001100032161177
B1635571957500N10336649WA0152801480001100029174191
B1635581957496N10336653WA0152501478001100030210202
B1635591957492N10336658WA0152301476001100031223230
B1636001957492N10336663WA0152001475001100028257244
B1636011957495N10336669WA0151801473001100031304275
B1636021957500N10336672WA0151701472001100032341322
B1636031957506N10336672WA0151201470001100030001000
B1636041957511N10336671WA0150801467001100030010020
B1636051957513N10336667WA0150501467001100023029030
B1636061957513N10336662WA0150101465000100019055028
B1636071957510N10336662WA0150001463001100000055058
B1636081957507N10336666WA0150101461001100043260060
B1636091957504N10336672WA0150201460001100043265259
B1636101957502N10336678WA0150301459001100041281264
B1636111957505N10336682WA0150301460001100037306281
B1636121957508N10336686WA0150401460001100034317308
B1636131957512N10336689WA0150401460001100035324321
B1636141957517N10336691WA0150301459001100036328321
B1636151957522N10336693WA0150201458001100037332322
B1636161957526N10336696WA0150101451001100037325321
B1636171957531N10336700WA0149801449001100039322310
B1636181957536N10336704WA0149701448001100040319314
B1636191957541N10336708WA0149801446001100042321314
B1636201957546N10336712WA0149701445001100041320310
B1636211957550N10336716WA0149801444001100039320314
B1636221957555N10336720WA0149801444001100037317295
B1636231957558N10336724WA0149901443001100036307291
B1636241957561N10336729WA0149901443001100036297283
B1636251957563N10336734WA0150001442001100037287276
B1636261957564N10336740WA0149901442001100037277266
B1636271957563N10336746WA0149801442001100037265261
B1636281957562N10336752WA0149601441001100037255250
B1636291957559N10336757WA0149501440001100038245243
B1636301957555N10336763WA0149301439001100040233230
B1636311957551N10336767WA0149301438001100040226221
B1636321957547N10336772WA0149201438001100036223209
B1636331957543N10336775WA0149101437001100034219210
B1636341957539N10336779WA0149001436001100034215206
B1636351957534N10336782WA0148801435001100034213200
B1636361957530N10336785WA0148501433001100036213196
B1636371957525N10336788WA0148201431001100041210196
B1636381957519N10336791WA0147901428001100042207191
B1636391957513N10336794WA0147701427001100041206189
B1636401957508N10336797WA0147601426001100041208188
B1636411957502N10336800WA0147501426001100037207188
B1636421957497N10336803WA0147501425001100032204174
B1636431957493N10336805WA0147301424001100033202195
B1636441957488N10336807WA0146901423001100033200191
B1636451957484N10336809WA0146501421001100036202195
B1636461957478N10336812WA0146201419001100041207195
B1636471957473N10336815WA0146101417001100040209198
B1636481957468N10336818WA0146101416001100037213199
B1636491957463N10336821WA0146001415001100034214181
B1636501957459N10336824WA0145901414001100034212202
B1636511957455N10336827WA0145801412001100036209183
B1636521957450N10336830WA0145701411001100036213202
B1636531957445N10336833WA0145701411001100035219198
B1636541957441N10336837WA0145801411001100035216184
B1636551957436N10336840WA0145601410001100036207189
B1636561957431N10336842WA0145701409001100037201211
B1636571957426N10336845WA0145601409001100036207208
B1636581957422N10336848WA0145601409001100036215216
B1636591957417N10336851WA0145701408001100037220199
B1637001957413N10336855WA0145701409001100037219193
B1637011957408N10336859WA0145901410001100035216190
B1637021957405N10336862WA0146101411001100029218204
B1637031957401N10336865WA0146001411001100030216193
B1637041957398N10336867WA0145801411001100028210196
B1637051957394N10336870WA0145501410001100030208175
B1637061957390N10336873WA0145401410001100035209173
B1637071957385N10336875WA0145401410001100035209178
B1637081957381N10336878WA0145401410001100030209182
B1637091957377N10336881WA0145301409001100028209202
B1637101957373N10336883WA0145201408001100028209200
B1637111957370N10336886WA0144701407001100031209195
B1637121957365N10336889WA0144501404001100037214196
B1637131957361N10336893WA0144401403001100037219198
B1637141957357N10336897WA0144401403001100034220192
B1637151957353N10336900WA0144401402001100032220197
B1637161957349N10336904WA0144301401001100031219196
B1637171957346N10336907WA0144101399001100032218194
B1637181957342N10336910WA0144001397001100033215190
B1637191957338N10336913WA0143801395001100033213193
B1637201957334N10336916WA0143601394001100032213194
B1637211957330N10336919WA0143501392001100030210166
B1637221957326N10336921WA0143401390001100029201156
B1637231957322N10336923WA0143101387001100029196148
B1637241957318N10336921WA0142701384001100030155138
B1637251957314N10336916WA0142501381001100032120113
B1637261957313N10336911WA0142401379001100029099089
B1637271957315N10336906WA0142201376001100031060078
B1637281957319N10336901WA0142201374001100033048055
B1637291957323N10336898WA0142101373001100031039038
B1637301957326N10336895WA0142001372001100028034045
B1637311957330N10336893WA0141901370001100028028041
B1637321957334N10336891WA0141701368001100031027035
B1637331957338N10336888WA0141401366001100035025031
B1637341957343N10336886WA0141401364001100036026035
B1637351957348N10336883WA0141101362001100035027042
B1637361957353N10336881WA0140901360001100032032042
B1637371957357N10336877WA0140801358001100032041047
B1637381957360N10336874WA0140401356001100034049057
B1637391957363N10336870WA0140301353001100034049063
B1637401957366N10336866WA0140301352001100031052063
B1637411957369N10336862WA0140301351001100026061071
B1637421957370N10336858WA0140301350001100021061065
B1637431957372N10336856WA0140301349001100019056064
B1637441957373N10336854WA0140301348001100016056077
B1637451957373N10336852WA0140301348001100011061136
B1637461957373N10336851WA0140301348001100007059074
B1637471957374N10336850WA0140301347001100006055080
B1637481957374N10336850WA0140301346001100000055087
B1637491957374N10336850WA0140301349001100000055095
B1637501957374N10336850WA0140301348001100000055081
B1637511957374N10336850WA0140301348001100000055085
B1637521957374N10336849WA0140301349001100000055094
B1637531957374N10336849WA0140301349001100000055105
B1637541957374N10336849WA0140301349001100000055097
B1637551957374N10336849WA0140301349001100000055097
B1637561957374N10336849WA0140301349001100000055097
B1637571957374N10336849WA0140301349001100000055095
B1637581957374N10336849WA0140401349001100000055086
B1637591957374N10336849WA0140301349001100000055085
B1638001957374N10336849WA0140301349001100000055084
B1638011957374N10336849WA0140301349001100000055083
B1638021957374N10336849WA0140301349001100000055083
B1638031957374N10336849WA0140301349001100000055083
B1638041957374N10336849WA0140301349001100000055082
B1638051957374N10336849WA0140301349001100000055081
B1638061957374N10336849WA0140301349001100000055081
B1638071957374N10336849WA0140301349001100000055080
B1638081957374N10336849WA0140301349001100000055079
B1638091957374N10336849WA0140301349001100000055079
B1638101957374N10336849WA0140301349001100000055079
B1638111957374N10336849WA0140301349001100002103079
B1638121957374N10336849WA0140301349001100000103079
B1638131957374N10336849WA0140301349001100000299077
B1638141957374N10336849WA0140301349001100000299079
B1638151957374N10336849WA0140301349001100000299079
B1638161957374N10336849WA0140301349001100000299079
B1638171957374N10336849WA0140301349001100000299078
B1638181957374N10336849WA0140301349001100000299078
GiUeYhTB+Q3SKKhQldFwYfHy8Yk0yRU6HragqVGzZnqEH9sAHmqNbJN9qoJ9u92/h
GUivjqwNqIGqgqWYtramhT5POsOzYELNDIKwPA909dQFMqDG6v5Wh3MvJO+gqa79s
GIAOs9Lsg1uu0Z8nZQ32g+iodeDGpeqY5OGYqskcZkm0=

