AXFH000
HFDTE050824
HFPLTPILOT:Scott O’Brien
HFGTYGLIDERTYPE:BGD Epic M
HFDTM100GPSDATUM:WGS84
HFRFWFIRMWAREVERSION:8.2.4
HFRHWHARDWAREVERSION:Unknown device (iPhone15,4)
HFFTYFRTYPE:Flyskyhy,8.2.4
HFGPS:Internal
HFPRSVARIO:Internal Vario
HFCCLCOMPETITIONCLASS:Paraglider
HFTZNTIMEZONE:-7
HFSITSITE:Mission Ridge (Fremont- San Jose),US
I053638FXA3941VXA4244GSP4547CCO4850HDT
C050824202542050824000108TASK
C0000000N00000000ETAKEOFF
C3920440N12241116W00015009999999000000360000STARTAREA POTLAU
C3922249N12241405W00000000001000000000360000TURNAREA SNOWVL
C3920978N12239724W00000000000400000000360000TURNAREA POTLZ
C3920095N12241882W00000000000400000000360000TURNAREA TOP
C3922264N12241989W00000000001000000000360000TURNAREA SNOWLO
C3920983N12238798W00000000001000000000360000TURNAREA TROUGH
C3920095N12241882W00000000000400000000360000TURNAREA TOP
C3925826N12241497W00000000005000000000360000TURNAREA STJOHN
C3920440N12241116W00000000001500000000360000TURNAREA POTLAU
C3920978N12239724W00000000000400000000360000FINISHAREA POTLZ
C0000000N00000000ELANDING
E202612PEVBackground
B2026123731051N12153510WA0057800577005010001035012
B2026133731051N12153510WA0057700577005010003043022
B2026143731051N12153510WA0057700577005010002027011
B2026153731051N12153510WA0057700577005010003021350
B2026163731052N12153510WA0057700577005010002279025
B2026173731052N12153510WA0057700577005010002219011
B2026193731052N12153510WA0057700577005010001219028
B2026213731051N12153511WA0057700577005010003229040
B2026223731051N12153512WA0057700577005010003299311
B2026233731051N12153512WA0057700578005010003256227
B2026253731051N12153512WA0057700578005010002201231
B2026273731051N12153513WA0057700578005010001211214
B2026293731050N12153513WA0057800578005010007206226
B2026313731047N12153514WA0057800578005010010210216
B2026333731043N12153517WA0057800578005010013203192
B2026343731042N12153518WA0057700578005010012190195
B2026353731040N12153518WA0057700578005010013193210
B2026363731038N12153519WA0057600578005010012209198
B2026373731036N12153521WA0057600577005010014219183
B2026383731034N12153523WA0057500577005010018220172
B2026393731031N12153526WA0057400577005010017208148
B2026403731028N12153527WA0057400577005010016175147
B2026413731026N12153526WA0057400576005010018150138
B2026423731023N12153524WA0057500576005010023136135
B2026433731020N12153520WA0057500576005010026129106
B2026443731018N12153516WA0057500576005010027127096
B2026453731015N12153512WA0057600576005010027124076
B2026463731013N12153508WA0057700576005010026125065
B2026473731010N12153504WA0057700575005010025135058
B2026483731008N12153501WA0057800575005010025140044
B2026493731005N12153498WA0057900575005010025139036
B2026503731002N12153495WA0057900575005010024138034
B2026513730999N12153492WA0058000575005010025142331
B2026523730996N12153489WA0058000575005010023143337
B2026533730993N12153487WA0058000575005010021146342
B2026543730991N12153485WA0057900575005010020165345
B2026553730987N12153484WA0057700575005010025169012
B2026563730983N12153484WA0057600574005010027167010
B2026573730979N12153483WA0057400574005010026166351
B2026583730975N12153482WA0057300573005010024167353
B2026593730971N12153481WA0057200573005010025169354
B2027003730968N12153480WA0057100573005010026173355
B2027013730963N12153480WA0057000572005010029176356
B2027023730959N12153480WA0057000572005010030181357
B2027033730954N12153480WA0056800571005010030183357
B2027043730950N12153480WA0056700570005010030182358
B2027053730945N12153481WA0056600570005010030180358
B2027063730941N12153481WA0056500569005010031182358
B2027073730936N12153481WA0056400569005010028186358
B2027083730932N12153482WA0056400569005010025186359
B2027093730929N12153483WA0056400568005010025186359
B2027103730921N12153485WA0056300568005010031193359
B2027113730916N12153486WA0056300567005010032197359
B2027123730912N12153488WA0056100567005010029204359
B2027133730908N12153491WA0056000566005010026210359
B2027143730905N12153493WA0055800565005010025211359
B2027153730902N12153496WA0055700565005010024213359
B2027163730900N12153499WA0055500564005010024218359
B2027173730897N12153502WA0055400563005010025224359
B2027183730895N12153505WA0055200562005010026227359
B2027193730892N12153509WA0055100561005010027228359
B2027203730890N12153513WA0054900560005010027227359
B2027213730887N12153517WA0054800559005010027225359
B2027223730884N12153520WA0054600558005010030228359
B2027233730881N12153525WA0054500557005010031230359
B2027243730878N12153530WA0054500556005010031228359
B2027253730875N12153534WA0054300555005010029224359
B2027263730872N12153537WA0054200554005010026220359
B2027273730869N12153541WA0054000553005010026217359
B2027283730866N12153544WA0053900551005010028217359
B2027293730862N12153547WA0053800550005010031216359
B2027303730859N12153551WA0053600548005010031212359
B2027313730854N12153554WA0053400547005010031209359
B2027323730850N12153556WA0053200545005010029205359
B2027333730846N12153559WA0053100544005010028201359
B2027343730842N12153560WA0052900543005010029197359
B2027353730838N12153562WA0052700541005010030199359
B2027363730833N12153564WA0052500539005010032202359
B2027373730829N12153567WA0052300537005010032203359
B2027383730824N12153569WA0052100535005010033204359
B2027393730820N12153572WA0051900533005010033205359
B2027403730815N12153574WA0051700532005010033205359
B2027413730811N12153577WA0051600530005010034204359
B2027423730806N12153580WA0051600528005010031203359
B2027433730802N12153582WA0051500527005010028208359
B2027443730798N12153585WA0051400525005010028211359
B2027453730794N12153588WA0051300523005010031208359
B2027463730790N12153590WA0051200522005010037203359
B2027473730784N12153593WA0051100520005010038200359
B2027483730779N12153595WA0050900518005010039196359
B2027493730773N12153597WA0050700516005010038194359
B2027503730768N12153599WA0050400514005010036193359
B2027513730763N12153601WA0050200512005010035193359
B2027523730758N12153602WA0050100509005010034190359
B2027533730753N12153603WA0049900507005010034191359
B2027543730748N12153605WA0049700505005010035193359
B2027553730743N12153606WA0049500503005010037194359
B2027563730737N12153608WA0049300501005010038192359
B2027573730732N12153609WA0049200500005010037192359
B2027583730727N12153611WA0049000498005010034192359
B2027593730722N12153612WA0048900496005010031194359
B2028003730718N12153614WA0048900494005010031196359
B2028013730713N12153615WA0048800493005010034192359
B2028023730709N12153616WA0048700491005010034189359
B2028033730704N12153617WA0048600489005010032188359
B2028043730699N12153618WA0048500488005010031190359
B2028053730695N12153619WA0048400486005010030192359
B2028063730690N12153620WA0048300485005010031192359
B2028073730686N12153621WA0048200483005010034189359
B2028083730681N12153622WA0048000482005010033188359
B2028093730676N12153623WA0047900480005010032192359
B2028103730672N12153624WA0047900479005010029197359
B2028113730668N12153626WA0047800477005010028202359
B2028123730664N12153628WA0047700476005010031202359
B2028133730660N12153630WA0047600475005010034198359
B2028143730655N12153632WA0047600473005010035194359
B2028153730650N12153634WA0047500472005010032198359
B2028163730646N12153636WA0047300471005010029202359
B2028173730642N12153638WA0047200470005010028208359
B2028183730638N12153641WA0047200468005010030210359
B2028193730634N12153644WA0047100467005010030206359
B2028203730630N12153646WA0047000466005010030204359
B2028213730626N12153648WA0047000465005010030204359
B2028223730622N12153651WA0046800464005010029209359
B2028233730618N12153654WA0046700462005010030210359
B2028243730615N12153657WA0046500461005010030208359
B2028253730611N12153659WA0046300460005010028201359
B2028263730607N12153661WA0046200458005010028200359
B2028273730603N12153663WA0046000457005010029201359
B2028283730599N12153665WA0045800455005010030205359
B2028293730595N12153667WA0045600453005010031205359
B2028303730590N12153670WA0045400452005010033201359
B2028313730585N12153671WA0045200450010019033194000
B2028323730580N12153673WA0045000449010019033189000
B2028333730576N12153673WA0044800447010019034186000
B2028343730570N12153674WA0044700446005010036185000
B2028353730565N12153674WA0044600444005010037180000
B2028363730559N12153674WA0044500443005010040176000
B2028373730553N12153673WA0044400442005010040170000
B2028383730547N12153672WA0044400441005010037165000
B2028403730542N12153669WA0044400440005010037159000
B2028413730537N12153666WA0044400439005010035150000
B2028423730533N12153663WA0044400437005010034148000
B2028433730528N12153659WA0044400436005010034149000
B2028443730524N12153656WA0044400435005010036154000
B2028453730519N12153653WA0044300434005010036156000
B2028463730514N12153651WA0044200433005010036157000
B2028473730509N12153649WA0044200432005010031161000
B2028483730505N12153647WA0044100430005010030162359
B2028493730500N12153646WA0044000429005010031173000
B2028503730495N12153645WA0044000428005010035174359
B2028513730490N12153645WA0043800427005010036172359
B2028523730484N12153644WA0043700426005010035172359
B2028533730479N12153643WA0043600425005010032173000
B2028543730474N12153643WA0043400424005010031175359
B2028553730470N12153642WA0043300422005010031178359
B2028563730465N12153642WA0043200421005010031181000
B2028573730460N12153643WA0043000420005010033184000
B2028583730455N12153644WA0042800419005010035186000
B2028593730450N12153644WA0042600418005010034184359
B2029003730445N12153645WA0042500416005010034183359
B2029013730440N12153646WA0042500415005010034183359
B2029023730435N12153646WA0042300414005010036184359
B2029033730429N12153647WA0042200413005010037185359
B2029043730424N12153648WA0042100411005010036186359
B2029053730419N12153649WA0042000410005010035187359
B2029063730413N12153650WA0041900409005010034189359
B2029073730408N12153651WA0041800408005010033190359
B2029083730398N12153653WA0041700406005010035184359
B2029093730392N12153653WA0041600405005010035181000
B2029103730387N12153653WA0041400403005010033178000
B2029113730383N12153652WA0041300402005010030173000
B2029123730378N12153651WA0041200401005010031166000
B2029133730374N12153649WA0041100400005010033162000
B2029143730369N12153647WA0041000399005010033157000
B2029153730365N12153644WA0040900398005010033147000
B2029163730360N12153640WA0040900398005010033143000
B2029173730356N12153636WA0040900397005010032144000
B2029183730352N12153633WA0041000396005010029149000
B2029193730348N12153630WA0041100395005010029151000
B2029203730344N12153628WA0041200395005010029161000
B2029213730340N12153626WA0041200394005010032158000
B2029223730335N12153623WA0041200393005010036153000
B2029233730331N12153620WA0041100392005010037149000
B2029243730326N12153617WA0041100392005010036147000
B2029253730321N12153613WA0041100391005010034148000
B2029263730317N12153610WA0041100391005010033144000
B2029273730313N12153606WA0041200391005010036147359
B2029283730308N12153603WA0041200390005010040160359
B2029293730302N12153601WA0041200390005010041165359
B2029303730296N12153599WA0041200389005010036169359
B2029313730292N12153600WA0041100389005010020205359
B2029323730290N12153602WA0041100388005010018214359
B2029333730290N12153605WA0041200388005010016223359
B2029343730289N12153608WA0041200388005010016231359
B2029353730288N12153611WA0041200387005010018246359
B2029363730287N12153614WA0041200387005010015276358
B2029373730288N12153617WA0041200386005010016313004
B2029383730291N12153619WA0041100385005010021346359
B2029393730295N12153620WA0041000385005010026006355
B2029403730299N12153618WA0041000384005010028019003
B2029413730303N12153616WA0041000384005010029021012
B2029423730307N12153614WA0041000383005010030024017
B2029433730311N12153611WA0041000383005010032033016
B2029443730315N12153607WA0041100383005010034044002
B2029453730319N12153602WA0041100383005010034048356
B2029463730323N12153598WA0041200382005010031041355
B2029473730326N12153595WA0041300382005010028028342
B2029483730330N12153592WA0041500382005010028018334
B2029493730334N12153591WA0041600383005010029015321
B2029503730339N12153591WA0041800383005010026354304
B2029513730343N12153592WA0041900384005010023332307
B2029523730346N12153595WA0042000384005010026328311
B2029533730349N12153598WA0042200384005010023305312
B2029543730349N12153603WA0042300384010019025261314
B2029553730348N12153608WA0042400385010019028237035
B2029563730345N12153612WA0042500385010019027216023
B2029573730341N12153615WA0042600385010019025204014
B2029583730338N12153617WA0042800386010019022188006
B2029593730334N12153616WA0043000386010019017136002
B2030003730332N12153612WA0043000386010019023091351
B2030013730332N12153606WA0043100387005010030056343
B2030023730334N12153600WA0043200387005010037048340
B2030043730338N12153594WA0043400388005010031048342
B2030053730341N12153591WA0043600388010019019029346
B2030063730342N12153589WA0043600388010019014347346
B2030073730343N12153590WA0043700388010019016297346
B2030083730344N12153593WA0043900388010019021270347
B2030093730343N12153598WA0044200388030057023257010
B2030103730342N12153602WA0044400387010019024240007
B2030113730340N12153605WA0044500387010019024233004
B2030123730337N12153609WA0044700387005010022222002
B2030133730335N12153611WA0044900387005010020216001
B2030143730332N12153613WA0045100386005010018209001
B2030153730329N12153615WA0045300386005010017195004
B2030163730326N12153614WA0045400386010019016180356
B2030173730323N12153613WA0045600386005010011170345
B2030183730321N12153610WA0045700385005010005137342
B2030193730320N12153604WA0045800385005010006088340
B2030203730322N12153600WA0045900385005010008037339
B2030213730323N12153596WA0046100385005010007334340
B2030223730326N12153596WA0046300386010019019279338
B2030233730327N12153600WA0046500387010019029263338
B2030243730327N12153605WA0046600387010019030252014
B2030253730326N12153610WA0046600388010019033232009
B2030263730323N12153615WA0046800389010019034216005
B2030273730319N12153619WA0046800389010019035213002
B2030283730315N12153622WA0046900389010019036213001
B2030293730311N12153623WA0046900389010019017159000
B2030303730306N12153619WA0047000390010019011159358
B2030313730304N12153617WA0047100390010019007118344
B2030323730303N12153613WA0047300391010019012018338
B2030333730306N12153608WA0047400391010019017008339
B2030343730311N12153602WA0047500392005010024336335
B2030353730314N12153602WA0047700392005010027329336
B2030363730318N12153605WA0047800393005010028317335
B2030373730322N12153606WA0047900393005010029294335
B2030383730327N12153617WA0048100397005010031253337
B2030393730325N12153621WA0048100397005010038221017
B2030403730321N12153625WA0048100398005010035216011
B2030413730317N12153627WA0048100398010019033204008
B2030423730312N12153628WA0048000398010019031173006
B2030433730309N12153625WA0047900398010019037135004
B2030443730305N12153619WA0047900398010019038128002
B2030453730303N12153613WA0047900398010019040119001
B2030463730302N12153605WA0047900399010019042105001
B2030473730299N12153593WA0047900400005010040098356
B2030483730298N12153585WA0047900400010019038087354
B2030493730298N12153576WA0047900401005010035080349
B2030503730299N12153568WA0047900402010019035078346
B2030513730300N12153562WA0048000403005010032077344
B2030523730301N12153556WA0048100404005010015030348
B2030533730304N12153553WA0048300404005010015023342
B2030543730306N12153551WA0048600405005010016013338
B2030553730309N12153549WA0048800406005010016357331
B2030563730312N12153549WA0049000407005010014331324
B2030573730314N12153552WA0049200409005010018293329
B2030583730316N12153555WA0049400410005010021266330
B2030593730316N12153561WA0049600412005010031247329
B2031003730315N12153568WA0049700414005010034227329
B2031013730312N12153575WA0049700415005010036223024
B2031023730309N12153579WA0049700416005010037214017
B2031033730304N12153583WA0049700416005010038201012
B2031043730299N12153585WA0049700416005010040178008
B2031053730293N12153584WA0049700417005010043169005
B2031063730287N12153581WA0049700417005010046136004
B2031073730282N12153573WA0049800418005010048130002
B2031083730279N12153565WA0049800420005010046111001
B2031093730278N12153557WA0049800421005010043091002
B2031103730280N12153550WA0049900422005010043077002
B2031113730282N12153542WA0049900424005010040070007
B2031123730286N12153536WA0050000425005010034054015
B2031133730288N12153529WA0050100426005010029043012
B2031143730291N12153525WA0050200427005010026031003
B2031153730293N12153521WA0050300428005010025026000
B2031163730298N12153521WA0050400431005010026007341
B2031173730302N12153521WA0050500432005010028350334
B2031183730308N12153522WA0050600433005010031340319
B2031193730312N12153525WA0050600433005010028326318
B2031203730316N12153528WA0050700433005010027320321
B2031213730320N12153531WA0050700435005010029317327
B2031223730322N12153535WA0050900436005010022286334
B2031233730323N12153539WA0051100437010019025264329
B2031243730321N12153544WA0051200437010019028246329
B2031253730319N12153548WA0051400437010019030222025
B2031263730315N12153551WA0051400438010019028203017
B2031273730311N12153552WA0051400439010019026177012
B2031283730306N12153551WA0051400439010019027166007
B2031293730303N12153548WA0051400440010019031141004
B2031303730300N12153544WA0051400440010019033119003
B2031313730298N12153538WA0051500441010019034105001
B2031323730298N12153531WA0051600441010019035079000
B2031333730298N12153525WA0051700441010019034078349
B2031343730300N12153518WA0051800442010019034075348
B2031353730301N12153512WA0051800443010019027048340
B2031363730304N12153509WA0051900444010019017025345
B2031373730306N12153508WA0052000445010019014356344
B2031383730308N12153508WA0052100446010019018334345
B2031393730311N12153510WA0052200447010019022304345
B2031403730312N12153515WA0052300447010019029290344
B2031413730314N12153521WA0052300447010019031278346
B2031423730314N12153527WA0052300448005010032280347
B2031433730316N12153533WA0052300448005010034284349
B2031443730317N12153539WA0052300448010019032277350
B2031453730317N12153546WA0052200448010019034266007
B2031463730316N12153552WA0052000447010019031257005
B2031473730314N12153557WA0051900447010019024236003
B2031483730311N12153559WA0051600447010019020191002
B2031493730307N12153558WA0051500447010019031156001
B2031503730301N12153553WA0051300447010019036138001
B2031513730295N12153549WA0051300448010019038132001
B2031523730290N12153543WA0051300449010019037123000
B2031533730287N12153536WA0051400450010019039113000
B2031543730284N12153529WA0051400451010019039108000
B2031553730282N12153522WA0051500451010019040105000
B2031563730281N12153514WA0051500453005010040094000
B2031573730281N12153507WA0051600454005010040085000
B2031583730281N12153499WA0051600455005010038076000
B2031593730283N12153492WA0051600455005010036066002
B2032003730286N12153486WA0051600457005010034057001
B2032013730286N12153477WA0051600459005010031042358
B2032023730287N12153471WA0051600462005010027026342
B2032033730290N12153468WA0051700464005010024000340
B2032043730294N12153468WA0051700464005010027342346
B2032053730298N12153470WA0051700465005010030327336
B2032063730302N12153473WA0051600465005010031327338
B2032073730306N12153477WA0051600465005010030307341
B2032083730307N12153481WA0051500465005010024287346
B2032093730308N12153486WA0051500465005010024274346
B2032103730308N12153490WA0051500466005010025258345
B2032113730308N12153496WA0051500467005010028244346
B2032123730305N12153501WA0051500467005010029240010
B2032133730303N12153505WA0051500467005010033192007
B2032143730298N12153505WA0051500468005010036172005
B2032153730292N12153504WA0051400468005010037168004
B2032163730287N12153501WA0051300468005010041143003
B2032173730282N12153495WA0051300468005010041137002
B2032183730277N12153490WA0051200468005010042135002
B2032193730273N12153483WA0051200468005010041133002
B2032203730268N12153477WA0051200468005010041132001
B2032213730264N12153471WA0051200468005010040134001
B2032233730260N12153465WA0051100469005010040135001
B2032243730255N12153460WA0051100469005010041139001
B2032253730250N12153455WA0051000469005010041144359
B2032263730245N12153452WA0050900469005010039151359
B2032273730240N12153448WA0050800469005010037157359
B2032283730235N12153446WA0050600468005010036161359
B2032293730229N12153444WA0050400468005010035168359
B2032303730224N12153443WA0050200468005010034175359
B2032313730219N12153443WA0050000468005010033180000
B2032323730214N12153443WA0049800468005010032181000
B2032333730209N12153443WA0049700468005010031178000
B2032343730204N12153442WA0049600467005010031171000
B2032353730200N12153441WA0049500467005010030161000
B2032363730196N12153439WA0049400467005010032152000
B2032373730187N12153432WA0049300466005010033139000
B2032383730184N12153427WA0049200466005010034134000
B2032393730180N12153422WA0049200465005010035131000
B2032403730177N12153418WA0049100465005010033141359
B2032413730172N12153415WA0049100465005010036155359
B2032423730167N12153413WA0049000464005010038174359
B2032433730162N12153414WA0048800464005010037202359
B2032443730158N12153418WA0048700464005010032226359
B2032453730155N12153423WA0048600464005010029246359
B2032463730154N12153428WA0048500464005010029267359
B2032473730155N12153434WA0048500464005010030279359
B2032483730157N12153440WA0048400463005010029299357
B2032493730160N12153444WA0048400463005010030317354
B2032503730164N12153448WA0048300462005010033332353
B2032513730169N12153450WA0048200462005010033342356
B2032523730174N12153451WA0048100461005010029357350
B2032533730178N12153451WA0048100460005010026006355
B2032543730182N12153450WA0048000460005010026011354
B2032553730186N12153449WA0048000459005010026012346
B2032563730190N12153448WA0048000459005010028008342
B2032573730194N12153447WA0047900458005010028005334
B2032583730198N12153447WA0047800458005010026358329
B2032593730202N12153447WA0047600458005010025349336
B2033003730205N12153449WA0047500457005010025343338
B2033013730209N12153451WA0047300456005010025329342
B2033023730212N12153454WA0047100456005010028319341
B2033033730215N12153457WA0046900455005010026306344
B2033043730217N12153462WA0046700455005010028297347
B2033053730218N12153467WA0046500454005010028294349
B2033063730220N12153472WA0046300453005010029292351
B2033073730221N12153477WA0046100452005010028292353
B2033083730222N12153482WA0046000451005010028295355
B2033093730224N12153486WA0046000451005010026303355
B2033103730227N12153491WA0045800450005010027310356
B2033113730229N12153494WA0045700449005010025312357
B2033123730232N12153498WA0045600448005010024310357
B2033133730234N12153501WA0045500447005010024308358
B2033143730236N12153505WA0045400446005010023310358
B2033153730238N12153508WA0045200445005010024311358
B2033163730240N12153511WA0045000445005010023308358
B2033173730242N12153515WA0044900444005010023304359
B2033183730244N12153518WA0044700443005010023296359
B2033193730246N12153522WA0044500442005010022294359
B2033203730247N12153526WA0044400441005010021299359
B2033213730249N12153529WA0044300440005010021303359
B2033223730250N12153533WA0044200439005010020300359
B2033233730252N12153536WA0044200438005010019298359
B2033243730253N12153539WA0044100437005010020303359
B2033253730255N12153542WA0044000436005010018307359
B2033263730257N12153544WA0043900435005010019332358
B2033273730259N12153545WA0043900435005010018344356
B2033283730262N12153546WA0043800434005010020353357
B2033293730266N12153546WA0043800433005010021003356
B2033303730269N12153545WA0043800432005010023358353
B2033313730273N12153545WA0043700431005010028355349
B2033323730278N12153545WA0043700430005010030357346
B2033333730282N12153545WA0043600429005010027356347
B2033353730286N12153546WA0043500429005010025357350
B2033363730294N12153546WA0043400427005010025353349
B2033373730298N12153547WA0043400426005010024344351
B2033383730301N12153549WA0043400426005010021337354
B2033393730304N12153550WA0043500425005010019335355
B2033403730307N12153552WA0043500425005010018339356
B2033413730310N12153553WA0043600424005010018340357
B2033433730313N12153554WA0043600423005010020336357
B2033443730315N12153556WA0043600423005010020335353
B2033453730318N12153558WA0043600422005010021329353
B2033463730320N12153560WA0043600422005010019322355
B2033473730322N12153562WA0043600421005010017315356
B2033483730324N12153565WA0043600421005010019307357
B2033493730326N12153568WA0043600420005010020303357
B2033503730328N12153571WA0043600420005010020305357
B2033513730330N12153575WA0043600420005010018311356
B2033523730331N12153577WA0043700419005010016314356
B2033533730333N12153579WA0043700419005010015319357
B2033543730334N12153581WA0043700418005010014304357
B2033553730335N12153584WA0043700418005010022279358
B2033563730336N12153589WA0043600417005010022284358
B2033573730337N12153593WA0043400416005010020294358
B2033583730339N12153596WA0043300416005010020299358
B2033593730340N12153600WA0043200415005010021288359
B2034003730341N12153604WA0043100415005010023284359
B2034013730342N12153609WA0043100414005010026290359
B2034023730344N12153614WA0043100414010019028294359
B2034033730346N12153619WA0043200414010019027293359
B2034043730348N12153624WA0043400413010019027290359
B2034053730349N12153628WA0043600413010019022288359
B2034063730350N12153632WA0043600412010019022292358
B2034073730351N12153636WA0043700412010019023287358
B2034083730352N12153640WA0043800412010019021290000
B2034093730353N12153643WA0043800411010019018304354
B2034103730355N12153646WA0043700411005010020313348
B2034113730357N12153647WA0043600410005010019352335
B2034123730361N12153646WA0043400409005010024357328
B2034133730369N12153647WA0043100408005010021345333
B2034143730372N12153648WA0043000407005010020335334
B2034153730374N12153651WA0042800406005010021290338
B2034163730375N12153655WA0042600405005010022275340
B2034173730375N12153660WA0042500405005010023266341
B2034183730374N12153664WA0042400404005010026250342
B2034193730373N12153669WA0042200403005010026242345
B2034203730370N12153673WA0042000402005010027230348
B2034213730367N12153677WA0041900401005010029208351
B2034223730362N12153679WA0041700400005010029207353
B2034233730358N12153681WA0041600399005010028207356
B2034243730355N12153684WA0041400399005010026210357
B2034253730352N12153686WA0041300398005010020217358
B2034263730351N12153689WA0041100396005010013255357
B2034273730351N12153692WA0040900395005010012273357
B2034283730352N12153695WA0040700393005010014284354
B2034293730353N12153697WA0040500392005010011307004
B2034303730355N12153698WA0040500391005010012344357
B2034313730358N12153698WA0040300390005010017006339
B2034323730362N12153695WA0040200388005010023019333
B2034333730368N12153692WA0040100387005010021014331
B2034343730373N12153690WA0040000386005010021348329
B2034353730378N12153691WA0039900384005010022348329
B2034363730382N12153692WA0039800383005010022346331
B2034373730385N12153694WA0039600381005010019333333
B2034383730386N12153697WA0039500380005010020267336
B2034393730385N12153701WA0039300378005010025239338
B2034403730383N12153705WA0039100377005010028228342
B2034413730380N12153709WA0039000376005010030213014
B2034423730375N12153713WA0038900375005010032203348
B2034433730370N12153714WA0038800373005010036184351
B2034443730364N12153714WA0038700372005010038184353
B2034453730358N12153715WA0038700371005010034183354
B2034463730353N12153715WA0038700370005010031187355
B2034473730348N12153716WA0038700369005010029188356
B2034483730345N12153717WA0038900368005010024198357
B2034493730341N12153719WA0039000368005010022200358
B2034503730339N12153721WA0039000367005010023209358
B2034513730336N12153723WA0039200366005010019226359
B2034523730334N12153726WA0039300366005010018237359
B2034533730334N12153729WA0039300365005010012257358
B2034543730334N12153731WA0039400364005010012323002
B2034553730337N12153732WA0039400363005010020358012
B2034573730341N12153731WA0039300362005010026015025
B2034583730345N12153729WA0039300362005010030032028
B2034593730351N12153725WA0039200361005010036036029
B2035003730355N12153721WA0039200361005010031047029
B2035013730358N12153716WA0039200360005010030060338
B2035023730359N12153710WA0039200360005010028079347
B2035033730356N12153706WA0039200360010019036156352
B2035043730350N12153703WA0039200359010019044161352
B2035053730345N12153702WA0039200359010019024187353
B2035063730341N12153703WA0039200358010019021188354
B2035073730338N12153704WA0039300357010019020193356
B2035083730335N12153705WA0039400356010019019197357
B2035093730334N12153707WA0039400356010019015203358
B2035103730332N12153709WA0039400355010019011216359
B2035113730331N12153710WA0039400354010019006223359
B2035123730332N12153712WA0039200354010019003305357
B2035133730333N12153713WA0039200353010019009352355
B2035143730336N12153714WA0039200352010019013358356
B2035153730339N12153716WA0039100352005010017004355
B2035163730342N12153716WA0039100351005010025008000
B2035173730348N12153718WA0039000351005010033002007
B2035183730354N12153719WA0038900350005010033003018
B2035193730359N12153719WA0038900350005010033016020
B2035203730364N12153717WA0038900350005010033031018
B2035213730368N12153714WA0038900350005010031050024
B2035223730371N12153710WA0038900350005010030066027
B2035233730372N12153705WA0038900349005010031071029
B2035243730374N12153699WA0038800349005010030086028
B2035253730372N12153693WA0038700349005010038114026
B2035263730370N12153687WA0038600348005010038120337
B2035273730362N12153678WA0038400348005010037158344
B2035283730356N12153676WA0038300348005010037164349
B2035293730350N12153675WA0038200349005010032181353
B2035303730345N12153676WA0038200349005010029193355
B2035313730341N12153678WA0038100349005010025215357
B2035323730338N12153681WA0038000348005010025221358
B2035333730336N12153686WA0038000348005010023246359
B2035343730335N12153690WA0038000347005010017282359
B2035353730337N12153694WA0037900347005010019311359
B2035363730340N12153697WA0037800347005010023318359
B2035373730343N12153702WA0037700346005010026317359
B2035383730346N12153706WA0037600346005010028314359
B2035393730350N12153710WA0037500345005010029314359
B2035403730353N12153715WA0037400345005010027316359
B2035413730357N12153719WA0037300345005010028315359
B2035423730360N12153723WA0037200344005010030312359
B2035433730363N12153728WA0037100343010019030309359
B2035443730367N12153733WA0037100343010019030308359
B2035453730370N12153737WA0037000342010019030305359
B2035463730372N12153742WA0036800341010019028301359
B2035473730374N12153747WA0036700340010019027295359
B2035483730376N12153751WA0036600339010019026290359
B2035493730377N12153756WA0036500338010019026288359
B2035503730378N12153760WA0036500338010019024287359
B2035513730379N12153765WA0036400337010019023284359
B2035523730379N12153769WA0036300336010019021283359
B2035533730380N12153773WA0036200335010019023284359
B2035543730381N12153777WA0036200334010019025284359
B2035553730382N12153782WA0036100334010019025285359
B2035563730383N12153786WA0036000333010019026287359
B2035573730384N12153791WA0035900332010019023289359
B2035583730386N12153794WA0035900331010019020310359
B2035593730388N12153796WA0035900330010019017314359
B2036003730389N12153798WA0036000329010019017315359
B2036023730391N12153800WA0036000329010019019319359
B2036033730393N12153801WA0036000328010019021324359
B2036043730395N12153803WA0036100327010019021325359
B2036053730398N12153805WA0036100327010019021325359
B2036063730400N12153807WA0036100326010019021322359
B2036073730402N12153810WA0036100326010019022315359
B2036083730404N12153813WA0036100325010019023309359
B2036093730406N12153816WA0036100324010019024307359
B2036103730409N12153820WA0036100324010019026309359
B2036113730411N12153823WA0036100323010019025309359
B2036123730413N12153827WA0036100322010019022311359
B2036133730416N12153830WA0036100322010019019312359
B2036143730418N12153832WA0036000321010019017322359
B2036153730422N12153837WA0036000320005010022311359
B2036163730424N12153840WA0035900320005010024309359
B2036173730426N12153844WA0035700319005010024306359
B2036183730428N12153848WA0035500318005010023298359
B2036193730430N12153852WA0035300317005010021299359
B2036203730431N12153856WA0035200317005010020292359
B2036213730432N12153860WA0035000316005010022285359
B2036223730432N12153865WA0034800316005010024276359
B2036233730432N12153870WA0034500315005010028263359
B2036243730430N12153876WA0034500314005010030252359
B2036253730428N12153881WA0034000313005010031247359
B2036263730426N12153887WA0033800312005010034246359
B2036273730423N12153893WA0033800311005010035244359
B2036283730421N12153898WA0033500310005010034244359
B2036293730418N12153903WA0033300308005010033246359
B2036303730416N12153908WA0033000307005010031249359
B2036313730415N12153913WA0032800306005010026256359
B2036323730414N12153917WA0032500304005010025258359
B2036333730413N12153922WA0032400303005010025262359
B2036343730413N12153926WA0032200301005010026264359
B2036353730413N12153931WA0032100300005010026264359
B2036363730412N12153936WA0031900299005010025262359
B2036373730412N12153941WA0031700297005010025262359
B2036383730412N12153946WA0031600296005010024266359
B2036393730411N12153950WA0031400295005010022269359
B2036403730411N12153954WA0031300293005010021267359
B2036413730411N12153958WA0031300292005010022260359
B2036423730410N12153963WA0031200291005010025252359
B2036433730409N12153967WA0031100289005010026248359
B2036443730407N12153971WA0031000288005010025244359
B2036453730405N12153975WA0030800287005010024241359
B2036463730403N12153979WA0030700285005010023241359
B2036473730401N12153982WA0030700284005010022243359
B2036483730400N12153986WA0030600283005010022250359
B2036493730399N12153990WA0030500282005010023252359
B2036503730398N12153994WA0030400280005010025252359
B2036513730397N12153999WA0030200279005010026254359
B2036523730396N12154004WA0030100278005010024252359
B2036533730395N12154008WA0029900277005010023253359
B2036543730394N12154013WA0029800276005010023255359
B2036553730393N12154017WA0029700275005010024254359
B2036563730392N12154022WA0029600273005010025251359
B2036573730391N12154027WA0029500272005010028249359
B2036583730389N12154032WA0029300271005010029246359
B2036593730387N12154037WA0029200270005010027243359
B2037003730385N12154041WA0029100269005010025239359
B2037013730383N12154046WA0028900268005010026239359
B2037023730381N12154050WA0028800266005010026234359
B2037033730378N12154053WA0028700265005010025225359
B2037043730375N12154056WA0028600264005010025214359
B2037053730372N12154058WA0028500263005010026205359
B2037063730368N12154060WA0028300262005010026195359
B2037073730364N12154060WA0028300260005010028187359
B2037083730359N12154059WA0028200259005010030180359
B2037093730354N12154058WA0028100258005010029178359
B2037103730349N12154058WA0027900257005010029181359
B2037113730345N12154058WA0027800256005010028188359
B2037123730341N12154059WA0027700255005010027199359
B2037133730337N12154061WA0027600253005010027208359
B2037153730333N12154063WA0027400252005010028209359
B2037163730329N12154066WA0027300251005010029211359
B2037173730326N12154069WA0027200250005010025224359
B2037183730324N12154073WA0027100249005010026229359
B2037193730322N12154077WA0027000247005010026234359
B2037203730320N12154081WA0026900246005010028237359
B2037213730318N12154086WA0026700245005010028241359
B2037223730316N12154091WA0026600244005010029241359
B2037233730314N12154096WA0026400243005010031242359
B2037243730313N12154101WA0026200241005010032244359
B2037253730311N12154107WA0026100240005010033244359
B2037263730309N12154112WA0026100239010019027246359
B2037273730308N12154116WA0026100238010019024250359
B2037283730307N12154121WA0026100237010019024250359
B2037293730306N12154125WA0026100236010019024247359
B2037303730305N12154128WA0026100236005010024242359
B2037313730304N12154132WA0026100235005010024247359
B2037323730303N12154136WA0026000234005010025252359
B2037333730302N12154141WA0025800233005010026251359
B2037343730301N12154146WA0025600233005010026248359
B2037353730299N12154151WA0025400232005010026245359
B2037363730298N12154155WA0025300231005010023248359
B2037373730297N12154159WA0025100230005010023254359
B2037383730297N12154163WA0024800229005010025255359
B2037393730296N12154167WA0024600228005010024257359
B2037403730296N12154171WA0024300227005010024259359
B2037413730296N12154175WA0024100226005010023260359
B2037423730295N12154179WA0023900225005010021260359
B2037433730295N12154182WA0023800224005010021262359
B2037443730295N12154186WA0023600223005010022262359
B2037453730294N12154190WA0023600222005010023263359
B2037463730294N12154194WA0023500221005010025261359
B2037473730293N12154199WA0023300220005010025262359
B2037483730293N12154203WA0023200219005010025261359
B2037493730292N12154208WA0023100218005010024259359
B2037503730292N12154212WA0023000217005010023259359
B2037513730291N12154216WA0023000216005010022257359
B2037523730290N12154221WA0022900215005010023257359
B2037533730289N12154225WA0022900214005010023259359
B2037543730289N12154229WA0022800213005010021262359
B2037553730288N12154233WA0022800212005010020268359
B2037563730288N12154237WA0022700211005010018269359
B2037573730288N12154240WA0022600210005010019266359
B2037583730288N12154244WA0022500209005010020263359
B2037593730287N12154247WA0022400208005010021257359
B2038003730286N12154251WA0022300207005010020256359
B2038013730285N12154255WA0022200206005010020254359
B2038023730284N12154258WA0022000205005010020253359
B2038033730283N12154262WA0022000204005010020252359
B2038043730282N12154265WA0021900203005010020254359
B2038053730281N12154269WA0021800202005010021256359
B2038063730280N12154273WA0021600201005010020259359
B2038073730280N12154277WA0021400200005010019264359
B2038083730280N12154280WA0021400199005010017272359
B2038093730280N12154283WA0021300198005010015275359
B2038103730280N12154286WA0021300197005010016280359
B2038113730281N12154289WA0021300196005010016280358
B2038123730281N12154292WA0021200195005010016292356
B2038133730283N12154295WA0021200194005010016308000
B2038143730284N12154297WA0021100193005010016326011
B2038153730287N12154299WA0021000192005010016353017
B2038163730290N12154298WA0020900191005010021021017
B2038173730294N12154297WA0020900191005010024029017
B2038183730301N12154290WA0020900189005010030053016
B2038193730304N12154285WA0021000189010019039073020
B2038203730305N12154277WA0021000188010019041085019
B2038213730305N12154269WA0021000188010019041094014
B2038223730304N12154260WA0021000187010019042099008
B2038233730303N12154252WA0021000186010019043101005
B2038243730301N12154244WA0020900185010019045102004
B2038253730300N12154236WA0020800185010019043100003
B2038263730299N12154227WA0020800184010019044099002
B2038273730299N12154220WA0020800183010019031076004
B2038283730300N12154215WA0020700182010019028059006
B2038293730303N12154211WA0020700182010019028044003
B2038303730306N12154209WA0020600181010019026036358
B2038313730309N12154207WA0020600180010019024028350
B2038323730313N12154205WA0020500179010019023018351
B2038333730317N12154205WA0020400178010019021013346
B2038343730320N12154205WA0020300177010019020356345
B2038353730323N12154206WA0020200176010019020346340
B2038363730326N12154207WA0020200176010019020341339
B2038373730329N12154209WA0020100175010019018346348
B2038383730331N12154210WA0020000174010019018348346
B2038393730334N12154211WA0020000174010019017359345
B2038403730336N12154211WA0019900173010019017358349
B2038413730339N12154211WA0019800172010019020358347
B2038423730343N12154212WA0019700171010019022355348
B2038433730346N12154212WA0019600171010019023348349
B2038443730350N12154213WA0019600170010019020341336
B2038453730352N12154215WA0019500169010019017336333
B2038463730355N12154216WA0019500168010019017341330
B2038473730358N12154217WA0019500167010019020340332
B2038483730361N12154219WA0019400166010019021337336
B2038493730364N12154220WA0019400165010019022324347
B2038503730366N12154223WA0019300164010019020324347
B2038513730369N12154225WA0019200164010019019333339
B2038523730372N12154226WA0019100163010019017337335
B2038533730374N12154227WA0018900162010019018347328
B2038543730377N12154228WA0018700160010019019343328
B2038553730379N12154229WA0018400160010019020329327
B2038563730381N12154232WA0018200159010019019324331
B2038573730384N12154234WA0017900157010019018315336
B2038583730385N12154236WA0017700156010019016297339
B2038593730385N12154240WA0017600155010019019264345
B2039003730384N12154244WA0017400153010019025241347
B2039023730380N12154248WA0017100153010019028228348
B2039033730373N12154254WA0017000152005010024229351
B2039043730369N12154259WA0016800150005010025238353
B2039053730366N12154264WA0016600149005010026239354
B2039063730364N12154269WA0016500148005010026234355
B2039073730362N12154273WA0016300147005010023231356
B2039083730360N12154276WA0016300146005010021237357
B2039093730358N12154280WA0016200144005010022247357
B2039103730357N12154283WA0016000143005010022247357
B2039113730356N12154286WA0015800141005010011232000
B2039123730355N12154287WA0015700140005010004173000
B2039133730355N12154286WA0015500139005010004099000
B2039143730355N12154285WA0015400137005010005129000
B2039153730355N12154285WA0015400137005010005124000
B2039163730354N12154284WA0015300136005010003118000
B2039173730354N12154284WA0015300136005010004096000
B2039183730355N12154284WA0015300136005010003088000
B2039193730355N12154284WA0015300136005010001082000
B2039203730355N12154284WA0015300136005010001060000
B2039213730355N12154284WA0015300136005010001067000
B2039223730355N12154284WA0015300136005010001067000
B2039233730355N12154284WA0015300136005010001077000
B2039243730355N12154284WA0015300136005010001080000
B2039253730355N12154284WA0015300136005010000088000
B2039263730355N12154284WA0015300136005010000000000
B2039273730355N12154284WA0015300136005010001103000
B2039283730355N12154284WA0015300136005010001122000
B2039293730355N12154284WA0015300136005010001094000
B2039303730355N12154284WA0015300136005010002116000
B2039313730355N12154283WA0015300135005010004131000
B2039323730355N12154282WA0015300135005010004123000
B2039333730355N12154282WA0015300135005010003126000
B2039343730354N12154281WA0015300135005010003128000
B2039353730354N12154281WA0015300135005010002099000
B2039363730354N12154281WA0015300134005010001155000
B2039373730354N12154281WA0015300134005010001107000
B2039383730354N12154281WA0015300134005010001126000
B2039393730354N12154281WA0015300134005010000000000
B2039403730354N12154281WA0015300134005010001096000
B2039413730354N12154281WA0015300134005010000000000
B2039423730354N12154281WA0015300134005010000000000
B2039433730354N12154281WA0015300134005010000000000
B2039443730354N12154281WA0015300134005010000000000
B2039453730354N12154281WA0015300134005010000000000
B2039463730354N12154281WA0015300134005010000000000
B2039473730354N12154281WA0015300134005010000000000
B2039483730354N12154281WA0015300134005010001100000
GvpY1Q48duW6ueBnxAQXUVEc2YLfTIluBMgXj/5k5W7qyfL94YdUzkhSGarkte94L
G67To6eTmMJIOmXqlxayDllU4I1LgtWMhsHWFWqdqS0YZPImODgpH+STBo48n/Q7f
GZFCTvd7kjGBf/SyeBqnKfWBT+mwtlEN2b8zalFSqRNU=

