AXFH000
HFDTE160826
HFPLTPILOT:Scott O’Brien
HFGTYGLIDERTYPE:Ozone Swift 6
HFDTM100GPSDATUM:WGS84
HFRFWFIRMWAREVERSION:9.7
HFRHWHARDWAREVERSION:iPhone 15
HFFTYFRTYPE:Flyskyhy,9.7
HFGPS:Internal
HFPRSVARIO:Internal Vario
HFCCLCOMPETITIONCLASS:Paraglider
HFTZNTIMEZONE:-7
HFSITSITE:Ed Levin,US
I053638FXA3941VXA4244GSP4547CCO4850HDT
B1934213728464N12151574WA0070600706010019000000042
B1934223728464N12151574WA0070600706010019001321029
B1934233728464N12151574WA0070600706010019000000039
B1934243728464N12151574WA0070600706010019000000039
B1934253728464N12151574WA0070600706010019000000039
B1934263728464N12151574WA0070600706010019000000031
B1934273728464N12151574WA0070600706010019000000023
B1934283728464N12151574WA0070600706010019000337359
B1934293728464N12151574WA0070600706010019000000002
B1934303728464N12151574WA0070600706010019000000011
B1934313728464N12151574WA0070600706010019000000011
B1934323728464N12151574WA0070600706010019000000015
B1934333728464N12151574WA0070600706010019000000026
B1934343728464N12151574WA0070600706010019000000032
B1934353728464N12151574WA0070600706010019000111028
B1934373728464N12151574WA0070600706010019000000036
B1934393728464N12151574WA0070600706010019004250058
B1934403728463N12151575WA0070600706010019002113070
B1934413728463N12151574WA0070600706010019000119056
B1934433728463N12151574WA0070600706010019001132062
B1934443728463N12151576WA0070500706010019005314212
B1934463728464N12151578WA0070500706010019006271247
B1934473728463N12151580WA0070500706010019009260255
B1934493728462N12151584WA0070400705010019013222008
B1934503728460N12151586WA0070400704010019013221187
B1934513728459N12151588WA0070300704010019014226039
B1934523728457N12151591WA0070200704010019021251207
B1934533728456N12151595WA0070100704010019021265247
B1934543728456N12151600WA0070000704010019025273259
B1934553728456N12151605WA0069900704010019029270267
B1934563728456N12151611WA0069900703010019031261265
B1934573728455N12151617WA0069500703010019031255258
B1934583728453N12151623WA0069500703010019026254251
B1934593728452N12151628WA0069400703010019027256250
B1935003728451N12151633WA0069400702010019029260252
B1935013728450N12151639WA0069300702010019033259256
B1935023728449N12151645WA0069200702010019035255257
B1935033728448N12151652WA0069200702010019033245257
B1935043728445N12151657WA0069100701010019031246255
B1935053728444N12151663WA0069100701010019030254252
B1935063728443N12151669WA0069000700010019031260244
B1935073728442N12151675WA0069000699010019031258238
B1935083728441N12151681WA0069000698010019031249230
B1935093728438N12151685WA0068900697010019026236227
B1935103728436N12151688WA0068800696010019023222217
B1935113728433N12151691WA0068800696010019023210204
B1935123728429N12151693WA0068800695010019026199190
B1935133728425N12151694WA0068800694010019031188182
B1935143728420N12151694WA0068800693010019034178178
B1935153728415N12151693WA0068700692010019034167176
B1935163728411N12151691WA0068700690010019031163166
B1935173728406N12151690WA0068600689010019029167163
B1935183728402N12151689WA0068500688010019030172172
B1935193728398N12151688WA0068400687010019033164159
B1935203728392N12151686WA0068300685010019039161172
B1935213728387N12151683WA0068200684010019038160166
B1935223728382N12151681WA0068100683010019035160177
B1935233728377N12151679WA0068000682010019034165165
B1935243728372N12151677WA0067900681010019034168162
B1935253728367N12151676WA0067800681010019034169145
B1935263728362N12151675WA0067800680010019033163144
B1935273728358N12151673WA0067800679010019031155148
B1935283728353N12151670WA0067800678010019034146149
B1935293728349N12151666WA0067700677010019040144143
B1935303728344N12151661WA0067700676010019042146139
B1935313728339N12151657WA0067600675010019041147142
B1935323728333N12151652WA0067500673010019039145145
B1935333728329N12151648WA0067300672010019040143147
B1935343728324N12151644WA0067200671010019041146139
B1935353728318N12151640WA0067000670010019040150148
B1935363728313N12151636WA0066900669010019041148130
B1935373728308N12151631WA0066700667010019045143130
B1935383728302N12151626WA0066600666010019045137146
B1935393728298N12151620WA0066400665010019041135143
B1935403728293N12151615WA0066200664010019039135140
B1935413728289N12151610WA0066100662010019036143145
B1935423728284N12151606WA0065900661010019044148154
B1935433728278N12151602WA0065800659010019051154150
B1935443728271N12151598WA0065600658010019050155157
B1935453728265N12151594WA0065400657010019039152159
B1935463728261N12151591WA0065300655010019033138155
B1935473728257N12151586WA0065300654005010031132145
B1935483728254N12151582WA0065200653005010033137148
B1935493728250N12151578WA0065200652005010035142145
B1935503728245N12151574WA0065200651005010039150149
B1935513728240N12151570WA0065200650005010037150140
B1935523728236N12151567WA0065200650005010031145143
B1935533728233N12151563WA0065200649005010024135142
B1935543728230N12151561WA0065200649005010019137145
B1935553728228N12151559WA0065200649005010019158164
B1935563728224N12151556WA0065200649005010032158176
B1935573728219N12151555WA0065100648005010036172167
B1935583728214N12151554WA0065000648005010032180167
B1935593728210N12151553WA0064900648005010026175158
B1936003728206N12151552WA0064800648005010024162167
B1936013728203N12151551WA0064800648005010025161170
B1936023728199N12151549WA0064700649005010031162177
B1936033728194N12151547WA0064700649005010038160185
B1936043728188N12151545WA0064700649005010040165188
B1936053728182N12151543WA0064700649005010036170186
B1936063728178N12151542WA0064600649005010029169171
B1936073728173N12151541WA0064500649005010029167163
B1936083728169N12151540WA0064500649005010028166175
B1936093728165N12151538WA0064500649005010030172173
B1936103728160N12151538WA0064400649005010032171185
B1936113728155N12151537WA0064400648005010039174176
B1936123728149N12151536WA0064300647005010041174182
B1936133728143N12151535WA0064100646005010037174185
B1936143728138N12151535WA0064000645005010033173177
B1936153728133N12151534WA0063900645010019031174179
B1936163728129N12151534WA0063800644010019031177178
B1936173728123N12151533WA0063700642010019040174172
B1936183728117N12151532WA0063600641010019044169175
B1936193728111N12151530WA0063500639010019044167170
B1936203728104N12151528WA0063300638010019041166180
B1936213728099N12151526WA0063300637010019037164178
B1936223728093N12151524WA0063200635010019038166180
B1936233728088N12151523WA0063100634010019038168167
B1936243728082N12151521WA0063000633010019039168169
B1936253728076N12151520WA0063000632010019038170171
B1936263728071N12151518WA0062900630010019034166173
B1936273728066N12151517WA0062800629010019033167173
B1936283728061N12151515WA0062800628010019033166178
B1936293728056N12151514WA0062700627010019036166168
B1936303728050N12151512WA0062600626010019042171178
B1936313728044N12151511WA0062500625010019038171178
B1936323728039N12151510WA0062300623010019034171173
B1936333728034N12151510WA0062200622010019032173165
B1936343728029N12151509WA0062000621010019035171166
B1936353728023N12151507WA0061900619010019039168160
B1936363728018N12151506WA0061900617010019042164155
B1936373728011N12151503WA0061700615010019043162158
B1936383728005N12151501WA0061500613010019040157158
B1936393728000N12151498WA0061300612010019037154157
B1936403727995N12151495WA0061300610010019038156155
B1936413727990N12151492WA0061200609010019038156173
B1936423727984N12151489WA0061000608010019037157163
B1936433727979N12151486WA0060900607010019035159162
B1936443727974N12151484WA0060900605010019034160159
B1936453727970N12151482WA0060800604010019035160157
B1936463727964N12151479WA0060600603010019038156145
B1936473727959N12151476WA0060500601010019042154154
B1936483727953N12151472WA0060500600010019043148159
B1936493727948N12151468WA0060300599010019042143159
B1936503727943N12151463WA0060100598010019040143163
B1936513727938N12151459WA0060100597010019039146165
B1936523727933N12151455WA0060000596010019038148169
B1936533727928N12151451WA0059800595010019041157167
B1936543727922N12151448WA0059700594010019042158177
B1936553727916N12151445WA0059700592010019042158187
B1936563727910N12151443WA0059500591010019041162188
B1936573727905N12151441WA0059300589010019039169191
B1936583727899N12151440WA0059100587010019039178190
B1936593727893N12151440WA0059100586010019037182189
B1937003727888N12151441WA0058800584010019037183192
B1937013727882N12151441WA0058600582010019038180201
B1937023727877N12151441WA0058300580010019039179217
B1937033727871N12151442WA0058300579010019037186221
B1937043727866N12151443WA0058100576010019036197220
B1937053727861N12151446WA0057800575010019035204216
B1937063727856N12151449WA0057600572010019034206221
B1937073727852N12151452WA0057600570010019034207224
B1937083727848N12151455WA0057300568010019033209220
B1937093727843N12151459WA0057100566010019034213223
B1937103727839N12151463WA0056800564010019035214228
B1937113727835N12151466WA0056600561010019034213229
B1937123727830N12151470WA0056600559010019033213228
B1937133727826N12151474WA0056300557010019033214233
B1937143727822N12151477WA0056100556010019034215238
B1937153727818N12151481WA0056100554010019034215233
B1937163727814N12151485WA0055900552010019034217235
B1937173727810N12151489WA0055700550010019032222233
B1937183727806N12151493WA0055500548010019032226236
B1937193727803N12151498WA0055300546010019032226242
B1937203727800N12151502WA0055300545010019031226233
B1937213727796N12151506WA0055100543010019030225236
B1937223727793N12151510WA0054900542010019029223232
B1937233727790N12151514WA0054800540010019029221230
B1937243727787N12151517WA0054800539010019031218228
B1937253727783N12151521WA0054600538010019032215228
B1937263727779N12151524WA0054500537010019033214230
B1937273727775N12151528WA0054400535010019033215222
B1937283727771N12151531WA0054400534010019032215222
B1937293727767N12151535WA0054300533010019031214217
B1937303727763N12151538WA0054100532010019030213213
B1937313727759N12151541WA0054000530010019030211206
B1937323727755N12151544WA0054000529010019031206208
B1937333727751N12151546WA0053800528010019034201219
B1937343727746N12151549WA0053700526010019038198233
B1937353727740N12151551WA0053500526010019037202233
B1937363727736N12151554WA0053500525010019034212234
B1937373727732N12151558WA0053400524010019032221230
B1937383727728N12151562WA0053300523010019032221229
B1937393727724N12151566WA0053200522010019035220242
B1937403727720N12151570WA0053200522010019035222240
B1937413727717N12151575WA0053200521010019033224237
B1937423727713N12151579WA0053200521010019029227235
B1937433727711N12151583WA0053200520010019026232235
B1937443727708N12151587WA0053200520010019026233241
B1937453727706N12151591WA0053100519010019028239243
B1937463727704N12151596WA0053000518010019030243243
B1937473727702N12151601WA0052900518010019029244244
B1937483727700N12151606WA0052900517010019027242242
B1937493727699N12151611WA0052800516010019026242247
B1937503727697N12151615WA0052600515010019027242248
B1937513727695N12151620WA0052600514010019031240252
B1937523727692N12151625WA0052400513010019032239252
B1937533727690N12151631WA0052200511010019032240249
B1937543727688N12151636WA0052000510010019029240250
B1937553727686N12151640WA0052000509010019026239251
B1937563727684N12151644WA0051800508010019026238252
B1937573727681N12151649WA0051600507010019027239261
B1937583727680N12151653WA0051500505010019027242251
B1937593727678N12151658WA0051500504010019026247267
B1938003727677N12151662WA0051300503010019024251249
B1938013727676N12151666WA0051200501010019023253259
B1938023727675N12151670WA0051000500010019024249262
B1938033727673N12151674WA0050800499010019025248262
B1938043727672N12151679WA0050800498010019026246257
B1938053727670N12151683WA0050600497010019026250253
B1938063727669N12151688WA0050500495010019024254253
B1938073727668N12151692WA0050400494010019022254249
B1938083727667N12151695WA0050400493010019020245255
B1938093727664N12151702WA0050300491010019021240264
B1938113727663N12151706WA0050300490010019024242265
B1938123727660N12151715WA0050300488010019029250253
B1938133727658N12151720WA0050300488010019028251262
B1938153727656N12151730WA0050100487010019025246243
B1938173727651N12151738WA0050100486010019027220221
B1938183727647N12151742WA0050000485010019037218218
B1938193727643N12151746WA0049900485010019040213213
B1938203727637N12151750WA0049900484010019039207207
B1938213727632N12151753WA0049900484010019036205211
B1938233727622N12151758WA0049700484010019038199194
B1938253727610N12151762WA0049700483005010045189183
B1938273727603N12151763WA0049600483005010044186178
B1938283727591N12151764WA0049600483005010035181184
B1938303727586N12151764WA0049500483005010033178159
B1938313727581N12151764WA0049400482005010036170141
B1938323727576N12151762WA0049400482005010040158132
B1938333727571N12151758WA0049300481005010045145126
B1938343727566N12151752WA0049200479005010045130116
B1938353727562N12151745WA0048900478005010045115109
B1938363727560N12151737WA0048900477005010044104097
B1938373727559N12151729WA0048700476005010042094090
B1938383727560N12151714WA0048300474005010037080083
B1938393727562N12151707WA0048000473005010038071072
B1938403727564N12151700WA0048000471005010038057064
B1938413727568N12151695WA0047800470005010039043049
B1938423727572N12151690WA0047500469005010037034035
B1938433727577N12151687WA0047300468005010029027025
B1938453727583N12151686WA0047100466005010016339019
B1938473727587N12151690WA0047000465005010019333314
B1938483727590N12151692WA0047000464005010022333304
B1938493727593N12151694WA0047000463005010019340313
B1938503727595N12151695WA0047000462005010015356309
B1938513727598N12151695WA0047000461005010014002312
B1938523727600N12151695WA0047000461005010015350311
B1938533727602N12151696WA0046900460005010019336305
B1938543727605N12151698WA0046900459005010022329298
B1938553727608N12151700WA0046900458005010022324301
B1938563727611N12151703WA0046800457005010021320301
B1938573727613N12151706WA0046800457005010017320295
B1938583727615N12151707WA0046800456005010012328315
B1938593727616N12151708WA0046800455005010011343334
B1939003727618N12151709WA0046900455005010015356344
B1939013727622N12151709WA0047000454005010025001005
B1939023727626N12151708WA0047100453010019033017026
B1939033727630N12151705WA0047200453010019037042037
B1939043727634N12151700WA0047200452005010036054063
B1939053727637N12151694WA0047300451010019037067074
B1939063727638N12151687WA0047300450010019040079089
B1939073727639N12151679WA0047300449010019040082101
B1939083727639N12151671WA0047300448010019038097100
B1939093727637N12151663WA0047300448010019033119116
B1939103727632N12151659WA0047300447010019023179139
B1939113727628N12151658WA0047300446010019019188214
B1939123727625N12151658WA0047300445010019017194227
B1939133727622N12151658WA0047300443005010014205235
B1939143727621N12151659WA0047300442005010011236248
B1939153727620N12151661WA0047400441005010012259268
B1939163727619N12151664WA0047400440005010016271277
B1939173727619N12151667WA0047400440010019017270286
B1939183727620N12151672WA0047500440010019016278288
B1939193727619N12151678WA0047600439010019014280293
B1939203727618N12151683WA0047600438010019011283296
B1939213727618N12151685WA0047700438010019013301297
B1939223727620N12151688WA0047800438010019014312306
B1939233727622N12151690WA0047900437010019010328312
B1939243727624N12151692WA0047900437010019008007315
B1939253727624N12151693WA0048000437010019013048325
B1939263727627N12151691WA0048000437010019023065357
B1939273727629N12151687WA0048000436010019030071038
B1939283727631N12151682WA0048000437010019041082061
B1939293727630N12151675WA0048000437010019046098080
B1939303727628N12151666WA0048000437010019052116103
B1939313727624N12151658WA0047900437005010055127126
B1939323727618N12151650WA0047900436005010054136140
B1939333727613N12151644WA0047800436005010047146151
B1939343727607N12151640WA0047700436005010041169165
B1939353727601N12151641WA0047600436010019030207194
B1939363727597N12151643WA0047600435010019030218236
B1939373727594N12151647WA0047600435010019024236246
B1939383727592N12151652WA0047600435010019020254262
B1939393727591N12151655WA0047700435010019017265276
B1939403727591N12151659WA0047700435010019017287283
B1939413727592N12151664WA0047700435010019018331294
B1939423727595N12151667WA0047700435010019024346318
B1939433727599N12151668WA0047700435010019025346329
B1939443727603N12151671WA0047700436010019023335330
B1939453727606N12151673WA0047700436010019020341332
B1939463727610N12151675WA0047700436010019018337333
B1939473727613N12151677WA0047700437010019019342317
B1939483727616N12151678WA0047800437010019023344322
B1939493727620N12151680WA0047800437010019026334310
B1939503727624N12151682WA0047800437010019027338325
B1939513727628N12151684WA0047900437010019025336328
B1939523727632N12151685WA0048000438010019024346329
B1939533727635N12151686WA0048000439010019022345323
B1939543727639N12151687WA0048100440010019023340312
B1939553727642N12151689WA0048300441010019026345300
B1939563727646N12151690WA0048500442005010024328285
B1939573727648N12151693WA0048500444005010021297281
B1939583727649N12151696WA0048800445005010021280260
B1939593727648N12151700WA0049100447005010030254247
B1940003727646N12151705WA0049400448005010035215233
B1940013727642N12151709WA0049400449005010035208207
B1940033727636N12151708WA0049500449005010050153199
B1940043727629N12151704WA0049700450010019049151145
B1940053727623N12151699WA0049800450010019046148141
B1940063727617N12151695WA0049800450010019042153142
B1940073727612N12151692WA0049900450010019034168186
B1940083727611N12151690WA0050100450010019020027205
B1940093727614N12151689WA0050300450010019022008346
B1940103727618N12151689WA0050600450005010024348334
B1940113727621N12151690WA0050600450005010025330323
B1940123727624N12151693WA0050800450005010026320314
B1940133727627N12151696WA0051100450005010027314299
B1940143727630N12151700WA0051200450005010025305283
B1940153727631N12151704WA0051200451005010023285284
B1940163727632N12151708WA0051400451005010024259268
B1940173727630N12151712WA0051400452005010030231258
B1940183727627N12151716WA0051400453005010035213239
B1940193727624N12151717WA0051400455005010039193222
B1940203727620N12151716WA0051400457005010038173204
B1940213727615N12151713WA0051400458005010040161183
B1940223727612N12151709WA0051400460005010039146168
B1940233727609N12151702WA0051400461005010046126149
B1940243727607N12151686WA0051400462005010042085119
B1940253727609N12151678WA0051400463005010038064064
B1940263727613N12151672WA0051500465005010034046037
B1940273727617N12151667WA0051500466005010031030018
B1940283727622N12151664WA0051500467005010028017359
B1940293727626N12151663WA0051600467010019024008347
B1940303727630N12151663WA0051700468010019023358331
B1940313727633N12151663WA0051700469010019024354327
B1940323727637N12151664WA0051800470010019023331322
B1940333727640N12151666WA0051900470005010025330315
B1940343727643N12151669WA0051900471005010027309308
B1940353727646N12151673WA0051900472005010028309310
B1940363727649N12151677WA0051800472005010027314307
B1940373727652N12151680WA0051700473010019025318309
B1940383727655N12151683WA0051500473010019023320315
B1940393727658N12151685WA0051500474005010022319302
B1940403727660N12151688WA0051200474005010023316301
B1940413727663N12151691WA0051000474005010025309286
B1940423727665N12151695WA0050800475005010027300283
B1940433727667N12151700WA0050800475005010028287279
B1940443727668N12151705WA0050500475005010028276268
B1940453727668N12151710WA0050400476005010026264261
B1940463727667N12151714WA0050200476005010025251254
B1940473727665N12151719WA0050200476005010026240242
B1940483727663N12151723WA0050000476005010028233233
B1940493727660N12151727WA0049900476005010032224227
B1940503727656N12151731WA0049800475005010036214217
B1940513727651N12151734WA0049800475005010037206215
B1940523727646N12151737WA0049600475005010034203213
B1940533727642N12151739WA0049500475010019031202200
B1940543727637N12151741WA0049300474010019032198199
B1940553727632N12151742WA0049300474010019034186193
B1940563727627N12151742WA0049200473005010041173182
B1940573727620N12151740WA0049100473005010045161170
B1940583727614N12151737WA0048900472005010043148158
B1940593727610N12151732WA0048900472005010039141147
B1941003727605N12151727WA0048700471005010036136140
B1941013727601N12151722WA0048500471005010036133134
B1941023727598N12151717WA0048400470005010038125129
B1941033727595N12151711WA0048400469005010040114119
B1941043727593N12151703WA0048200468005010042103104
B1941053727592N12151695WA0048000467005010042093089
B1941063727592N12151688WA0047800466005010040087075
B1941073727593N12151680WA0047800465005010037084060
B1941083727593N12151674WA0047500464005010034080052
B1941093727594N12151668WA0047300463005010031073045
B1941103727596N12151662WA0047000462005010029060034
B1941113727599N12151658WA0047000460005010032043024
B1941123727603N12151654WA0046800459005010034027011
B1941133727608N12151652WA0046600457005010031012001
B1941143727612N12151652WA0046300456005010025352349
B1941153727615N12151653WA0046300455005010020341333
B1941163727618N12151654WA0046100454005010018340322
B1941173727621N12151655WA0045900452005010020340323
B1941183727624N12151657WA0045700451005010023331319
B1941193727627N12151660WA0045700450005010028321315
B1941203727630N12151663WA0045500449005010030315306
B1941213727634N12151667WA0045200447005010030315310
B1941223727636N12151671WA0045000446005010025312301
B1941233727639N12151675WA0045000445005010022309309
B1941243727641N12151678WA0044700444005010022305304
B1941253727643N12151682WA0044500443005010023305307
B1941263727645N12151685WA0044300442005010023303308
B1941273727647N12151689WA0044300441005010023304309
B1941283727649N12151692WA0044200440005010026305299
B1941293727651N12151697WA0044100438005010028304301
B1941303727653N12151701WA0043900437005010027300294
B1941313727655N12151705WA0043900436005010026295286
B1941323727657N12151710WA0043700435005010025293288
B1941333727658N12151714WA0043500434005010023293290
B1941343727659N12151718WA0043300432005010020293286
B1941353727660N12151721WA0043300431005010020291282
B1941363727662N12151725WA0043100430005010020292277
B1941373727662N12151729WA0043000429005010024281279
B1941383727663N12151733WA0042800427005010023277280
B1941393727664N12151737WA0042800426005010021277282
B1941403727664N12151741WA0042600425010019022279279
B1941413727665N12151746WA0042400423010019023278274
B1941423727665N12151750WA0042100422005010021276271
B1941433727665N12151754WA0042100420005010019276278
B1941443727666N12151757WA0041800419005010018278292
B1941453727666N12151761WA0041600418005010016280280
B1941463727666N12151763WA0041400416005010014279290
B1941473727667N12151766WA0041300415005010014297297
B1941483727669N12151768WA0041300414005010020308285
B1941493727671N12151771WA0041200413005010023315298
B1941503727673N12151775WA0041100411005010024311277
B1941513727676N12151777WA0041100411005010021320288
B1941523727678N12151780WA0041100410005010016313286
B1941533727679N12151782WA0041000409005010014306304
B1941543727681N12151784WA0041000407005010017304317
B1941553727682N12151786WA0041100406005010017321336
B1941563727684N12151788WA0041100405005010016333357
B1941573727687N12151789WA0041100404005010015347008
B1941583727689N12151789WA0041200403010019021002010
B1941593727693N12151788WA0041300402010019019023020
B1942003727695N12151784WA0041300401010019020058027
B1942013727696N12151780WA0041300400010019020089050
B1942023727696N12151777WA0041300399010019021101076
B1942033727695N12151773WA0041300399010019021107094
B1942043727694N12151769WA0041300399010019016119101
B1942053727691N12151763WA0041100399005010021123117
B1942063727688N12151757WA0040900399005010013142128
B1942073727684N12151753WA0040700398005010014216194
B1942083727680N12151752WA0040700397010019023253255
B1942093727678N12151757WA0040600396010019020259263
B1942103727677N12151762WA0040500395010019016248262
B1942113727675N12151764WA0040500394010019014231257
B1942123727672N12151764WA0040500394010019015225271
B1942133727670N12151765WA0040600393010019016242284
B1942143727669N12151769WA0040800393010019020248299
B1942153727667N12151773WA0040900392010019016272306
B1942163727668N12151776WA0040900392010019017278323
B1942173727668N12151779WA0041000392005010018284327
B1942183727670N12151782WA0041000392010019015314329
B1942193727672N12151783WA0040900392010019007343275
B1942203727673N12151783WA0040900392010019003005293
B1942213727674N12151783WA0040800392010019004127299
B1942223727674N12151782WA0040800392010019012149286
B1942233727672N12151781WA0040700392010019022175212
B1942243727665N12151772WA0040700391010019031161214
B1942253727661N12151768WA0040600390010019030168202
B1942263727655N12151761WA0040600389010019024189205
B1942273727649N12151757WA0040700389010019026221221
B1942283727646N12151757WA0040700389010019023224236
B1942293727644N12151759WA0040700388010019019217245
B1942303727641N12151759WA0040800388010019020206255
B1942313727639N12151760WA0040900388010019019219250
B1942323727637N12151762WA0040900388010019021242264
B1942333727636N12151765WA0041000388010019023248273
B1942343727635N12151769WA0041000387010019023251285
B1942353727634N12151773WA0041000387010019018254297
B1942363727633N12151776WA0041000387010019016253298
B1942373727633N12151778WA0041000387010019015262296
B1942383727634N12151780WA0040800386010019013323304
B1942393727637N12151780WA0040600386010019022349325
B1942403727641N12151780WA0040600385005010025000343
B1942413727646N12151780WA0040300384010019024017355
B1942423727651N12151777WA0040000384010019029032006
B1942433727656N12151773WA0039800383010019031040028
B1942443727660N12151769WA0039800383010019029046038
B1942453727664N12151764WA0039600383010019032058043
B1942463727667N12151758WA0039400382010019039071062
B1942473727669N12151750WA0039300382010019049083077
B1942483727669N12151740WA0039300381010019049098087
B1942493727668N12151731WA0039200380010019047107105
B1942503727665N12151723WA0039200380010019040126112
B1942513727662N12151717WA0039300380010019041130138
B1942523727658N12151711WA0039300380010019039130147
B1942533727654N12151706WA0039400381010019035133154
B1942543727651N12151701WA0039600381010019033139160
B1942553727647N12151697WA0039800382010019030144171
B1942563727643N12151696WA0039800382010019028190177
B1942573727639N12151697WA0040000383010019023212223
B1942583727636N12151700WA0040200384010019022229246
B1942593727635N12151703WA0040300385010019019255259
B1943003727634N12151707WA0040300385010019012283276
B1943013727635N12151709WA0040400386010019012334294
B1943023727637N12151710WA0040400386010019011000320
B1943033727639N12151709WA0040500387010019016038331
B1943043727643N12151706WA0040500388010019029046004
B1943053727647N12151702WA0040500388010019032055027
B1943063727652N12151698WA0040600389010019035058038
B1943073727656N12151691WA0040700389010019044070043
B1943083727658N12151683WA0040700390010019046073060
B1943093727660N12151675WA0040800391010019048078065
B1943103727661N12151666WA0040900391010019043084071
B1943113727661N12151658WA0041000392010019036092076
B1943123727658N12151654WA0041000392010019035161085
B1943133727653N12151653WA0041100392010019031173182
B1943143727648N12151653WA0041200393010019027184196
B1943153727644N12151653WA0041300394010019024191211
B1943163727641N12151654WA0041300394010019020209220
B1943173727638N12151657WA0041400395010019022240239
B1943183727637N12151661WA0041400395010019022263259
B1943193727636N12151666WA0041500396010019021274273
B1943203727637N12151669WA0041500396010019018288281
B1943213727638N12151672WA0041600397010019016302290
B1943223727640N12151675WA0041600397010019016329299
B1943233727643N12151675WA0041600398010019020011315
B1943243727646N12151674WA0041600398010019023036345
B1943253727650N12151669WA0041700398010019038048009
B1943263727654N12151663WA0041700399010019042065032
B1943273727656N12151655WA0041700399010019046076052
B1943283727657N12151647WA0041700399010019048092066
B1943293727657N12151638WA0041800400010019045098087
B1943303727655N12151630WA0041800400010019041111094
B1943313727651N12151625WA0041800400010019037150111
B1943323727646N12151622WA0041800400010019034166165
B1943333727641N12151621WA0041700400010019029176185
B1943343727636N12151621WA0041700400010019024179199
B1943353727633N12151621WA0041700400010019018186207
B1943363727631N12151622WA0041700400010019009236221
B1943373727630N12151625WA0041700400010019019252269
B1943383727630N12151630WA0041700400010019022290268
B1943393727631N12151635WA0041600399010019024297296
B1943403727633N12151639WA0041600399010019020323299
B1943413727635N12151642WA0041600399010019020337312
B1943423727638N12151644WA0041600398010019020340309
B1943433727641N12151645WA0041600398010019023342312
B1943443727645N12151647WA0041600398010019025338315
B1943453727649N12151650WA0041700398010019027329294
B1943463727652N12151653WA0041700398010019028322312
B1943473727656N12151656WA0041800398010019025318310
B1943483727658N12151660WA0041800398010019021304316
B1943493727660N12151663WA0041800398010019018306307
B1943503727662N12151666WA0041800397010019020309304
B1943513727664N12151670WA0041700397010019021308298
B1943523727666N12151673WA0041700397010019020303298
B1943533727668N12151676WA0041700397010019018297284
B1943543727669N12151679WA0041600397010019017298296
B1943553727670N12151683WA0041400396010019021293284
B1943563727672N12151687WA0041400396010019029289292
B1943573727673N12151693WA0041300395010019031287292
B1943583727675N12151698WA0041100394010019028286285
B1943593727676N12151703WA0040900394010019023285285
B1944003727676N12151707WA0040900394010019023279288
B1944013727677N12151711WA0040700393010019024280287
B1944023727678N12151716WA0040500393010019026281281
B1944033727679N12151721WA0040300392010019024281287
B1944043727679N12151725WA0040300391010019022286278
B1944053727681N12151729WA0040100390010019023292284
B1944063727682N12151733WA0039900390010019024291263
B1944073727683N12151737WA0039700389010019023284266
B1944083727684N12151741WA0039700388010019020277267
B1944093727684N12151745WA0039500387010019018271264
B1944103727684N12151748WA0039400387010019018270266
B1944113727684N12151752WA0039300385010019019271257
B1944123727684N12151756WA0039300384010019021266247
B1944133727683N12151760WA0039100383010019021258246
B1944143727682N12151763WA0039000382010019021250246
B1944153727681N12151767WA0038900382010019021243249
B1944163727680N12151771WA0038900381010019022245254
B1944173727678N12151775WA0038700380010019024249265
B1944183727677N12151779WA0038600379010019024251276
B1944193727676N12151783WA0038500378010019023251283
B1944203727675N12151787WA0038500377010019021253277
B1944213727674N12151791WA0038400376010019021257277
B1944223727674N12151796WA0038300375010019022268273
B1944233727674N12151800WA0038200374010019023272265
B1944243727674N12151804WA0038200373010019023271276
B1944253727674N12151809WA0038000372010019021267275
B1944263727674N12151813WA0037800372010019022266276
B1944273727674N12151817WA0037600371010019023265277
B1944283727673N12151821WA0037600370010019026268276
B1944293727673N12151827WA0037400369010019030272279
B1944303727674N12151832WA0037200368010019031279286
B1944313727675N12151838WA0036900367010019028284286
B1944323727676N12151843WA0036900365010019026290283
B1944333727678N12151848WA0036700364010019025294288
B1944343727680N12151852WA0036400363010019028295276
B1944353727681N12151857WA0036200362010019032292253
B1944363727683N12151863WA0036200361010019034292290
B1944373727685N12151869WA0036000359010019031282288
B1944383727686N12151874WA0035800358010019027274280
B1944393727684N12151878WA0035800357010019021236278
B1944403727682N12151882WA0035800357010019021242266
B1944413727682N12151886WA0035800356010019024264268
B1944423727682N12151890WA0035800355010019022279283
B1944433727683N12151893WA0035900354010019018299289
B1944453727684N12151896WA0035900354010019016313302
B1944463727686N12151898WA0036100353010019016314309
B1944473727691N12151902WA0036400352010019022344316
B1944483727694N12151902WA0036400351010019023359331
B1944493727698N12151902WA0036600351010019023014343
B1944513727702N12151899WA0036700350010019020031353
B1944523727705N12151891WA0036700348010019016070012
B1944543727706N12151888WA0036700349010019014095027
B1944553727705N12151884WA0036700349010019015121046
B1944563727704N12151882WA0036700349010019017138162
B1944573727702N12151879WA0036700350010019017144183
B1944583727700N12151877WA0036700350010019015140188
B1944593727698N12151873WA0036700349010019008153188
B1945003727695N12151872WA0036700348010019010210223
B1945013727693N12151873WA0036700347010019013227239
B1945023727690N12151876WA0036700346010019011244244
B1945033727687N12151876WA0036800345010019013257254
B1945043727685N12151876WA0036900344010019010257262
B1945053727683N12151876WA0036900342010019008265262
B1945063727683N12151877WA0037200342010019010277269
B1945073727683N12151878WA0037400341010019013282274
B1945083727684N12151880WA0037500340010019017285287
B1945093727683N12151879WA0037600340010019017287297
B1945103727681N12151881WA0037600340005010015300301
B1945113727683N12151885WA0037600341005010016305309
B1945123727684N12151886WA0037500340005010012306310
B1945133727685N12151889WA0037400340010019013321309
B1945143727687N12151890WA0037400340010019011330274
B1945153727689N12151891WA0037200340010019013348282
B1945163727690N12151892WA0037000339010019008330296
B1945173727690N12151893WA0036800340010019005286282
B1945183727688N12151889WA0036800339010019006159265
B1945193727686N12151883WA0036700338010019012132233
B1945203727683N12151873WA0036700338010019018143203
B1945213727680N12151869WA0036600337010019016167193
B1945223727677N12151867WA0036600337010019017194213
B1945233727674N12151866WA0036600337010019021214227
B1945243727670N12151868WA0036500336010019021224236
B1945253727666N12151870WA0036500336010019018229241
B1945263727662N12151872WA0036500335010019013245245
B1945273727659N12151875WA0036400335010019015284255
B1945283727658N12151878WA0036300334010019016292278
B1945293727658N12151881WA0036300334010019016287283
B1945303727659N12151882WA0036100333010019018298276
B1945313727659N12151884WA0036000333010019019303286
B1945323727659N12151883WA0035800332010019019299286
B1945333727660N12151883WA0035800331010019017293289
B1945343727660N12151882WA0035600331010019016294290
B1945353727660N12151883WA0035400330010019019289288
B1945363727661N12151886WA0035100330010019020293295
B1945373727663N12151889WA0035100329010019022298291
B1945383727664N12151892WA0034900329010019024296287
B1945393727664N12151895WA0034700329010019023293288
B1945403727665N12151898WA0034500330010019020290295
B1945413727666N12151901WA0034500330010019019289287
B1945423727666N12151903WA0034300330010019020290289
B1945433727667N12151907WA0034200329010019020289287
B1945443727668N12151910WA0034000329010019021289285
B1945453727669N12151913WA0033900329010019021290292
B1945463727670N12151917WA0033900329010019021293287
B1945473727671N12151920WA0033800328010019021294288
B1945483727672N12151924WA0033600328010019022293285
B1945493727673N12151928WA0033400327010019022291284
B1945503727674N12151931WA0033400327010019021287279
B1945513727675N12151935WA0033300326010019022282274
B1945523727676N12151940WA0033100326010019024277278
B1945533727676N12151944WA0033100325010019025275272
B1945543727676N12151949WA0032900324010019024276283
B1945553727676N12151953WA0032800324010019021282286
B1945563727677N12151956WA0032600323010019021286273
B1945573727678N12151960WA0032600322010019024281260
B1945583727678N12151965WA0032400322010019027273248
B1945593727678N12151970WA0032200321010019028258233
B1946003727677N12151975WA0032000320010019027240226
B1946013727673N12151979WA0032000319010019026222237
B1946023727670N12151982WA0031800318010019028213232
B1946033727666N12151985WA0031700317010019027214234
B1946043727663N12151988WA0031600316010019026221228
B1946053727660N12151991WA0031600315010019026226218
B1946063727657N12151995WA0031500314010019028225217
B1946073727654N12151998WA0031500313010019029217245
B1946083727650N12152001WA0031500313010019027212228
B1946093727647N12152004WA0031500312010019023212256
B1946103727644N12152006WA0031500312010019021216252
B1946113727642N12152009WA0031600312005010021219267
B1946123727640N12152012WA0031800311005010021243279
B1946133727639N12152016WA0031900311005010021256277
B1946143727638N12152019WA0031900311005010014281281
B1946153727639N12152021WA0032000311005010009295282
B1946163727640N12152022WA0032100311005010013336288
B1946173727642N12152023WA0032200311005010015323300
B1946183727644N12152025WA0032200310005010016315289
B1946193727646N12152027WA0032300310005010016309296
B1946203727647N12152030WA0032500309005010017289283
B1946213727648N12152033WA0032500309005010018279258
B1946223727648N12152037WA0032500309005010020262238
B1946233727647N12152041WA0032600309005010024241212
B1946243727645N12152044WA0032600309005010027203206
B1946253727641N12152044WA0032600308005010038167182
B1946263727636N12152041WA0032700307005010049143158
B1946273727631N12152034WA0032700305005010056123134
B1946283727626N12152024WA0032600302005010057120111
B1946293727622N12152015WA0032600301005010053118106
B1946303727619N12152007WA0032600298010019049120108
B1946313727619N12152001WA0032500296010019036039111
B1946323727626N12151996WA0032400296010019036016011
B1946333727634N12151995WA0032300296010019032356349
B1946343727640N12151996WA0032300295010019030336330
B1946353727643N12151998WA0032300294010019028323314
B1946363727648N12152001WA0032300294010019028323301
B1946373727651N12152004WA0032300295010019018284299
B1946383727652N12152007WA0032400294005010017271285
B1946393727653N12152010WA0032700294005010015279285
B1946403727653N12152013WA0032900294005010015299280
B1946413727655N12152015WA0032900293005010016307270
B1946423727657N12152017WA0033100293005010014290265
B1946433727657N12152020WA0033300293005010017248253
B1946443727656N12152023WA0033300292005010024227231
B1946453727652N12152026WA0033300292005010034207220
B1946463727648N12152028WA0033300292005010040181202
B1946473727642N12152026WA0033200291005010048153179
B1946483727637N12152020WA0033100291005010055124151
B1946493727633N12152011WA0033000290005010058114118
B1946503727629N12152001WA0033000290010019051113106
B1946513727631N12151993WA0032800289010019046054106
B1946523727637N12151987WA0032700289010019036030030
B1946533727643N12151984WA0032600288010019029011000
B1946543727648N12151984WA0032600288010019022353339
B1946553727651N12151984WA0032600288010019022350316
B1946563727654N12151985WA0032500288010019014333315
B1946573727656N12151987WA0032500288010019014326306
B1946583727658N12151989WA0032500288010019019317303
B1946593727661N12151992WA0032500288010019027315308
B1947003727664N12151995WA0032500287010019028313291
B1947013727667N12151999WA0032500287010019028322287
B1947023727671N12152002WA0032500287010019024321288
B1947033727673N12152005WA0032500287010019021320289
B1947043727675N12152008WA0032400287010019022293286
B1947053727677N12152012WA0032300287010019026291266
B1947063727678N12152016WA0032300287010019025280262
B1947073727679N12152021WA0032300286010019023253248
B1947083727677N12152025WA0032200286010019025217245
B1947093727674N12152027WA0032100286010019029196229
B1947103727670N12152028WA0032100285010019031189217
B1947113727665N12152029WA0032000285010019033185206
B1947123727660N12152029WA0031900285010019035178204
B1947133727654N12152028WA0031800285010019039170198
B1947143727648N12152026WA0031800284010019043164189
B1947153727642N12152024WA0031700284010019043159178
B1947163727636N12152021WA0031700285010019042157170
B1947173727631N12152017WA0031700286010019042154165
B1947183727625N12152014WA0031700286005010042146155
B1947193727620N12152009WA0031800287005010044133145
B1947203727617N12152002WA0031800288005010046117131
B1947213727615N12151993WA0031900289005010046096107
B1947223727615N12151985WA0031900289005010049076079
B1947233727618N12151977WA0032000290010019041058054
B1947243727621N12151972WA0032100290005010028046029
B1947253727624N12151970WA0032200291010019022000005
B1947263727627N12151971WA0032200291005010020322326
B1947273727629N12151974WA0032200292005010017292303
B1947283727629N12151977WA0032200292005010016254286
B1947293727628N12151980WA0032200293005010021226267
B1947303727625N12151983WA0032200293005010028214249
B1947313727621N12151986WA0032300294005010034201235
B1947323727616N12151987WA0032300294005010038178222
B1947333727610N12151985WA0032300294005010043154199
B1947343727604N12151981WA0032300294005010049143171
B1947353727600N12151974WA0032300293005010048118155
B1947363727597N12151965WA0032300292005010044101123
B1947373727597N12151957WA0032300292005010045094098
B1947383727597N12151949WA0032300291005010042080087
B1947393727599N12151942WA0032200290005010043066066
B1947403727603N12151935WA0032100289005010045048049
B1947413727608N12151929WA0032000288005010037049030
B1947423727612N12151928WA0032000289005010020019026
B1947433727615N12151928WA0032000290005010016019342
B1947443727617N12151928WA0032000290005010015010336
B1947453727619N12151929WA0032100290005010016335330
B1947463727621N12151932WA0032100290005010022295313
B1947473727622N12151937WA0032200290005010029274292
B1947483727622N12151942WA0032300290005010028246279
B1947493727620N12151947WA0032400291005010031217260
B1947503727615N12151949WA0032400291005010037189238
B1947513727609N12151950WA0032500291005010041174211
B1947523727604N12151948WA0032600291005010041160194
B1947533727598N12151945WA0032700292005010041140179
B1947543727594N12151939WA0032700292005010045121154
B1947553727592N12151931WA0032800292005010047105125
B1947563727591N12151922WA0032800292005010049087102
B1947573727593N12151914WA0032700292005010046070077
B1947583727596N12151906WA0032700292005010046060055
B1947593727600N12151900WA0032600293005010039045044
B1948003727604N12151895WA0032400293005010037041024
B1948013727608N12151891WA0032300293005010030036019
B1948023727611N12151890WA0032300294010019016002009
B1948033727613N12151891WA0032300295005010010355327
B1948043727615N12151892WA0032300296005010009354318
B1948053727616N12151892WA0032400297005010012353321
B1948063727618N12151893WA0032400297005010014351329
B1948073727621N12151894WA0032400298005010021346341
B1948083727624N12151895WA0032500298005010021003346
B1948093727627N12151894WA0032500299005010022026354
B1948103727630N12151892WA0032500299010019025044004
B1948113727633N12151888WA0032400300010019028048009
B1948123727636N12151885WA0032400300010019029048016
B1948133727640N12151881WA0032300300010019032047013
B1948143727643N12151876WA0032300301010019034048031
B1948153727646N12151871WA0032300301010019034054020
B1948163727649N12151866WA0032300301010019033062044
B1948173727651N12151860WA0032200301010019033066034
B1948183727653N12151855WA0032200301010019035062050
B1948193727656N12151849WA0032200302010019041060064
B1948203727659N12151841WA0032200302010019044068061
B1948213727661N12151833WA0032200302010019043079077
B1948223727661N12151826WA0032200301010019041087087
B1948233727661N12151818WA0032200301010019039090097
B1948243727661N12151811WA0032100301010019040094109
B1948253727660N12151803WA0032100301010019044103112
B1948263727658N12151795WA0032100300010019047111114
B1948273727655N12151786WA0032000300010019049114124
B1948283727652N12151778WA0031800299010019051117142
B1948293727648N12151770WA0031700299010019048126161
B1948303727643N12151764WA0031700298010019046137177
B1948313727638N12151759WA0031600298010019039151193
B1948323727633N12151757WA0031500298010019028167209
B1948333727631N12151757WA0031500298010019007247230
B1948343727632N12151760WA0031500298010019021293293
B1948353727633N12151764WA0031600298010019022296302
B1948363727635N12151768WA0031600298010019022324304
B1948373727639N12151770WA0031700297010019022355319
B1948383727642N12151771WA0031700297010019024356319
B1948393727646N12151773WA0031900297010019024337330
B1948403727649N12151775WA0032000297010019024333314
B1948413727652N12151777WA0032100297010019013344313
B1948423727654N12151778WA0032100297010019010347305
B1948433727656N12151779WA0032300296010019012346295
B1948443727658N12151780WA0032400296010019021316284
B1948453727660N12151784WA0032500296010019025290275
B1948463727661N12151789WA0032500296010019026264264
B1948473727660N12151793WA0032500296010019026229249
B1948483727657N12151797WA0032500296010019030202230
B1948493727652N12151798WA0032400296010019037192211
B1948503727647N12151800WA0032400296010019041184198
B1948513727641N12151798WA0032400297010019041156188
B1948523727636N12151794WA0032400298010019045131161
B1948533727632N12151786WA0032400298010019053111130
B1948543727630N12151776WA0032400298010019054099102
B1948553727630N12151766WA0032400298010019052090097
B1948563727630N12151758WA0032500299010019038084091
B1948573727631N12151751WA0032600299010019034086083
B1948583727631N12151745WA0032600300010019034092080
B1948593727631N12151737WA0032600300010019046094091
B1949003727630N12151728WA0032600301010019048097099
B1949013727629N12151720WA0032700301010019046102103
B1949023727627N12151712WA0032700301010019042114104
B1949033727622N12151700WA0032700302010019031122120
B1949043727619N12151695WA0032800302010019036122131
B1949053727616N12151689WA0032800303010019039125133
B1949063727613N12151683WA0032800303010019038128147
B1949073727609N12151678WA0032900304010019033132148
B1949083727606N12151673WA0033100304010019031137156
B1949093727602N12151670WA0033200305010019029142172
B1949103727599N12151667WA0033200305010019029150186
B1949113727595N12151665WA0033200305010019028168204
B1949123727591N12151665WA0033200306010019024190221
B1949133727588N12151666WA0033200306010019025200247
B1949143727585N12151669WA0033100307010019021242255
B1949153727584N12151673WA0033100307010019016277280
B1949163727586N12151676WA0032900307010019021313298
B1949173727591N12151679WA0032800307010019027350316
B1949183727596N12151680WA0032600307010019029356326
B1949193727602N12151681WA0032600307010019029352325
B1949203727607N12151682WA0032600307010019033346323
B1949213727613N12151684WA0032500307010019034340317
B1949223727617N12151687WA0032500307010019028333315
B1949233727621N12151689WA0032500308010019020327312
B1949243727624N12151691WA0032600308010019016325309
B1949253727626N12151693WA0032700308010019016323304
B1949263727628N12151695WA0032900308010019019320301
B1949273727631N12151698WA0032900308010019021320295
B1949283727633N12151700WA0033000309010019018315299
B1949293727635N12151703WA0033100309010019013314297
B1949303727636N12151704WA0033300310010019011310290
B1949313727637N12151706WA0033300310010019012317297
B1949323727639N12151708WA0033400310010019018289295
B1949333727640N12151712WA0033500310010019023292304
B1949353727641N12151716WA0033500311010019021292305
B1949363727642N12151720WA0033600311010019017299298
B1949373727643N12151722WA0033600311010019014291302
B1949383727644N12151725WA0033600311010019014291295
B1949393727645N12151728WA0033600311010019019299247
B1949403727647N12151731WA0033500311010019023290294
B1949413727648N12151735WA0033500311010019026297296
B1949423727650N12151740WA0033400311010019026303293
B1949433727653N12151744WA0033200311010019024305292
B1949443727655N12151748WA0033100311010019025303284
B1949453727657N12151752WA0033100310010019028297279
B1949463727659N12151757WA0032900310010019032294271
B1949473727660N12151763WA0032700310010019028277273
B1949483727661N12151768WA0032600310010019023269277
B1949493727661N12151772WA0032600310010019019273264
B1949503727661N12151775WA0032600310010019018270268
B1949513727661N12151779WA0032500310010019021271260
B1949523727661N12151783WA0032500309010019019265264
B1949533727660N12151788WA0032500309010019031258275
B1949543727660N12151794WA0032300308010019036267270
B1949553727660N12151801WA0032200308010019032274236
B1949563727660N12151807WA0032000307010019030265257
B1949573727659N12151813WA0031800306010019036256260
B1949583727658N12151819WA0031800305010019039253264
B1949593727656N12151825WA0031600305010019026255232
B1950003727654N12151831WA0031600307010019014242248
B1950013727653N12151833WA0031700307010019011218246
B1950033727649N12151837WA0031900309010019026219236
B1950043727645N12151839WA0032100310010019033199225
B1950053727640N12151841WA0032400311010019033186218
B1950063727636N12151842WA0032400312010019027190226
B1950073727632N12151843WA0032600313010019018212244
B1950083727631N12151846WA0032700314010019021242247
B1950093727629N12151849WA0032800315010019020236244
B1950103727627N12151852WA0032800316010019019206245
B1950113727624N12151853WA0032900317005010019195248
B1950123727622N12151855WA0033000318005010018215258
B1950133727620N12151858WA0033200319005010021253275
B1950143727620N12151862WA0033200320005010023275284
B1950153727620N12151866WA0033200320005010016297287
B1950163727621N12151868WA0033300321005010013301296
B1950173727622N12151870WA0033300322005010008300284
B1950183727623N12151871WA0033300323005010010291290
B1950193727624N12151874WA0033300324005010016291293
B1950203727625N12151877WA0033300324005010019299305
B1950213727627N12151880WA0033300325005010017313298
B1950223727628N12151882WA0033300325005010015321317
B1950233727630N12151883WA0033300326005010011330325
B1950243727632N12151884WA0033200327005010011328328
B1950253727633N12151885WA0033100327005010012340331
B1950263727635N12151886WA0033000328005010014347314
B1950273727637N12151887WA0033000329005010013348316
B1950283727641N12151887WA0032900327005010022342297
B1950293727644N12151888WA0032800327005010024329298
B1950303727647N12151891WA0032600327005010025314295
B1950313727650N12151894WA0032600327005010025307282
B1950323727651N12151898WA0032400327005010019291298
B1950333727652N12151901WA0032300328005010013275282
B1950343727652N12151902WA0032300328005010009250274
B1950353727651N12151904WA0032300329005010008242273
B1950363727651N12151905WA0032400329005010007269263
B1950373727651N12151908WA0032500329005010019253257
B1950383727650N12151911WA0032700329005010023242250
B1950393727647N12151915WA0032700330005010025222243
B1950403727644N12151918WA0032800330005010027205228
B1950413727640N12151919WA0032900330005010029193210
B1950423727635N12151921WA0032900329005010033191196
B1950433727629N12151922WA0032900328005010039183177
B1950443727623N12151921WA0032800326005010045172173
B1950453727616N12151919WA0032700323005010050160172
B1950463727610N12151915WA0032600321005010051149157
B1950473727603N12151910WA0032600319005010047145156
B1950483727598N12151905WA0032400317005010043144160
B1950493727592N12151900WA0032200315005010041143166
B1950503727587N12151896WA0032100313005010041144179
B1950513727582N12151892WA0032100311005010039149182
B1950523727577N12151889WA0032100309005010037159196
B1950533727572N12151888WA0032100308005010034178209
B1950543727567N12151889WA0032100307005010030201231
B1950553727564N12151892WA0032200306005010026230251
B1950573727562N12151895WA0032200304005010021243275
B1950583727561N12151899WA0032200303005010021250282
B1950593727560N12151903WA0032100302010019019261285
B1951003727561N12151905WA0032000301010019006276292
B1951013727563N12151904WA0032000299010019014012304
B1951023727573N12151894WA0031900297010019041061345
B1951033727578N12151885WA0031800295010019042074049
B1951043727580N12151876WA0031600294010019046079065
B1951053727581N12151866WA0031600292010019049087072
B1951063727581N12151857WA0031500291010019047099082
B1951073727580N12151848WA0031500290010019049114096
B1951083727576N12151840WA0031400288010019047126115
B1951093727572N12151834WA0031400288010019039154131
B1951103727567N12151831WA0031400287005010037169171
B1951113727561N12151830WA0031400286005010029185189
B1951123727557N12151831WA0031400286010019026206213
B1951133727554N12151833WA0031400285010019024213237
B1951143727551N12151836WA0031300284010019024225248
B1951153727549N12151840WA0031200283010019021228259
B1951163727546N12151843WA0031100283010019018227265
B1951173727545N12151846WA0031100282010019016234262
B1951183727543N12151849WA0031000281010019019254262
B1951193727542N12151853WA0030700280010019025257249
B1951203727541N12151858WA0030400279010019027253268
B1951213727540N12151863WA0030400278010019027237272
B1951223727538N12151867WA0030100277010019023240280
B1951233727536N12151871WA0029800276010019020250266
B1951243727536N12151875WA0029500275010019019260265
B1951253727535N12151879WA0029500274010019020258260
B1951263727534N12151883WA0029300273010019022251273
B1951273727533N12151887WA0029100272010019021254278
B1951283727533N12151891WA0028900271010019021262280
B1951293727533N12151894WA0028900270010019017276271
B1951303727533N12151897WA0028700269010019014272262
B1951313727533N12151900WA0028600268010019013262275
B1951323727533N12151902WA0028400267010019014258276
B1951333727532N12151905WA0028200266010019016257286
B1951343727532N12151908WA0028200265010019016257312
B1951353727532N12151910WA0028100263010019015266321
B1951363727532N12151913WA0027900262010019013297302
B1951373727533N12151915WA0027700261005010015299285
B1951383727535N12151917WA0027700260005010015324260
B1951393727537N12151919WA0027500259005010017323260
B1951403727539N12151921WA0027300257005010011294277
B1951413727539N12151923WA0027100256005010020225285
B1951423727536N12151926WA0027100254005010026219272
B1951433727534N12151929WA0026900253005010018233272
B1951443727531N12151934WA0026600250005010013245274
B1951453727534N12151936WA0026400248010019028334270
B1951463727537N12151939WA0026400246005010028315294
B1951473727541N12151943WA0026100244005010014287282
B1951483727540N12151946WA0025700241005010026222275
B1951493727537N12151949WA0025400239005010039212240
B1951503727533N12151952WA0025400237005010026209231
B1951513727531N12151955WA0025000235005010019225236
B1951523727529N12151958WA0024600233005010019229242
B1951533727528N12151961WA0024400231005010018231240
B1951543727527N12151963WA0024400230005010018240291
B1951553727526N12151966WA0024200228005010019244271
B1951563727525N12151970WA0024000227005010019270232
B1951573727527N12151974WA0023800225005010022277259
B1951583727527N12151978WA0023800224005010020271267
B1951593727527N12151981WA0023600222005010018239261
B1952003727526N12151984WA0023400220005010019213247
B1952013727523N12151985WA0023200218005010023190237
B1952023727520N12151986WA0023000216005010028185219
B1952033727516N12151987WA0023000214005010027191207
B1952043727512N12151988WA0022700212005010024192213
B1952053727509N12151989WA0022500210005010021183218
B1952063727506N12151989WA0022500208005010022180219
B1952073727503N12151989WA0022300206005010023191215
B1952083727500N12151991WA0022100204005010022213223
B1952093727497N12151993WA0021900203005010022225227
B1952103727495N12151996WA0021900201005010021216232
B1952113727492N12151998WA0021800199005010024197227
B1952123727489N12151999WA0021600197005010026183218
B1952133727485N12151999WA0021500195005010027173208
B1952143727481N12151998WA0021300193005010024174208
B1952153727478N12151999WA0021300192005010019199225
B1952163727476N12152000WA0021100190005010017226234
B1952173727475N12152004WA0021000189005010021251233
B1952183727474N12152007WA0020900187005010018225237
B1952193727472N12152009WA0020900185005010019199228
B1952203727469N12152009WA0020800184005010022180221
B1952213727465N12152009WA0020600182005010022183208
B1952223727462N12152009WA0020500181005010021180214
B1952233727459N12152009WA0020500179005010021167217
B1952243727456N12152008WA0020300178005010023172207
B1952253727453N12152008WA0020200176005010020184224
B1952263727450N12152009WA0020000175005010017208224
B1952273727448N12152011WA0020000173005010014230245
B1952283727448N12152013WA0019800172005010003243261
B1952293727448N12152013WA0019600172005010001349261
B1952303727448N12152013WA0019500172005010001335261
B1952313727448N12152013WA0019500172005010001225261
B1952323727448N12152013WA0019400172005010001058261
B1952333727448N12152013WA0019400172005010002057261
B1952343727448N12152013WA0019400172005010002077261
B1952353727448N12152013WA0019400172005010003057261
B1952363727448N12152013WA0019400172005010002062261
B1952373727448N12152013WA0019400172005010002103261
B1952383727448N12152013WA0019400172005010002108261
B1952393727448N12152013WA0019400172005010002099261
B1952403727448N12152013WA0019400172005010002107261
B1952413727448N12152013WA0019400172005010002103261
B1952423727448N12152013WA0019400172005010001110261
B1952433727448N12152013WA0019400172005010001099261
B1952443727448N12152013WA0019400172005010001099261
B1952453727448N12152013WA0019400172005010001100261
B1952463727448N12152013WA0019400172005010002099261
B1952473727448N12152013WA0019400172005010002101261
B1952483727448N12152013WA0019400172005010002098261
B1952493727448N12152013WA0019400172005010001106261
B1952503727448N12152013WA0019400172005010001105261
B1952513727448N12152013WA0019400172005010001103261
B1952523727448N12152013WA0019400172005010001100261
B1952533727448N12152013WA0019400172005010002086261
B1952543727448N12152013WA0019400172005010002098261
B1952553727448N12152013WA0019400172005010002099261
B1952563727448N12152013WA0019400172005010002099261
B1952573727448N12152013WA0019400172005010002107261
B1952583727448N12152013WA0019400172005010003110261
B1952593727449N12152012WA0019400172005010002093261
B1953003727449N12152012WA0019400172005010003101261
B1953013727449N12152012WA0019400172005010003090261
GOGF9FZWODJOuWViR7PcqXxclRij5HM8uwWpKn7yzTGUIexSTJT+6AGDAJzxZS/GX
GL2RVlp5qetd+5vYNnszohMv3926GX5gC+ZZimioV3M48BYr4GaH/nm2ecMmaYorX
GY7SWGFujrz7F3pgdoaAykUgiQeAXT5Z0z+aKwd62F8w=

