AXFH000
HFDTE020725
HFPLTPILOT:Scott O’Brien
HFGTYGLIDERTYPE:Ozone Swift 6
HFDTM100GPSDATUM:WGS84
HFRFWFIRMWAREVERSION:9.0
HFRHWHARDWAREVERSION:iPhone 15
HFFTYFRTYPE:Flyskyhy,9.0
HFGPS:Internal
HFPRSVARIO:Internal Vario
HFCCLCOMPETITIONCLASS:Paraglider
HFTZNTIMEZONE:2
I053638FXA3941VXA4244GSP4547CCO4850HDT
B1104514626590N00717624EA0182301821004004000058116
B1104524626590N00717624EA0182201821004004000196115
B1104534626590N00717624EA0182201821004004000200115
B1104544626590N00717624EA0182201820004004000165115
B1104554626590N00717624EA0182101820004004000168115
B1104564626590N00717624EA0182101820004004000153115
B1104574626590N00717624EA0182101821004004000094115
B1104584626589N00717624EA0182101821004004000068114
B1104594626589N00717624EA0182101821004004000068114
B1105004626589N00717624EA0182101821004004000143114
B1105014626590N00717624EA0182101822004004000181114
B1105024626590N00717624EA0182101823004004000181114
B1105034626590N00717624EA0182101823004004000103114
B1105044626590N00717624EA0182201824004004000074114
B1105054626590N00717624EA0182201825004004000088114
B1105064626590N00717624EA0182301826004004000097113
B1105074626590N00717624EA0182301826004004000169112
B1105084626590N00717623EA0182401827004004000219107
B1105094626590N00717623EA0182401827004004000243107
B1105104626590N00717622EA0182501828004004000323111
B1105114626590N00717622EA0182501827004004001193149
B1105124626590N00717622EA0182601827004004000181159
B1105134626590N00717621EA0182601827004004001324204
B1105144626591N00717622EA0182601826004004009009163
B1105154626592N00717622EA0182601826004004009008159
B1105164626593N00717623EA0182601825004004006010178
B1105174626594N00717623EA0182501824004004006001030
B1105184626595N00717623EA0182501822004004010356000
B1105194626597N00717623EA0182401822004003015357019
B1105204626600N00717623EA0182201820004003015004005
B1105214626603N00717624EA0182101817004003019005027
B1105224626607N00717625EA0181901815004003024005018
B1105234626610N00717625EA0181801815004003024009038
B1105244626616N00717628EA0181801815004003024014008
B1105254626620N00717630EA0181601816004003026019012
B1105264626624N00717632EA0181601816004003025021010
B1105274626626N00717633EA0181601817004003025017011
B1105284626630N00717634EA0181601815004003021013005
B1105294626634N00717635EA0181701813004003021007003
B1105304626638N00717634EA0181801812004003027351000
B1105314626641N00717633EA0181801811004003027341348
B1105324626644N00717631EA0181701811004003024333340
B1105334626646N00717630EA0181601811004003020342334
B1105344626649N00717630EA0181501810004003019357338
B1105354626653N00717628EA0181401810004003024354347
B1105364626656N00717628EA0181401809004003024348343
B1105374626660N00717628EA0181401807004003024001341
B1105384626664N00717625EA0181301808004003029335353
B1105394626668N00717622EA0181301808004003030333332
B1105404626672N00717619EA0181301810004003029338337
B1105414626676N00717619EA0181301812004003027003349
B1105424626679N00717621EA0181301814004003026024003
B1105434626683N00717623EA0181301815004003028032013
B1105444626687N00717625EA0181301816004003027020026
B1105454626691N00717626EA0181501818004003027005026
B1105464626694N00717628EA0181601817004003021022031
B1105474626697N00717631EA0181701817004003025034043
B1105484626700N00717637EA0181801815004003025053037
B1105494626704N00717643EA0181901816004003035048036
B1105504626708N00717648EA0181901819004003034043044
B1105514626709N00717652EA0181901821004003034058032
B1105524626711N00717655EA0181901823004003021065029
B1105534626712N00717659EA0181901823004003017064029
B1105544626714N00717662EA0182001823004003019048017
B1105554626718N00717664EA0182201821004003028018011
B1105564626721N00717664EA0182301821004003028354348
B1105574626724N00717662EA0182301821004003028315328
B1105584626725N00717655EA0182401823004003036274307
B1105594626724N00717649EA0182401824004003036256272
B1106004626721N00717642EA0182401826004003036230260
B1106014626716N00717636EA0182401828004003041216230
B1106024626713N00717632EA0182401830004003033209219
B1106034626708N00717630EA0182501834004003033187213
B1106044626704N00717630EA0182601836004003031173197
B1106054626701N00717629EA0182801836004003026183199
B1106064626698N00717627EA0183101835004003021203202
B1106084626694N00717625EA0183301835004003029211220
B1106094626691N00717622EA0183501834004003027215233
B1106104626687N00717618EA0183601836004003029214229
B1106114626683N00717615EA0183601837004003026208234
B1106124626681N00717613EA0183701839004003026207230
B1106134626678N00717611EA0183701837004003021215230
B1106144626675N00717607EA0183801836004003021238236
B1106154626674N00717603EA0183801834004003020259263
B1106164626676N00717599EA0183801833004003027316286
B1106174626679N00717596EA0183801833004003026343336
B1106184626685N00717601EA0183801832004003027031004
B1106194626690N00717607EA0183701834004003045054044
B1106204626692N00717615EA0183501835004003046061066
B1106214626694N00717623EA0183401835004003045084072
B1106224626694N00717633EA0183401834004003039083070
B1106234626696N00717641EA0183301834004003041073064
B1106244626698N00717649EA0183301833004003041064050
B1106254626700N00717657EA0183301836004003041059048
B1106264626702N00717664EA0183301835004003036060034
B1106274626706N00717669EA0183301835004003032050034
B1106284626709N00717675EA0183301834004003037050024
B1106294626713N00717681EA0183401835004003037055035
B1106304626718N00717690EA0183401837004003043056031
B1106314626720N00717697EA0183401844004003034058022
B1106324626722N00717701EA0183501849004003034064024
B1106334626723N00717704EA0183601852004003018046025
B1106344626725N00717706EA0183601853004003017030013
B1106354626728N00717708EA0183901853004003022015359
B1106364626732N00717707EA0184301853004003028344346
B1106374626735N00717702EA0184601851004003028306323
B1106384626735N00717695EA0184601853004003034272296
B1106394626732N00717688EA0185001854004003046232267
B1106404626727N00717683EA0185201856004003047202229
B1106414626721N00717681EA0185301861004003047180198
B1106424626717N00717688EA0185301862004003048127174
B1106434626714N00717697EA0185401863004003054099117
B1106444626713N00717707EA0185501867004003054096082
B1106454626720N00717714EA0185701869004003054029077
B1106464626725N00717716EA0185701874004003050353017
B1106474626729N00717712EA0186001875004003033315345
B1106484626732N00717708EA0186301878004003033292312
B1106494626732N00717703EA0186601878004003029268294
B1106504626732N00717697EA0186601880004003029246274
B1106514626729N00717691EA0186801882004003037230251
B1106524626725N00717687EA0187101885004003037210231
B1106534626720N00717686EA0187401888004003037172210
B1106544626715N00717690EA0187401889004003038140170
B1106554626712N00717697EA0187701890004003046132133
B1106564626708N00717704EA0188001891004003046127123
B1106584626730N00717722EA0188501897004003054344036
B1106594626734N00717722EA0188701902004003029341333
B1107004626737N00717721EA0188901904004003029347320
B1107014626741N00717720EA0188901907004003021336325
B1107024626744N00717717EA0189101907004003021315313
B1107034626747N00717712EA0189501906004003028298300
B1107044626748N00717706EA0189501909004003029275289
B1107054626747N00717702EA0189801912004003028239270
B1107064626745N00717700EA0190101914004003021200243
B1107074626741N00717700EA0190401917004003029165212
B1107084626737N00717703EA0190601919004003035150172
B1107094626733N00717708EA0190601923004003035129146
B1107104626730N00717717EA0190801925004003040106119
B1107114626730N00717727EA0191101928004003054085089
B1107124626733N00717737EA0191101928004003057063064
B1107134626739N00717746EA0191401931004003057036037
B1107144626745N00717751EA0191701933004003057016010
B1107154626751N00717751EA0192001932004003039348350
B1107164626754N00717748EA0192001932004003039307324
B1107174626755N00717743EA0192201932004003029272296
B1107184626756N00717739EA0192401934004003026257266
B1107194626756N00717735EA0192601935004003014259260
B1107204626755N00717733EA0192601937004003014249252
B1107214626755N00717729EA0192701938004003014269247
B1107224626754N00717726EA0192801940004003016233254
B1107234626753N00717722EA0192901940004003016250248
B1107244626753N00717719EA0192901942004003018270254
B1107254626753N00717715EA0193101943004003018271251
B1107264626753N00717711EA0193201946004003018260243
B1107274626751N00717706EA0193401949004003027229224
B1107284626747N00717704EA0193401952004003027192211
B1107294626743N00717707EA0193601954004003027151178
B1107304626738N00717713EA0193801954004003037131138
B1107314626737N00717725EA0194101956004003062113118
B1107324626737N00717738EA0194101958004003068093094
B1107334626738N00717749EA0194201963004003062083071
B1107354626755N00717753EA0194501959004003047000018
B1107364626760N00717754EA0194501959004003047356339
B1107374626766N00717752EA0194701958004003036340335
B1107384626769N00717748EA0194801959004003032313316
B1107394626771N00717744EA0194901960004003026290294
B1107404626771N00717739EA0194901961004003026258277
B1107414626768N00717737EA0195001961004003021208251
B1107424626766N00717735EA0195101963004003021202232
B1107434626764N00717733EA0195201964004003010204228
B1107444626764N00717731EA0195201963004003010231242
B1107464626763N00717730EA0195301962004003010225241
B1107474626761N00717726EA0195401960004003010225238
B1107484626758N00717724EA0195501959004003022214228
B1107494626755N00717722EA0195501959004003025202234
B1107504626752N00717720EA0195501959004003023199226
B1107514626748N00717718EA0195501961004003025196240
B1107524626744N00717716EA0195501962004003025196228
B1107534626742N00717714EA0195501961004003025204245
B1107544626740N00717712EA0195401961004003020211233
B1107554626737N00717711EA0195301962004003018211242
B1107564626735N00717708EA0195301961004003015213235
B1107574626733N00717706EA0195301961004003018219248
B1107584626731N00717703EA0195301960004003018227242
B1107594626729N00717700EA0195201959004003020232245
B1108004626727N00717696EA0195201959004003026226234
B1108014626723N00717692EA0195201958004003028215235
B1108024626720N00717689EA0195201959004003028212229
B1108034626716N00717687EA0195101961004003028199210
B1108044626712N00717685EA0195101962004003027190214
B1108054626709N00717685EA0195101965004003027178206
B1108064626705N00717685EA0195101966004003025174210
B1108074626701N00717685EA0195201967004003024184210
B1108084626698N00717685EA0195301967004003022188205
B1108094626694N00717684EA0195301968004003024187208
B1108104626691N00717684EA0195401968004003024180201
B1108114626687N00717684EA0195501967004003024182207
B1108124626684N00717684EA0195601968004003022187202
B1108134626680N00717682EA0195601968004003023196208
B1108144626677N00717680EA0195701967004003022197205
B1108154626674N00717680EA0195701967004003023184195
B1108164626671N00717682EA0195701964004003023165172
B1108174626667N00717685EA0195701962004003032144166
B1108184626664N00717691EA0195601959004003032125140
B1108194626661N00717700EA0195601957004003040107124
B1108204626661N00717710EA0195401955004003051086103
B1108214626663N00717720EA0195401954004003052065071
B1108224626667N00717729EA0195301953004003051052049
B1108234626671N00717737EA0195101953004003050041027
B1108244626675N00717742EA0194901953004003040032012
B1108254626680N00717746EA0194901953004003040025003
B1108264626684N00717750EA0194701953004003035026353
B1108274626689N00717754EA0194601952004003035026006
B1108284626694N00717757EA0194501952004003039023354
B1108294626699N00717760EA0194501954004003039021004
B1108304626704N00717763EA0194401956004003035023001
B1108314626708N00717766EA0194401957004003031031357
B1108324626712N00717769EA0194501959004003031034006
B1108334626717N00717773EA0194501960004003033024358
B1108344626721N00717775EA0194601962004003032021358
B1108354626725N00717777EA0194701965004003032020339
B1108364626729N00717778EA0194901968004003025010332
B1108374626733N00717778EA0194901968004003026349313
B1108384626737N00717775EA0195201965004003026328292
B1108394626740N00717771EA0195401966004003031317267
B1108404626741N00717766EA0195601969004003022284272
B1108414626741N00717763EA0195601970004003022254237
B1108424626740N00717760EA0195701970004003017208233
B1108434626738N00717759EA0195901971004003017195231
B1108444626735N00717757EA0196001971004003019203232
B1108454626733N00717754EA0196001972004003019213227
B1108464626730N00717753EA0196101974004003019200205
B1108474626727N00717752EA0196201974004003020176184
B1108484626722N00717755EA0196301973004003036155170
B1108494626718N00717761EA0196301970004003047140152
B1108504626715N00717771EA0196301969004003047110131
B1108514626714N00717781EA0196401970004003050091105
B1108524626715N00717792EA0196401971004003053072087
B1108534626718N00717801EA0196401970004003053062059
B1108544626722N00717809EA0196401971004003047046045
B1108554626726N00717816EA0196301971004003047035022
B1108564626732N00717820EA0196301971004003041024002
B1108574626737N00717823EA0196301971004003041011349
B1108584626742N00717823EA0196301971004003037354337
B1108594626747N00717821EA0196301971004003034336317
B1109004626750N00717819EA0196301971004003025317301
B1109014626752N00717815EA0196301971004003025300284
B1109024626754N00717811EA0196301973004003022296274
B1109034626753N00717808EA0196301974004003019262268
B1109044626753N00717805EA0196301976004003015263257
B1109054626753N00717801EA0196301976004003018259252
B1109064626752N00717797EA0196401977004003018249249
B1109074626750N00717794EA0196501977004003018229240
B1109084626749N00717790EA0196601977004003020248239
B1109094626746N00717788EA0196601978004003023212230
B1109104626743N00717785EA0196701978004003023207227
B1109114626741N00717782EA0196801978004003023221244
B1109124626738N00717779EA0196801978004003023214221
B1109134626735N00717776EA0196801978004003023208211
B1109144626731N00717775EA0196801979004004023199232
B1109154626729N00717772EA0196801975004003023225243
B1109164626727N00717768EA0196701972004003023240244
B1109174626724N00717763EA0196701970004004028236241
B1109184626722N00717759EA0196601968004004028230234
B1109194626719N00717755EA0196401965004006027223242
B1109204626717N00717750EA0196201963004004026232243
B1109214626715N00717745EA0196201961004003025246248
B1109224626713N00717740EA0195901959004003027247242
B1109234626711N00717734EA0195601958004003030240237
B1109244626709N00717730EA0195301958004003027235237
B1109254626706N00717725EA0195301959004003027221233
B1109264626704N00717723EA0195101959004003021209231
B1109274626701N00717720EA0194901957004003021211234
B1109284626698N00717717EA0194801955004003021220234
B1109294626695N00717712EA0194801951004003026227235
B1109304626692N00717708EA0194701952004003033221229
B1109314626688N00717704EA0194601951004003033211224
B1109324626684N00717702EA0194501951004003032197225
B1109334626680N00717701EA0194501951004003029187224
B1109344626676N00717699EA0194301949004003026195226
B1109354626672N00717696EA0194201946004003031208230
B1109364626668N00717692EA0194001944004003031221238
B1109374626664N00717687EA0194001943004003034223235
B1109384626661N00717683EA0193901942004003028220236
B1109394626658N00717680EA0193701941004003028218235
B1109404626656N00717677EA0193501939004003021229239
B1109414626654N00717673EA0193501935004003021234238
B1109424626652N00717667EA0193301931004003032236247
B1109434626649N00717661EA0193101928004003037240253
B1109444626647N00717654EA0192801925004003036253259
B1109454626647N00717647EA0192801924004003036273271
B1109464626647N00717642EA0192501922004003023281260
B1109474626647N00717637EA0192201920004003023272262
B1109484626647N00717633EA0191801917004003018266265
B1109494626648N00717628EA0191801914004003018281270
B1109504626649N00717623EA0191501911004003027287280
B1109514626650N00717617EA0191201907004003031283269
B1109524626651N00717611EA0191001903004003031274258
B1109534626651N00717603EA0191001901004003034267264
B1109544626651N00717597EA0190701900004003031267274
B1109554626651N00717591EA0190401901004003031278279
B1109564626652N00717587EA0190101901004003025285294
B1109574626652N00717584EA0190101901004003018266274
B1109584626651N00717582EA0189901899004003008239274
B1109594626651N00717579EA0189801896004003013258286
B1110004626651N00717576EA0189701891004003013286289
B1110014626654N00717571EA0189701888004003022308302
B1110024626658N00717568EA0189601885004003035334312
B1110034626663N00717567EA0189401884004003037357328
B1110044626667N00717567EA0189101883004003035012340
B1110054626671N00717568EA0189101882004003032014339
B1110064626675N00717569EA0188801880004003027359333
B1110074626680N00717568EA0188501876004003031348341
B1110084626685N00717567EA0188201873004003031349335
B1110094626691N00717567EA0188201873004003038006343
B1110104626696N00717569EA0187901874004003038021351
B1110114626701N00717571EA0187601876004003038022337
B1110124626704N00717572EA0187401878004003029015334
B1110134626708N00717573EA0187401877004003022007331
B1110144626712N00717574EA0187301877004003029001329
B1110154626717N00717574EA0187301876004003037003343
B1110164626723N00717575EA0187301877004003037010342
B1110174626727N00717577EA0187301879004003037020347
B1110184626732N00717579EA0187301880004003029023345
B1110194626736N00717581EA0187401880004003031014353
B1110204626742N00717583EA0187501879004003031008355
B1110214626748N00717584EA0187501879004003039011009
B1110224626754N00717588EA0187601881004003048023012
B1110234626760N00717593EA0187601880004003048036022
B1110244626766N00717599EA0187701881004003043042027
B1110254626771N00717604EA0187701881004003043038021
B1110264626777N00717611EA0187801880004003046037040
B1110274626783N00717618EA0187801879004003053039036
B1110284626788N00717626EA0187801880004003050045057
B1110294626792N00717633EA0187801881004003050056051
B1110304626794N00717640EA0187701879004003035058056
B1110314626797N00717646EA0187701877004003035055047
B1110324626801N00717653EA0187601873004003035055055
B1110334626805N00717662EA0187601869004003044053053
B1110344626809N00717670EA0187501868004003050055055
B1110354626813N00717678EA0187301866004003050051044
B1110364626818N00717685EA0187101865004003045046042
B1110374626822N00717691EA0187101864004003043043035
B1110384626827N00717698EA0186801861004003045042042
B1110394626832N00717705EA0186501859004003047044033
B1110404626836N00717713EA0186301857004003046050053
B1110414626840N00717721EA0186301857004003046055044
B1110424626844N00717729EA0186101857004003046056045
B1110434626848N00717736EA0185901858004003046053042
B1110444626852N00717743EA0185701858004003044052062
B1110454626855N00717749EA0185701860004003041047056
B1110464626859N00717754EA0185601860004003033049048
B1110474626863N00717760EA0185601860004003037046052
B1110484626866N00717767EA0185601856004003037050063
B1110494626871N00717773EA0185601856004003038040039
B1110504626876N00717779EA0185701857004003042042052
B1110514626881N00717786EA0185701859004003043052040
B1110524626885N00717792EA0185701861004003042048031
B1110534626888N00717799EA0185701862004003040049035
B1110544626892N00717804EA0185701863004003038042036
B1110554626896N00717809EA0185701864004003039037018
B1110564626901N00717814EA0185701865004003038026346
B1110574626906N00717815EA0185701865004003038004324
B1110584626911N00717813EA0185801864004003035331302
B1110594626913N00717807EA0186001863004003037288279
B1111004626913N00717801EA0186101865004003035252260
B1111014626910N00717798EA0186101867004003034210232
B1111024626908N00717797EA0186201869004003020168208
B1111034626906N00717799EA0186301870004003020139188
B1111044626903N00717801EA0186401869004003020144182
B1111054626900N00717803EA0186401868004003020158178
B1111064626896N00717805EA0186501867004003029159172
B1111074626892N00717808EA0186501869004003034152170
B1111084626888N00717811EA0186601870004003029144168
B1111094626885N00717814EA0186601869004003029148179
B1111104626881N00717816EA0186701868004003025158186
B1111114626877N00717817EA0186701867004003027169182
B1111124626873N00717819EA0186701866004003031170182
B1111134626869N00717820EA0186701866004003030165181
B1111144626865N00717822EA0186601867004003030163176
B1111154626862N00717825EA0186601864004003028149161
B1111164626858N00717827EA0186601861004003024150154
B1111174626854N00717833EA0186601860004003037138141
B1111184626851N00717840EA0186501858004003037122120
B1111194626850N00717848EA0186301857004003041102108
B1111204626850N00717857EA0186301856004003041083081
B1111214626851N00717866EA0186201854004003046067065
B1111224626854N00717874EA0186001853004003046060052
B1111234626858N00717881EA0185801853004003044045041
B1111244626862N00717886EA0185801853004003040026028
B1111254626867N00717888EA0185601854004003037011005
B1111264626871N00717889EA0185401855004003030357347
B1111274626875N00717888EA0185301855004003030351338
B1111284626879N00717887EA0185301855004003027348325
B1111294626883N00717886EA0185201855004003026348323
B1111304626887N00717886EA0185201854004003026351319
B1111314626891N00717884EA0185301854004003026335315
B1111324626895N00717882EA0185301854004003032336320
B1111334626899N00717880EA0185301855004003031340318
B1111344626903N00717878EA0185401857004003031350311
B1111354626907N00717877EA0185401858004003029352328
B1111364626911N00717875EA0185401859004003029346300
B1111374626915N00717875EA0185501860004003029004325
B1111384626919N00717872EA0185601857004003029332329
B1111394626925N00717871EA0185801856004003031353332
B1111404626929N00717871EA0185801854004003035001341
B1111414626935N00717871EA0185801852004003035005334
B1111424626941N00717871EA0185801851004003043001318
B1111434626943N00717870EA0185701847004003035337317
B1111444626945N00717868EA0185501844004003021312302
B1111454626947N00717865EA0185501840004003020297288
B1111464626948N00717861EA0185201836004003019291277
B1111474626950N00717857EA0184801834004003021291276
B1111484626950N00717853EA0184401832004003019267273
B1111494626950N00717850EA0184401829004003017255263
B1111504626949N00717846EA0184001827004003018245262
B1111514626948N00717843EA0183701825004003018253254
B1111524626948N00717839EA0183401824004003018259258
B1111534626947N00717836EA0183401820004003016249255
B1111544626946N00717834EA0183101817004003012234255
B1111554626945N00717831EA0182801812004003012238261
B1111564626945N00717828EA0182801807004003012262267
B1111574626945N00717824EA0182501802004003015282278
B1111584626947N00717819EA0182201796004003029290293
B1111594626948N00717812EA0181701792004003032290284
B1112004626949N00717807EA0181201789004003029285287
B1112014626951N00717801EA0181201786004003028288298
B1112024626952N00717796EA0180701782004003026299315
B1112034626955N00717791EA0180101777004003033317316
B1112044626960N00717787EA0180101771004003033329319
B1112054626965N00717782EA0179501766004003040331324
B1112064626971N00717776EA0178901763004003047325322
B1112074626977N00717771EA0178301761004003047325322
B1112084626982N00717766EA0178301762004003047330334
B1112094626986N00717764EA0177801763004003040350335
B1112104626991N00717763EA0177301761004003029000346
B1112114626995N00717763EA0176901759004003029358348
B1112124627000N00717761EA0176901754004003029348341
B1112134627006N00717759EA0176601752004003035345338
B1112144627012N00717758EA0176401752004003039351001
B1112154627017N00717758EA0176201753004003039001352
B1112164627020N00717758EA0176201752004003030008352
B1112174627024N00717758EA0176001750004003022358339
B1112184627027N00717757EA0175801747004003025349342
B1112194627031N00717756EA0175601745004003030345340
B1112204627036N00717754EA0175601742004003030349343
B1112214627040N00717753EA0175501740004003032351335
B1112224627045N00717752EA0175301738004003030346332
B1112234627049N00717750EA0175101736004003030337328
B1112244627053N00717747EA0175101733004003030334336
B1112254627058N00717745EA0174901731004003032338336
B1112264627063N00717743EA0174601730004003033343342
B1112274627067N00717741EA0174301729004003033346334
B1112284627072N00717739EA0174301728004003032344331
B1112294627076N00717736EA0174001726004003031335325
B1112304627080N00717734EA0173801724004003030333327
B1112314627084N00717731EA0173601724004003030332314
B1112324627088N00717727EA0173601723004003030322306
B1112334627091N00717723EA0173301722004003029308296
B1112344627093N00717718EA0173201721004003026297284
B1112354627094N00717713EA0173001718004003027292300
B1112364627097N00717708EA0173001716004003027299308
B1112374627099N00717703EA0172801715004003029307300
B1112384627102N00717697EA0172701713004003030308305
B1112394627104N00717692EA0172501713004003030300277
B1112404627105N00717687EA0172501711004003027282283
B1112414627105N00717682EA0172301707004003026268277
B1112424627105N00717675EA0172101703004003029267287
B1112434627105N00717669EA0171901700004003032266272
B1112444627105N00717662EA0171901699004003029268276
B1112454627105N00717656EA0171601698004003029267273
B1112464627104N00717650EA0171401696004003030266269
B1112474627104N00717644EA0171101695004003030261267
B1112484627103N00717637EA0171101693004003028259265
B1112494627102N00717631EA0170801692004003028259260
B1112504627102N00717624EA0170501690004003032258258
B1112514627100N00717618EA0170301690004003032252251
B1112524627099N00717613EA0170301690004003029241243
B1112534627097N00717610EA0170101690004003022228251
B1112544627095N00717607EA0169901688004003022219242
B1112554627092N00717603EA0169801685004003026216240
B1112564627089N00717599EA0169801684004003026219240
B1112574627086N00717595EA0169601683004003028216226
B1112584627082N00717593EA0169501681004003030203219
B1112594627077N00717591EA0169401680004003031191207
B1113004627073N00717589EA0169401680004003031191212
B1113014627069N00717588EA0169201677004003031196211
B1113024627064N00717586EA0169001674004003034196227
B1113034627060N00717583EA0168801671004003034205241
B1113044627056N00717579EA0168801668004003032224254
B1113054627054N00717573EA0168601665004003031247266
B1113064627053N00717568EA0168401663004003026276270
B1113074627054N00717564EA0168101661004003026306288
B1113084627056N00717562EA0168101660004003020332301
B1113094627058N00717560EA0167801658004003016344317
B1113104627060N00717558EA0167601655004003019334319
B1113114627064N00717556EA0167301650004003025331323
B1113124627068N00717552EA0167301645004003025330320
B1113134627074N00717548EA0167001642004003038334329
B1113144627080N00717544EA0166701643004003044335321
B1113154627084N00717542EA0166301644004003031338320
B1113164627088N00717539EA0166301645004003031340321
B1113174627091N00717538EA0166001644004003023344325
B1113184627095N00717536EA0165801642004003023344324
B1113194627100N00717534EA0165601640004003035343321
B1113204627105N00717531EA0165601638004003039338329
B1113214627110N00717528EA0165401640004003039335316
B1113224627115N00717525EA0165401642004003039334284
B1113234627118N00717524EA0165301645004003030347332
B1113244627122N00717523EA0165301647004003020001341
B1113254627124N00717524EA0165301647004003020021353
B1113264627127N00717525EA0165301647004003020015001
B1113274627132N00717528EA0165301644004003024017016
B1113284627136N00717531EA0165301642004003033029016
B1113294627141N00717537EA0165401640004003044045026
B1113304627145N00717543EA0165501637004003044048009
B1113314627150N00717548EA0165501635004003041039010
B1113324627155N00717550EA0165501632004003038017002
B1113334627159N00717552EA0165301631004003034011357
B1113344627163N00717554EA0165101630004003025015353
B1113354627167N00717556EA0164801629004003027018345
B1113364627171N00717558EA0164801627004003027015003
B1113374627175N00717560EA0164501626004003031016355
B1113384627180N00717562EA0164301625004003031021008
B1113394627185N00717565EA0164101624004003038023356
B1113404627191N00717568EA0164101623004003039021007
B1113414627196N00717571EA0163901623004003038020357
B1113424627201N00717574EA0163801622004003036021001
B1113434627205N00717576EA0163701621004003034020358
B1113444627209N00717578EA0163701618004003030013004
B1113454627214N00717580EA0163601616004003031010353
B1113464627219N00717581EA0163401612004003031008350
B1113474627225N00717582EA0163301610004003035005345
B1113484627230N00717582EA0163301607004003036358342
B1113494627235N00717581EA0163101606004003033354339
B1113504627240N00717581EA0162801604004003033356353
B1113514627244N00717581EA0162501602004003030000000
B1113524627249N00717581EA0162501599004003030002006
B1113534627254N00717582EA0162201596004003031003358
B1113544627259N00717583EA0161901592004003035008356
B1113554627265N00717582EA0161601591004003038359339
B1113564627269N00717582EA0161601588004003035352336
B1113574627274N00717581EA0161301586004003033349336
B1113584627279N00717579EA0161001582004003033349341
B1113594627284N00717578EA0160701578004003037350340
B1114004627290N00717577EA0160701575004003040350345
B1114014627296N00717575EA0160301572004003039348340
B1114024627301N00717573EA0159901569004003039345340
B1114034627306N00717571EA0159601566004003036344341
B1114044627311N00717569EA0159601562004003036343342
B1114054627317N00717567EA0159101557004003040343344
B1114064627323N00717564EA0158701552004003040342342
B1114074627330N00717561EA0158301548004003047343344
B1114084627337N00717558EA0158301545004003049343350
B1114094627344N00717555EA0157801542004003046345340
B1114104627350N00717553EA0157301540004003046347350
B1114114627356N00717550EA0156901537004003041343340
B1114124627362N00717548EA0156901533004003040339336
B1114134627368N00717545EA0156401529004003042340344
B1114144627375N00717542EA0156001525004003048345355
B1114154627382N00717540EA0155601522004003048347358
B1114164627388N00717539EA0155601521004003048355349
B1114174627394N00717538EA0155101519004003039351338
B1114184627399N00717536EA0154701515004003039339339
B1114194627404N00717534EA0154301510004003034343346
B1114204627410N00717532EA0154301507004003034347344
B1114214627415N00717529EA0153901504004003039344339
B1114224627420N00717527EA0153401502004003039335332
B1114234627424N00717523EA0153101501004003034329330
B1114244627428N00717520EA0153101498004003030330330
B1114254627433N00717518EA0152701495004003032336339
B1114264627437N00717515EA0152401492004003033337338
B1114274627442N00717512EA0152001489004003033337334
B1114284627447N00717508EA0152001486004003037334322
B1114294627452N00717505EA0151701483004003036334336
B1114304627457N00717501EA0151401480004003036330318
B1114314627461N00717497EA0151001478004003035328312
B1114324627465N00717493EA0151001474004003034321298
B1114334627469N00717488EA0150701470004003037314309
B1114344627473N00717482EA0150301465004003038304298
B1114354627476N00717475EA0149901462004003038305310
B1114364627480N00717469EA0149901458004003038309317
B1114374627484N00717463EA0149501455004003036319327
B1114384627488N00717458EA0149101452004003036324330
B1114394627492N00717454EA0148601449004003035322317
B1114404627496N00717448EA0148601446004003035316318
B1114414627500N00717443EA0148201443004003037312322
B1114424627504N00717437EA0147801441004003037313319
B1114434627507N00717432EA0147401440004003036316317
B1114444627511N00717427EA0147401438004003034314310
B1114454627513N00717422EA0147001437004003028307297
B1114464627515N00717417EA0146701434004003028291276
B1114474627516N00717411EA0146401431004003028271266
B1114484627516N00717405EA0146401428004003028258252
B1114494627514N00717398EA0146101426004003034243240
B1114504627512N00717392EA0145901424004003034235239
B1114514627509N00717387EA0145601422004003033229234
B1114524627506N00717381EA0145601421004003033229228
B1114534627502N00717376EA0145301420004003032225222
B1114544627498N00717371EA0145001418004003032219224
B1114554627495N00717367EA0144801416004003032211210
B1114564627490N00717363EA0144801415004003032207212
B1114574627485N00717360EA0144501414004003035205207
B1114584627480N00717356EA0144301413004003036204202
B1114594627476N00717354EA0144201413004003035199193
B1115004627471N00717352EA0144201412004003033191188
B1115014627466N00717351EA0144001411004003031186184
B1115024627462N00717350EA0143801410004003031183178
B1115034627457N00717350EA0143701409004003031178182
B1115044627452N00717351EA0143701408004003031170173
B1115054627448N00717352EA0143601407004003029171189
B1115064627444N00717352EA0143501405004003029176185
B1115074627439N00717353EA0143401404004003029178202
B1115084627435N00717353EA0143401402004003031177210
B1115094627430N00717352EA0143301400004003036190217
B1115104627425N00717350EA0143101399004003036204226
B1115114627421N00717346EA0142901399004003034219217
B1115124627418N00717342EA0142901400004003031220210
B1115134627414N00717339EA0142801401004003029214219
B1115144627410N00717336EA0142601401004003029209206
B1115154627407N00717333EA0142601402004003027209219
B1115164627404N00717330EA0142601403004003023206207
B1115174627401N00717328EA0142601404004003020205216
B1115184627398N00717326EA0142601404004003021204199
B1115194627395N00717324EA0142701405004003021203201
B1115204627392N00717323EA0142701405004003023191181
B1115214627389N00717324EA0142801404004003024164168
B1115224627385N00717326EA0142901403004003027143150
B1115234627381N00717331EA0142901401004003027135146
B1115244627377N00717336EA0142901400004003035134143
B1115254627374N00717341EA0142901399004003033133158
B1115264627371N00717345EA0142901400004003033130176
B1115274627367N00717348EA0142801396004003027152184
B1115284627363N00717350EA0142801394004003027176193
B1115294627359N00717350EA0142701392004003030187214
B1115304627355N00717344EA0142501387004003034225229
B1115314627356N00717336EA0142301388004003045283256
B1115324627359N00717330EA0142301386004003040311296
B1115334627366N00717327EA0142101387004003045352317
B1115344627372N00717326EA0141901387004003042005358
B1115354627377N00717328EA0141801389004003033021015
B1115364627381N00717331EA0141801388004003033028033
B1115374627385N00717334EA0141701387004003033039046
B1115384627389N00717340EA0141701385004003033047058
B1115394627393N00717348EA0141601383004003041056066
B1115404627396N00717355EA0141601383004003042062065
B1115414627399N00717362EA0141601383004003042058045
B1115424627403N00717368EA0141401382004003039040035
B1115434627409N00717373EA0141301381004003039023015
B1115444627415N00717376EA0141301381004003045014011
B1115454627420N00717378EA0141201382004003038006350
B1115464627425N00717378EA0141101383004003038358341
B1115474627430N00717377EA0141001383004003031343327
B1115484627434N00717374EA0141001382004003031324312
B1115494627437N00717368EA0141001381004003031304295
B1115504627439N00717361EA0141001381004003037285280
B1115514627440N00717355EA0141001382004003037266257
B1115524627439N00717349EA0141001383004003032246232
B1115534627437N00717344EA0141001384004003029226216
B1115544627434N00717341EA0141001384004003025210190
B1115554627431N00717340EA0141001384004003024182186
B1115564627427N00717340EA0141001384004003024166169
B1115574627424N00717342EA0141001384004003024150154
B1115584627421N00717346EA0141101384004003025133134
B1115594627419N00717352EA0141101383004003029114117
B1116004627418N00717359EA0141101382004003035095095
B1116014627418N00717366EA0141201381004003037082088
B1116024627419N00717374EA0141201381004003037071071
B1116034627421N00717381EA0141201380004003038063052
B1116044627424N00717389EA0141201378004003039058038
B1116054627429N00717396EA0141101377004003047037030
B1116064627435N00717400EA0141001376004003047020010
B1116074627441N00717401EA0140901376004003045000354
B1116084627446N00717400EA0140901376004003042341338
B1116094627451N00717397EA0140801376004003037319319
B1116104627454N00717392EA0140601376004003030304299
B1116114627457N00717387EA0140601378004003031303284
B1116124627458N00717381EA0140601376004003030281267
B1116134627458N00717375EA0140501376004003031268261
B1116144627458N00717368EA0140401375004003031255244
B1116154627457N00717362EA0140401376004003028255253
B1116164627456N00717357EA0140401376004003028250237
B1116174627454N00717352EA0140301377004003024241228
B1116184627452N00717349EA0140301376004003022225226
B1116194627450N00717345EA0140301376004003022220208
B1116204627447N00717341EA0140301377004003026219204
B1116214627444N00717339EA0140301377004003026208192
B1116224627441N00717338EA0140301378004003023187181
B1116234627437N00717338EA0140301378004003023169167
B1116244627434N00717339EA0140301378004003023161168
B1116254627430N00717340EA0140301378004003024157165
B1116264627427N00717343EA0140301378004003024153157
B1116274627424N00717345EA0140301378004003024150155
B1116284627420N00717348EA0140301379004003026147159
B1116294627416N00717352EA0140401379004003029147153
B1116304627412N00717355EA0140401380004003030146153
B1116314627409N00717359EA0140501381004003030143160
B1116324627405N00717362EA0140501382004003029145155
B1116334627402N00717366EA0140501380004003029139160
B1116344627398N00717369EA0140601381004003029147159
B1116354627395N00717374EA0140701383004003033139145
B1116364627392N00717380EA0140701384004003038119106
B1116374627391N00717388EA0140801384004003038093088
B1116384627391N00717396EA0140901381004003039076072
B1116394627394N00717405EA0140901379004003044069061
B1116404627400N00717411EA0140901381004003048033050
B1116414627406N00717415EA0140901381004003044021022
B1116424627411N00717418EA0141001380004003042007011
B1116434627417N00717419EA0141001379004003041006353
B1116444627423N00717417EA0141001379004003041342349
B1116454627428N00717414EA0141001378004003038332322
B1116464627433N00717410EA0140901378004003037318305
B1116474627436N00717404EA0140801378004003033301289
B1116484627437N00717399EA0140801378004003033281274
B1116494627437N00717393EA0140701378004003028258253
B1116504627436N00717388EA0140701377004003025247244
B1116514627435N00717383EA0140601376004003029245236
B1116524627433N00717377EA0140601377004003030238225
B1116534627430N00717373EA0140501378004003029222226
B1116544627427N00717370EA0140501379004003029204209
B1116554627423N00717368EA0140501381004003024198217
B1116564627421N00717366EA0140501382004003024203214
B1116574627418N00717363EA0140501383004003021213218
B1116584627415N00717360EA0140501384004003021226224
B1116594627413N00717356EA0140601385004003022237223
B1117004627411N00717353EA0140601386004003022240224
B1117014627410N00717350EA0140801386004003020231214
B1117024627408N00717348EA0140901385004003016207204
B1117034627405N00717347EA0141001382004003019190216
B1117044627402N00717346EA0141001381004003026189215
B1117054627399N00717344EA0141101380004003026202219
B1117064627395N00717342EA0141101380004003026207208
B1117074627393N00717341EA0141001380004003016186210
B1117084627390N00717342EA0141001378004003017165202
B1117094627388N00717341EA0140901376004003017180213
B1117104627385N00717339EA0140701372004003020212223
B1117114627382N00717334EA0140601370004003035241244
B1117124627382N00717327EA0140601368004003038275264
B1117134627385N00717320EA0140401367004003038310287
B1117144627390N00717316EA0140201366004003042339312
B1117154627395N00717314EA0140001365004003042356340
B1117164627401N00717314EA0140001365004003042007359
B1117174627406N00717315EA0139801364004003037011008
B1117184627412N00717317EA0139601362004003037014015
B1117194627418N00717319EA0139401361004003045015007
B1117204627425N00717321EA0139401360004003046013005
B1117214627431N00717323EA0139301360004003045007346
B1117224627437N00717323EA0139101359004003042001348
B1117234627443N00717323EA0139001358004003037354341
B1117244627448N00717322EA0139001358004003037350338
B1117254627454N00717321EA0138901357004003037351342
B1117264627459N00717320EA0138801358004003037354354
B1117274627464N00717320EA0138701358004003035358003
B1117284627469N00717320EA0138701358004003035004011
B1117294627474N00717321EA0138701358004003034012015
B1117304627480N00717323EA0138701358004003034017010
B1117314627485N00717326EA0138701358004003037019010
B1117324627491N00717329EA0138701358004003040019358
B1117334627496N00717331EA0138701358004003040016009
B1117344627501N00717333EA0138701358004003037010008
B1117354627507N00717334EA0138701358004003033009003
B1117364627511N00717336EA0138701357004003033013006
B1117374627517N00717337EA0138701356004003036009000
B1117384627522N00717338EA0138601356004003036002358
B1117394627527N00717338EA0138601356004003036357352
B1117404627533N00717337EA0138601355004003036354000
B1117414627537N00717337EA0138501354004003033354003
B1117424627542N00717336EA0138501353004003029356358
B1117434627546N00717336EA0138401350004003033357356
B1117444627552N00717335EA0138401349004003033351344
B1117454627557N00717333EA0138301348004003038342336
B1117464627562N00717330EA0138201348004003038340340
B1117474627567N00717327EA0138001348004003033334344
B1117484627572N00717325EA0138001348004003033342341
B1117494627576N00717322EA0137901347004003033343343
B1117504627581N00717320EA0137801347004003033339337
B1117514627586N00717317EA0137701347004003035338345
B1117524627591N00717315EA0137701347004003034343354
B1117534627596N00717314EA0137601347004003034355008
B1117544627600N00717314EA0137601347004003029008014
B1117554627604N00717316EA0137601346004003028017018
B1117564627608N00717318EA0137601345004003028023026
B1117574627612N00717321EA0137601345004003029032029
B1117584627615N00717324EA0137601344004003029033027
B1117594627619N00717327EA0137501343004003028030024
B1118004627623N00717330EA0137501342004003028029007
B1118014627627N00717332EA0137401341004003028016000
B1118024627631N00717333EA0137301340004003028000354
B1118034627635N00717331EA0137201338004003028337333
B1118044627638N00717328EA0137201337004003027319322
B1118054627641N00717324EA0137101335004003027304312
B1118064627643N00717318EA0137001333004003029289294
B1118074627644N00717312EA0136801332004003033278281
B1118084627644N00717305EA0136801331004003033266275
B1118094627643N00717298EA0136601330004003033250247
B1118104627641N00717291EA0136501329004003034238226
B1118114627637N00717285EA0136301329004003036222218
B1118124627633N00717281EA0136301329004003034209201
B1118134627628N00717278EA0136101330004003034196182
B1118144627623N00717277EA0136001331004003034181164
B1118154627619N00717279EA0135901331004003033157148
B1118164627615N00717283EA0135901330004003033132134
B1118174627612N00717288EA0135901329004003034123115
B1118184627611N00717295EA0135901328004003035095108
B1118194627611N00717302EA0135901328004003034083088
B1118204627613N00717308EA0135901327004003033063072
B1118214627615N00717314EA0135901326004003031047057
B1118224627620N00717317EA0135901326004003034021047
B1118234627624N00717320EA0135901326004003034018021
B1118244627627N00717321EA0135901325004003029005010
B1118254627631N00717321EA0135801323004003025000359
B1118264627635N00717321EA0135701322004003025349351
B1118274627640N00717319EA0135701321004003032340347
B1118284627644N00717317EA0135601320004003032338344
B1118294627648N00717315EA0135501320004003029348340
B1118304627652N00717314EA0135301319004003028352355
B1118314627656N00717313EA0135301318004003028348346
B1118324627660N00717312EA0135201316004003026341349
B1118334627663N00717309EA0135101315004003027333336
B1118344627667N00717306EA0135001313004003027329312
B1118354627670N00717302EA0135001312004003027316308
B1118364627673N00717298EA0134901310004003029300295
B1118374627675N00717291EA0134701308004003035285280
B1118384627675N00717284EA0134601307004003036271261
B1118394627673N00717276EA0134601305004003036247240
B1118404627668N00717270EA0134401305004003040216228
B1118414627665N00717265EA0134201306004003040208219
B1118424627661N00717262EA0134001309004003024201210
B1118434627658N00717260EA0134001309004003024212221
B1118444627656N00717258EA0133901309004003018214212
B1118454627653N00717255EA0133901309004003018214222
B1118464627650N00717252EA0133901309004003022215210
B1118474627647N00717249EA0133901309004003024220218
B1118484627644N00717247EA0133901309004003024211216
B1118494627641N00717245EA0133901311004003021191204
B1118504627638N00717244EA0134001311004003021191202
B1118514627634N00717242EA0134001312004003025195202
B1118524627630N00717240EA0134001313004003027201201
B1118534627627N00717238EA0134001313004003027200199
B1118544627623N00717237EA0134101313004003027191195
B1118554627619N00717236EA0134101312004003027186191
B1118564627614N00717236EA0134101313004003029184174
B1118574627610N00717235EA0134201313004003027179181
B1118584627607N00717236EA0134201312004003027168167
B1118594627603N00717238EA0134201312004003027158151
B1119004627599N00717240EA0134201312004003027152142
B1119014627595N00717244EA0134301311004003030142130
B1119024627592N00717249EA0134301311004003032132130
B1119034627589N00717254EA0134301311004003032120126
B1119044627587N00717261EA0134301312004003032113146
B1119054627583N00717266EA0134301312004003033135143
B1119064627580N00717271EA0134201310004003035134154
B1119074627575N00717276EA0134201313004003038142153
B1119084627572N00717281EA0134201314004003038135155
B1119094627569N00717286EA0134201315004003033133156
B1119104627565N00717289EA0134201316004003028146151
B1119114627561N00717293EA0134201316004003028152165
B1119124627557N00717296EA0134301316004003035154165
B1119134627553N00717299EA0134301316004003035156169
B1119144627549N00717300EA0134401317004003031168175
B1119154627545N00717300EA0134401317004003025185182
B1119164627542N00717299EA0134501317004003023204194
B1119174627539N00717297EA0134601315004003022214209
B1119184627537N00717294EA0134701315004003022226221
B1119194627535N00717290EA0134701313004003022241237
B1119204627533N00717285EA0134701311004003024251254
B1119214627532N00717279EA0134601310004003027264266
B1119224627532N00717273EA0134501310004003029274282
B1119234627533N00717268EA0134501308004003029282295
B1119244627536N00717263EA0134401307004003029309305
B1119254627539N00717258EA0134301306004003030315311
B1119264627542N00717253EA0134101304004003030314315
B1119274627545N00717247EA0134101303004003034312328
B1119284627549N00717242EA0134001303004003035319334
B1119294627554N00717239EA0133901302004003035338350
B1119304627559N00717237EA0133701301004003036351004
B1119314627564N00717236EA0133701301004003036358008
B1119324627569N00717236EA0133601301004003032000005
B1119334627574N00717235EA0133501301004003032357002
B1119344627583N00717234EA0133401298004003030352004
B1119354627589N00717233EA0133301296004003035352355
B1119364627595N00717232EA0133201296004003038352341
B1119374627599N00717231EA0133101296004003038351343
B1119384627604N00717229EA0133101296004003032345332
B1119394627609N00717227EA0133001295004003032341329
B1119404627614N00717224EA0132901294004003037336338
B1119414627619N00717221EA0132801294004003038335326
B1119424627624N00717218EA0132801295004003037335319
B1119434627628N00717215EA0132801296004003035329311
B1119444627632N00717211EA0132701295004003028327317
B1119454627635N00717207EA0132701295004003030318309
B1119464627639N00717203EA0132701294004003030323307
B1119474627643N00717199EA0132701292004003032324308
B1119484627647N00717194EA0132701291004003032318296
B1119494627650N00717189EA0132701289004003032310302
B1119504627653N00717184EA0132701288004003032308303
B1119514627656N00717180EA0132601286004003030315307
B1119524627660N00717176EA0132401285004003030319304
B1119534627663N00717171EA0132301283004003032318307
B1119544627666N00717166EA0132301281004003032315308
B1119554627670N00717161EA0132101280004003032313304
B1119564627673N00717157EA0131901279004003030319311
B1119574627677N00717153EA0131701279004003030325300
B1119584627680N00717148EA0131701278004003030321310
B1119594627683N00717143EA0131601276004003031309294
B1120004627686N00717138EA0131401276004003032301286
B1120014627688N00717132EA0131301275004003032296297
B1120024627690N00717126EA0131301275004003031290286
B1120034627692N00717119EA0131101276004003031285280
B1120044627693N00717113EA0131001276004003029280277
B1120054627693N00717107EA0130901276004003029274280
B1120064627694N00717101EA0130901275004003029272263
B1120074627694N00717094EA0130901275004003029266259
B1120084627693N00717087EA0130901275004003035254242
B1120094627690N00717081EA0130901276004003035239220
B1120104627688N00717076EA0130901276004003033221204
B1120114627684N00717073EA0130901276004003029204190
B1120124627681N00717071EA0130901275004003029192189
B1120134627676N00717069EA0130901274004003032187181
B1120144627672N00717069EA0130901274004003029179166
B1120154627668N00717070EA0130901275004003029167155
B1120164627664N00717071EA0130801274004003025156160
B1120174627660N00717073EA0130801273004003025153164
B1120184627656N00717076EA0130801273004003025155182
B1120194627651N00717077EA0130801272004003030171181
B1120204627646N00717077EA0130701272004003038183186
B1120214627641N00717077EA0130701273004003038183190
B1120224627636N00717078EA0130701274004003036180185
B1120234627630N00717078EA0130701275004003034178178
B1120244627626N00717078EA0130601273004003029172177
B1120254627621N00717079EA0130601273004003035171184
B1120264627615N00717080EA0130601271004003035171169
B1120274627610N00717082EA0130601269004003035170175
B1120284627605N00717083EA0130601269004003034167176
B1120294627600N00717085EA0130501268004003034165163
B1120304627596N00717087EA0130501267004003031161167
B1120314627592N00717089EA0130401265004003031162168
B1120324627587N00717092EA0130301264004003035160158
B1120334627582N00717094EA0130201263004003035158169
B1120344627578N00717097EA0130201262004003035157176
B1120354627573N00717098EA0130001261004003031165186
B1120364627570N00717098EA0129901260004003025188204
B1120374627566N00717096EA0129801257004003030210211
B1120384627563N00717091EA0129801255004003030232231
B1120394627561N00717085EA0129601253004003034254252
B1120404627561N00717078EA0129501252004003036281272
B1120414627563N00717071EA0129301250004003039306300
B1120424627568N00717066EA0129301249004003039329323
B1120434627573N00717063EA0129101247004003041346348
B1120444627579N00717062EA0128901246004003041001007
B1120454627585N00717063EA0128701245004003041014016
B1120464627591N00717065EA0128701243004003040019025
B1120474627596N00717067EA0128501242004003040016023
B1120484627602N00717070EA0128401241004003041013021
B1120494627608N00717072EA0128201239004003043015020
B1120504627614N00717075EA0128201237004003043019022
B1120514627620N00717078EA0128001236004003043018017
B1120524627626N00717081EA0127801235004003039016016
B1120534627632N00717083EA0127701234004003039016009
B1120544627637N00717086EA0127701232004003037018018
B1120554627643N00717088EA0127501230004003037020022
B1120564627649N00717091EA0127301230004003046014020
B1120574627655N00717093EA0127101230004003046009010
B1120584627662N00717094EA0127101231004003045008027
B1120594627667N00717096EA0127001233004003041017037
B1121004627671N00717100EA0126901233004003031035056
B1121014627674N00717104EA0126801232004003031052071
B1121024627677N00717110EA0126801231004003031068086
B1121034627678N00717118EA0126801229004003035083103
B1121044627677N00717126EA0126801229004003040107130
B1121054627674N00717132EA0126801227004003040139149
B1121064627669N00717134EA0126801226004003040172169
B1121074627663N00717133EA0126701225004003041201189
B1121084627659N00717127EA0126601225004003042230214
B1121094627656N00717122EA0126401225004003042245241
B1121104627656N00717114EA0126401226004003036274254
B1121114627656N00717109EA0126301226004003033272264
B1121124627655N00717103EA0126201225004003026266263
B1121134627655N00717096EA0126201223004003030258253
B1121144627654N00717090EA0126201223004003030256253
B1121154627653N00717084EA0126101223004003030252253
B1121164627651N00717079EA0126101223004003026241245
B1121174627649N00717074EA0126001223004003026233239
B1121184627647N00717069EA0126001221004003026236245
B1121194627645N00717064EA0126001220004003026239248
B1121204627643N00717060EA0125901219004003023234241
B1121214627640N00717056EA0125801217004003024227239
B1121224627638N00717052EA0125801214004003024231236
B1121234627636N00717048EA0125701212004003025231225
B1121244627633N00717043EA0125601209004003029226216
B1121254627629N00717039EA0125401207004003031212206
B1121274627625N00717036EA0125401206004003031199200
B1121284627621N00717034EA0125101204004003031195204
B1121294627616N00717032EA0124901203004003030200204
B1121304627612N00717029EA0124601201004003030206204
B1121314627608N00717026EA0124601200004003030204199
B1121324627604N00717024EA0124301200004003029198193
B1121334627601N00717023EA0124101199004003024189198
B1121344627597N00717022EA0124001198004003024192200
B1121354627593N00717021EA0124001195004003024197196
B1121364627590N00717019EA0123801194004003024199199
B1121374627586N00717017EA0123701193004003030198198
B1121384627582N00717015EA0123701192004003030197194
B1121394627578N00717013EA0123601191004003028196191
B1121404627571N00717012EA0123301190004003024179169
B1121414627567N00717012EA0123301188004003026163155
B1121424627564N00717015EA0123201187004003029146139
B1121434627561N00717020EA0123001185004003029126129
B1121444627558N00717024EA0122901183004003029125114
B1121454627557N00717030EA0122901183004003030104106
B1121464627556N00717036EA0122801182004003030096091
B1121474627555N00717042EA0122601180004004030095077
B1121484627557N00717050EA0122501180004004030071067
B1121494627560N00717058EA0122501178004003038055053
B1121504627563N00717064EA0122301177004003039046042
B1121514627568N00717069EA0122101175004003039036033
B1121524627572N00717074EA0122001174004003039028031
B1121534627577N00717077EA0122001173004003037022021
B1121544627582N00717081EA0121801171004003037023030
B1121554627588N00717085EA0121601168004003037026034
B1121564627594N00717089EA0121401166004003041029027
B1121574627599N00717094EA0121401165004003041030028
B1121584627604N00717097EA0121201164004003041024020
B1121594627610N00717101EA0121101163004003039019021
B1122004627615N00717104EA0120901161004003039021025
B1122014627621N00717107EA0120901159004003043022026
B1122024627627N00717111EA0120701158004003043024025
B1122034627632N00717115EA0120501158004003043025035
B1122044627637N00717118EA0120301157004003039029033
B1122054627641N00717123EA0120301156004003034034040
B1122064627646N00717127EA0120201154004003038035036
B1122074627651N00717132EA0120001153004003038035042
B1122084627656N00717137EA0119801151004003041036041
B1122094627660N00717143EA0119801151004003039042046
B1122104627665N00717148EA0119701150004003039040033
B1122114627670N00717153EA0119501150004003038035025
B1122124627675N00717156EA0119401148004003038021010
B1122134627681N00717159EA0119401147004003038012356
B1122144627686N00717160EA0119301146004003038358352
B1122154627691N00717158EA0119101144004003036346339
B1122164627696N00717156EA0119001143004003036339344
B1122174627701N00717154EA0119001142004003034341339
B1122184627706N00717152EA0118901141004003034345340
B1122194627711N00717151EA0118701140004003032344339
B1122204627715N00717148EA0118601138004003032340328
B1122214627720N00717146EA0118601136004003034337338
B1122224627725N00717143EA0118401134004003036335329
B1122234627730N00717139EA0118201134004003036331325
B1122244627735N00717135EA0118001133004003036325327
B1122254627739N00717131EA0118001133004003032324322
B1122264627743N00717128EA0117901132004003032329330
B1122274627746N00717124EA0117701131004003030326306
B1122284627749N00717119EA0117601129004003030309289
B1122294627752N00717112EA0117601127004003039287281
B1122304627752N00717105EA0117501127004003039270271
B1122314627753N00717099EA0117401128004003036269276
B1122324627753N00717094EA0117301128004003026279279
B1122334627754N00717089EA0117301127004003020279274
B1122344627754N00717084EA0117201126004003026275265
B1122354627754N00717078EA0117101125004003026268280
B1122364627754N00717072EA0117001123004003028270298
B1122374627755N00717066EA0117001121004003028287294
B1122384627757N00717060EA0117001119004003030300297
B1122394627760N00717054EA0116901117004003030305296
B1122404627762N00717047EA0116701116004003037296270
B1122414627763N00717041EA0116701115004003030274249
B1122424627760N00717036EA0116501112004003036216227
B1122434627755N00717034EA0116401108004003036181185
B1122444627749N00717038EA0116201108004003043146155
B1122454627746N00717045EA0116201108004003045113129
B1122464627745N00717051EA0115901108004003045085106
B1122474627745N00717058EA0115701108004003037080099
B1122484627744N00717063EA0115501106004003027099115
B1122494627743N00717069EA0115501103004003029113118
B1122504627741N00717076EA0115401101004003037113124
B1122514627739N00717083EA0115201100004003037113126
B1122524627737N00717089EA0115101099004003037116135
B1122534627734N00717093EA0115101098004003022142150
B1122544627731N00717095EA0114901096004003023166175
B1122554627728N00717095EA0114801093004003023185194
B1122564627724N00717091EA0114501090004003025227213
B1122574627724N00717083EA0114501085004003045273242
B1122584627727N00717075EA0114301083004003047308285
B1122594627732N00717071EA0114001082004003045336317
B1123004627736N00717068EA0113701082004003045352341
B1123014627741N00717066EA0113701082004003026342339
B1123024627744N00717062EA0113401080004003027317321
B1123034627747N00717057EA0113101076004003027301298
B1123044627749N00717050EA0112901075004003034291282
B1123054627750N00717044EA0112901075004003033272258
B1123064627749N00717038EA0112701074004003033242237
B1123074627746N00717033EA0112501073004003031210205
B1123084627742N00717032EA0112401072004003031179183
B1123094627738N00717035EA0112401069004003037146160
B1123104627734N00717038EA0112201069004003037136153
B1123114627730N00717041EA0112001069004003035145164
B1123124627726N00717042EA0111801068004003024186180
B1123134627723N00717040EA0111801065004003029209206
B1123144627720N00717035EA0111701065004003038229224
B1123154627716N00717031EA0111501063004003033228229
B1123164627712N00717026EA0111301062004003033232228
B1123174627709N00717021EA0111301062004003026226223
B1123184627706N00717017EA0111201062004003030216221
B1123194627702N00717014EA0111001062004004030206211
B1123204627697N00717011EA0110801062004004030203223
B1123214627695N00717010EA0110801061004004014196232
B1123224627695N00717010EA0110601056004003014201192
B1123234627694N00717011EA0110501054004003007170196
B1123244627693N00717011EA0110401054004003007169173
B1123254627693N00717011EA0110401055004003004169173
B1123264627693N00717009EA0110301056004003005169174
B1123274627693N00717009EA0110301055004003004169174
B1123284627693N00717009EA0110301055004003003169174
B1123294627693N00717008EA0110301056004003002169174
B1123304627693N00717010EA0110301055004003008091174
B1123314627693N00717010EA0110301055004003004169116
B1123324627693N00717010EA0110301055004003004046174
B1123334627693N00717010EA0110301055004003001046110
B1123344627694N00717011EA0110301055004003003046110
B1123354627694N00717012EA0110301055004003003046110
B1123364627694N00717011EA0110301055004003003046110
B1123374627694N00717012EA0110301055004003001046110
B1123384627694N00717011EA0110301055004003001046110
B1123394627694N00717011EA0110301056004003001046110
B1123404627694N00717013EA0110301055004003001097110
B1123414627694N00717013EA0110301055004003005020110
B1123424627694N00717013EA0110301055004003005046055
B1123434627695N00717012EA0110301054004003003046089
B1123444627695N00717012EA0110301055004003003046089
B1123454627694N00717012EA0110301055004003002170089
B1123464627694N00717013EA0110301054004003002170089
B1123474627694N00717013EA0110301055004003002209089
B1123484627694N00717013EA0110301054004003000209089
B1123494627694N00717013EA0110301055004003000209089
B1123504627694N00717013EA0110301054004003000209089
B1123514627694N00717013EA0110301054004003000209089
B1123524627694N00717013EA0110301054004003000209089
B1123534627694N00717013EA0110301054004003000209089
B1123544627694N00717013EA0110301054004003000209089
B1123554627694N00717012EA0110301055004003002209089
B1123564627694N00717012EA0110301055004003002209089
B1123574627694N00717011EA0110301055004003002209089
B1123584627693N00717011EA0110301054004003003209089
B1123594627693N00717011EA0110301055004003003209089
B1124004627693N00717010EA0110301055004003003209084
B1124014627693N00717010EA0110301055004003000209085
GUjneH7TvZNnujhDTspy7pnoL293brUsP8BAVKKzv/kEtm0e+wd/iuIl5Zxqk1+ct
GSeZWDrwQyTYVwPbk28a/Rr/y4PZYZXaRfktfRO3C8lmW2srKVqSARm1ZEcNq71YW
GM5EfqnBaPfDulvowS/eg549EDa+Um2uxrF3t7hYlJSs=

