AXFH000
HFDTE151124
HFPLTPILOT:Scott O’Brien
HFGTYGLIDERTYPE:BGP Epic M
HFDTM100GPSDATUM:WGS84
HFRFWFIRMWAREVERSION:8.2.5
HFRHWHARDWAREVERSION:iPhone 15
HFFTYFRTYPE:Flyskyhy,8.2.5
HFGPS:Internal
HFPRSVARIO:Internal Vario
HFCCLCOMPETITIONCLASS:Paraglider
HFTZNTIMEZONE:-3
HFSITSITE:Iquique - Palo Buque,CL
I053638FXA3941VXA4244GSP4547CCO4850HDT
C151124221323151124000105TASK
C0000000N00000000ETAKEOFF
C3832449N11204411W00000000001000000000360000STARTAREA T04
C3832449N11204411W00030009999999000000360000TURNAREA T04
C3833533N11148217W00000000002000000000360000TURNAREA P30
C3845304N11125100W00000000006000000000360000TURNAREA S08
C3913309N11109083W00000000002000000000360000TURNAREA F04
C3935774N11050460W00000000003000000000360000TURNAREA G14
C3935774N11050460W00000000000400000000360000FINISHAREA G14
C0000000N00000000ELANDING
B2213542023103S07009095WA0018400184005010002297262
B2213552023102S07009095WA0018400184005010001038297
B2213562023102S07009095WA0018400184005010001057301
B2213572023102S07009095WA0018400184005010002077320
B2213582023102S07009095WA0018400184005010002076308
B2213592023102S07009095WA0018500184005010001056287
B2214002023102S07009095WA0018500184005010002059258
B2214012023102S07009095WA0018500184005010003060289
B2214022023101S07009094WA0018500184005010001010273
B2214032023101S07009094WA0018500184005010001048279
B2214042023101S07009094WA0018500184005010001015304
B2214052023101S07009094WA0018500184005010000000281
B2214062023101S07009094WA0018500184005010001054270
B2214072023101S07009094WA0018500184005010001072273
B2214082023101S07009094WA0018500184005010001028253
B2214092023100S07009094WA0018500185005010002274133
B2214102023101S07009095WA0018500185005010003212065
B2214112023101S07009095WA0018500185005010007236080
B2214122023102S07009096WA0018500185005010009240106
B2214132023103S07009097WA0018500185005010014234121
B2214142023104S07009100WA0018500185005010023249137
B2214152023105S07009104WA0018400185005010029275144
B2214162023103S07009109WA0018300185005010030296163
B2214172023101S07009113WA0018200185005010029307168
B2214182023098S07009117WA0018200186005010032312175
B2214192023094S07009121WA0018200186005010038315187
B2214202023090S07009126WA0018300186005010040320187
B2214212023085S07009130WA0018300187005010037320191
B2214222023081S07009134WA0018400186005010032314190
B2214232023078S07009137WA0018500186005010030309175
B2214242023075S07009141WA0018500186005010034307195
B2214252023072S07009146WA0018500186005010038309221
B2214262023068S07009151WA0018500186005010036311240
B2214272023064S07009155WA0018600187005010031314257
B2214282023061S07009158WA0018700188005010027312265
B2214292023059S07009161WA0018700188005010029313270
B2214302023056S07009165WA0018800189005010031312282
B2214312023052S07009169WA0018800189005010031312285
B2214322023049S07009172WA0018900190005010031313287
B2214332023046S07009176WA0019000190005010030311292
B2214342023044S07009180WA0019100191005010029301293
B2214352023042S07009183WA0019100191005010027294288
B2214362023040S07009187WA0019100192005010024294286
B2214372023039S07009190WA0019200192005010021294287
B2214382023038S07009194WA0019200193005010022290289
B2214392023036S07009197WA0019300194005010027292287
B2214402023035S07009201WA0019400194005010028289290
B2214412023034S07009206WA0019400195005010029283288
B2214422023033S07009210WA0019400196005010025273284
B2214432023033S07009213WA0019500196005010021272277
B2214442023033S07009217WA0019500197005010021277277
B2214452023032S07009220WA0019600198005010019282281
B2214462023032S07009223WA0019700199005010019288286
B2214472023031S07009225WA0019900199005010020294291
B2214482023030S07009229WA0020000200005010022279295
B2214492023030S07009232WA0020000201005010023264284
B2214502023030S07009235WA0020100202005010021266272
B2214512023030S07009239WA0020200202005010020280274
B2214522023029S07009242WA0020300203005010022295286
B2214532023027S07009245WA0020400204005010025292297
B2214542023026S07009249WA0020400205005010030284294
B2214552023025S07009254WA0020400205005010032282288
B2214562023024S07009259WA0020500206005010029282285
B2214572023023S07009263WA0020500207005010026284286
B2214582023022S07009267WA0020500208005010022281288
B2214592023021S07009271WA0020600208005010023276286
B2215002023021S07009274WA0020700209005010025275282
B2215012023021S07009279WA0020700210005010028275280
B2215022023020S07009283WA0020800210005010030270280
B2215032023021S07009288WA0020800211005010031262276
B2215042023021S07009294WA0020800212005010035263268
B2215052023022S07009298WA0020800212005010023264269
B2215062023022S07009301WA0020800213005010015282272
B2215072023021S07009302WA0020900215005010007286289
B2215082023020S07009304WA0021000216005010003269293
B2215092023021S07009303WA0021200217005010011126293
B2215102023022S07009301WA0021300217005010014108288
B2215112023022S07009298WA0021400218005010010097307
B2215122023023S07009297WA0021400219005010005113309
B2215132023023S07009296WA0021400219005010006154300
B2215142023024S07009295WA0021400219005010007163290
B2215152023026S07009295WA0021300219005010009172286
B2215162023028S07009295WA0021300218005010009177278
B2215172023030S07009294WA0021200218005010009180276
B2215182023031S07009294WA0021200218005010009172278
B2215192023033S07009295WA0021100218005010011161278
B2215202023034S07009294WA0021100218005010017145276
B2215212023036S07009292WA0021100218005010021126268
B2215222023038S07009288WA0021100218005010022109275
B2215232023038S07009285WA0021100218005010020096296
B2215242023038S07009282WA0021100219005010017096300
B2215252023039S07009280WA0021100219005010016110286
B2215262023040S07009277WA0021100219005010018113260
B2215272023041S07009274WA0021200219005010021108240
B2215282023041S07009271WA0021200219005010021098224
B2215292023041S07009268WA0021200220005010020091219
B2215302023041S07009266WA0021200220005010014094226
B2215312023042S07009263WA0021200220005010013120235
B2215322023043S07009261WA0021200220005010016133221
B2215332023045S07009259WA0021200220005010018129212
B2215342023046S07009257WA0021200220005010019125206
B2215352023048S07009255WA0021200220005010018124204
B2215362023049S07009253WA0021100220005010017130206
B2215372023051S07009250WA0021000219005010018137209
B2215382023053S07009248WA0021000219005010019139209
B2215392023055S07009246WA0020900218005010020132206
B2215402023057S07009244WA0020900218005010021124201
B2215412023059S07009240WA0020800217005010022122196
B2215422023060S07009237WA0020700216005010022124194
B2215432023062S07009234WA0020600215005010022124195
B2215442023064S07009231WA0020600214005010022120195
B2215452023066S07009228WA0020400213005010025113188
B2215462023067S07009224WA0020300212005010027107175
B2215472023068S07009220WA0020100211005010028104161
B2215482023069S07009216WA0019900210005010028107155
B2215492023071S07009212WA0019800209005010029110158
B2215502023072S07009208WA0019600207005010028112158
B2215512023073S07009204WA0019400206005010028109161
B2215522023075S07009199WA0019300204005010030105157
B2215532023076S07009195WA0019100203005010030102151
B2215542023077S07009190WA0019000201005010029103146
B2215552023078S07009186WA0018900200005010027105149
B2215562023079S07009182WA0018900199005010022106155
B2215572023080S07009179WA0018900197005010018108166
B2215582023081S07009176WA0018900196005010016117178
B2215592023082S07009174WA0018900195005010015131186
B2216002023084S07009172WA0019000194005010016142191
B2216012023085S07009170WA0019000192005010015143193
B2216022023087S07009168WA0019000192005010014137194
B2216032023088S07009166WA0018900191005010015131194
B2216042023090S07009164WA0018900190005010015131190
B2216052023091S07009163WA0018900189005010014134190
B2216062023093S07009161WA0018900189005010017139191
B2216072023095S07009159WA0018900188005010021142188
B2216082023098S07009157WA0018900187005010025135183
B2216092023101S07009154WA0018800187005010025123175
B2216102023102S07009150WA0018800187005010023107169
B2216112023103S07009147WA0018800187005010024091162
B2216122023103S07009143WA0018800187005010025090154
B2216132023104S07009139WA0018900187005010023105150
B2216142023105S07009136WA0019000186005010018136164
B2216152023107S07009136WA0019000186005010018208187
B2216162023110S07009138WA0019000186005010024239216
B2216172023110S07009142WA0019100186005010028277231
B2216182023109S07009147WA0019100186005010028293253
B2216192023108S07009150WA0019100187005010020301262
B2216202023106S07009153WA0019100188005010017290258
B2216212023107S07009155WA0019100188005010012227250
B2216222023109S07009156WA0019100188005010018171222
B2216232023112S07009154WA0019100188005010025137196
B2216242023114S07009151WA0019000188005010026110172
B2216252023115S07009148WA0018900188005010023093153
B2216262023115S07009144WA0018800189005010017088146
B2216272023115S07009142WA0018700189005010015094159
B2216282023116S07009140WA0018600188005010021134165
B2216292023118S07009137WA0018600188005010024132171
B2216302023121S07009134WA0018500188005010021115166
B2216312023121S07009131WA0018500188005010018098158
B2216322023122S07009129WA0018400188005010012106154
B2216332023123S07009128WA0018400188005010011159172
B2216342023125S07009128WA0018400187005010014194190
B2216352023127S07009129WA0018300186005010017231202
B2216362023128S07009132WA0018300186005010022265219
B2216372023127S07009135WA0018200186005010027288241
B2216382023125S07009139WA0018100185005010026299260
B2216392023124S07009143WA0018000185005010023295267
B2216402023122S07009146WA0018000185005010020287261
B2216412023121S07009149WA0017900185005010020287253
B2216422023120S07009153WA0017900185005010024290253
B2216432023119S07009157WA0017900184005010029294259
B2216442023117S07009161WA0017900184005010029300267
B2216452023114S07009165WA0017800184005010025302271
B2216462023113S07009168WA0017800184005010021293269
B2216472023112S07009171WA0017800183005010020279259
B2216482023112S07009174WA0017700182005010019259247
B2216492023113S07009176WA0017600182005010016223234
B2216502023115S07009177WA0017600181005010018162212
B2216512023117S07009175WA0017600180005010024123178
B2216522023118S07009171WA0017500179005010033100149
B2216532023119S07009165WA0017300179005010034094124
B2216542023120S07009160WA0017200178005010029099118
B2216552023121S07009156WA0017100177005010023102126
B2216562023122S07009153WA0017000176005010020105135
B2216572023123S07009150WA0016900176005010020117141
B2216582023124S07009147WA0016900175005010021136148
B2216592023127S07009145WA0016800174005010020159160
B2217002023130S07009144WA0016700172005010018181175
B2217012023132S07009145WA0016600171005010014215189
B2217022023134S07009147WA0016500170005010017250207
B2217032023134S07009150WA0016400169005010023269228
B2217042023133S07009154WA0016300168005010024276245
B2217052023132S07009158WA0016300167005010021290250
B2217062023132S07009160WA0016300167005010017290257
B2217072023131S07009162WA0016300166005010013282251
B2217082023131S07009164WA0016300165005010011261239
B2217092023132S07009166WA0016200165005010013244228
B2217102023133S07009167WA0016200164005010012233221
B2217112023134S07009168WA0016200163005010010231216
B2217122023135S07009169WA0016100162005010007226214
B2217132023136S07009170WA0016000160005010006210210
B2217142023137S07009170WA0016000159005010007197204
B2217152023138S07009170WA0015900158005010008183200
B2217162023139S07009170WA0015800157005010011171194
B2217172023141S07009170WA0015700156005010012165188
B2217182023143S07009169WA0015700155005010013166184
B2217192023145S07009169WA0015500154005010015175184
B2217202023147S07009169WA0015400153005010016189188
B2217212023149S07009169WA0015200151005010016196194
B2217222023152S07009170WA0015100150005010015191198
B2217232023154S07009170WA0015000148005010014178196
B2217242023155S07009170WA0014900147005010010170189
B2217252023156S07009170WA0014900146005010006163188
B2217262023157S07009170WA0014800146005010006158190
B2217272023158S07009170WA0014800145005010008169189
B2217282023160S07009170WA0014700143005010011185189
B2217292023161S07009170WA0014600142005010009196194
B2217302023162S07009171WA0014500141005010005186199
B2217312023163S07009171WA0014400140005010003152197
B2217322023163S07009170WA0014300140005010001067194
B2217332023163S07009170WA0014200139005010001018198
B2217342023163S07009170WA0014100138005010001040202
B2217352023163S07009170WA0014100138005010001029201
B2217362023163S07009170WA0014100137005010002063201
B2217372023162S07009171WA0014100137005010002070196
B2217382023161S07009173WA0014100136005010001045194
B2217392023161S07009174WA0014200135005010001342200
B2217402023161S07009174WA0014200135005010001020203
B2217412023161S07009174WA0014200135005010002020203
B2217422023161S07009174WA0014200135005010002051203
B2217432023161S07009174WA0014200135005010001043203
B2217442023161S07009174WA0014100135005010001035203
B2217452023161S07009174WA0014100135005010001057203
B2217462023161S07009174WA0014100135005010001043203
B2217472023161S07009174WA0014100135005010000066203
B2217482023161S07009174WA0014100135005010001095203
B2217492023161S07009174WA0014100135005010001098203
B2217502023161S07009174WA0014100135005010001110203
B2217512023161S07009174WA0014100135005010002089203
B2217522023161S07009174WA0014200135005010001099203
B2217532023161S07009174WA0014200135005010001073203
B2217542023161S07009174WA0014200135005010001076203
B2217552023161S07009173WA0014300134005010002069203
B2217562023161S07009171WA0014300134005010002048198
B2217572023161S07009171WA0014300133005010001024199
B2217582023161S07009171WA0014300133005010000020201
B2217592023161S07009171WA0014300133005010000000201
B2218002023161S07009171WA0014300133005010001356201
B2218012023161S07009171WA0014300133005010001343201
GC3pqr5Sf1hc++oBjXfiy3SomW916jSKjwGdjl4QoQby3xj9eI5WrIK3z7NujWYgK
GsGgx+Nm0eEutw77ECVCGr/Sh42jBwhglVTIAGQCCSlU9CODvSvcB8wqYLVWIapQN
GkQ6IsJwQLV/DY9u5+3NeM7qlrrn7VOHa651BC9K/HXI=

