AXFH000
HFDTE051124
HFPLTPILOT:Scott O’Brien
HFGTYGLIDERTYPE:Ozone Swift 6
HFDTM100GPSDATUM:WGS84
HFRFWFIRMWAREVERSION:8.2.5
HFRHWHARDWAREVERSION:iPhone 15
HFFTYFRTYPE:Flyskyhy,8.2.5
HFGPS:Internal
HFPRSVARIO:Internal Vario
HFCCLCOMPETITIONCLASS:Paraglider
HFTZNTIMEZONE:-3
HFSITSITE:Iquique - Palo Buque,CL
I053638FXA3941VXA4244GSP4547CCO4850HDT
C051124221200051124000105TASK
C0000000N00000000ETAKEOFF
C3832449N11204411W00000000001000000000360000STARTAREA T04
C3832449N11204411W00030009999999000000360000TURNAREA T04
C3833533N11148217W00000000002000000000360000TURNAREA P30
C3845304N11125100W00000000006000000000360000TURNAREA S08
C3913309N11109083W00000000002000000000360000TURNAREA F04
C3935774N11050460W00000000003000000000360000TURNAREA G14
C3935774N11050460W00000000000400000000360000FINISHAREA G14
C0000000N00000000ELANDING
B2212312023051S07009267WA0014100143005010000000186
B2212322023051S07009267WA0014100143005010000000181
B2212332023051S07009267WA0014200143005010000000223
B2212342023051S07009267WA0014200143005010000000248
B2212352023051S07009267WA0014200143005010000000239
B2212362023051S07009267WA0014200143005010000000248
B2212372023051S07009267WA0014200143005010000000302
B2212382023051S07009267WA0014200143005010000000339
B2212392023051S07009267WA0014300143005010000000324
B2212402023051S07009267WA0014300143005010000000311
B2212412023051S07009267WA0014300143005010002186339
B2212422023051S07009268WA0014300143005010000058347
B2212432023051S07009268WA0014300143005010001029308
B2212442023051S07009268WA0014300143005010001143204
B2212452023051S07009268WA0014300143005010001130168
B2212462023051S07009268WA0014300143005010001137168
B2212472023051S07009268WA0014300143005010002172184
B2212482023052S07009268WA0014300144005010005194178
B2212492023053S07009268WA0014200144005010008201176
B2212502023054S07009269WA0014200145005010011201184
B2212512023057S07009269WA0014200146005010015193181
B2212522023059S07009269WA0014100146005010016193183
B2212532023062S07009270WA0014100146005010015200194
B2212542023065S07009270WA0014100147005010015204190
B2212552023067S07009271WA0014200147005010015213191
B2212562023069S07009272WA0014200147005010016206196
B2212572023078S07009269WA0014200145005010017204191
B2212582023081S07009269WA0014200144005010014212189
B2212592023084S07009269WA0014200144005010012203187
B2213002023086S07009270WA0014200143005010013205184
B2213012023088S07009271WA0014100143005010015193178
B2213022023091S07009271WA0014100142005010019183182
B2213032023094S07009272WA0014000142005010017186186
B2213042023097S07009272WA0013900141005010014192185
B2213052023098S07009273WA0013900141005010013202181
B2213062023100S07009273WA0013800140005010014202179
B2213072023102S07009274WA0013700140005010016198174
B2213082023105S07009275WA0013600139005010017190184
B2213092023107S07009276WA0013500138005010018185269
B2213102023110S07009276WA0013300138005010014182048
B2213112023112S07009277WA0013200137005010010160179
B2213122023114S07009277WA0013100136005010004183169
B2213132023114S07009278WA0013100136005010001293177
B2213142023114S07009279WA0013000135005010002305180
B2213152023114S07009279WA0013000135005010001316182
B2213162023114S07009279WA0013000134005010001330179
B2213172023114S07009279WA0013000134005010001347178
B2213182023113S07009279WA0013000134005010001348178
B2213192023113S07009279WA0013000133005010001330178
B2213202023113S07009279WA0013000133005010001345178
B2213212023113S07009280WA0013000132005010001330178
B2213222023113S07009280WA0013000132005010001333178
B2213232023113S07009280WA0013000132005010001334178
B2213242023113S07009280WA0013000132005010001334178
B2213252023113S07009280WA0013000132005010001331178
B2213262023113S07009280WA0013000132005010001303178
B2213272023113S07009280WA0013000132005010000000178
B2213282023113S07009280WA0013000132005010000000178
B2213292023113S07009280WA0013000132005010000000178
B2213302023113S07009280WA0013000132005010000000178
B2213312023113S07009280WA0013000132005010001159178
B2213322023113S07009280WA0013000132005010002180178
B2213332023114S07009280WA0013000132005010002210178
B2213342023114S07009280WA0013000131005010001188179
B2213352023115S07009280WA0013000131005010002202177
B2213362023116S07009281WA0013000131005010003209179
B2213372023117S07009281WA0013000130005010001067181
B2213382023117S07009281WA0013000130005010001089176
B2213392023117S07009281WA0013000130005010000000176
B2213402023117S07009281WA0013000130005010000000178
B2213412023117S07009281WA0013000130005010001206178
B2213422023117S07009281WA0013000130005010000000178
B2213432023117S07009281WA0013000130005010001276178
GhZCZKnLio1Vq7JkeEYCnfASC+kblqB4C5Ls9Ku73nSPmPn/hCGItnlw+FaTtLwSA
GjuPUyPWAJpIEEzJ1Qeu4bbMWwVCzqC0VZ/W/Tb8nOwIyJoqifzHQBdww0tjCkxYA
GkX6rXYP1j7SdWNBz0sbiK/mVeyaOFj7TmpCfkV56iWg=

