AXFH000
HFDTE151124
HFPLTPILOT:Scott O’Brien
HFGTYGLIDERTYPE:BGD Epic M
HFDTM100GPSDATUM:WGS84
HFRFWFIRMWAREVERSION:8.2.5
HFRHWHARDWAREVERSION:iPhone 15
HFFTYFRTYPE:Flyskyhy,8.2.5
HFGPS:Internal
HFPRSVARIO:Internal Vario
HFCCLCOMPETITIONCLASS:Paraglider
HFTZNTIMEZONE:-3
HFSITSITE:Iquique - Palo Buque,CL
I053638FXA3941VXA4244GSP4547CCO4850HDT
C151124204535151124000105TASK
C0000000N00000000ETAKEOFF
C3832449N11204411W00000000001000000000360000STARTAREA T04
C3832449N11204411W00030009999999000000360000TURNAREA T04
C3833533N11148217W00000000002000000000360000TURNAREA P30
C3845304N11125100W00000000006000000000360000TURNAREA S08
C3913309N11109083W00000000002000000000360000TURNAREA F04
C3935774N11050460W00000000003000000000360000TURNAREA G14
C3935774N11050460W00000000000400000000360000FINISHAREA G14
C0000000N00000000ELANDING
B2046062023124S07009069WA0020300202010019003046166
B2046072023124S07009069WA0020300202010019003051160
B2046082023123S07009069WA0020300201010019002030164
B2046092023123S07009068WA0020300201010019002076177
B2046102023123S07009068WA0020200200010019001018170
B2046112023123S07009068WA0020200200010019001119180
B2046122023124S07009068WA0020200199010019001220164
B2046132023124S07009068WA0020100199010019002188182
B2046142023125S07009067WA0020100198010019009181170
B2046152023127S07009067WA0020000197010019011186160
B2046162023129S07009067WA0020000197010019015153152
B2046172023130S07009066WA0020000197010019018127140
B2046182023132S07009064WA0019900196010019014119130
B2046192023133S07009061WA0019900196010019019098138
B2046202023133S07009058WA0019900196010019012099163
B2046212023134S07009057WA0020000195010019008131168
B2046222023135S07009056WA0019900195010019010158182
B2046232023137S07009055WA0019800195010019010172173
B2046242023138S07009055WA0019800195010019009188204
B2046252023140S07009056WA0019800195010019011245221
B2046262023140S07009059WA0019700195010019020272241
B2046272023139S07009063WA0019700195010019030294265
B2046282023136S07009067WA0019600194010019041311285
B2046292023131S07009072WA0019500194010019047324295
B2046302023125S07009076WA0019500195010019043334294
B2046312023120S07009078WA0019500195010019036339291
B2046322023115S07009080WA0019500196010019029340281
B2046332023111S07009082WA0019600197010019030332289
B2046342023106S07009084WA0019800197010019036326291
B2046352023102S07009088WA0019900198010019040327286
B2046362023096S07009091WA0019900198010019040336299
B2046372023091S07009093WA0020000198010019036339310
B2046382023087S07009095WA0020000199010019031327305
B2046392023083S07009099WA0020000199010019031312303
B2046402023080S07009103WA0020000199010019033310297
B2046412023076S07009106WA0020000200010019034327304
B2046422023072S07009108WA0020100200010019032339320
B2046432023067S07009110WA0020100201010019031335317
B2046442023063S07009112WA0020200202010019031331316
B2046452023059S07009115WA0020400202010019032331320
B2046462023055S07009117WA0020500203010019035331319
B2046472023050S07009120WA0020600204010019039332315
B2046482023045S07009123WA0020700205010019038330316
B2046492023040S07009126WA0020800205010019031318311
B2046502023038S07009130WA0020900206010019026301303
B2046512023037S07009133WA0021000207010019023279289
B2046522023037S07009137WA0021000209010019019253273
B2046532023038S07009139WA0021100209010019014211255
B2046542023040S07009139WA0021200210010019015154234
B2046552023042S07009137WA0021200211010019014126202
B2046562023043S07009135WA0021300212010019012129166
B2046572023044S07009134WA0021300212010019010127203
B2046582023046S07009132WA0021300213010019018145212
B2046592023048S07009130WA0021300214010019023128181
B2047002023050S07009127WA0021200215010019026109148
B2047012023051S07009123WA0021200215010019024104127
B2047022023051S07009119WA0021200216010019021101137
B2047032023052S07009116WA0021200217010019019112144
B2047042023054S07009114WA0021200217010019020133156
B2047052023056S07009112WA0021300218010019019141163
B2047062023058S07009110WA0021300219010019019143159
B2047072023060S07009108WA0021400220010019018125163
B2047082023061S07009105WA0021400220010019017117156
B2047092023063S07009103WA0021500221010019016128162
B2047102023064S07009101WA0021500222010019015136164
B2047112023066S07009099WA0021600222010019016145157
B2047122023067S07009098WA0021700223010019011118166
B2047132023068S07009096WA0021800224010019011121164
B2047142023069S07009095WA0021800225010019011130160
B2047152023070S07009094WA0021900225010019019143165
B2047162023073S07009092WA0022000226010019023138145
B2047172023075S07009089WA0022200227010019019137153
B2047182023076S07009087WA0022300228010019013105158
B2047192023076S07009085WA0022500229010019011119159
B2047202023077S07009084WA0022700230010019009108162
B2047212023078S07009083WA0022900231010019013127157
B2047222023079S07009081WA0023000232010019015131152
B2047232023080S07009079WA0023100233010019014109146
B2047242023081S07009077WA0023100233010019013100140
B2047252023081S07009075WA0023100234010019014093151
B2047262023082S07009073WA0023100234010019016128149
B2047272023083S07009070WA0023000235010019018126149
B2047282023085S07009068WA0022900235010019018122143
B2047292023086S07009065WA0022900236010019017098137
B2047302023086S07009063WA0022800236010019016095146
B2047312023087S07009060WA0022800237010019016103144
B2047322023087S07009058WA0022800237010019018113142
B2047332023088S07009055WA0022800238010019019112147
B2047342023089S07009052WA0022800238010019019108148
B2047352023090S07009049WA0022800238010019016110157
B2047362023091S07009047WA0022800239010019013124164
B2047372023093S07009045WA0022800239010019012140169
B2047382023094S07009044WA0022800239010019011147169
B2047392023095S07009043WA0022800239010019011150167
B2047402023097S07009042WA0022800240010019010145168
B2047412023098S07009041WA0022800240010019011135164
B2047422023099S07009039WA0022800240010019011133162
B2047432023100S07009038WA0022800240010019011140167
B2047442023102S07009037WA0022800240010019011145171
B2047452023103S07009036WA0022800240010019010141168
B2047462023104S07009035WA0022800240010019010152172
B2047472023106S07009034WA0022800240010019011163175
B2047482023107S07009034WA0022800240010019008157170
B2047492023108S07009033WA0022800240010019010143161
B2047502023109S07009032WA0022800241010019011126171
B2047512023110S07009031WA0022900241010019011116162
B2047522023111S07009030WA0022900242010019008118180
B2047532023111S07009029WA0023000242010019011146174
B2047542023113S07009028WA0023100243010019016151165
B2047552023115S07009027WA0023100242010019015118154
B2047562023116S07009024WA0023100242010019013100156
B2047572023116S07009023WA0023100242010019011107165
B2047582023117S07009021WA0023100243010019010116166
B2047592023118S07009020WA0023100242010019014141159
B2048002023120S07009018WA0023100242010019015128155
B2048012023122S07009016WA0023100242010019016114149
B2048022023123S07009013WA0023000242010019016110150
B2048032023124S07009011WA0023000242010019014119158
B2048042023125S07009009WA0023000242010019014126159
B2048052023126S07009007WA0023000242010019016124160
B2048062023128S07009005WA0023000242010019017118156
B2048072023129S07009002WA0023000242010019016118160
B2048082023130S07009000WA0023000243010019015127171
B2048092023132S07008998WA0023000243010019014128165
B2048102023133S07008997WA0023000243010019014126157
B2048112023134S07008995WA0023000243010019014133162
B2048122023136S07008994WA0023100243010019013134162
B2048132023137S07008992WA0023200243010019013141167
B2048142023138S07008991WA0023300244010019011119176
B2048152023139S07008989WA0023400244010019012109155
B2048162023139S07008987WA0023500244010019015104158
B2048172023140S07008985WA0023600245010019015117165
B2048182023141S07008983WA0023600244010019016122159
B2048192023143S07008981WA0023600244010019014118158
B2048202023144S07008979WA0023600244010019012112158
B2048212023145S07008978WA0023600244010019012126173
B2048222023146S07008976WA0023600244010019012148173
B2048232023148S07008975WA0023600244010019014159182
B2048242023150S07008974WA0023600244010019015162172
B2048252023151S07008973WA0023600244010019009129172
B2048262023152S07008972WA0023700245010019006105165
B2048272023152S07008971WA0023800245010019005122190
B2048282023153S07008971WA0023900246010019009135169
B2048292023154S07008970WA0024000246010019013150168
B2048302023156S07008969WA0024000246010019014151176
B2048312023158S07008968WA0024100246010019013148169
B2048322023159S07008967WA0024200246010019013141165
B2048332023161S07008966WA0024200246010019016132151
B2048342023162S07008964WA0024200247010019019125143
B2048352023164S07008961WA0024200246010019022116136
B2048362023165S07008958WA0024200247010019026106127
B2048372023166S07008953WA0024100247010019027100122
B2048382023167S07008949WA0024100247010019028098122
B2048392023167S07008945WA0024100248010019027102141
B2048402023168S07008941WA0024100248010019025109149
B2048412023170S07008937WA0024100248010019024119168
B2048422023172S07008934WA0024100248010019022125184
B2048432023174S07008932WA0024100249010019017142192
B2048442023175S07008931WA0024100249010019010187202
B2048452023176S07008932WA0024100249010019011242216
B2048462023176S07008935WA0024100249010019019279235
B2048472023175S07008939WA0024100249010019025301258
B2048482023172S07008943WA0024100250010019030321280
B2048492023168S07008946WA0024100250010019034334301
B2048502023163S07008949WA0024100250010019035337300
B2048512023159S07008951WA0024100250010019033332291
B2048522023155S07008954WA0024100250010019031322279
B2048532023151S07008957WA0024100250010019031315271
B2048542023148S07008961WA0024100250010019029310264
B2048552023146S07008964WA0024100250010019026306255
B2048562023144S07008968WA0024100250010019022299249
B2048572023142S07008971WA0024100250010019020291249
B2048582023141S07008974WA0024100249010019021288249
B2048592023140S07008977WA0024100249010019021294260
B2049002023139S07008980WA0024000249010019025299257
B2049012023137S07008984WA0024000248010019025301254
B2049022023135S07008987WA0024000248010019025302257
B2049032023133S07008991WA0024000248010019025300250
B2049042023131S07008994WA0024000248010019025295249
B2049052023130S07008998WA0024000248010019026290250
B2049062023129S07009002WA0024100249010019024286241
B2049072023128S07009006WA0024100249010019021294242
B2049082023126S07009008WA0024200250010019016301236
B2049092023125S07009010WA0024400251010019015307239
B2049102023124S07009012WA0024600252010019018296244
B2049112023123S07009016WA0024700253010019024292248
B2049122023122S07009019WA0024800253010019024297256
B2049132023119S07009022WA0024800253010019027308260
B2049142023116S07009025WA0024800253010019027320264
B2049152023113S07009028WA0024800254010019028324268
B2049162023110S07009030WA0024800254010019029320267
B2049172023106S07009034WA0024800254010019032314270
B2049182023103S07009037WA0024700254010019032314272
B2049192023099S07009041WA0024700253010019032319278
B2049202023095S07009044WA0024700253010019031321275
B2049212023092S07009047WA0024600253010019031320263
B2049222023088S07009051WA0024600253010019032315269
B2049232023085S07009054WA0024600253010019034311265
B2049242023081S07009058WA0024600253010019033312266
B2049252023078S07009062WA0024600253010019031314271
B2049262023075S07009065WA0024600254010019032313264
B2049272023072S07009069WA0024600254010019034311269
B2049282023068S07009073WA0024600254010019033310263
B2049292023065S07009077WA0024600254010019029316253
B2049302023062S07009080WA0024700254010019026322279
B2049312023059S07009082WA0024800255010019026323263
B2049322023056S07009085WA0024900256010019030315255
B2049332023053S07009089WA0025000256010019030309262
B2049342023051S07009093WA0025200257010019029298246
B2049352023049S07009097WA0025300259010019025289243
B2049362023048S07009100WA0025500260010019024290257
B2049372023046S07009104WA0025600261010019025299248
B2049382023044S07009108WA0025700263010019028300249
B2049392023042S07009111WA0025800264010019027290242
B2049402023041S07009115WA0025900265010019024274226
B2049412023041S07009119WA0025900267010019020266219
B2049422023041S07009122WA0025900268010019016266215
B2049432023041S07009124WA0026000270010019012279226
B2049442023041S07009126WA0026200271010019014279236
B2049452023040S07009129WA0026400273010019016273230
B2049462023040S07009132WA0026500274010019022274239
B2049472023040S07009135WA0026700275010019023276231
B2049482023039S07009139WA0026800277010019021280231
B2049492023039S07009142WA0027000279010019016273205
B2049502023039S07009144WA0027200280010019011229199
B2049512023040S07009145WA0027400281010019014225195
B2049522023042S07009146WA0027600283010019015227199
B2049532023043S07009148WA0027700284010019013249208
B2049542023043S07009150WA0027800285010019013267221
B2049552023043S07009152WA0027900287010019013265204
B2049562023044S07009154WA0028000288010019012253202
B2049572023044S07009155WA0028000289010019013247202
B2049582023045S07009157WA0028100290010019016244202
B2049592023046S07009160WA0028100291010019016251197
B2050002023047S07009162WA0028100292010019015253203
B2050012023048S07009164WA0028000293010019015254196
B2050022023049S07009167WA0028000294010019015244207
B2050032023050S07009169WA0028100295010019012227194
B2050042023051S07009170WA0028200297010019012218197
B2050052023053S07009171WA0028400298010019010201200
B2050062023054S07009171WA0028600299010019009183193
B2050072023056S07009171WA0028800300010019012195199
B2050082023058S07009172WA0029000302010019013207205
B2050092023060S07009173WA0029100303005010014216202
B2050102023061S07009174WA0029200304005010015224202
B2050112023063S07009176WA0029300305005010014233199
B2050122023064S07009177WA0029400306005010014228205
B2050132023066S07009179WA0029500307005010013219190
B2050142023067S07009180WA0029600309005010013214204
B2050152023069S07009181WA0029800310005010013220205
B2050162023071S07009183WA0030100313005010009213185
B2050172023072S07009184WA0030300314005010007194185
B2050182023073S07009184WA0030300315005010009176176
B2050192023075S07009183WA0030500316005010011172174
B2050202023077S07009183WA0030600317005010011160175
B2050212023078S07009182WA0030700318005010010146171
B2050222023080S07009181WA0030800319005010011141163
B2050232023081S07009180WA0030800320005010011140169
B2050242023082S07009178WA0030800321005010011130163
B2050252023083S07009177WA0030900322005010012135160
B2050262023085S07009176WA0030900323005010013150171
B2050272023087S07009175WA0030800324005010016163167
B2050282023089S07009174WA0030800324005010016160167
B2050292023091S07009173WA0030700325005010015152168
B2050302023093S07009172WA0030600326005010016155167
B2050312023096S07009171WA0030500326005010020168171
B2050322023099S07009170WA0030300327005010020174177
B2050332023102S07009170WA0030200327005010018177175
B2050342023104S07009170WA0030100328005010016171179
B2050352023107S07009169WA0030100328005010015162169
B2050362023109S07009168WA0030000329005010016159171
B2050372023111S07009167WA0030000329005010016168175
B2050382023114S07009167WA0029900330005010015172180
B2050392023116S07009166WA0029900330005010014182193
B2050402023118S07009166WA0029900331005010012178188
B2050412023119S07009167WA0029800331005010011178186
B2050422023120S07009167WA0029800331005010010190195
B2050432023121S07009167WA0029800332005010013209195
B2050442023123S07009168WA0029800331005010014208198
B2050452023125S07009170WA0029700331005010016220202
B2050462023127S07009171WA0029600331005010011213201
B2050472023129S07009172WA0029600331005010010201191
B2050482023130S07009173WA0029500330005010011209198
B2050492023131S07009174WA0029500330005010011221202
B2050502023132S07009176WA0029500329005010014222203
B2050512023134S07009178WA0029500326005010018218205
B2050522023137S07009180WA0029400325005010017223202
B2050532023139S07009181WA0029400323005010017226203
B2050542023141S07009183WA0029400322005010017226200
B2050552023143S07009185WA0029300321005010018223208
B2050562023145S07009187WA0029200320005010016221202
B2050572023147S07009188WA0029200319005010013230210
B2050582023148S07009190WA0029200319005010013240217
B2050592023149S07009192WA0029300319005010013251217
B2051002023150S07009193WA0029400319005010017245214
B2051012023151S07009196WA0029400317005010020230215
B2051022023153S07009199WA0029400317005010019234218
B2051032023154S07009201WA0029300316005010019243204
B2051042023156S07009204WA0029200316005010020237219
B2051052023158S07009207WA0029200316005010022229212
B2051062023160S07009210WA0029200316005010025222198
B2051072023163S07009212WA0029100316005010027219202
B2051082023166S07009215WA0029100317005010024216214
B2051092023169S07009217WA0029100317005010015221210
B2051102023170S07009219WA0029200317005010016216201
B2051112023172S07009220WA0029400318005010017216198
B2051122023174S07009222WA0029700318005010016223201
B2051132023176S07009224WA0029700319005010017218197
B2051142023178S07009226WA0029900319005010018211195
B2051152023180S07009227WA0030200320005010018206191
B2051162023183S07009228WA0030300320005010017200191
B2051172023185S07009229WA0030300321005010014196193
B2051182023187S07009230WA0030400321005010013192189
B2051192023189S07009230WA0030500322005010012191193
B2051202023191S07009231WA0030500322005010013191190
B2051212023193S07009231WA0030500322005010016193190
B2051222023195S07009232WA0030500322005010015191189
B2051232023197S07009232WA0030500322005010014187188
B2051242023199S07009232WA0030400322005010013185188
B2051252023201S07009232WA0030400323005010014186186
B2051262023203S07009233WA0030300322005010015187189
B2051272023206S07009233WA0030200322005010016187188
B2051282023208S07009233WA0030100322005010016185187
B2051292023210S07009233WA0030100322005010015182188
B2051302023212S07009233WA0030000322005010014181185
B2051312023214S07009233WA0029800321005010014181189
B2051322023216S07009233WA0029700321005010014184193
B2051332023218S07009233WA0029700320005010012183188
B2051342023220S07009233WA0029600319005010010172180
B2051352023221S07009233WA0029500319005010010146170
B2051362023223S07009231WA0029300318005010014128155
B2051372023224S07009229WA0029300318005010017119142
B2051382023225S07009226WA0029200318005010021109136
B2051392023226S07009223WA0029100317005010024094131
B2051402023226S07009218WA0029000317005010028078130
B2051412023224S07009213WA0029000316005010034072109
B2051422023222S07009208WA0028900314005010036068097
B2051432023220S07009202WA0028700312005010039064100
B2051442023217S07009196WA0028600310005010044060084
B2051452023213S07009189WA0028600307005010049051069
B2051462023207S07009183WA0028400305005010052039053
B2051472023200S07009178WA0028300303005010053027031
B2051482023193S07009175WA0028100300005010053014009
B2051492023185S07009173WA0028100298005010051005347
B2051502023178S07009174WA0027900297005010049347329
B2051512023171S07009176WA0027700295005010046346314
B2051522023164S07009178WA0027600294005010042342308
B2051532023159S07009180WA0027600293005010038333297
B2051542023154S07009183WA0027400291005010033322278
B2051552023151S07009187WA0027300290005010030301259
B2051562023150S07009191WA0027200289005010025283241
B2051572023149S07009195WA0027200287005010020266221
B2051582023150S07009198WA0027100286005010018244198
B2051592023151S07009199WA0026900285005010010222184
B2052002023153S07009200WA0026800283005010007167171
B2052012023154S07009199WA0026800282005010012122164
B2052022023155S07009197WA0026700281005010014121159
B2052032023156S07009194WA0026600280005010016127162
B2052042023158S07009192WA0026500278005010017127171
B2052052023160S07009189WA0026500277005010016129160
B2052062023161S07009187WA0026400276005010014141175
B2052072023163S07009186WA0026400275005010015159188
B2052082023166S07009185WA0026300274005010018163178
B2052092023168S07009184WA0026300273005010019158168
B2052102023171S07009183WA0026300272005010018149173
B2052112023173S07009181WA0026300271005010014127152
B2052122023174S07009179WA0026200270005010012128163
B2052132023175S07009178WA0026200269005010012129170
B2052142023177S07009176WA0026200268005010016145163
B2052152023179S07009175WA0026200267005010017141167
B2052162023181S07009173WA0026200266005010019139160
B2052172023182S07009170WA0026200265005010017119153
B2052182023184S07009168WA0026100264005010016112160
B2052192023184S07009165WA0026100264005010017110163
B2052202023185S07009162WA0026100263005010018114148
B2052212023187S07009160WA0026100262005010019123160
B2052222023189S07009157WA0026100261005010020122151
B2052232023190S07009154WA0026000260005010019115141
B2052242023191S07009151WA0026000260005010020107143
B2052252023192S07009148WA0026000259005010024102139
B2052262023193S07009144WA0025900258005010028094125
B2052272023192S07009139WA0025900258005010029081115
B2052282023191S07009135WA0025800258005010031069100
B2052292023189S07009130WA0025800257005010036058084
B2052302023185S07009125WA0025800256005010047046060
B2052312023179S07009120WA0025700255005010055030033
B2052322023171S07009117WA0025700254005010058010007
B2052332023163S07009116WA0025700254005010049002332
B2052342023156S07009116WA0025600253005010044003304
B2052352023150S07009115WA0025500253005010040006282
B2052362023148S07009115WA0025300252005010013217282
B2052372023150S07009116WA0025300252010019014209188
B2052382023152S07009117WA0025200252010019009207177
B2052392023153S07009118WA0025200251010019007213167
B2052402023154S07009117WA0025200251010019012091172
B2052412023155S07009115WA0025200251010019019091149
B2052422023156S07009112WA0025100250010019026103141
B2052432023157S07009109WA0025100250010019022111150
B2052442023158S07009106WA0025100249010019013114174
B2052452023159S07009104WA0025100249010019012116195
B2052462023161S07009103WA0025100248010019006116204
B2052472023161S07009103WA0025000247010019007039213
B2052482023161S07009103WA0024800247010019011019216
B2052492023159S07009104WA0024800246010019016005220
B2052502023156S07009105WA0024600245010019031352258
B2052512023149S07009108WA0024500244010019034341323
B2052522023144S07009112WA0024300242010019032325299
B2052532023140S07009116WA0024300241010019029321271
B2052542023136S07009121WA0024200241010019025314258
B2052552023135S07009125WA0024100240010019019293242
B2052562023135S07009127WA0023900238010019012006219
B2052572023135S07009125WA0023900237010019029064192
B2052582023134S07009120WA0023700236010019036082102
B2052592023134S07009115WA0023400235010019030089122
B2053002023134S07009111WA0023200235010019025085146
B2053012023134S07009107WA0023200235010019023094154
B2053022023135S07009103WA0023000234010019019101165
B2053032023136S07009101WA0022800234010019015087173
B2053042023136S07009099WA0022600233010019016069175
B2053052023136S07009097WA0022600233010019019051109
B2053062023134S07009096WA0022400233010019022033089
B2053072023131S07009096WA0022200233010019022355056
B2053082023127S07009097WA0022000232010019021353304
B2053092023123S07009098WA0022000231010019018355294
B2053102023121S07009098WA0021900231010019016355282
B2053112023119S07009098WA0021800230010019012358264
B2053122023118S07009099WA0021700230010019012021229
B2053132023118S07009098WA0021600230010019012036180
B2053142023117S07009097WA0021600230010019011073153
B2053152023119S07009100WA0021500230010019007103161
B2053162023120S07009099WA0021300230010019008121181
B2053172023121S07009098WA0021200230010019006119193
B2053182023122S07009097WA0021200230010019001039206
B2053192023122S07009097WA0021200230010019007355221
B2053202023122S07009099WA0021000231010019012351222
B2053212023121S07009104WA0020900231010019023328244
B2053222023119S07009109WA0020900232010019018317254
B2053232023118S07009112WA0020900233010019011304237
B2053242023118S07009115WA0020800233010019007275216
B2053252023120S07009116WA0020700233010019011192203
B2053262023122S07009117WA0020700234010019008180186
B2053272023125S07009123WA0020600233010019008086183
B2053282023126S07009125WA0020600233010019025065173
B2053292023125S07009124WA0020500233010019022070140
B2053302023125S07009123WA0020500232010019020080154
B2053312023124S07009119WA0020400233010019021091170
B2053322023125S07009116WA0020300233010019020092182
B2053332023125S07009113WA0020300233010019019088185
B2053342023125S07009110WA0020300232010019021074184
B2053352023125S07009109WA0020300232010019019053172
B2053362023124S07009106WA0020200231010019019072172
B2053372023123S07009106WA0020200230010019005067165
B2053382023124S07009105WA0020200230010019005080187
B2053392023126S07009106WA0020100229010019009155181
B2053402023127S07009104WA0020000229010019029097176
B2053412023128S07009100WA0019900228010019027089143
B2053422023128S07009100WA0019900228010019019079150
B2053432023128S07009098WA0019900228010019018080171
B2053442023128S07009096WA0019800228010019019094176
B2053452023129S07009094WA0019800228010019018097183
B2053462023130S07009091WA0019800227010019015092187
B2053472023131S07009092WA0019800227010019008084198
B2053482023133S07009096WA0019800227010019004010212
B2053492023132S07009096WA0019700225010019013353221
B2053502023132S07009103WA0019700224010019024328233
B2053512023128S07009107WA0019600223010019025323262
B2053522023124S07009112WA0019600223010019023318252
B2053532023122S07009117WA0019500223010019019308232
B2053542023122S07009121WA0019500221010019018287216
B2053552023122S07009124WA0019400220010019010291204
B2053562023122S07009124WA0019200220010019016049191
B2053572023122S07009125WA0019000220010019020068160
B2053582023122S07009123WA0019000220010019033069147
B2053592023121S07009121WA0018800221010019032068126
B2054002023120S07009118WA0018600220010019030074131
B2054012023119S07009116WA0018500220010019028083144
B2054022023119S07009113WA0018500220010019025085163
B2054032023120S07009110WA0018400220010019023093163
B2054042023121S07009107WA0018300220010019022107182
B2054052023123S07009106WA0018200219010019018112185
B2054062023126S07009106WA0018200219010019018108174
B2054072023127S07009105WA0018100219010019011102161
B2054082023128S07009105WA0018000219010019009117182
B2054092023130S07009106WA0017800219010019008158187
B2054102023132S07009107WA0017800219010019011179188
B2054112023135S07009108WA0017700219010019012183195
B2054122023138S07009109WA0017500219010019010194202
B2054132023140S07009111WA0017300219010019010212209
B2054142023143S07009114WA0017300219010019013229209
B2054152023145S07009117WA0017100219010019013226201
B2054162023147S07009119WA0017000219010019011226209
B2054172023150S07009121WA0016900219010019009232219
B2054182023150S07009123WA0016900219010019010251209
B2054192023152S07009126WA0016900217010019012265231
B2054202023154S07009130WA0016800215010019016263229
B2054212023155S07009134WA0016700214010019018262224
B2054222023156S07009137WA0016700214010019017262222
B2054232023158S07009142WA0016600209010019016266225
B2054242023159S07009146WA0016500206010019016272229
B2054252023160S07009150WA0016400204010019018279239
B2054262023160S07009154WA0016400203010019020290249
B2054272023160S07009159WA0016300201010019023298253
B2054282023158S07009164WA0016300200010019024302267
B2054292023157S07009168WA0016300200010019023300252
B2054302023156S07009173WA0016300199010019022291232
B2054312023155S07009176WA0016300198010019020269228
B2054322023156S07009179WA0016200196010019019252214
B2054332023157S07009182WA0016100195010019016228200
B2054342023159S07009184WA0016100194010019015212183
B2054352023161S07009185WA0016000193010019008183174
B2054362023162S07009185WA0015800193010019005152172
B2054372023163S07009184WA0015700192010019010131173
B2054382023164S07009183WA0015700192010019013141168
B2054392023166S07009182WA0015600191010019014141168
B2054402023168S07009180WA0015500191010019014132158
B2054412023169S07009178WA0015400190010019013122158
B2054422023170S07009177WA0015400190010019012117155
B2054432023171S07009175WA0015300189010019013115160
B2054442023172S07009173WA0015300189010019015136166
B2054452023174S07009171WA0015200188010019016141166
B2054462023176S07009170WA0015200188010019013163182
B2054472023178S07009170WA0015100187010019011179185
B2054482023180S07009170WA0015000187010019010181191
B2054492023181S07009170WA0014900186010019009174184
B2054502023183S07009170WA0014900185010019010185190
B2054512023185S07009170WA0014800184010019010187188
B2054522023186S07009170WA0014700183010019011223199
B2054532023187S07009171WA0014600182010019007251210
B2054542023187S07009172WA0014600182010019007250210
B2054552023187S07009173WA0014500181010019005253181
B2054562023187S07009174WA0014400180010019006233200
B2054572023188S07009174WA0014300179010019005266220
B2054582023187S07009175WA0014300178010019004300217
B2054592023187S07009175WA0014300176010019004296204
B2055002023188S07009175WA0014200174010019009205197
B2055012023189S07009175WA0014100173010019008183169
B2055022023190S07009175WA0014100171010019004166179
B2055032023190S07009174WA0013900170010019003175273
B2055042023190S07009174WA0013800170010019002165126
B2055052023190S07009174WA0013700170010019001172137
B2055062023190S07009174WA0013700170010019000000143
B2055072023190S07009174WA0013700170010019001211266
B2055082023190S07009174WA0013700170010019001228252
B2055092023190S07009174WA0013700170010019001234244
B2055102023190S07009174WA0013700170010019002223240
B2055112023190S07009174WA0013700170010019002228234
B2055122023190S07009174WA0013700170010019001244191
B2055132023190S07009174WA0013700170010019002001192
B2055142023190S07009174WA0013700170010019004015216
B2055152023189S07009174WA0013700169010019001007217
B2055162023189S07009174WA0013700169010019001346222
B2055172023189S07009174WA0013700169010019001357221
B2055182023189S07009174WA0013700169010019000000221
B2055192023189S07009174WA0013700169010019000000220
B2055202023189S07009174WA0013700169010019000000219
B2055212023189S07009174WA0013700169010019000000219
B2055222023189S07009174WA0013700169010019000000219
B2055232023189S07009174WA0013700169010019000000219
B2055242023189S07009174WA0013700169010019001150218
B2055252023189S07009174WA0013700169010019001128218
B2055262023189S07009174WA0013700169010019000000218
B2055272023189S07009174WA0013700169010019000000218
B2055282023189S07009174WA0013700169010019000000218
B2055292023189S07009174WA0013700169010019000000218
B2055302023189S07009174WA0013700169010019000000218
B2055312023189S07009174WA0013700169010019000000217
B2055322023189S07009174WA0013700169010019000000217
B2055332023189S07009174WA0013700169010019000000217
B2055342023189S07009174WA0013700169010019000000217
B2055352023189S07009174WA0013700169010019000000217
B2055362023189S07009174WA0013700169010019000000217
B2055372023189S07009174WA0013700169010019000000217
B2055382023189S07009174WA0013700169010019000000217
B2055392023189S07009174WA0013700169010019000000217
B2055402023189S07009174WA0013700169010019000000217
B2055412023189S07009174WA0013700169010019000000217
B2055422023189S07009174WA0013700169010019000000217
B2055432023189S07009174WA0013700169010019000000217
B2055442023189S07009174WA0013700169010019000000217
B2055452023189S07009174WA0013700169010019000000217
GSOlF8Y/sJS1yd69c5dww8EGzOigZ4cve3yBPwKtkr2BxPdkW5t0A/4EYewi+A9Qo
GWvBbdgLrlbbdMDBH73HCS6LiLwMEf+25FUCS5gFQ9YHwGGrxf8q1iEuv/1VeAjjW
GwpNnIkCRsbaU6bYTpvjq+UhmkCJ8Owy2r2eWJXuJ/DY=

