AXFH000
HFDTE110226
HFPLTPILOT:Scott O’Brien
HFGTYGLIDERTYPE:Ozone Swift 6
HFDTM100GPSDATUM:WGS84
HFRFWFIRMWAREVERSION:9.4
HFRHWHARDWAREVERSION:iPhone 15
HFFTYFRTYPE:Flyskyhy,9.4
HFGPS:Bluetooth vario
HFPRSVARIO:Bluetooth vario
HFCCLCOMPETITIONCLASS:Paraglider
HFTZNTIMEZONE:-6
HFSITSITE:Gravedad Cero, Tapalpa, Jalisco,MX
I053638FXA3941VXA4244GSP4547CCO4850HDT
B1547271956533N10339242WA0222502225001100000021247
B1547281956533N10339242WA0222502225001100000021248
B1547291956533N10339242WA0222502225001100000021247
B1547301956533N10339242WA0222502225001100000021246
B1547311956533N10339242WA0222502225001100000021237
B1547321956533N10339242WA0222502225001100000021242
B1547331956533N10339242WA0222502225001100000021240
B1547341956533N10339242WA0222502225001100000021241
B1547351956533N10339242WA0222502225001100000021241
B1547361956533N10339242WA0222502225001100000021234
B1547371956533N10339242WA0222502225001100000021224
B1547381956533N10339242WA0222602225001100000021224
B1547391956533N10339242WA0222602225001100000021225
B1547401956533N10339242WA0222502225001100000021220
B1547411956533N10339242WA0222502225001100000021220
B1547421956533N10339242WA0222502225001100000021218
B1547431956533N10339242WA0222502226001100000021225
B1547441956533N10339242WA0222502226001100000021243
B1547451956533N10339242WA0222502226001100000021242
B1547461956533N10339242WA0222502226001100000021208
B1547471956533N10339242WA0222502226001100000021221
B1547481956533N10339242WA0222502226001100000021258
B1547491956533N10339242WA0222502226001100000021242
B1547501956533N10339242WA0222602226001100000021262
B1547511956533N10339241WA0222502226001100002099280
B1547521956533N10339241WA0222402225001100002104246
B1547531956533N10339240WA0222402225001100002068011
B1547541956533N10339240WA0222202225001100007075064
B1547551956534N10339238WA0222002225001100011085045
B1547561956534N10339235WA0222002225001100016082075
B1547571956535N10339232WA0221802225001100021087080
B1547581956535N10339228WA0221702225001100023091084
B1547591956534N10339224WA0221602225001100025098068
B1548001956533N10339219WA0221702225001100030097044
B1548011956533N10339214WA0221802224001100028089077
B1548021956534N10339208WA0221702224001100028082068
B1548031956535N10339204WA0221602223001100030087074
B1548041956535N10339198WA0221502222001100033092076
B1548051956535N10339192WA0221602222001100034091060
B1548061956535N10339187WA0221602222001100029085060
B1548071956536N10339182WA0221702222001100027071070
B1548081956538N10339178WA0221702221001100028068062
B1548091956539N10339174WA0221402221001100029070074
B1548101956541N10339168WA0221102220001100032074091
B1548111956542N10339163WA0220902218001100035080094
B1548121956542N10339157WA0220602217001100037090091
B1548131956541N10339151WA0220402215001100036101074
B1548141956538N10339145WA0220102213001100037112086
B1548151956535N10339140WA0220002209001100038121095
B1548161956531N10339135WA0219702207001100037125077
B1548171956529N10339130WA0219402203001100036116076
B1548181956527N10339124WA0219102199001100037105075
B1548191956526N10339119WA0219002196001100033098091
B1548201956525N10339114WA0218702194001100029100083
B1548211956524N10339110WA0218702191001100024102092
B1548221956523N10339106WA0218502189001100027107085
B1548231956522N10339102WA0218202185001100030105077
B1548241956521N10339096WA0217902182001100036102080
B1548251956520N10339091WA0217802179001100034100076
B1548261956519N10339086WA0217902177001100031096086
B1548271956519N10339081WA0217802176001100030097080
B1548281956518N10339076WA0217702174001100032099081
B1548291956518N10339071WA0217502173001100034100084
B1548301956517N10339065WA0217502171001100032099082
B1548311956516N10339061WA0217602170001100028099087
B1548321956516N10339056WA0217702169001100026086086
B1548331956517N10339052WA0217702169001100023068080
B1548341956519N10339049WA0217502168001100025065064
B1548351956521N10339045WA0217402167001100029071062
B1548361956522N10339040WA0217402167001100032074059
B1548371956524N10339035WA0217502168001100030071062
B1548381956526N10339031WA0217502169001100029066066
B1548391956528N10339027WA0217702169001100027063058
B1548401956530N10339023WA0217902170001100026065071
B1548411956531N10339019WA0217902170001100028071069
B1548421956532N10339014WA0218002170001100030079080
B1548431956533N10339009WA0217902170001100031088105
B1548441956532N10339005WA0217902170001100030098104
B1548451956530N10339000WA0217902170001100029109107
B1548461956527N10338997WA0218002170001100029129120
B1548471956523N10338994WA0218202171001100029138117
B1548481956519N10338991WA0218402172001100027148113
B1548491956516N10338989WA0218402173001100027146110
B1548501956512N10338986WA0218402173001100030140105
B1548511956509N10338983WA0218202173001100031133097
B1548521956506N10338978WA0217902173001100032121097
B1548531956505N10338972WA0217902172001100035103073
B1548541956505N10338966WA0218002173001100035095093
B1548551956505N10338960WA0218102173001100033097083
B1548561956504N10338955WA0218002172001100033098085
B1548571956503N10338950WA0217802172001100034100087
B1548581956503N10338944WA0217502171001100038098089
B1548591956503N10338937WA0217302169001100042090089
B1549001956503N10338930WA0217402169001100041089081
B1549011956503N10338923WA0217502169001100037094086
B1549021956502N10338917WA0217402169001100036098086
B1549031956501N10338911WA0217202168001100039098086
B1549041956500N10338905WA0217002167001100040100080
B1549051956498N10338899WA0216502165001100043104081
B1549061956497N10338891WA0216202163001100047096085
B1549071956497N10338882WA0216202164001100046093083
B1549081956498N10338874WA0216402165001100043093083
B1549091956499N10338867WA0216402165001100040085085
B1549101956499N10338861WA0216302164001100039087078
B1549111956499N10338854WA0216102162001100042091074
B1549121956499N10338847WA0216002160001100042094077
B1549131956499N10338840WA0216102161001100039091081
B1549141956500N10338834WA0216302161001100036082082
B1549151956501N10338829WA0216402162001100032077077
B1549161956502N10338824WA0216502163001100032085081
B1549171956502N10338819WA0216602163001100033096088
B1549181956501N10338814WA0216702164001100033107082
B1549191956499N10338809WA0216902165001100029113080
B1549201956497N10338805WA0216902164001100026114088
B1549211956496N10338802WA0216802165001100027112093
B1549221956494N10338798WA0216702164001100028112097
B1549231956493N10338793WA0216402162001100031103095
B1549241956492N10338788WA0216302162001100030095086
B1549251956493N10338784WA0216102161001100027083082
B1549261956495N10338781WA0215802158001100026049071
B1549271956498N10338778WA0215602157001100025037046
B1549281956504N10338777WA0215502156001100031013038
B1549291956509N10338777WA0215302154001100035003018
B1549301956515N10338777WA0215202152001100034358008
B1549311956520N10338778WA0215102151001100034353004
B1549321956525N10338778WA0215102150001100033352359
B1549331956531N10338779WA0215002149001100033350358
B1549341956536N10338780WA0215002149001100033346358
B1549351956540N10338782WA0214902148001100031341353
B1549361956545N10338784WA0214902147001100031343356
B1549371956550N10338785WA0214602146001100032349358
B1549381956555N10338785WA0214302145001100036004003
B1549391956560N10338782WA0214102142001100038028016
B1549401956565N10338776WA0214002141001100046048029
B1549411956570N10338769WA0214002139001100048054035
B1549421956574N10338763WA0213802138001100047054044
B1549431956579N10338757WA0213702136001100047055049
B1549441956583N10338750WA0213502135001100048061055
B1549451956586N10338743WA0213402132001100048070057
B1549461956587N10338735WA0213202130001100052080062
B1549471956588N10338727WA0213002129001100052082057
B1549481956589N10338719WA0213002128001100050083063
B1549491956590N10338711WA0212902127001100048083063
B1549501956591N10338704WA0212702126001100048086066
B1549511956591N10338696WA0212602125001100048091066
B1549521956590N10338688WA0212602124001100048095072
B1549531956589N10338681WA0212502122001100048099075
B1549541956588N10338673WA0212202120001100048102077
B1549551956586N10338665WA0212002118001100051105070
B1549561956584N10338657WA0211902116001100050104068
B1549571956582N10338649WA0211702114001100050098069
B1549581956582N10338642WA0211502112001100049091069
B1549591956582N10338634WA0211402110001100049087070
B1550001956582N10338626WA0211202108001100048087063
B1550011956582N10338618WA0211102106001100047088061
B1550021956583N10338611WA0211002105001100045090065
B1550031956582N10338604WA0211002105001100042092069
B1550041956582N10338598WA0211002105001100038093069
B1550051956582N10338592WA0210902103001100037090072
B1550061956582N10338586WA0210702102001100039085069
B1550071956583N10338579WA0210602100001100041079068
B1550081956584N10338573WA0210502099001100041076064
B1550091956586N10338567WA0210402099001100037077063
B1550101956587N10338561WA0210302097001100034078065
B1550111956588N10338556WA0210102096001100034077064
B1550121956590N10338551WA0209802093001100038075063
B1550131956591N10338544WA0209502091001100043073062
B1550141956593N10338538WA0209502090001100043075062
B1550151956595N10338531WA0209402089001100043074063
B1550161956596N10338525WA0209602088001100038075063
B1550171956598N10338520WA0209602086001100034066064
B1550181956600N10338516WA0209402084001100034058056
B1550191956603N10338511WA0209302083001100035060050
B1550201956605N10338506WA0209102082001100036066046
B1550211956607N10338500WA0209102081001100035070045
B1550221956609N10338495WA0209102081001100033070042
B1550231956610N10338491WA0209102080001100031072050
B1550241956612N10338486WA0209102080001100030078055
B1550251956612N10338481WA0208902079001100031085051
B1550261956612N10338476WA0208902078001100033091059
B1550271956612N10338471WA0208802077001100035092056
B1550281956612N10338465WA0208602077001100034092056
B1550291956611N10338460WA0208602076001100032092060
B1550301956611N10338455WA0208402075001100032092065
B1550311956611N10338449WA0208202073001100034094065
B1550321956610N10338444WA0208102072001100035093065
B1550331956610N10338438WA0208002071001100035092065
B1550341956610N10338433WA0207902071001100033093061
B1550351956609N10338428WA0207902070001100033094058
B1550361956609N10338423WA0207902069001100033091057
B1550371956609N10338417WA0207702068001100033086062
B1550381956610N10338412WA0207702067001100033082057
B1550391956610N10338407WA0207602066001100032086058
B1550401956610N10338402WA0207502064001100032092055
B1550411956609N10338397WA0207302063001100033096054
B1550421956609N10338392WA0207202062001100034093060
B1550431956609N10338386WA0207102061001100034087059
B1550441956609N10338381WA0207002059001100032087067
B1550451956609N10338376WA0206802058001100033092064
B1550461956609N10338371WA0206502056001100035094071
B1550471956608N10338365WA0206402054001100039094065
B1550481956608N10338358WA0206202052001100042093064
B1550491956607N10338352WA0206002050001100040094061
B1550501956607N10338345WA0205902048001100037094059
B1550511956606N10338340WA0205702047001100034098058
B1550521956605N10338335WA0205502045001100034098061
B1550531956605N10338329WA0205202043001100037095067
B1550541956605N10338323WA0204902039001100037091065
B1550551956604N10338318WA0204802038001100033093064
B1550561956604N10338313WA0204702035001100031093068
B1550571956604N10338308WA0204702033001100027095068
B1550581956603N10338304WA0204502031001100025103066
B1550591956602N10338300WA0204302028001100028099063
B1551001956601N10338296WA0204102026001100032090049
B1551011956602N10338291WA0204002024001100029082046
B1551021956604N10338287WA0203902022001100027050039
B1551031956607N10338284WA0203802021001100027039028
B1551041956611N10338282WA0203602019001100026027026
B1551051956615N10338281WA0203502017001100030017025
B1551061956620N10338279WA0203502016001100031025018
B1551071956624N10338277WA0203402014001100031030019
B1551081956628N10338274WA0203202012001100029036000
B1551091956631N10338271WA0203102011001100030040029
B1551101956635N10338268WA0202902009001100031042021
B1551111956638N10338264WA0202502006001100039052029
B1551121956641N10338258WA0202202004001100043055023
B1551131956645N10338253WA0202002001001100043048020
B1551141956651N10338249WA0201802000001100042031021
B1551151956657N10338246WA0201901998001100042027016
B1551161956662N10338244WA0201901996001100039027018
B1551171956667N10338241WA0201801995001100036034015
B1551181956671N10338237WA0201601992001100037038016
B1551191956675N10338234WA0201301990001100038037023
B1551201956680N10338230WA0201101988001100038040022
B1551211956684N10338226WA0201101987001100038043036
B1551221956687N10338222WA0201101985001100034050043
B1551231956689N10338218WA0201001984001100030066048
B1551241956688N10338213WA0200801982001100030084057
B1551251956685N10338209WA0200501980001100032105073
B1551261956679N10338204WA0200401979001100038130082
B1551271956675N10338199WA0200301979001100039132098
B1551281956670N10338195WA0200301977001100036127102
B1551291956667N10338190WA0200101977001100034126091
B1551301956663N10338186WA0200001976001100034128093
B1551311956659N10338182WA0199801974001100037127098
B1551321956656N10338177WA0199601971001100039121097
B1551331956653N10338171WA0199201969001100041114095
B1551341956650N10338165WA0199101967001100043105090
B1551351956649N10338158WA0198801965001100045099085
B1551361956648N10338150WA0198901964001100043098080
B1551371956647N10338143WA0198801964001100041097081
B1551381956647N10338137WA0198801963001100041097079
B1551391956646N10338130WA0198701961001100040093079
B1551401956646N10338124WA0198501959001100040087076
B1551411956647N10338118WA0198401958001100041079070
B1551421956649N10338112WA0198201956001100040068065
B1551431956652N10338106WA0198001955001100040063057
B1551441956654N10338100WA0197901955001100038062052
B1551451956657N10338095WA0197801954001100034063051
B1551461956659N10338090WA0197801955001100032061052
B1551471956662N10338086WA0197801954001100030055050
B1551481956664N10338083WA0197701953001100028046045
B1551491956667N10338080WA0197601952001100027037038
B1551501956671N10338078WA0197401950001100030033028
B1551511956675N10338075WA0197301949001100031032023
B1551521956679N10338072WA0197101947001100030035021
B1551531956683N10338069WA0197101946001100030040018
B1551541956686N10338066WA0197001945001100028042025
B1551551956689N10338063WA0196801944001100026048031
B1551561956692N10338060WA0196701943001100026051024
B1551571956694N10338057WA0196501942001100029052026
B1551581956697N10338053WA0196301940001100030053034
B1551591956700N10338049WA0196101939001100032061054
B1552001956701N10338044WA0196001938001100034077075
B1552011956701N10338038WA0195701936001100038101084
B1552021956699N10338033WA0195601934001100038111075
B1552031956696N10338027WA0195401933001100040116059
B1552041956694N10338021WA0195201931001100038110064
B1552051956692N10338015WA0195001929001100037105068
B1552061956691N10338009WA0195001927001100038106076
B1552071956689N10338004WA0194801926001100040110071
B1552081956686N10337998WA0194501924001100041114063
B1552091956684N10337992WA0194401922001100039114067
B1552101956682N10337986WA0194001920001100038105052
B1552111956681N10337980WA0193801918001100038098048
B1552121956680N10337974WA0193601916001100037091051
B1552131956680N10337968WA0193301913001100038089056
B1552141956681N10337962WA0193001911001100038086056
B1552151956681N10337956WA0192701909001100038079056
B1552161956683N10337951WA0192401906001100038070053
B1552171956686N10337945WA0192101904001100037059049
B1552181956690N10337941WA0191901901001100038048043
B1552191956694N10337936WA0191701899001100037046037
B1552201956698N10337932WA0191501896001100037048036
B1552211956701N10337928WA0191201893001100037050037
B1552221956705N10337923WA0191001891001100036044040
B1552231956709N10337920WA0190801889001100033038037
B1552241956713N10337917WA0190701888001100030034032
B1552251956717N10337914WA0190501886001100027041025
B1552261956720N10337911WA0190301884001100030054032
B1552271956722N10337907WA0190101881001100034062028
B1552281956724N10337901WA0189901879001100037068035
B1552291956727N10337896WA0189701878001100038068040
B1552301956729N10337890WA0189701877001100036066042
B1552311956731N10337885WA0189601875001100035062046
B1552321956734N10337880WA0189401873001100035062045
B1552331956736N10337875WA0189201871001100037063047
B1552341956739N10337870WA0189101870001100038066046
B1552351956741N10337864WA0189001869001100037070050
B1552361956742N10337859WA0188901868001100036073053
B1552371956744N10337853WA0188801866001100035075056
B1552381956745N10337848WA0188701865001100036074058
B1552391956747N10337842WA0188501863001100038072057
B1552401956749N10337837WA0188401862001100038069055
B1552411956751N10337831WA0188301861001100037065054
B1552421956754N10337826WA0188301859001100037059052
B1552431956757N10337821WA0188101858001100038058048
B1552441956760N10337816WA0187901856001100040059048
B1552451956763N10337810WA0187901854001100040060049
B1552461956766N10337805WA0187701853001100039058050
B1552471956769N10337800WA0187601851001100039053048
B1552481956773N10337795WA0187501850001100039049045
B1552491956777N10337790WA0187401849001100040049042
B1552501956780N10337785WA0187301847001100039051042
B1552511956784N10337780WA0187101846001100040052044
B1552521956788N10337776WA0187001845001100040048045
B1552531956792N10337771WA0186901844001100038044041
B1552541956796N10337767WA0186901843001100037050038
B1552551956799N10337762WA0186701842001100036057038
B1552561956801N10337757WA0186501840001100037067039
B1552571956803N10337751WA0186501839001100039071046
B1552581956805N10337745WA0186401838001100038069051
B1552591956807N10337739WA0186301837001100038069050
B1553001956809N10337734WA0186101835001100038068052
B1553011956811N10337728WA0186001834001100039068052
B1553021956813N10337722WA0185801832001100039069053
B1553031956815N10337716WA0185701831001100039072055
B1553041956817N10337710WA0185501830001100040076058
B1553051956818N10337704WA0185401828001100040077061
B1553061956819N10337698WA0185301827001100039075062
B1553071956821N10337691WA0185201826001100039074061
B1553081956823N10337686WA0185101825001100038071060
B1553091956825N10337680WA0184901823001100037069058
B1553101956827N10337674WA0184701822001100037068056
B1553111956829N10337669WA0184801821001100036066056
B1553121956831N10337664WA0184701820001100034067051
B1553131956832N10337659WA0184601820001100032077057
B1553141956833N10337654WA0184601819001100033086075
B1553151956832N10337648WA0184301818001100034098088
B1553161956828N10337644WA0184101816001100037130103
B1553171956823N10337641WA0183801815001100039146130
B1553181956816N10337641WA0183701812001100035175149
B1553191956811N10337643WA0183401811001100034196179
B1553201956806N10337646WA0183201809001100027201206
B1553211956805N10337651WA0183001809001100025224215
B1553221956807N10337656WA0182901807001100015241252
B1553231956812N10337658WA0182801805001100014324302
B1553241956818N10337659WA0182801804001100022016347
B1553251956823N10337657WA0182701804001100025032002
B1553261956827N10337656WA0182501802001100027037008
B1553271956831N10337653WA0182201800001100029033012
B1553281956836N10337651WA0182101799001100034030011
B1553291956841N10337648WA0181901796001100038027011
B1553301956847N10337646WA0181901794001100036028010
B1553311956852N10337643WA0181901793001100034030010
B1553321956857N10337640WA0181801792001100030033012
B1553331956861N10337638WA0181601790001100031031012
B1553341956865N10337635WA0181501788001100034027012
B1553351956870N10337633WA0181301785001100037026005
B1553361956875N10337630WA0181201784001100037029001
B1553371956880N10337627WA0181101782001100036035004
B1553381956884N10337624WA0181001781001100034040007
B1553391956888N10337620WA0180901780001100031041013
B1553401956892N10337617WA0180701778001100032034009
B1553411956896N10337615WA0180601776001100036032006
B1553421956901N10337611WA0180401774001100037034020
B1553431956906N10337608WA0180301773001100036039012
B1553441956910N10337604WA0180301772001100034044009
B1553451956914N10337601WA0180201771001100033043011
B1553461956917N10337597WA0180101770001100033039010
B1553471956921N10337594WA0179901768001100035038017
B1553481956925N10337590WA0179701766001100037042019
B1553491956929N10337586WA0179601765001100037047016
B1553501956933N10337582WA0179501764001100037049014
B1553511956937N10337577WA0179401763001100036048013
B1553521956941N10337573WA0179301761001100036047019
B1553531956944N10337569WA0179201760001100036049023
B1553541956948N10337565WA0179001758001100037051024
B1553551956951N10337560WA0178901757001100038055021
B1553561956954N10337555WA0178801756001100038055018
B1553571956958N10337550WA0178701755001100037053020
B1553581956961N10337545WA0178601754001100037053024
B1553591956964N10337540WA0178501753001100036055028
B1554001956967N10337535WA0178301752001100037058030
B1554011956970N10337530WA0178201751001100038060024
B1554021956973N10337525WA0178101749001100038060024
B1554031956976N10337520WA0178101748001100037059019
B1554041956979N10337515WA0177901747001100036057023
B1554051956982N10337510WA0177801746001100036057027
B1554061956985N10337505WA0177701745001100037057027
B1554071956988N10337500WA0177501743001100038059029
B1554081956990N10337495WA0177401742001100039061029
B1554091956993N10337490WA0177301742001100038061030
B1554101956996N10337484WA0177201741001100037062035
B1554111956998N10337479WA0177101740001100034068050
B1554121957000N10337474WA0177101739001100034075057
B1554131957001N10337469WA0176901738001100035081055
B1554141957001N10337463WA0176701736001100037082051
B1554151957002N10337457WA0176601735001100038081048
B1554161957003N10337451WA0176501734001100037080043
B1554171957004N10337445WA0176401733001100036079039
B1554181957005N10337440WA0176301732001100034077039
B1554191957007N10337435WA0176201731001100035073035
B1554201957008N10337429WA0176001729001100036071036
B1554211957010N10337424WA0175801727001100038068029
B1554221957013N10337418WA0175701725001100038067029
B1554231957015N10337413WA0175601724001100036064019
B1554241957017N10337408WA0175601723001100034058015
B1554251957020N10337403WA0175401722001100034051013
B1554261957024N10337399WA0175301720001100035047013
B1554271957027N10337395WA0175101719001100039047019
B1554281957032N10337390WA0174901717001100041046015
B1554291957036N10337386WA0174801716001100040045011
B1554301957040N10337381WA0174701715001100039043009
B1554311957044N10337377WA0174601714001100037042004
B1554321957048N10337373WA0174601713001100036041012
B1554331957052N10337369WA0174401711001100037042016
B1554341957056N10337365WA0174301710001100039042010
B1554351957061N10337361WA0174101708001100039043015
B1554361957065N10337357WA0174001707001100039042009
B1554371957069N10337353WA0173901706001100038041007
B1554381957073N10337349WA0173901705001100036039000
B1554391957077N10337346WA0173801705001100032035339
B1554401957081N10337343WA0173701703001100031025319
B1554411957086N10337343WA0173501700001100030358308
B1554421957091N10337344WA0173101698001100031349288
B1554431957094N10337346WA0172701696001100022333276
B1554441957095N10337351WA0172201694001100022307260
B1554451957093N10337356WA0171601691001100019279346
B1554461957089N10337357WA0171201693001100013243316
B1554471957085N10337354WA0171201692001100009183289
B1554481957085N10337352WA0171301691001100000183261
B1554491957089N10337348WA0171401690001100028000259
B1554501957093N10337345WA0171501687001100025008349
B1554511957095N10337342WA0171401684001100026030354
B1554521957098N10337338WA0170901682001100029043010
B1554531957100N10337332WA0170601680001100037060021
B1554541957101N10337325WA0170401678001100041076051
B1554551957102N10337317WA0170601676001100042077069
B1554561957103N10337310WA0170601675001100040079078
B1554571957102N10337305WA0170501673001100032092072
B1554581957101N10337300WA0170301671001100032095075
B1554591957100N10337294WA0170001669001100037095078
B1555001957100N10337287WA0169801667001100040086075
B1555011957101N10337281WA0169801666001100036081066
B1555021957103N10337275WA0169801666001100033059062
B1555031957106N10337271WA0169701665001100033049038
B1555041957109N10337267WA0169601663001100034045029
B1555051957112N10337262WA0169401662001100036048025
B1555061957116N10337258WA0169301660001100036051029
B1555071957119N10337253WA0169201659001100035054033
B1555081957122N10337248WA0169201659001100033057032
B1555091957124N10337244WA0169101658001100033058036
B1555101957127N10337239WA0168901656001100034058031
B1555111957130N10337234WA0168801655001100035058032
B1555121957132N10337229WA0168601654001100036058035
B1555131957135N10337224WA0168501652001100035058028
B1555141957138N10337219WA0168401652001100034057028
B1555151957141N10337215WA0168301650001100034055027
B1555161957144N10337211WA0168201649001100034053023
B1555171957147N10337206WA0168001647001100033052027
B1555181957150N10337202WA0167901646001100034053027
B1555191957153N10337198WA0167801644001100034053024
B1555201957156N10337193WA0167701643001100033053025
B1555211957159N10337189WA0167601642001100033051023
B1555221957162N10337185WA0167501640001100032051022
B1555231957165N10337182WA0167401639001100032049023
B1555241957168N10337178WA0167201638001100032050023
B1555251957171N10337174WA0167101636001100032050023
B1555261957174N10337170WA0167001635001100030050021
B1555271957177N10337166WA0166901634001100031049020
B1555281957180N10337163WA0166801632001100031048021
B1555291957183N10337159WA0166701631001100031047023
B1555301957186N10337155WA0166501629001100031048024
B1555311957189N10337152WA0166401628001100031049029
B1555321957192N10337148WA0166301627001100031051032
B1555331957195N10337144WA0166201625001100031054034
B1555341957197N10337140WA0166101624001100031057037
B1555351957200N10337135WA0165901623001100032059036
B1555361957202N10337131WA0165801621001100033060037
B1555371957205N10337126WA0165601619001100035060036
B1555381957207N10337121WA0165401617001100038060034
B1555391957210N10337116WA0165301616001100037060035
B1555401957213N10337111WA0165201615001100036062036
B1555411957215N10337106WA0165101614001100034063037
B1555421957217N10337101WA0165101613001100034064039
B1555431957219N10337096WA0164901612001100034065038
B1555441957222N10337091WA0164801610001100036064039
B1555451957224N10337086WA0164601609001100037065042
B1555461957226N10337081WA0164501608001100038065042
B1555471957228N10337075WA0164501607001100036068049
B1555481957230N10337070WA0164301605001100035072052
B1555491957231N10337064WA0164201604001100035075053
B1555501957233N10337059WA0164101603001100035077049
B1555511957234N10337053WA0163901601001100037077052
B1555521957235N10337048WA0163801600001100037075054
B1555531957237N10337042WA0163701599001100037073060
B1555541957238N10337036WA0163601599001100036074060
B1555551957239N10337031WA0163501598001100035075064
B1555561957241N10337025WA0163401596001100035077066
B1555571957242N10337020WA0163301595001100036077064
B1555581957243N10337014WA0163101594001100036077064
B1555591957244N10337008WA0163001592001100037079066
B1556001957245N10337002WA0162901591001100037083068
B1556011957245N10336997WA0162901590001100037087071
B1556021957245N10336991WA0162701589001100037091073
B1556031957245N10336985WA0162601588001100036093078
B1556041957244N10336979WA0162501587001100037095084
B1556051957244N10336973WA0162401586001100037096090
B1556061957243N10336967WA0162301584001100037097094
B1556071957242N10336961WA0162201583001100038098097
B1556081957241N10336955WA0162101582001100038099100
B1556091957240N10336949WA0162001581001100038099101
B1556101957240N10336943WA0161901581001100037095102
B1556111957239N10336937WA0161901580001100037090099
B1556121957239N10336931WA0161801579001100037088094
B1556131957240N10336925WA0161701578001100037087092
B1556141957240N10336920WA0161601577001100036084091
B1556151957241N10336914WA0161501576001100035078088
B1556161957242N10336909WA0161401575001100036072080
B1556171957244N10336903WA0161301573001100035065071
B1556181957246N10336898WA0161201572001100035060062
B1556191957249N10336894WA0161101571001100035054054
B1556201957252N10336890WA0161001570001100034048046
B1556211957256N10336886WA0160901568001100035041034
B1556221957260N10336882WA0160701568001100034036021
B1556231957264N10336879WA0160701567001100034031011
B1556241957269N10336877WA0160601565001100034024001
B1556251957274N10336875WA0160401564001100034018351
B1556261957279N10336874WA0160301563001100033010344
B1556271957283N10336873WA0160201562001100032001343
B1556281957288N10336873WA0160101561001100032358345
B1556291957293N10336873WA0160001560001100031000351
B1556301957298N10336873WA0160001558001100031002344
B1556311957302N10336873WA0159801557001100030000342
B1556321957307N10336873WA0159701556001100030356336
B1556331957311N10336874WA0159601555001100031352330
B1556341957316N10336874WA0159501554001100032351332
B1556351957321N10336875WA0159301553001100031350328
B1556361957325N10336876WA0159201552001100031348320
B1556371957330N10336877WA0159101550001100031346323
B1556381957334N10336878WA0159001549001100033345320
B1556391957339N10336879WA0158901548001100034346330
B1556401957344N10336880WA0158901547001100032350329
B1556411957349N10336881WA0158801546001100031356332
B1556421957353N10336881WA0158701546001100030358326
B1556431957358N10336881WA0158601544001100030356330
B1556441957363N10336882WA0158501543001100031355335
B1556451957367N10336882WA0158401542001100032357339
B1556461957372N10336882WA0158301541001100032002344
B1556471957377N10336881WA0158201541001100031007342
B1556481957382N10336881WA0158101540001100030010345
B1556491957386N10336880WA0158001539001100030011345
B1556501957390N10336879WA0157901538001100031014352
B1556511957395N10336877WA0157801537001100031017352
B1556521957399N10336875WA0157601536001100031023354
B1556531957403N10336873WA0157501535001100031024354
B1556541957407N10336871WA0157401534001100031026354
B1556551957411N10336869WA0157301533001100031026355
B1556561957415N10336867WA0157101531001100030027359
B1556571957419N10336865WA0157001530001100032027358
B1556581957424N10336862WA0156901528001100032028001
B1556591957428N10336860WA0156801527001100034029011
B1557001957432N10336857WA0156801526001100033032019
B1557011957436N10336854WA0156601525001100032039036
B1557021957440N10336851WA0156501524001100031048050
B1557031957442N10336847WA0156401523001100032058046
B1557041957444N10336842WA0156201522001100033070061
B1557051957445N10336837WA0156101521001100033080068
B1557061957446N10336832WA0156001520001100032090075
B1557071957445N10336827WA0155801519001100032099084
B1557081957444N10336822WA0155701518001100033108095
B1557091957441N10336817WA0155501516001100033116109
B1557101957439N10336812WA0155401514001100034127118
B1557111957435N10336809WA0155301513001100034139131
B1557121957431N10336806WA0155001511001100033148145
B1557131957426N10336804WA0154901509001100033160156
B1557141957421N10336803WA0154801507001100033175166
B1557151957415N10336804WA0154701505001100036186181
B1557161957410N10336805WA0154601504001100037195190
B1557171957404N10336808WA0154601504001100036205199
B1557181957399N10336811WA0154401502001100035213213
B1557191957395N10336814WA0154201501001100034220213
B1557201957392N10336818WA0154101499001100036226216
B1557211957388N10336823WA0153901498001100038230218
B1557221957385N10336828WA0153801497001100039238231
B1557231957382N10336834WA0153801496001100039245217
B1557241957380N10336839WA0153801496001100037251224
B1557251957378N10336845WA0153701495001100037245229
B1557261957375N10336850WA0153601493001100037238229
B1557271957372N10336855WA0153501493001100037237230
B1557281957369N10336860WA0153401492001100038239231
B1557291957366N10336866WA0153301491001100037238234
B1557301957363N10336870WA0153301490001100037233235
B1557311957360N10336875WA0153101489001100036227232
B1557321957356N10336879WA0153001488001100037225229
B1557331957352N10336884WA0152901486001100038225228
B1557341957348N10336888WA0152701485001100038228229
B1557351957344N10336892WA0152601484001100038226231
B1557361957340N10336896WA0152501482001100037221230
B1557371957336N10336900WA0152401481001100037215224
B1557381957331N10336903WA0152301480001100036210219
B1557391957326N10336906WA0152201479001100034204213
B1557401957321N10336908WA0152101478001100034196207
B1557411957316N10336908WA0152101477001100034182197
B1557421957311N10336908WA0152101477001100033169181
B1557431957306N10336906WA0152001476001100032162166
B1557441957302N10336905WA0152001476001100030160158
B1557451957298N10336903WA0152001476001100029157156
B1557461957294N10336901WA0151901475001100028148151
B1557471957290N10336898WA0151801474001100029142141
B1557481957287N10336895WA0151701474001100030128135
B1557491957285N10336890WA0151601472001100032114119
B1557501957284N10336885WA0151501471001100029104106
B1557511957284N10336880WA0151501471001100027093095
B1557521957285N10336876WA0151401470001100026077084
B1557531957288N10336872WA0151201468001100026062069
B1557541957292N10336870WA0151101467001100028027056
B1557551957297N10336869WA0151001465001100029016026
B1557561957301N10336869WA0151101464001100028001017
B1557571957306N10336871WA0151101464001100031334004
B1557581957310N10336873WA0151101465001100027327338
B1557591957314N10336876WA0151101465001100024333335
B1558001957318N10336877WA0151001465001100026346343
B1558011957322N10336877WA0150901464001100028358344
B1558021957327N10336877WA0150801463001100033359346
B1558031957333N10336877WA0150801463001100034356343
B1558041957338N10336877WA0150901464001100031353351
B1558051957342N10336878WA0150801464001100028356351
B1558061957346N10336878WA0150701463001100029000358
B1558071957351N10336878WA0150501463001100029003356
B1558081957356N10336877WA0150301462001100034006349
B1558091957361N10336876WA0150301462001100037005357
B1558101957367N10336876WA0150401461001100036005356
B1558111957372N10336876WA0150501461001100030004006
B1558121957376N10336875WA0150501461001100025013020
B1558131957380N10336874WA0150501460001100026018024
B1558141957383N10336872WA0150301459001100028024018
B1558151957387N10336870WA0150201458001100030029012
B1558161957391N10336867WA0150101457001100034026010
B1558171957396N10336865WA0150001456001100036022357
B1558181957401N10336863WA0149901455001100035020002
B1558191957405N10336861WA0150001455001100030018357
B1558201957409N10336860WA0149801455001100028015006
B1558211957413N10336859WA0149601453001100029015011
B1558221957417N10336857WA0149401452001100031016023
B1558231957422N10336856WA0149101451001100032026039
B1558241957425N10336853WA0149001450001100029041067
B1558251957427N10336848WA0148901448001100030073079
B1558261957428N10336843WA0148601447001100033081102
B1558271957427N10336839WA0148401444001100032107115
B1558281957421N10336835WA0148201443001100035147134
B1558291957416N10336834WA0148101441001100033166164
B1558301957410N10336835WA0148201440001100034196175
B1558311957405N10336839WA0148001439001100036221207
B1558321957402N10336844WA0148001438001100035232221
B1558331957399N10336849WA0147901436001100033239223
B1558341957397N10336853WA0147701435001100032239222
B1558351957394N10336858WA0147501433001100035237222
B1558361957390N10336863WA0147301432001100041233221
B1558371957387N10336869WA0147201431001100040233220
B1558381957383N10336874WA0147301430001100038233222
B1558391957379N10336879WA0147501430001100036231224
B1558401957376N10336883WA0147501429001100035224225
B1558411957372N10336887WA0147401428001100036222220
B1558421957368N10336891WA0147301427001100038224213
B1558431957364N10336895WA0147401427001100037225212
B1558441957359N10336899WA0147301427001100037217214
B1558451957354N10336902WA0147301427001100036209209
B1558461957350N10336905WA0147401427001100033204202
B1558471957345N10336907WA0147401427001100032207196
B1558481957341N10336910WA0147401427001100031212202
B1558491957337N10336912WA0147401426001100033212201
B1558501957333N10336915WA0147401427001100033209201
B1558511957328N10336917WA0147401427001100033204200
B1558521957324N10336920WA0147401427001100030204198
B1558531957320N10336922WA0147401427001100031202198
B1558541957316N10336923WA0147301426001100030197196
B1558551957311N10336925WA0147301426001100032192193
B1558561957306N10336925WA0147101425001100036186183
B1558571957301N10336926WA0147001425001100034180177
B1558581957296N10336925WA0147001424001100030173169
B1558591957292N10336924WA0146801423001100029155161
B1559001957289N10336921WA0146401422001100026130142
B1559011957289N10336916WA0146001420001100027104117
B1559021957290N10336912WA0145801419001100019098093
B1559031957297N10336909WA0145901418001100026045085
B1559041957303N10336909WA0146001417001100021016042
B1559051957308N10336910WA0146101416001100022355021
B1559061957312N10336910WA0145701415001100025021008
B1559071957316N10336907WA0145301413001100031044029
B1559081957320N10336902WA0145101411001100042064046
B1559091957324N10336895WA0145201410001100042062048
B1559101957327N10336890WA0145501409001100034061046
B1559111957329N10336886WA0145601408001100028062054
B1559121957331N10336883WA0145501407001100025062053
B1559131957332N10336879WA0145201405001100025065058
B1559141957334N10336876WA0144801404001100026061058
B1559151957336N10336872WA0144401402001100031063055
B1559161957338N10336866WA0144301399001100038069040
B1559171957340N10336861WA0144301395001100031069044
B1559181957341N10336857WA0144401394001100027072038
B1559191957342N10336853WA0144401392001100025073045
B1559201957344N10336849WA0144301391001100028067042
B1559211957346N10336845WA0144301390001100030058037
B1559221957348N10336841WA0144201389001100031052029
B1559231957352N10336839WA0144301388001100028020026
B1559241957356N10336838WA0144201386001100029007002
B1559251957361N10336840WA0144101385001100031350356
B1559261957366N10336843WA0144101384001100036327341
B1559271957370N10336847WA0144101384001100037318323
B1559281957374N10336852WA0144101383001100037307316
B1559291957377N10336857WA0144101383001100035295305
B1559301957378N10336862WA0143901382001100034289295
B1559311957379N10336868WA0143801381001100034281289
B1559321957377N10336874WA0143701380001100035255282
B1559331957373N10336880WA0143701380001100036242256
B1559341957369N10336885WA0143701379001100037230243
B1559351957365N10336889WA0143601379001100035223230
B1559361957361N10336892WA0143501379001100032222219
B1559371957357N10336896WA0143401378001100034223213
B1559381957353N10336900WA0143201376001100036226212
B1559391957349N10336904WA0143101375001100035228216
B1559401957346N10336908WA0143001374001100033226216
B1559411957342N10336912WA0142901373001100030218212
B1559421957339N10336914WA0142701372001100028207203
B1559431957334N10336914WA0142401370001100029174190
B1559441957330N10336911WA0142001369001100030148157
B1559451957327N10336907WA0141701366001100027124133
B1559461957327N10336902WA0141501365001100025092111
B1559471957329N10336897WA0141601364001100021074086
B1559481957331N10336893WA0141701364001100024077078
B1559491957331N10336888WA0141501362001100026090080
B1559501957331N10336884WA0141201361001100028095089
B1559511957330N10336879WA0141101360001100032111076
B1559521957328N10336874WA0141001360001100033110075
B1559531957327N10336869WA0141101359001100031109087
B1559541957326N10336864WA0141201359001100028106100
B1559551957326N10336860WA0141101359001100022099088
B1559561957326N10336857WA0140901358001100022099092
B1559571957325N10336853WA0140601357001100024097089
B1559581957325N10336849WA0140401356001100029103088
B1559591957324N10336844WA0140201355001100027104088
B1600001957324N10336840WA0140201355001100024100083
B1600011957323N10336837WA0140201354001100019094084
B1600021957323N10336835WA0140301354001100013089103
B1600031957323N10336833WA0140301355001100007093206
B1600041957324N10336833WA0140301354001100004093187
B1600051957324N10336832WA0140301354001100003093156
B1600061957324N10336832WA0140301354001100002093143
B1600071957324N10336832WA0140301354001100000093125
B1600081957324N10336833WA0140301353001100000093120
B1600091957324N10336833WA0140301353001100000093109
B1600101957324N10336833WA0140301353001100000093104
B1600111957324N10336833WA0140301353001100000093099
B1600121957324N10336833WA0140301353001100000093096
B1600131957324N10336833WA0140301353001100000093093
B1600141957324N10336833WA0140301353001100000093090
B1600151957324N10336833WA0140401353001100000093087
B1600161957324N10336833WA0140301353001100000093066
B1600171957324N10336833WA0140301353001100000093083
B1600181957324N10336833WA0140301353001100000093082
B1600191957324N10336833WA0140301353001100000093070
B1600201957324N10336833WA0140301353001100000093079
B1600211957324N10336833WA0140301353001100000093079
B1600221957324N10336833WA0140301353001100000093078
B1600231957324N10336833WA0140301353001100000093077
B1600241957324N10336833WA0140301353001100000093077
B1600251957324N10336833WA0140301353001100000093074
B1600261957324N10336833WA0140301353001100000093074
B1600271957324N10336833WA0140301353001100000093076
B1600281957324N10336833WA0140301353001100000093075
B1600291957324N10336833WA0140301353001100000093075
B1600301957324N10336833WA0140301353001100000093075
B1600311957324N10336833WA0140301353001100000093075
B1600321957324N10336833WA0140301353001100000093075
B1600331957324N10336833WA0140301353001100000093075
B1600341957324N10336833WA0140301353001100000093075
B1600351957324N10336833WA0140301353001100000093075
B1600361957324N10336833WA0140301353001100000093075
GrZ6r1kWzgt6bRaEYv0pXfVulBbhvUeklFcPOftBXzJN9t7cBxre8Y4BJdmYG/ZCJ
GeEzE0XsPFuDZ8aaU7P7E8oNdG4sj4tKE9n7BZgFJKRnuiYNVH9GDl14WvYIMeYjq
GwVWmD/rP4ABlgkJ2z5rbvpGyRbprqH8tS3q1K4jb+E8=

