AXFH000
HFDTE291125
HFPLTPILOT:Scott O’Brien
HFGTYGLIDERTYPE:Ozone Swift 6
HFDTM100GPSDATUM:WGS84
HFRFWFIRMWAREVERSION:9.4
HFRHWHARDWAREVERSION:iPhone 15
HFFTYFRTYPE:Flyskyhy,9.4
HFGPS:Bluetooth vario
HFPRSVARIO:Bluetooth vario
HFCCLCOMPETITIONCLASS:Paraglider
HFTZNTIMEZONE:-8
HFSITSITE:Ed Levin,US
I053638FXA3941VXA4244GSP4547CCO4850HDT
C291125205353291125000100TASK
C0000000N00000000ETAKEOFF
C3731062N12153514W00000000000400000000360000STARTAREA 
C3726317N12149880W00000000000400000000360000FINISHAREA Big Dog Vineyards
C0000000N00000000ELANDING
B2054223728467N12151578WA0070800708001100000212270
B2054233728467N12151578WA0070800708001100000212262
B2054243728467N12151578WA0070800708001100000212275
B2054253728467N12151578WA0070800708001100000212283
B2054263728467N12151578WA0070800708001100000212284
B2054273728467N12151578WA0070800708001100000212277
B2054283728467N12151578WA0070800708001100000212273
B2054293728467N12151578WA0070800708001100000212283
B2054303728467N12151578WA0070800708001100000212292
B2054313728467N12151578WA0070800708001100000212264
B2054323728467N12151578WA0070800708001100000212286
B2054333728467N12151578WA0070800708001100000212233
B2054343728467N12151578WA0070800708001100000212235
B2054353728467N12151578WA0070800708001100000212275
B2054363728467N12151578WA0070800708001100001212294
B2054373728467N12151578WA0070800708001100000212281
B2054383728467N12151578WA0070800708001100001212200
B2054393728467N12151578WA0070800708001100001212229
B2054403728467N12151578WA0070800708001100000212243
B2054413728467N12151578WA0070800708001100000212239
B2054423728467N12151578WA0070800708001100000212264
B2054433728467N12151578WA0070800708001100001248025
B2054443728467N12151579WA0070800708001100002235319
B2054453728466N12151580WA0070700708001100003243348
B2054463728466N12151580WA0070700708001100003240030
B2054473728466N12151581WA0070700708001100003245029
B2054483728465N12151581WA0070600708001100004231354
B2054493728464N12151582WA0070600708001100005220021
B2054503728463N12151583WA0070400708001100010215007
B2054513728462N12151584WA0070300708001100014216012
B2054523728459N12151587WA0070200708001100019213359
B2054533728456N12151589WA0070400708001100021213256
B2054543728454N12151591WA0070500708001100022217230
B2054553728451N12151594WA0070500707001100021224214
B2054563728449N12151598WA0070400707001100021237249
B2054573728448N12151602WA0070300707001100022247263
B2054583728447N12151607WA0070200706001100023264268
B2054593728448N12151612WA0070100706001100026277279
B2055003728449N12151617WA0070100706001100027292294
B2055013728451N12151622WA0070000705001100027301292
B2055023728453N12151626WA0069900704001100025307287
B2055033728456N12151630WA0069800703001100025305293
B2055043728458N12151634WA0069700702001100028305294
B2055053728461N12151639WA0069800701001100030306300
B2055063728463N12151643WA0069800701001100030309287
B2055073728466N12151647WA0069800701001100027313285
B2055083728469N12151651WA0069800700001100025310298
B2055093728471N12151654WA0069800699001100025307289
B2055103728474N12151659WA0069700698001100029307292
B2055113728477N12151663WA0069700697001100032312296
B2055123728481N12151668WA0069800697001100033315300
B2055133728484N12151671WA0069900697001100029319300
B2055143728487N12151675WA0069900697001100026318290
B2055153728490N12151678WA0069800696001100023316302
B2055163728492N12151681WA0069700694001100024314293
B2055173728495N12151685WA0069500693001100026311298
B2055183728498N12151689WA0069500692001100029311310
B2055193728501N12151693WA0069500692001100028314299
B2055203728504N12151696WA0069500691001100026316275
B2055213728506N12151700WA0069300690001100024306258
B2055223728508N12151704WA0069100688001100024294247
B2055233728508N12151710WA0068900686001100027258241
B2055243728506N12151715WA0068800684001100029249219
B2055253728503N12151718WA0068700682001100025224213
B2055263728500N12151719WA0068600680001100019196196
B2055273728496N12151717WA0068600680001100021150180
B2055283728492N12151714WA0068500678001100025139148
B2055293728489N12151710WA0068400677001100025137140
B2055303728485N12151707WA0068300675001100027143140
B2055313728481N12151703WA0068100674001100029144145
B2055323728478N12151700WA0068100673001100028140148
B2055333728474N12151696WA0068100673001100028136144
B2055343728471N12151692WA0068100672001100028129141
B2055353728468N12151688WA0068000671001100026124133
B2055363728466N12151684WA0068000671001100025124124
B2055373728464N12151680WA0067800670001100027127123
B2055383728461N12151676WA0067600668001100029129127
B2055393728458N12151671WA0067600668001100030129130
B2055403728455N12151667WA0067500667001100029131127
B2055413728452N12151663WA0067500667001100028134129
B2055423728448N12151660WA0067400666001100028137133
B2055433728445N12151656WA0067400665001100028141134
B2055443728442N12151653WA0067300664001100027143132
B2055453728438N12151651WA0067300663001100026147140
B2055463728435N12151648WA0067200662001100027151138
B2055473728431N12151646WA0067000661001100028153134
B2055483728428N12151643WA0067000660001100027147141
B2055493728424N12151640WA0067000660001100027141132
B2055503728421N12151637WA0067000660001100026142133
B2055513728418N12151634WA0066900660001100025146133
B2055523728414N12151632WA0066900659001100025150134
B2055533728411N12151629WA0066800659001100025147137
B2055543728408N12151626WA0067000660001100026146140
B2055553728405N12151623WA0067100660001100023136139
B2055563728402N12151621WA0067100661001100019140131
B2055573728400N12151618WA0067000660001100020136136
B2055583728398N12151616WA0066800659001100020135135
B2055593728395N12151613WA0066600659001100024138126
B2056003728392N12151610WA0066600658001100028137120
B2056013728389N12151606WA0066600658001100025129126
B2056023728387N12151603WA0066600658001100022131122
B2056033728385N12151600WA0066500657001100024132130
B2056043728382N12151596WA0066300656001100026134132
B2056053728378N12151593WA0066200654001100030137141
B2056063728375N12151589WA0066100653001100029131146
B2056073728372N12151585WA0066100653001100028127146
B2056083728370N12151581WA0066100652001100026127143
B2056093728367N12151577WA0066000651001100026128140
B2056103728365N12151573WA0065800649001100028128139
B2056113728362N12151569WA0065700648001100031130142
B2056123728359N12151565WA0065600648001100031131141
B2056133728355N12151560WA0065500647001100030131136
B2056143728352N12151556WA0065400645001100031132137
B2056153728349N12151552WA0065300644001100033132133
B2056163728345N12151547WA0065200642001100035132134
B2056173728342N12151542WA0065100641001100033137144
B2056183728338N12151538WA0065000641001100032144148
B2056193728334N12151535WA0064900639001100031147148
B2056203728330N12151532WA0064800638001100031147155
B2056213728326N12151529WA0064600636001100033146154
B2056223728321N12151525WA0064500635001100035149160
B2056233728317N12151522WA0064400635001100035152168
B2056243728312N12151519WA0064400635001100032157155
B2056253728307N12151517WA0064400634001100029157164
B2056263728304N12151515WA0064300633001100027155168
B2056273728300N12151513WA0064100632001100029154165
B2056283728296N12151511WA0064000631001100032154171
B2056293728291N12151508WA0063900629001100034161165
B2056303728286N12151506WA0063900629001100033162162
B2056313728281N12151505WA0063900629001100030159170
B2056323728277N12151503WA0063800629001100028156163
B2056333728273N12151500WA0063700626001100028154166
B2056343728269N12151498WA0063500625001100032158165
B2056353728265N12151497WA0063400623001100033162163
B2056363728260N12151494WA0063300623001100031160162
B2056373728256N12151492WA0063300623001100029157165
B2056383728252N12151490WA0063300623001100027155158
B2056393728248N12151488WA0063200623001100025154164
B2056403728245N12151487WA0063200622001100026156160
B2056413728241N12151485WA0063100622001100026157159
B2056423728237N12151483WA0063300623001100025156183
B2056433728234N12151481WA0063200623001100022160174
B2056443728231N12151480WA0063200622001100020170174
B2056453728228N12151480WA0062900621001100020171183
B2056463728225N12151480WA0062700620001100023166168
B2056473728221N12151479WA0062600618001100029163169
B2056483728216N12151477WA0062700618001100028161155
B2056493728213N12151475WA0062700619001100024157166
B2056503728209N12151473WA0062700619001100024155181
B2056513728206N12151471WA0062600619001100024155174
B2056523728203N12151470WA0062400618001100023158175
B2056533728199N12151469WA0062200617001100025160168
B2056543728195N12151467WA0062100615001100029159160
B2056553728191N12151465WA0062100615001100028158170
B2056563728187N12151463WA0062100615001100026158156
B2056573728184N12151461WA0062000614001100025157164
B2056583728180N12151459WA0061800613001100026156160
B2056593728176N12151457WA0061700611001100027156163
B2057003728173N12151456WA0061500610001100028157162
B2057013728169N12151453WA0061500608001100027156155
B2057023728165N12151451WA0061400608001100026154154
B2057033728161N12151449WA0061300606001100026148144
B2057043728158N12151447WA0061200604001100027148142
B2057053728155N12151444WA0061100603001100027148142
B2057063728151N12151441WA0061100603001100025150157
B2057073728148N12151439WA0061000602001100024153152
B2057083728145N12151437WA0061000602001100022156147
B2057093728142N12151436WA0060900600001100023155159
B2057103728138N12151434WA0060700599001100026155159
B2057113728135N12151432WA0060600598001100026159163
B2057123728131N12151430WA0060600597001100025160165
B2057133728127N12151429WA0060500597001100024159164
B2057143728124N12151427WA0060400597001100024158166
B2057153728121N12151426WA0060400595001100024159162
B2057163728117N12151424WA0060300595001100025159163
B2057173728113N12151422WA0060300594001100025158156
B2057183728110N12151420WA0060200593001100024154143
B2057193728107N12151418WA0060100592001100024149148
B2057203728104N12151416WA0060000591001100024148154
B2057213728101N12151414WA0059900590001100024152156
B2057223728098N12151412WA0059800589001100023155158
B2057233728095N12151411WA0059700588001100022158148
B2057243728092N12151409WA0059500586001100022154152
B2057253728089N12151407WA0059400585001100024147153
B2057263728086N12151404WA0059300583001100024143153
B2057273728083N12151401WA0059200582001100023145145
B2057283728080N12151399WA0059200581001100022146148
B2057293728077N12151397WA0059100581001100022143150
B2057303728075N12151395WA0058900579001100023142156
B2057313728072N12151392WA0058700577001100024146164
B2057323728069N12151390WA0058500576001100024154160
B2057333728065N12151389WA0058300574001100025163159
B2057343728062N12151387WA0058100573001100026164153
B2057353728058N12151386WA0058000571001100028160165
B2057363728054N12151384WA0057900570001100028160168
B2057373728049N12151382WA0057900570001100028161166
B2057383728045N12151380WA0057800570001100027165166
B2057393728041N12151379WA0057800569001100027166168
B2057403728037N12151378WA0057700569001100028166172
B2057413728033N12151377WA0057700568001100030168166
B2057423728028N12151375WA0057800568001100031171150
B2057433728023N12151374WA0057800568001100030167146
B2057443728019N12151373WA0057900569001100027160163
B2057453728016N12151371WA0058000570001100022153154
B2057463728013N12151369WA0058100570001100021151150
B2057473728010N12151367WA0058000570001100023147162
B2057483728008N12151365WA0057900569001100025140146
B2057493728005N12151361WA0057800568001100028133139
B2057503728002N12151357WA0057700567001100029124135
B2057513728000N12151352WA0057700566001100028115134
B2057523727999N12151348WA0057600565001100027114120
B2057533727997N12151343WA0057500564001100027116122
B2057543727995N12151339WA0057300562001100028119127
B2057553727993N12151334WA0057100561001100031125127
B2057563727990N12151329WA0056900560001100032132131
B2057573727986N12151325WA0056800559001100032136133
B2057583727983N12151321WA0056800559001100030139138
B2057593727979N12151317WA0056700559001100029139135
B2058003727976N12151314WA0056700559001100028140137
B2058013727973N12151310WA0056600558001100027140144
B2058023727970N12151307WA0056500557001100027141144
B2058033727966N12151304WA0056400556001100029141144
B2058043727963N12151300WA0056200555001100030143148
B2058053727959N12151297WA0056100553001100029146149
B2058063727956N12151294WA0055900551001100031149150
B2058073727952N12151291WA0055700549001100031149146
B2058083727948N12151288WA0055600548001100029146144
B2058093727944N12151285WA0055400546001100028142154
B2058103727941N12151282WA0055300545001100029143148
B2058113727937N12151279WA0055200543001100030148151
B2058123727933N12151276WA0055100542001100030153157
B2058133727929N12151274WA0055000541001100029158149
B2058143727925N12151272WA0055000540001100028160154
B2058153727921N12151271WA0054900539001100028163153
B2058163727917N12151269WA0054800539001100027162148
B2058173727913N12151267WA0054700538001100027161151
B2058183727910N12151266WA0054700537001100025157139
B2058193727906N12151264WA0054500536001100025152136
B2058203727903N12151261WA0054400534001100026148145
B2058213727900N12151259WA0054200532001100027148151
B2058223727896N12151256WA0054100531001100028152152
B2058233727892N12151254WA0054100530001100027157141
B2058243727889N12151252WA0054000529001100025157142
B2058253727885N12151250WA0053800528001100026152142
B2058263727882N12151248WA0053700527001100026150139
B2058273727878N12151245WA0053600526001100027152163
B2058283727875N12151243WA0053600526001100027161156
B2058293727871N12151242WA0053700525001100025166163
B2058303727867N12151242WA0053600525001100023180178
B2058313727864N12151243WA0053600524001100023188200
B2058323727861N12151244WA0053300522001100024196199
B2058333727857N12151245WA0053100521001100026200211
B2058343727854N12151248WA0052900520001100028214220
B2058353727851N12151253WA0052700519001100030230238
B2058363727849N12151258WA0052700517001100029240231
B2058373727848N12151264WA0052700516001100028252253
B2058383727848N12151270WA0052600516001100026264264
B2058393727848N12151275WA0052400515001100027268261
B2058403727849N12151281WA0052200513001100030272267
B2058413727849N12151287WA0052000512001100032275268
B2058423727850N12151293WA0051900510001100034278265
B2058433727850N12151300WA0052100509001100034275269
B2058443727851N12151306WA0052100509001100032278261
B2058453727852N12151311WA0052100508001100027283250
B2058463727853N12151315WA0051900506001100024280266
B2058473727854N12151320WA0051800505001100026271245
B2058483727854N12151326WA0051800504001100029274261
B2058493727855N12151331WA0051900502001100028277274
B2058503727855N12151336WA0052000502001100028279262
B2058513727857N12151341WA0052000501001100027290268
B2058523727858N12151347WA0051800500001100028290260
B2058533727860N12151352WA0051700499001100028282262
B2058543727861N12151357WA0051500497001100029276259
B2058553727861N12151362WA0051300495001100030274257
B2058563727862N12151368WA0051100494001100031273258
B2058573727862N12151374WA0051000492001100031271249
B2058583727862N12151380WA0050800491001100032265254
B2058593727861N12151386WA0050700490001100031264251
B2059003727861N12151392WA0050500489001100031265240
B2059013727861N12151397WA0050400488001100030262238
B2059023727860N12151403WA0050200486001100030258240
B2059033727859N12151409WA0050100485001100031255233
B2059043727857N12151414WA0050000485001100031253229
B2059053727856N12151420WA0050000484001100030248223
B2059063727854N12151425WA0049900484001100030246222
B2059073727852N12151430WA0049800483001100031245228
B2059083727850N12151436WA0049700482001100033249239
B2059093727849N12151442WA0049700482001100032255246
B2059103727848N12151447WA0049900481001100031259245
B2059113727847N12151453WA0049900481001100028267261
B2059123727848N12151458WA0049900481001100027278259
B2059133727849N12151463WA0049800481001100028290286
B2059143727851N12151467WA0049900481001100029301292
B2059153727854N12151472WA0049800481001100030314296
B2059163727858N12151475WA0049900481001100032324293
B2059173727862N12151478WA0049900481001100030322287
B2059183727865N12151482WA0049900480001100027309273
B2059193727867N12151486WA0049700480001100025300267
B2059203727868N12151491WA0049600479001100024285265
B2059213727867N12151495WA0049600479001100023265247
B2059223727866N12151500WA0049700480001100022251238
B2059233727863N12151502WA0049600478001100015212224
B2059243727859N12151501WA0049500478001100023153196
B2059253727855N12151498WA0049500477001100024141147
B2059263727853N12151494WA0049500478001100021127135
B2059273727852N12151488WA0049400478001100024082125
B2059283727853N12151483WA0049400477001100024071083
B2059293727854N12151479WA0049300476001100022073086
B2059303727855N12151475WA0049100475001100023085094
B2059313727854N12151471WA0048900474001100023100109
B2059323727852N12151466WA0049100473001100024109119
B2059333727848N12151462WA0049200474001100022142138
B2059343727845N12151461WA0049200475001100019165164
B2059353727842N12151461WA0049200476001100019182171
B2059363727838N12151463WA0049200476001100022200194
B2059373727834N12151465WA0049100477001100024215216
B2059383727831N12151470WA0049200477001100029233224
B2059393727829N12151476WA0049100478001100030243255
B2059403727827N12151481WA0049000478001100029250264
B2059413727827N12151487WA0048900477001100027258271
B2059423727828N12151492WA0048800477001100027272290
B2059433727830N12151498WA0048700476001100027289290
B2059443727833N12151503WA0048700476001100030302289
B2059453727835N12151508WA0048700477001100030305300
B2059463727838N12151513WA0048800478001100029302287
B2059473727841N12151518WA0048800478001100028300277
B2059483727844N12151522WA0048900478001100028302296
B2059493727846N12151527WA0048900478001100028304300
B2059503727849N12151531WA0048900478001100027309311
B2059513727852N12151534WA0048800478001100026318332
B2059523727855N12151537WA0048800477001100025325344
B2059533727860N12151540WA0048700477001100029336349
B2059543727865N12151541WA0048600476001100030346330
B2059553727870N12151543WA0048700476001100032346320
B2059563727875N12151544WA0048600476001100032339315
B2059573727879N12151547WA0048700476001100030335308
B2059583727883N12151550WA0048600476001100027329312
B2059593727886N12151553WA0048500476001100025319308
B2100003727888N12151557WA0048300475001100025311299
B2100013727890N12151562WA0048000474001100025302293
B2100023727891N12151567WA0047700473001100024287284
B2100033727890N12151574WA0047400470001100029254270
B2100043727888N12151579WA0047200468001100031245239
B2100053727885N12151584WA0047000466001100029237233
B2100063727881N12151588WA0047000464001100031221225
B2100073727877N12151591WA0046900463001100029217211
B2100083727873N12151593WA0047000462001100026207206
B2100093727869N12151593WA0047000461001100022194192
B2100103727865N12151592WA0047000460001100022171182
B2100113727862N12151591WA0046900459001100023164165
B2100123727858N12151589WA0046800457001100024165151
B2100133727855N12151588WA0046600454001100025158148
B2100143727851N12151585WA0046400452001100028150149
B2100153727847N12151582WA0046400451001100029146146
B2100163727843N12151579WA0046300451001100029147156
B2100173727839N12151576WA0046300452001100028151151
B2100183727835N12151573WA0046400453001100026156149
B2100193727831N12151571WA0046600453001100025159152
B2100203727828N12151570WA0046700454001100021154136
B2100213727826N12151567WA0046800454001100017136138
B2100223727824N12151565WA0046700454001100018136136
B2100233727822N12151563WA0046500454001100017133140
B2100243727820N12151560WA0046300454001100020137141
B2100253727818N12151556WA0046200453001100026129123
B2100263727815N12151552WA0046100452001100027123123
B2100273727813N12151547WA0046100451001100026115115
B2100283727812N12151543WA0046100450001100026113111
B2100293727810N12151538WA0045900449001100026114111
B2100303727808N12151534WA0045800448001100027119126
B2100313727806N12151529WA0045700446001100027127146
B2100323727804N12151525WA0045700446001100026136169
B2100333727800N12151523WA0045600445001100024152179
B2100343727797N12151524WA0045500445001100022187182
B2100353727794N12151529WA0045500444001100028229199
B2100363727791N12151535WA0045400443001100031235209
B2100373727788N12151540WA0045300442001100032230215
B2100383727784N12151544WA0045200441001100034226228
B2100393727781N12151549WA0045100440001100035228227
B2100403727777N12151555WA0045000439001100034236228
B2100413727774N12151560WA0045000439001100033238213
B2100423727771N12151565WA0045000438001100031231214
B2100433727768N12151569WA0044900437001100029221213
B2100443727765N12151573WA0044800437001100029215210
B2100453727761N12151576WA0044700436001100029216212
B2100463727758N12151580WA0044600434001100031219200
B2100473727754N12151583WA0044400433001100031216201
B2100483727750N12151586WA0044300432001100032208202
B2100493727746N12151589WA0044100430001100033203195
B2100503727741N12151592WA0043900429001100032206188
B2100513727737N12151594WA0043800428001100033205193
B2100523727732N12151597WA0043700427001100033205194
B2100533727728N12151599WA0043700427001100033204190
B2100543727723N12151602WA0043700426001100031205194
B2100553727719N12151604WA0043600426001100029207195
B2100563727715N12151607WA0043700426001100029209194
B2100573727711N12151610WA0043800426001100026211200
B2100583727708N12151612WA0043800427001100024215199
B2100593727706N12151615WA0043800426001100023218199
B2101003727703N12151618WA0043700426001100024215191
B2101013727700N12151621WA0043600425001100026212202
B2101023727697N12151624WA0043500425001100025215214
B2101033727694N12151627WA0043600425001100026223212
B2101043727691N12151630WA0043600424001100026233220
B2101053727689N12151634WA0043600425001100024236222
B2101063727688N12151638WA0043600424001100023240222
B2101073727686N12151642WA0043500423001100022242240
B2101083727685N12151646WA0043300422001100024240255
B2101093727683N12151651WA0043000420001100026250272
B2101103727683N12151656WA0042800419001100026266290
B2101113727685N12151661WA0042800419001100027293303
B2101123727687N12151665WA0042700418001100027302313
B2101133727691N12151669WA0042600417001100024317325
B2101143727696N12151668WA0042400415001100024357342
B2101153727700N12151666WA0042300413001100025016017
B2101163727704N12151664WA0042100412001100026030034
B2101173727708N12151661WA0041900410001100026036052
B2101183727710N12151657WA0041900408001100023055055
B2101193727710N12151651WA0041800407001100024074071
B2101203727710N12151646WA0041800406001100023086089
B2101213727709N12151642WA0041700405001100022099103
B2101223727706N12151637WA0041600404001100024115115
B2101233727704N12151632WA0041500403001100029121128
B2101243727701N12151627WA0041500403001100031123124
B2101253727698N12151622WA0041500402001100031122123
B2101263727696N12151616WA0041500403001100028119118
B2101273727693N12151612WA0041500403001100028118117
B2101283727691N12151607WA0041400403001100029122119
B2101293727688N12151602WA0041300401001100031126133
B2101303727685N12151598WA0041200400001100033133141
B2101313727681N12151593WA0041200399001100031140151
B2101323727677N12151591WA0041200399001100027165165
B2101333727674N12151591WA0041200399001100024178176
B2101343727670N12151591WA0041100399001100023185184
B2101353727666N12151592WA0041000399001100024193201
B2101363727663N12151593WA0041000399001100024204221
B2101373727660N12151596WA0040900399001100026220231
B2101383727657N12151600WA0040800397001100027231254
B2101393727656N12151604WA0040800396001100022248262
B2101403727657N12151609WA0040700395001100021273283
B2101413727659N12151613WA0040800395001100022309302
B2101423727662N12151615WA0040700394001100022319326
B2101433727665N12151617WA0040600393001100023336339
B2101443727669N12151618WA0040500392001100024351353
B2101453727673N12151617WA0040400391001100023004016
B2101463727677N12151616WA0040100390001100023010028
B2101473727681N12151614WA0039900389001100025021044
B2101483727685N12151609WA0039700387001100032053063
B2101493727687N12151602WA0039800387001100031065083
B2101503727688N12151596WA0039900386001100029079087
B2101513727687N12151590WA0039800385001100027097096
B2101523727685N12151586WA0039700385001100026118108
B2101533727681N12151583WA0039700384001100024136126
B2101543727678N12151581WA0039600384001100023154142
B2101553727674N12151580WA0039500384001100023170161
B2101563727669N12151582WA0039500384001100027211178
B2101573727666N12151586WA0039400384001100027231222
B2101583727664N12151590WA0039500383001100026238246
B2101593727665N12151596WA0039600382001100023279253
B2102003727666N12151600WA0039500382001100021297291
B2102013727669N12151603WA0039500383001100021312303
B2102023727672N12151606WA0039500383001100024320310
B2102033727675N12151609WA0039500383001100027320310
B2102043727678N12151613WA0039600384001100027316303
B2102053727681N12151616WA0039700384001100026311292
B2102063727683N12151620WA0039700384001100023302292
B2102073727685N12151624WA0039500384001100021298286
B2102083727686N12151628WA0039300383001100021282275
B2102093727686N12151632WA0039300383001100023261263
B2102103727684N12151637WA0039400382001100026250250
B2102113727682N12151641WA0039500382001100023232240
B2102123727679N12151643WA0039700382001100020216231
B2102133727675N12151644WA0039800382001100019196215
B2102143727672N12151644WA0039800383001100021183199
B2102153727668N12151644WA0039700383001100024191196
B2102163727665N12151645WA0039700382001100026187189
B2102173727661N12151645WA0039600381001100028174169
B2102183727656N12151643WA0039400380001100029156148
B2102193727652N12151639WA0039300379001100029143128
B2102203727650N12151634WA0039100379001100026111111
B2102213727652N12151627WA0039000378001100029073080
B2102223727655N12151622WA0038900378001100028060049
B2102233727659N12151619WA0038800378001100026021037
B2102243727664N12151619WA0038900377001100028010005
B2102253727668N12151619WA0039000377001100024001355
B2102263727672N12151621WA0039000378001100023343347
B2102273727675N12151624WA0039000377001100022324333
B2102283727677N12151628WA0039000377001100022305318
B2102293727678N12151633WA0039000377001100023281300
B2102303727678N12151639WA0039100377001100024266281
B2102313727677N12151643WA0039100376001100021252267
B2102323727675N12151646WA0039100376001100019233255
B2102333727672N12151648WA0039000376001100022216240
B2102343727669N12151651WA0039000376001100026216221
B2102353727666N12151654WA0038900375001100026226224
B2102363727664N12151658WA0038800375001100024240239
B2102373727663N12151662WA0038600374001100023252255
B2102383727662N12151667WA0038400373001100025266264
B2102393727663N12151672WA0038300372001100027275275
B2102403727664N12151677WA0038200371001100029286284
B2102413727666N12151682WA0038400370001100031289277
B2102423727667N12151687WA0038400369001100030291295
B2102433727669N12151692WA0038500369001100027297306
B2102443727671N12151695WA0038400369001100021304293
B2102453727673N12151699WA0038200368001100020302298
B2102463727675N12151702WA0038000367001100022300283
B2102473727676N12151706WA0037800366001100028289275
B2102483727678N12151712WA0037900365001100031291261
B2102493727679N12151717WA0038000366001100030287263
B2102503727679N12151723WA0038100367001100028280268
B2102513727679N12151728WA0038200367001100025266257
B2102523727679N12151732WA0038200367001100023265276
B2102533727679N12151737WA0038100366001100023268270
B2102543727679N12151742WA0038000366001100026273267
B2102553727679N12151747WA0038000366001100027276270
B2102563727679N12151752WA0038000366001100027279278
B2102573727680N12151757WA0038100367001100026281268
B2102583727681N12151761WA0038100367001100024280259
B2102593727681N12151765WA0038100367001100022265246
B2103003727679N12151769WA0037900367001100025241228
B2103013727676N12151773WA0037900366001100028217216
B2103023727672N12151775WA0037800365001100028200205
B2103033727667N12151776WA0037800364001100031186180
B2103043727662N12151772WA0037800364001100031150167
B2103053727659N12151768WA0037800364001100032134138
B2103063727656N12151762WA0038000364001100030125128
B2103073727654N12151757WA0038200364001100028116121
B2103083727653N12151751WA0038300365001100025108107
B2103093727653N12151748WA0038300365001100020100098
B2103103727653N12151744WA0038100365001100021094084
B2103113727653N12151739WA0038000364001100025084069
B2103123727656N12151734WA0038200365001100031057052
B2103133727659N12151729WA0038500365001100032053027
B2103143727662N12151725WA0038600365001100029045025
B2103153727665N12151723WA0038500366001100022020008
B2103163727669N12151724WA0038500366001100024343351
B2103173727672N12151726WA0038400366001100026331326
B2103183727676N12151729WA0038300366001100024315320
B2103193727678N12151733WA0038400366001100023304303
B2103203727679N12151739WA0038400367001100025289294
B2103213727679N12151744WA0038500368001100024275285
B2103223727678N12151748WA0038400368001100024260272
B2103233727678N12151753WA0038400368001100025253261
B2103243727677N12151758WA0038500368001100026255256
B2103253727676N12151763WA0038500368001100026256260
B2103263727675N12151768WA0038400368001100026256257
B2103273727673N12151772WA0038500368001100024246235
B2103283727672N12151776WA0038500368001100024237231
B2103293727669N12151780WA0038400368001100025226218
B2103303727665N12151781WA0038400368001100026191203
B2103313727660N12151781WA0038400368001100027181181
B2103323727656N12151780WA0038400368001100028167167
B2103333727652N12151778WA0038400367001100032150149
B2103343727649N12151774WA0038300367001100033131126
B2103353727646N12151769WA0038300367001100033120113
B2103363727644N12151763WA0038400367001100032108098
B2103373727644N12151757WA0038400368001100032095099
B2103383727644N12151750WA0038600369001100031080090
B2103393727645N12151744WA0038700370001100028081084
B2103403727646N12151739WA0038800371001100026086096
B2103413727646N12151734WA0038800372001100027088099
B2103423727646N12151729WA0038900372001100029087091
B2103433727646N12151723WA0038900373001100028079072
B2103443727648N12151718WA0039000374001100029065053
B2103453727650N12151714WA0039000375001100029051030
B2103463727653N12151710WA0039000376001100027036012
B2103473727657N12151708WA0039100377001100028017357
B2103483727662N12151708WA0039200378001100028002343
B2103493727666N12151709WA0039300379001100025344332
B2103503727669N12151711WA0039300379001100024337319
B2103513727672N12151714WA0039400379001100023316316
B2103523727674N12151719WA0039600380001100027301303
B2103533727675N12151724WA0039800381001100024287290
B2103543727675N12151729WA0039900382001100024271275
B2103553727674N12151733WA0039900383001100024256260
B2103563727672N12151737WA0039900384001100025241243
B2103573727669N12151741WA0039900384001100027224232
B2103583727665N12151744WA0039900384001100025216216
B2103593727660N12151744WA0039900384001100027175209
B2104003727655N12151741WA0039900384001100030145169
B2104013727652N12151737WA0039900385001100030133136
B2104023727650N12151731WA0039900386001100032107117
B2104033727649N12151725WA0039900387001100033097089
B2104043727650N12151719WA0040000387001100032077078
B2104053727652N12151713WA0040000387001100031068055
B2104063727655N12151709WA0040000388001100029056046
B2104073727659N12151706WA0040000388001100028038036
B2104083727665N12151706WA0040100389001100030006017
B2104093727670N12151707WA0040100390001100030352352
B2104103727675N12151708WA0040000391001100029344339
B2104113727677N12151714WA0040100391001100024307330
B2104123727677N12151720WA0040100392001100026265300
B2104133727675N12151726WA0040200393001100028253263
B2104143727672N12151730WA0040300393001100026226252
B2104153727668N12151732WA0040200393001100024196229
B2104163727663N12151731WA0040300393001100028162196
B2104173727659N12151729WA0040400394001100030148160
B2104183727655N12151725WA0040300394001100030133140
B2104193727653N12151720WA0040400393001100031122122
B2104203727651N12151715WA0040300393001100031112109
B2104213727650N12151709WA0040200392001100032102100
B2104223727650N12151702WA0040100392001100034092083
B2104233727650N12151696WA0040100392001100035081062
B2104243727652N12151690WA0040200392001100034072054
B2104253727654N12151684WA0040200391001100032061042
B2104263727658N12151681WA0040200391001100029040034
B2104273727663N12151680WA0040200391001100029009015
B2104283727668N12151680WA0040200391001100030358348
B2104293727672N12151682WA0040200391001100028347339
B2104303727676N12151686WA0040200391001100025329330
B2104313727677N12151692WA0040200391001100027287316
B2104323727677N12151698WA0040400392001100027278283
B2104333727677N12151703WA0040600392001100024267276
B2104343727675N12151707WA0040700392001100017252264
B2104353727673N12151710WA0040600392001100015236250
B2104363727671N12151712WA0040500392001100015223235
B2104373727669N12151714WA0040300392001100018220220
B2104383727666N12151716WA0040400391001100024203208
B2104393727661N12151717WA0040500392001100024192190
B2104403727657N12151716WA0040500392001100026162179
B2104413727653N12151713WA0040500393001100028144150
B2104423727650N12151709WA0040400392001100030131130
B2104433727648N12151703WA0040300392001100032108119
B2104443727647N12151696WA0040300392001100033091094
B2104453727648N12151689WA0040300393001100034078076
B2104463727649N12151683WA0040200393001100034069061
B2104473727652N12151678WA0040200393001100033057051
B2104483727656N12151674WA0040100393001100029041044
B2104493727660N12151671WA0040100394001100029024025
B2104503727664N12151670WA0040300394001100029011010
B2104513727668N12151670WA0040200394001100028001357
B2104523727672N12151671WA0040200394001100024351348
B2104533727673N12151675WA0040200394001100017305339
B2104543727673N12151679WA0040300393001100019283295
B2104553727673N12151684WA0040300393001100023266279
B2104563727672N12151689WA0040300393001100026261270
B2104573727671N12151694WA0040300393001100025257266
B2104583727670N12151699WA0040400393001100022254267
B2104593727669N12151702WA0040400394001100018252257
B2105003727668N12151706WA0040500395001100019250252
B2105013727667N12151710WA0040600395001100024242243
B2105023727665N12151714WA0040700396001100023236231
B2105033727663N12151717WA0040800398001100018238252
B2105043727662N12151720WA0040900398001100019241271
B2105053727661N12151723WA0040900398001100018246282
B2105063727661N12151726WA0040700398001100015274294
B2105073727662N12151729WA0040700398001100017293314
B2105083727665N12151732WA0040800398001100017305327
B2105093727669N12151733WA0041000399001100017336339
B2105103727674N12151731WA0041100399001100016359001
B2105113727677N12151726WA0041200399001100018043017
B2105123727678N12151721WA0041300399001100015076053
B2105133727675N12151717WA0041300400001100019146083
B2105143727670N12151715WA0041200401001100029176163
B2105153727665N12151714WA0041300402001100030189195
B2105163727661N12151715WA0041300403001100030197211
B2105173727658N12151717WA0041200403001100025220219
B2105183727657N12151721WA0041100402001100023233237
B2105193727658N12151724WA0041100402001100015275249
B2105203727663N12151727WA0041100401001100025329283
B2105213727667N12151728WA0041100401001100028352330
B2105223727672N12151728WA0041100401001100029005354
B2105233727677N12151724WA0041100401001100032031006
B2105243727682N12151719WA0041300400001100035044031
B2105253727685N12151713WA0041400401001100034055045
B2105263727686N12151707WA0041400401001100029080056
B2105273727684N12151701WA0041500400001100029110081
B2105283727681N12151695WA0041500400001100032127118
B2105293727678N12151690WA0041400400001100033130142
B2105303727674N12151686WA0041500401001100031140147
B2105313727669N12151686WA0041600401001100028173158
B2105323727664N12151688WA0041400401001100029192190
B2105333727660N12151691WA0041200401001100027200208
B2105343727658N12151695WA0041100401001100024216216
B2105353727659N12151700WA0041100401001100015255229
B2105363727663N12151704WA0041000401001100020316264
B2105373727666N12151707WA0040900401001100023332316
B2105383727671N12151708WA0040800401001100026345335
B2105393727675N12151709WA0040700401001100027355353
B2105403727680N12151708WA0040600400001100026008003
B2105413727684N12151706WA0040700399001100025016013
B2105423727687N12151699WA0040700399001100028051020
B2105433727688N12151693WA0040800398001100027069050
B2105443727689N12151687WA0040800398001100029080072
B2105453727688N12151680WA0040700398001100028095091
B2105463727686N12151674WA0040700397001100030107105
B2105473727684N12151669WA0040700397001100030123125
B2105483727681N12151664WA0040700397001100030131144
B2105493727678N12151660WA0040700396001100029133152
B2105503727673N12151661WA0040800396001100022173153
B2105513727669N12151664WA0040800396001100023212191
B2105523727667N12151668WA0040800397001100022224220
B2105533727664N12151671WA0040800397001100020224225
B2105543727662N12151673WA0040800397001100019222237
B2105553727660N12151676WA0040500396001100019221255
B2105563727658N12151678WA0040200395001100020217258
B2105573727658N12151682WA0039900394001100019247246
B2105583727658N12151687WA0039900394001100022265258
B2105593727660N12151693WA0040000394001100028286264
B2106003727662N12151698WA0039900394001100026282267
B2106013727663N12151703WA0039800393001100024274275
B2106023727663N12151708WA0039800392001100024276265
B2106033727664N12151712WA0039700392001100024280269
B2106043727665N12151717WA0039800392001100023277269
B2106053727666N12151721WA0039700391001100022269262
B2106063727666N12151726WA0039600390001100023266262
B2106073727666N12151730WA0039500388001100025269265
B2106083727666N12151735WA0039400387001100027271252
B2106093727666N12151741WA0039400387001100028268267
B2106103727666N12151746WA0039400386001100027268274
B2106113727666N12151751WA0039600387001100024275266
B2106123727667N12151755WA0039600387001100020280269
B2106133727667N12151758WA0039600386001100018280275
B2106143727668N12151762WA0039600386001100019277280
B2106153727668N12151766WA0039500385001100020284304
B2106163727670N12151770WA0039400385001100020298308
B2106173727671N12151773WA0039400384001100021307285
B2106183727673N12151776WA0039300383001100021299292
B2106193727674N12151780WA0039200383001100020291290
B2106203727675N12151784WA0039100382001100021280287
B2106213727676N12151788WA0039000380001100023278277
B2106223727676N12151793WA0038800379001100023281285
B2106233727677N12151797WA0038800378001100023281286
B2106243727678N12151801WA0038600377001100022281285
B2106253727679N12151805WA0038500375001100021286290
B2106263727680N12151809WA0038300373001100021290293
B2106273727681N12151813WA0038000371001100024292298
B2106283727683N12151818WA0037900370001100026293294
B2106293727684N12151822WA0037800369001100026293283
B2106303727686N12151827WA0037700367001100024288283
B2106313727687N12151831WA0037600366001100024283278
B2106323727687N12151835WA0037500365001100023281267
B2106333727688N12151840WA0037400363001100024282269
B2106353727690N12151849WA0037200362001100024280262
B2106363727690N12151854WA0037100361001100026276259
B2106373727691N12151859WA0036900360001100027273263
B2106383727691N12151864WA0036900359001100028268257
B2106393727691N12151869WA0036900358001100027266256
B2106403727690N12151874WA0036700358001100027264261
B2106413727690N12151880WA0036600356001100027265265
B2106423727690N12151885WA0036600355001100031272262
B2106433727690N12151891WA0036500355001100033272268
B2106443727690N12151897WA0036500355001100032270270
B2106453727690N12151903WA0036600356001100029268269
B2106463727690N12151908WA0036700356001100027266270
B2106473727690N12151913WA0036700356001100028267262
B2106483727689N12151919WA0036700356001100029262259
B2106493727689N12151924WA0036600355001100030256252
B2106503727687N12151930WA0036600354001100031248237
B2106513727685N12151935WA0036500353001100030241244
B2106523727683N12151940WA0036500353001100029244255
B2106533727681N12151945WA0036400351001100030246254
B2106543727680N12151951WA0036100350001100031244258
B2106553727679N12151956WA0035600348001100032246260
B2106563727678N12151963WA0035400346001100036252249
B2106573727677N12151971WA0035300345001100042257251
B2106583727676N12151978WA0035400343001100042257256
B2106593727675N12151986WA0035800342001100043255255
B2107003727674N12151994WA0036000340001100042254243
B2107013727673N12152000WA0036200342001100031261242
B2107023727673N12152004WA0036100341001100023258240
B2107033727673N12152008WA0036000341001100023249222
B2107043727671N12152012WA0036000341001100027242227
B2107053727669N12152016WA0036100342001100027241222
B2107063727667N12152020WA0036300343001100027235220
B2107073727665N12152024WA0036500344001100025235222
B2107083727662N12152026WA0036600345001100021224231
B2107093727660N12152029WA0036600347001100021219226
B2107103727658N12152031WA0036800347001100024225216
B2107113727655N12152035WA0036800349001100026230223
B2107123727653N12152039WA0036900350001100025229223
B2107133727651N12152042WA0036900350001100025231237
B2107143727649N12152046WA0036900351001100025240265
B2107153727648N12152050WA0036800350001100023249272
B2107163727648N12152054WA0036700350001100021274278
B2107173727650N12152059WA0036600350001100022299293
B2107183727653N12152062WA0036500350001100023311312
B2107193727657N12152064WA0036300350001100023328324
B2107203727663N12152063WA0036200348001100026008337
B2107213727668N12152060WA0036100347001100027017009
B2107223727672N12152058WA0036000346001100028023019
B2107233727675N12152052WA0035900345001100032047024
B2107243727676N12152046WA0035900344001100029063048
B2107253727676N12152039WA0035900344001100027082063
B2107263727674N12152033WA0035900343001100026100084
B2107273727671N12152027WA0035900343001100025118104
B2107283727667N12152022WA0035900343001100028136129
B2107293727663N12152019WA0035800343001100030151148
B2107303727658N12152016WA0035900344001100030157155
B2107313727653N12152013WA0035900346001100028155162
B2107323727649N12152011WA0036000347001100025154164
B2107333727646N12152009WA0036000347001100025155177
B2107343727642N12152007WA0035900347001100025152166
B2107353727639N12152004WA0035800345001100025146149
B2107363727636N12152001WA0035500344001100032141137
B2107373727632N12151996WA0035200342001100036129127
B2107383727630N12151990WA0035100340001100036110106
B2107393727628N12151984WA0035000339001100035106096
B2107403727627N12151978WA0035000338001100033101098
B2107413727627N12151971WA0035000338001100032099109
B2107423727626N12151965WA0035000337001100032102103
B2107433727625N12151959WA0034900337001100031102113
B2107443727623N12151954WA0034900337001100030106124
B2107453727622N12151948WA0034900336001100030109097
B2107463727620N12151943WA0034600335001100031110097
B2107473727619N12151936WA0034400333001100035105091
B2107483727618N12151930WA0034300332001100036101095
B2107493727617N12151924WA0034300332001100031099098
B2107503727616N12151918WA0034300331001100029105098
B2107513727615N12151913WA0034300330001100029109103
B2107523727613N12151908WA0034200330001100029109116
B2107533727612N12151902WA0034000329001100029110123
B2107543727610N12151897WA0033900328001100029112121
B2107553727608N12151892WA0033800326001100029116124
B2107563727607N12151887WA0033800325001100029115127
B2107573727605N12151882WA0033800325001100027111115
B2107583727604N12151877WA0033800325001100025106117
B2107593727603N12151873WA0033800325001100022102119
B2108003727602N12151869WA0033700325001100022104118
B2108013727601N12151865WA0033600323001100024106116
B2108023727600N12151861WA0033400322001100026106116
B2108033727599N12151856WA0033300321001100028105110
B2108043727598N12151851WA0033200320001100028104124
B2108053727597N12151846WA0033100318001100026109105
B2108063727596N12151841WA0032900317001100026108114
B2108073727595N12151836WA0032900316001100026102123
B2108083727594N12151832WA0032800315001100026100095
B2108093727594N12151827WA0032600314001100027091091
B2108103727594N12151822WA0032500313001100030082087
B2108113727596N12151816WA0032300312001100035069074
B2108123727598N12151810WA0032300311001100035063060
B2108133727601N12151804WA0032300311001100032055060
B2108143727604N12151800WA0032300310001100032046053
B2108153727608N12151796WA0032100309001100033041046
B2108163727612N12151791WA0032000307001100038039036
B2108173727616N12151787WA0032000307001100037035012
B2108183727621N12151784WA0032000306001100036030031
B2108193727626N12151781WA0032000305001100032018019
B2108203727631N12151780WA0031900303001100031016020
B2108213727635N12151778WA0031700302001100034021030
B2108223727640N12151775WA0031600301001100037024027
B2108233727646N12151772WA0031500300001100037022026
B2108243727651N12151770WA0031600300001100039017014
B2108253727657N12151768WA0031600299001100035010009
B2108263727662N12151768WA0031500300001100033003004
B2108273727667N12151768WA0031400299001100033358358
B2108283727672N12151769WA0031300299001100034353343
B2108293727676N12151770WA0031300299001100032343330
B2108303727681N12151772WA0031200298001100031332312
B2108313727684N12151776WA0031200298001100030319298
B2108323727687N12151780WA0031200298001100030309284
B2108333727690N12151785WA0031200298001100027299281
B2108343727691N12151789WA0031200297001100022288273
B2108353727692N12151793WA0031100297001100021284271
B2108363727692N12151797WA0031100297001100021285263
B2108373727693N12151801WA0031200298001100021278254
B2108383727693N12151804WA0031200298001100019265248
B2108393727692N12151808WA0031200298001100018251232
B2108403727690N12151810WA0031200298001100017222223
B2108413727687N12151811WA0031300298001100016208206
B2108423727684N12151810WA0031300299001100021158197
B2108433727681N12151807WA0031200299001100025137165
B2108443727678N12151803WA0031200299001100026123147
B2108453727676N12151799WA0031200300001100027126145
B2108463727673N12151795WA0031100299001100027126145
B2108473727671N12151790WA0031000297001100027125149
B2108483727669N12151787WA0030800296001100027135161
B2108493727665N12151784WA0030600295001100024146170
B2108503727662N12151782WA0030400294001100021163188
B2108513727659N12151783WA0030300293001100018184208
B2108523727657N12151787WA0030200292001100021236229
B2108533727657N12151791WA0030100291001100024275254
B2108543727658N12151796WA0030000290001100026296277
B2108553727660N12151801WA0029900289001100028307288
B2108563727663N12151805WA0029800288001100029318290
B2108573727666N12151809WA0029800288001100030322295
B2108583727670N12151812WA0029800288001100031322306
B2108593727674N12151816WA0029800288001100031325309
B2109003727677N12151819WA0029800288001100030329303
B2109013727681N12151822WA0029900288001100026320294
B2109023727683N12151825WA0029800287001100024308278
B2109033727685N12151829WA0029800287001100022293267
B2109043727685N12151833WA0029800287001100021278257
B2109053727685N12151836WA0029800287001100016271251
B2109063727685N12151839WA0029700286001100013264252
B2109073727685N12151842WA0029600285001100013253244
B2109083727684N12151845WA0029400283001100018244231
B2109093727682N12151848WA0029300283001100020232224
B2109103727680N12151851WA0029200281001100019214208
B2109113727677N12151851WA0029000280001100021176195
B2109123727674N12151850WA0028900278001100024161177
B2109133727670N12151849WA0028700277001100024164175
B2109143727667N12151848WA0028600276001100021176181
B2109153727664N12151849WA0028400275001100020187199
B2109163727662N12151850WA0028200273001100018201234
B2109173727660N12151852WA0028200272001100017218209
B2109183727659N12151854WA0028200271001100010232220
B2109193727658N12151855WA0028200270001100008233229
B2109203727658N12151855WA0028200268001100000233229
B2109213727659N12151855WA0028200267001100000233229
B2109223727659N12151855WA0028200269001100000233229
B2109233727659N12151855WA0028200271001100000233229
B2109243727659N12151855WA0028200271001100000233229
B2109253727659N12151855WA0028200271001100000233228
B2109263727659N12151855WA0028200271001100000233229
B2109273727659N12151855WA0028200271001100000233229
B2109283727659N12151855WA0028200271001100000233229
B2109293727659N12151855WA0028200271001100000233229
B2109303727659N12151855WA0028200271001100000233229
B2109313727659N12151855WA0028200271001100000233229
B2109323727658N12151856WA0028200270001100001159229
B2109333727658N12151856WA0028200270001100001157229
B2109343727658N12151856WA0028200270001100002157230
B2109353727658N12151856WA0028200270001100002170227
B2109363727658N12151856WA0028200270001100002176228
B2109373727658N12151856WA0028200270001100002186229
B2109383727658N12151856WA0028200270001100002189229
B2109393727658N12151856WA0028200270001100002193229
B2109403727657N12151856WA0028200270001100001185229
B2109413727657N12151856WA0028200270001100000174229
B2109423727657N12151856WA0028200270001100000171230
B2109433727657N12151856WA0028200270001100000171229
B2109443727657N12151856WA0028200270001100000171229
B2109453727657N12151856WA0028200270001100000171229
B2109463727657N12151856WA0028200270001100000171229
B2109473727657N12151856WA0028200270001100000171227
B2109483727657N12151856WA0028200270001100000171230
B2109493727657N12151856WA0028200270001100000171223
GGt8BMrGHmxDIZ28AulUqXi+AUNUCHNnoGC9/ORds95Pe/i52CIVjiqrfpzVtXaD8
GsoHAh2jilaHwZ0C8i2mfxF1npd3kw1uokWLzUb6I30K1wEpCRjQanOZXCD8zxXRU
GIy0KWVB3aaZ+5F1peScW1mhNR37bTs2LeKprEHMcqBg=

