AXFH000
HFDTE230526
HFPLTPILOT:Scott O’Brien
HFGTYGLIDERTYPE:Ozone Swift 6
HFDTM100GPSDATUM:WGS84
HFRFWFIRMWAREVERSION:9.6
HFRHWHARDWAREVERSION:iPhone 15
HFFTYFRTYPE:Flyskyhy,9.6
HFGPS:Bluetooth vario
HFPRSVARIO:Bluetooth vario
HFCCLCOMPETITIONCLASS:Paraglider
HFTZNTIMEZONE:-7
HFSITSITE:Woodrat Mountain,US
I053638FXA3941VXA4244GSP4547CCO4850HDT
C230526191606230526000111TASK
C0000000N00000000ETAKEOFF
C4213881N12300217W00010009999999000000360000STARTAREA WDLAUN        
C4213881N12300217W00010009999999000000360000TURNAREA WDLAUN        
C4215812N12303089W00000000001000000000360000TURNAREA RABIES        
C4213881N12300217W00000000002000000000360000TURNAREA WDLAUN        
C4215812N12303089W00000000002500000000360000TURNAREA RABIES        
C4213881N12300217W00000000002500000000360000TURNAREA WDLAUN        
C4215812N12303089W00000000002500000000360000TURNAREA RABIES        
C4213881N12300217W00000000002000000000360000TURNAREA WDLAUN        
C4215812N12303089W00000000002000000000360000TURNAREA RABIES        
C4213881N12300217W00000000002000000000360000TURNAREA WDLAUN        
C4215812N12303089W00000000001000000000360000TURNAREA RABIES        
C4213948N12303331W00000000001000000000360000TURNAREA LONSWD        
C4213948N12303331W00000000000100000000360000FINISHAREA LONSWD        
C0000000N00000000ELANDING
B1916364213892N12300229WA0115501156000100000359064
B1916374213892N12300229WA0115601156000100000359062
B1916384213892N12300229WA0115501156000100000359060
B1916394213892N12300229WA0115601156000100000359057
B1916404213892N12300230WA0115601156000100000359048
B1916414213892N12300230WA0115601156000100000359048
B1916424213892N12300230WA0115601156000100000359048
B1916434213892N12300230WA0115601156000100000359052
B1916444213892N12300230WA0115601156000100000359059
B1916454213892N12300230WA0115601156000100000359057
B1916464213892N12300230WA0115601156000100000359057
B1916474213892N12300229WA0115601156000100000359078
B1916484213892N12300229WA0115601156000100000359088
B1916494213892N12300230WA0115601156000100000359088
B1916504213892N12300230WA0115601156000100000359083
B1916514213892N12300230WA0115601156000100000359081
B1916524213892N12300230WA0115601156000100000359079
B1916534213892N12300230WA0115601156000100000359080
B1916544213892N12300230WA0115601156000100000359077
B1916554213892N12300230WA0115601156000100000359067
B1916564213892N12300230WA0115601156000100000359057
B1916574213892N12300230WA0115601156000100000359090
B1916584213891N12300230WA0115601156000100000359096
B1916594213891N12300230WA0115601156000100001359082
B1917004213892N12300231WA0115501156000100004286122
B1917014213892N12300232WA0115501156000100004251107
B1917024213892N12300233WA0115501156000100009289038
B1917034213892N12300236WA0115501155000100012274259
B1917044213893N12300239WA0115201155000100015295314
B1917054213894N12300242WA0115201154000100018293282
B1917064213895N12300246WA0115001153000100019289281
B1917074213896N12300250WA0114701152000100022284293
B1917084213897N12300255WA0114601151000100026288303
B1917094213899N12300260WA0114501150000100030295294
B1917104213901N12300266WA0114701149000100030296295
B1917114213902N12300271WA0115201149000100023291280
B1917124213903N12300275WA0114901149000100019279278
B1917134213904N12300279WA0114901148000100022279293
B1917144213905N12300284WA0114601147000100028287289
B1917154213907N12300290WA0114601146000100031298296
B1917164213909N12300295WA0114701146000100031306298
B1917174213912N12300299WA0115301146000100027309304
B1917184213915N12300302WA0115701148000100023312313
B1917194213917N12300304WA0116001151000100014315313
B1917204213918N12300306WA0116101153000100015320317
B1917214213920N12300307WA0116201154000100018329322
B1917224213923N12300309WA0116301155000100025342334
B1917234213927N12300309WA0116201156000100027353346
B1917244213931N12300309WA0116501158000100025010357
B1917254213935N12300307WA0116601160000100023027007
B1917264213937N12300305WA0116701162000100022034023
B1917274213940N12300302WA0116801163000100022028014
B1917284213943N12300300WA0116901164000100022024008
B1917294213946N12300299WA0116801164000100021019351
B1917304213950N12300297WA0116701164000100022010345
B1917314213953N12300297WA0116501164000100025357340
B1917324213957N12300300WA0116301163000100030323320
B1917334213960N12300305WA0116301162000100035299299
B1917344213962N12300312WA0116501162000100034288285
B1917354213961N12300319WA0116201162000100032269275
B1917364213958N12300325WA0116201161000100032229266
B1917374213953N12300329WA0116101159000100035218235
B1917384213947N12300333WA0115801156000100038210227
B1917394213942N12300337WA0115401152000100041211234
B1917404213936N12300342WA0115201149000100046220231
B1917414213931N12300350WA0115001146000100050226246
B1917424213927N12300359WA0115001145000100046240251
B1917434213925N12300368WA0115101145000100044254259
B1917444213926N12300377WA0115301145000100041271274
B1917454213927N12300385WA0115401147000100038277281
B1917464213928N12300393WA0115501148000100036277285
B1917474213929N12300400WA0115301147000100033277285
B1917484213929N12300406WA0115201146000100030275284
B1917494213930N12300412WA0115001145000100027275282
B1917504213930N12300417WA0115001145000100024284282
B1917514213931N12300421WA0114701143000100021301289
B1917524213934N12300424WA0114501142000100021324303
B1917534213937N12300425WA0114301140000100021342321
B1917544213940N12300426WA0114101138000100023352336
B1917554213943N12300426WA0113901136000100026003348
B1917564213947N12300426WA0113601134000100027000355
B1917574213951N12300426WA0113501132000100027347349
B1917584213955N12300428WA0113401131000100029339315
B1917594213960N12300430WA0113301130000100029345343
B1918004213964N12300431WA0113201129000100029347345
B1918014213968N12300433WA0113001129000100030338336
B1918024213972N12300436WA0113101128000100031327327
B1918034213976N12300439WA0113201128000100029321349
B1918044213979N12300443WA0113101127000100029327349
B1918054213983N12300445WA0112801125000100029337340
B1918064213988N12300446WA0112501123000100033348333
B1918074213993N12300448WA0112501122000100035341326
B1918084213998N12300450WA0112501121000100033335319
B1918094214002N12300454WA0112501120000100030325339
B1918104214005N12300457WA0112501119000100026323343
B1918114214008N12300460WA0112401118000100025329337
B1918124214012N12300463WA0112101116000100027327331
B1918134214015N12300467WA0111801113000100030322321
B1918144214019N12300470WA0111601111000100032325343
B1918154214023N12300473WA0111401109000100031334352
B1918164214027N12300476WA0111301107000100027341331
B1918174214031N12300477WA0111101105000100026345345
B1918184214035N12300478WA0110801103000100027347329
B1918194214039N12300479WA0110401100000100026352334
B1918204214043N12300480WA0110101096000100028356343
B1918214214048N12300480WA0109701092000100033354327
B1918224214053N12300482WA0109301089000100036349334
B1918234214058N12300483WA0109101087000100034344324
B1918244214063N12300485WA0109001086000100032345351
B1918254214067N12300486WA0108901084000100029346339
B1918264214071N12300488WA0108801083000100025341331
B1918274214075N12300490WA0108401081000100025334319
B1918284214078N12300493WA0108201078000100027330331
B1918294214082N12300496WA0107601074000100032331331
B1918304214086N12300499WA0107301071000100035335334
B1918314214091N12300502WA0107101067000100036335328
B1918324214096N12300505WA0107001065000100034330308
B1918334214100N12300509WA0106801064000100032317304
B1918344214103N12300514WA0106501061000100032303299
B1918354214105N12300520WA0106401059000100033291297
B1918364214107N12300527WA0106201056000100034290285
B1918374214109N12300533WA0105801054000100034301314
B1918384214112N12300538WA0105801051000100032311318
B1918394214115N12300542WA0105601049000100029317314
B1918404214118N12300547WA0105601048000100032309282
B1918414214121N12300552WA0105401046000100034298257
B1918424214123N12300559WA0105501045000100035290298
B1918434214124N12300565WA0105601045000100033285279
B1918444214125N12300572WA0105701045000100032274263
B1918454214124N12300578WA0105801046000100033259263
B1918464214122N12300585WA0106001047000100036247254
B1918474214119N12300592WA0106101049000100035240229
B1918484214116N12300597WA0106401051000100032235279
B1918494214113N12300601WA0106601053000100027222239
B1918504214110N12300605WA0106601055000100024223257
B1918514214108N12300607WA0106501056000100022224260
B1918524214105N12300611WA0106401054000100025230245
B1918534214103N12300616WA0106201054000100032242261
B1918544214101N12300623WA0106301054000100036250268
B1918554214100N12300631WA0106401055000100037250262
B1918564214098N12300638WA0106701056000100034247266
B1918574214096N12300643WA0106801058000100026239278
B1918584214094N12300647WA0106701058000100025244269
B1918594214092N12300650WA0106501058000100024244279
B1919004214090N12300655WA0106301057000100028246276
B1919014214088N12300662WA0106201057000100037248285
B1919024214086N12300669WA0106301057000100036252288
B1919034214085N12300676WA0106501058000100031257289
B1919044214084N12300681WA0106601058000100027272295
B1919054214085N12300686WA0106601059000100025290300
B1919064214088N12300691WA0106701060000100027310310
B1919074214092N12300694WA0106801060000100028328321
B1919084214096N12300696WA0107001062000100026339338
B1919094214099N12300697WA0107101063000100023358345
B1919104214102N12300695WA0107201064000100020020002
B1919114214104N12300692WA0107201064000100019049017
B1919124214104N12300686WA0107001064000100025087042
B1919134214102N12300678WA0107001064000100034109081
B1919144214099N12300672WA0106901064000100036122109
B1919154214094N12300667WA0106801063000100038146126
B1919164214087N12300664WA0106701062000100042167151
B1919174214079N12300665WA0106801062000100048185174
B1919184214072N12300669WA0107001062000100045198192
B1919194214067N12300674WA0107301063000100040208206
B1919204214064N12300681WA0107401065000100033228217
B1919214214062N12300687WA0107601066000100028252241
B1919224214062N12300694WA0107601066000100031256274
B1919234214061N12300700WA0107601068000100032258283
B1919244214060N12300706WA0107801068000100029264286
B1919254214060N12300712WA0107701069000100025275293
B1919264214061N12300717WA0107801069000100025289304
B1919274214062N12300721WA0107801070000100024299315
B1919284214064N12300725WA0107901071000100022314324
B1919294214067N12300727WA0108001071000100019330336
B1919304214069N12300728WA0107901071000100016353348
B1919314214072N12300726WA0107701071000100018019004
B1919324214075N12300724WA0107601069000100022021014
B1919334214078N12300722WA0107401067000100025011018
B1919344214082N12300721WA0107501067000100027015020
B1919354214085N12300719WA0107501067000100026020014
B1919364214089N12300716WA0107801068000100023033009
B1919374214091N12300714WA0107801070000100019035008
B1919384214093N12300711WA0107801070000100019040008
B1919394214096N12300710WA0107701071000100019030010
B1919404214099N12300709WA0107601070000100022021004
B1919414214102N12300707WA0107501069000100028022007
B1919424214106N12300705WA0107601069000100027022359
B1919434214109N12300703WA0107701070000100021011356
B1919444214112N12300703WA0107801070000100016004344
B1919454214114N12300703WA0107701070000100014354343
B1919464214117N12300703WA0107501068000100018347347
B1919474214120N12300704WA0107201066000100024345346
B1919484214124N12300706WA0107001065000100029345344
B1919494214128N12300708WA0106801063000100027343350
B1919504214132N12300709WA0106501061000100026338349
B1919514214135N12300712WA0106301058000100025333346
B1919524214139N12300714WA0105801054000100028336345
B1919534214143N12300716WA0105401050000100032342345
B1919544214148N12300718WA0104901046000100038346349
B1919554214154N12300720WA0104701043000100039347352
B1919564214160N12300722WA0104601039000100039349352
B1919574214166N12300723WA0104601037000100037350004
B1919584214172N12300724WA0104601037000100036351354
B1919594214178N12300726WA0104701038000100036349354
B1920004214183N12300727WA0105001039000100036352001
B1920014214188N12300728WA0105101040000100035001011
B1920024214194N12300726WA0105201041000100037015009
B1920034214199N12300723WA0105101041000100039016005
B1920044214205N12300721WA0105401042000100035009008
B1920054214210N12300721WA0105601043000100031004031
B1920064214214N12300721WA0105801045000100025006049
B1920074214217N12300720WA0106001046000100021011041
B1920084214219N12300718WA0105901047000100020029019
B1920094214221N12300714WA0105801048000100024030350
B1920104214225N12300712WA0105801048000100026017005
B1920114214229N12300711WA0105801048000100028004001
B1920124214233N12300711WA0106001050000100027002005
B1920134214237N12300710WA0105901050000100026010343
B1920144214241N12300709WA0105901050000100029017002
B1920154214245N12300707WA0105801049000100033011349
B1920164214251N12300706WA0105801049000100036005353
B1920174214256N12300706WA0105901049000100038358354
B1920184214262N12300707WA0106001051000100036352347
B1920194214267N12300708WA0106101053000100034350347
B1920204214272N12300709WA0106201054000100030347342
B1920214214276N12300710WA0106501056000100028348348
B1920224214280N12300711WA0106501058000100029348338
E192022TPCWaypoint WDLAUN         reached
B1920234214284N12300713WA0106701059000100031345328
B1920244214289N12300715WA0106801061000100032333328
B1920254214293N12300719WA0107001062000100033318315
B1920264214296N12300724WA0107201064000100031305320
B1920274214298N12300729WA0107401066000100027301327
B1920284214300N12300733WA0107501067000100026300322
B1920294214303N12300738WA0107501067000100029304335
B1920304214306N12300743WA0107401067000100032315347
B1920314214309N12300747WA0107401067000100033325347
B1920324214314N12300750WA0107401067000100032337353
B1920334214318N12300751WA0107501067000100025343353
B1920344214321N12300753WA0107601068000100020337358
B1920354214323N12300754WA0107401067000100017325354
B1920364214325N12300756WA0107301066000100017325350
B1920374214328N12300759WA0106901064000100020328349
B1920384214331N12300760WA0106601061000100024337343
B1920394214335N12300762WA0106401060000100027339357
B1920404214339N12300764WA0106401058000100027339351
B1920414214342N12300766WA0106401058000100024339002
B1920424214345N12300767WA0106301057000100022339351
B1920434214349N12300769WA0106201056000100022344355
B1920444214352N12300770WA0106001055000100024344348
B1920454214356N12300771WA0106001054000100025342004
B1920464214359N12300773WA0106101055000100021334349
B1920474214361N12300775WA0106201054000100015323003
B1920484214363N12300776WA0106101054000100011318352
B1920494214364N12300777WA0105801052000100013326001
B1920504214366N12300779WA0105401050000100017333356
B1920514214369N12300780WA0105101048000100023330347
B1920524214372N12300783WA0105001046000100026334356
B1920534214376N12300784WA0104901045000100026345011
B1920544214380N12300785WA0104801043000100024000012
B1920554214383N12300784WA0104601041000100023005351
B1920564214387N12300784WA0104401038000100023002344
B1920574214390N12300784WA0104101035000100025000349
B1920584214394N12300784WA0104001033000100025001332
B1920594214397N12300784WA0104001032000100022001324
B1921004214400N12300784WA0103901031000100016354338
B1921014214402N12300784WA0103701029000100014347337
B1921024214404N12300786WA0103401027000100015329348
B1921034214406N12300788WA0103101024000100020315002
B1921044214409N12300791WA0102901023000100026319344
B1921054214412N12300795WA0102901022000100029327347
B1921064214416N12300798WA0103201022000100027330357
B1921074214419N12300800WA0103401022000100022336350
B1921084214422N12300800WA0103501022000100016352346
B1921094214424N12300800WA0103501022000100015351352
B1921104214427N12300800WA0103301021000100021347347
B1921114214431N12300801WA0103301021000100027348357
B1921124214435N12300802WA0103301022000100028354357
B1921134214439N12300802WA0103501023000100026000347
B1921144214443N12300801WA0103601025000100025003357
B1921154214447N12300801WA0103801027000100027000346
B1921164214451N12300801WA0103801028000100032358348
B1921174214457N12300801WA0104001030000100035355343
B1921184214462N12300802WA0104201033000100033351340
B1921194214466N12300803WA0104501036000100031342327
B1921204214471N12300806WA0104801039000100029329304
B1921214214474N12300809WA0105101041000100029317303
B1921224214477N12300814WA0105201043000100030308293
B1921234214478N12300821WA0105201044000100034281280
B1921244214477N12300828WA0105401046000100036263267
B1921254214475N12300835WA0105401047000100034244247
B1921264214471N12300841WA0105401048000100035228236
B1921274214465N12300843WA0105401048000100036197220
B1921284214459N12300843WA0105401048000100038172186
B1921294214453N12300841WA0105601049000100038162157
B1921304214449N12300837WA0105801050000100034142146
B1921314214446N12300831WA0105901052000100030119124
B1921324214445N12300825WA0106201054000100028101100
B1921334214446N12300819WA0106401056000100025079082
B1921344214448N12300815WA0106701058000100024056063
B1921354214451N12300811WA0106901061000100026042041
B1921364214454N12300808WA0107001063000100026034033
B1921374214458N12300805WA0107301066000100027024026
B1921384214462N12300803WA0107501068000100028011017
B1921394214466N12300803WA0107601069000100029002010
B1921404214470N12300803WA0107701071000100031352357
B1921414214475N12300805WA0107801072000100032339348
B1921424214479N12300808WA0107901073000100034325337
B1921434214483N12300813WA0107801074000100034311322
B1921444214484N12300821WA0107701074000100038281311
B1921454214482N12300830WA0107501074000100045250281
B1921464214478N12300838WA0107501073000100046237249
B1921474214472N12300844WA0107601074000100045211235
B1921484214466N12300846WA0107801075000100038189206
B1921494214461N12300846WA0107801075000100034180180
B1921504214456N12300845WA0107701074000100031165167
B1921514214452N12300842WA0107701073000100033155149
B1921524214447N12300838WA0107801073000100036145139
B1921534214443N12300834WA0107901073000100036138130
B1921544214440N12300828WA0108201074000100033122123
B1921554214438N12300822WA0108401076000100030109108
B1921564214437N12300816WA0108701079000100027098096
B1921574214437N12300811WA0109001081000100025082087
B1921584214438N12300806WA0109101083000100026065074
B1921594214441N12300802WA0109201084000100026048061
B1922004214445N12300799WA0109401086000100029029048
B1922014214449N12300797WA0109501088000100030014033
B1922024214453N12300796WA0109501088000100028005021
B1922034214457N12300797WA0109301089000100028339014
B1922044214461N12300801WA0109101089000100032329349
B1922054214465N12300805WA0108901087000100035324338
B1922064214469N12300809WA0108801085000100035322333
B1922074214473N12300814WA0108701085000100034314318
B1922084214476N12300819WA0108501083000100035303309
B1922094214479N12300826WA0108301082000100036293300
B1922104214479N12300834WA0108101080000100040278291
B1922114214479N12300843WA0107801078000100044265276
B1922124214476N12300852WA0107701076000100044250261
B1922134214472N12300860WA0107501074000100042232246
B1922144214466N12300865WA0107401072000100042216226
B1922154214461N12300869WA0107201070000100040204206
B1922164214454N12300870WA0107101068000100039190193
B1922174214448N12300870WA0107001066000100038174173
B1922184214443N12300867WA0106801064000100039159158
B1922194214438N12300864WA0106801062000100037150138
B1922204214434N12300860WA0106801061000100031139130
B1922214214431N12300856WA0106801060000100025125119
B1922224214430N12300851WA0106801060000100021105106
B1922234214429N12300848WA0106801060000100019112089
B1922244214427N12300844WA0106701059000100019127095
B1922254214425N12300841WA0106701059000100022126100
B1922264214423N12300837WA0106701059000100027118095
B1922274214422N12300832WA0106801059000100031115095
B1922284214419N12300826WA0107001061000100031116109
B1922294214417N12300820WA0107201063000100028122129
B1922304214415N12300816WA0107401064000100029135143
B1922314214411N12300813WA0107501065000100031150156
B1922324214406N12300812WA0107501066000100033181169
B1922334214400N12300816WA0107401066000100044212197
B1922344214395N12300824WA0107601067000100045234229
B1922354214394N12300835WA0107801069000100044263252
B1922364214396N12300844WA0108201071000100039284283
B1922374214399N12300850WA0108501074000100030310304
B1922384214403N12300854WA0108601076000100029326334
B1922394214407N12300856WA0108701078000100029340348
B1922404214412N12300856WA0108801079000100029359359
B1922414214416N12300854WA0108901080000100030020014
B1922424214420N12300850WA0109001082000100029040030
B1922434214423N12300846WA0109201084000100027049050
B1922444214425N12300841WA0109401087000100023058058
B1922454214426N12300837WA0109501088000100022075066
B1922464214426N12300833WA0109501089000100024094077
B1922474214425N12300828WA0109501090000100028113091
B1922484214421N12300823WA0109501091001100030139107
B1922494214415N12300822WA0109501091001100032178128
B1922504214407N12300826WA0109501092000100044208166
B1922514214401N12300832WA0109601093000100044218204
B1922524214397N12300839WA0109801094000100042235216
B1922534214394N12300846WA0109901095000100042246238
B1922544214392N12300855WA0110001096000100044252253
B1922554214391N12300864WA0110201098000100044257268
B1922564214390N12300872WA0110401100000100041263281
B1922574214390N12300880WA0110601102000100039274284
B1922584214391N12300887WA0110701103000100036288299
B1922594214395N12300891WA0110601104000100033325315
B1923004214401N12300892WA0110701105000100035358349
B1923014214406N12300891WA0110801105000100031012016
B1923024214409N12300887WA0111101106000100027046029
B1923034214409N12300881WA0111301107000100026094055
B1923044214408N12300875WA0111401108000100027115089
B1923054214406N12300871WA0111501109000100023131104
B1923064214403N12300869WA0111701110000100022151116
B1923074214399N12300868WA0111701111000100026172131
B1923084214394N12300870WA0111601112000100032190155
B1923094214388N12300874WA0111701113000100044215178
B1923104214383N12300881WA0111901113000100046226210
B1923114214380N12300889WA0112001114000100042249224
B1923124214380N12300898WA0112201114000100040266253
B1923134214382N12300905WA0112401117000100037283273
B1923144214385N12300911WA0112401119000100032296294
B1923154214388N12300916WA0112601119000100028303312
B1923164214390N12300920WA0112601120000100029312324
B1923174214394N12300924WA0112501120000100031321336
B1923184214398N12300928WA0112401121000100031335342
B1923194214403N12300929WA0112501121000100029352356
B1923204214407N12300929WA0112301120000100028003010
B1923214214410N12300926WA0112201120000100024031019
B1923224214413N12300922WA0112201120000100026046040
B1923234214415N12300917WA0112201119000100027055052
B1923244214417N12300913WA0112201119000100026067060
B1923254214418N12300907WA0112201118000100025082070
B1923264214418N12300902WA0112201118000100024095080
B1923274214417N12300898WA0112201118000100021098084
B1923284214417N12300894WA0112101118000100020092083
B1923294214417N12300889WA0112001117000100023093081
B1923304214417N12300884WA0112001116000100026098082
B1923314214416N12300879WA0111901116000100027103093
B1923324214415N12300873WA0112001117000100026104096
B1923334214414N12300869WA0112301119000100022104091
B1923344214413N12300865WA0112401120000100018108103
B1923354214412N12300862WA0112601121000100018109101
B1923364214411N12300858WA0112701121000100021112114
B1923374214409N12300854WA0112701121000100021121118
B1923384214408N12300851WA0112801123000100020131121
B1923394214406N12300849WA0112801123000100017135129
B1923404214404N12300846WA0112601122000100017134126
B1923414214402N12300844WA0112501121000100021134131
B1923424214399N12300840WA0112401119000100027138136
B1923434214396N12300837WA0112301119000100029147144
B1923444214392N12300834WA0112301119000100029154142
B1923454214388N12300832WA0112301120000100027158151
B1923464214384N12300830WA0112301121000100028165162
B1923474214380N12300829WA0112401121000100031174178
B1923484214375N12300829WA0112401121000100034185186
B1923494214369N12300831WA0112501121000100039193203
B1923504214363N12300834WA0112601122000100041201206
B1923514214358N12300838WA0112701123000100041214225
B1923524214353N12300843WA0112701123000100041222225
B1923534214349N12300850WA0112701122000100043227241
B1923544214345N12300857WA0112601122000100046234256
B1923554214341N12300865WA0112501121000100048245269
B1923564214339N12300875WA0112501120000100048262277
B1923574214340N12300885WA0112601120000100047273287
B1923584214341N12300893WA0112501120000100042283292
B1923594214343N12300901WA0112601121000100042284301
B1924004214344N12300910WA0112601121000100043287310
B1924014214347N12300918WA0112701122000100043294311
B1924024214350N12300925WA0112701122000100038301320
B1924034214353N12300931WA0113001124000100033302321
B1924044214355N12300936WA0113001124000100031307332
B1924054214358N12300941WA0112901124000100030317337
B1924064214362N12300944WA0112801124000100027332352
B1924074214366N12300945WA0112801124000100026346008
B1924084214369N12300946WA0112701124000100021343013
B1924094214372N12300948WA0112701123000100019337014
B1924104214375N12300949WA0112401121000100022343003
B1924114214378N12300950WA0112301119000100029349014
B1924124214383N12300951WA0112101117000100029349346
B1924134214387N12300953WA0112301117000100027350348
B1924144214390N12300954WA0112301118000100024347006
B1924154214394N12300955WA0112301118000100024347359
B1924164214397N12300956WA0112301118000100024351017
B1924174214401N12300956WA0112201118000100024001031
B1924184214404N12300955WA0112201118000100024015039
B1924194214407N12300953WA0112201117000100023033049
B1924204214410N12300950WA0112101117000100022049063
B1924214214412N12300946WA0112001116000100021063062
B1924224214413N12300942WA0112001116000100023072071
B1924234214414N12300938WA0112001115000100023078072
B1924244214414N12300933WA0111901115000100023079070
B1924254214415N12300928WA0111901114000100023078070
B1924264214416N12300924WA0111901113000100023075065
B1924274214416N12300919WA0111701111000100024078077
B1924284214417N12300914WA0111601110000100026083076
B1924294214418N12300909WA0111401109000100030084083
B1924304214418N12300903WA0111301108000100031086083
B1924314214418N12300897WA0111301108000100029098109
B1924324214417N12300891WA0111401108000100026115116
B1924334214414N12300887WA0111301108000100026131128
B1924344214411N12300884WA0111201107000100024142118
B1924354214408N12300881WA0111001105000100025141118
B1924364214405N12300878WA0110901103000100028139113
B1924374214402N12300874WA0110701102000100030144116
B1924384214398N12300871WA0110601101000100030151134
B1924394214394N12300869WA0110501100000100031157148
B1924404214389N12300867WA0110401099000100032170185
B1924414214384N12300867WA0110301098000100034186196
B1924424214379N12300870WA0110101096000100040210201
B1924434214374N12300875WA0110001095000100045215222
B1924444214368N12300881WA0110001095000100044217227
B1924454214363N12300887WA0110001095000100045224236
B1924464214359N12300894WA0110001094000100047233238
B1924474214355N12300902WA0110001094000100052245248
B1924484214353N12300913WA0110001093000100054254259
B1924494214351N12300923WA0110301094000100050259267
B1924504214351N12300932WA0110501096000100044264276
B1924514214351N12300940WA0110601097000100039272282
B1924524214351N12300947WA0110501097000100035277291
B1924534214353N12300952WA0110201096000100030280296
B1924544214355N12300957WA0109801095000100027292302
B1924554214358N12300959WA0109501093000100025320318
B1924564214363N12300961WA0109201089000100027335344
B1924574214367N12300962WA0109101087000100026339358
B1924584214370N12300964WA0108901084000100023341008
B1924594214373N12300965WA0108601082000100021347012
B1925004214377N12300965WA0108401078000100023353020
B1925014214380N12300966WA0108101075000100028355004
B1925024214385N12300966WA0108001073000100029353037
B1925034214389N12300967WA0107801072000100027348007
B1925044214393N12300968WA0107701070000100024355031
B1925054214396N12300968WA0107501067000100023010030
B1925064214399N12300966WA0107101065000100025029044
B1925074214402N12300962WA0106901062000100027046049
B1925084214405N12300957WA0106801061000100026053042
B1925094214407N12300953WA0106701060000100023054047
B1925104214409N12300949WA0106601058000100020053052
B1925114214410N12300946WA0106401056000100020056062
B1925124214412N12300942WA0106201054000100022056045
B1925134214414N12300938WA0106001052000100024056051
B1925144214416N12300934WA0105701050000100025058052
B1925154214418N12300930WA0105601048000100025062053
B1925164214419N12300925WA0105401047000100023069086
B1925174214420N12300921WA0105401045000100021081080
B1925184214420N12300917WA0105201043000100022091056
B1925194214420N12300912WA0104901041000100025101075
B1925204214419N12300907WA0104601038000100028108058
B1925214214417N12300902WA0104301035000100030114099
B1925224214415N12300896WA0104101033000100031110100
B1925234214414N12300890WA0104001031000100032115125
B1925244214411N12300884WA0104001030000100032124102
B1925254214408N12300880WA0103801029000100032140129
B1925264214403N12300877WA0103801028000100037148101
B1925274214398N12300872WA0103801027000100038140093
B1925284214394N12300868WA0104001027000100035133094
B1925294214391N12300863WA0104201028000100030129093
B1925304214389N12300858WA0104301030000100025126093
B1925314214387N12300854WA0104401032000100023120096
B1925324214386N12300850WA0104501033000100026109091
B1925334214385N12300844WA0104701034000100029099088
B1925344214384N12300838WA0104901036000100027098076
B1925354214384N12300834WA0105301039000100022098083
B1925364214383N12300830WA0105401042000100017090081
B1925374214384N12300827WA0105401044000100018085087
B1925384214384N12300824WA0105301045000100017083094
B1925394214384N12300820WA0105301044000100022086077
B1925404214384N12300814WA0105301045000100031095076
B1925414214383N12300807WA0105501046000100033098070
B1925424214382N12300801WA0105701048000100025101071
B1925434214382N12300797WA0105701049000100020101087
B1925444214381N12300793WA0105701050000100020105093
B1925454214380N12300788WA0105501050000100025104097
B1925464214379N12300782WA0105401050000100035102084
B1925474214378N12300774WA0105401050000100037101099
B1925484214377N12300767WA0105401050000100031097102
B1925494214376N12300761WA0105401050000100028093096
B1925504214376N12300755WA0105301049000100029097100
B1925514214375N12300749WA0105201047000100034103106
B1925524214373N12300742WA0105101046000100039109117
B1925534214371N12300734WA0105101046000100038112094
B1925544214369N12300727WA0105301047000100035117103
B1925554214366N12300722WA0105401048000100032122115
B1925564214364N12300717WA0105501050000100028124111
B1925574214361N12300712WA0105501050000100028127116
B1925584214359N12300707WA0105501050000100030129107
B1925594214356N12300702WA0105401049000100031126112
B1926004214353N12300697WA0105301048000100033123106
B1926014214350N12300691WA0105101047000100036123110
B1926024214347N12300686WA0105101047000100034125137
B1926034214344N12300680WA0105301047000100033130141
B1926044214341N12300676WA0105301047000100030140128
B1926054214337N12300672WA0105301047000100032146131
B1926064214333N12300669WA0105401048000100034144121
B1926074214329N12300665WA0105501049000100033142127
B1926084214325N12300661WA0105401049000100033150133
B1926094214320N12300658WA0105201048000100034152136
B1926104214316N12300655WA0105001047000100036154128
B1926114214310N12300651WA0104801045000100041149121
B1926124214305N12300647WA0104601043000100042145127
B1926134214300N12300642WA0104501042000100039140127
B1926144214296N12300637WA0104501041000100035138121
B1926154214292N12300633WA0104401040000100032136122
B1926164214289N12300628WA0104201038000100031138132
B1926174214285N12300624WA0103801035000100034143159
B1926184214280N12300621WA0103601032000100039159170
B1926194214274N12300619WA0103301029000100044177184
B1926204214267N12300621WA0103301027000100048198198
B1926214214261N12300626WA0103101025000100045213219
B1926224214257N12300632WA0103001023000100039227228
B1926234214254N12300638WA0102801021000100037238239
B1926244214252N12300645WA0102701019000100037248246
B1926254214250N12300653WA0102401017000100042250252
B1926264214248N12300661WA0102401015000100047246253
B1926274214245N12300670WA0102301015000100050245258
B1926284214242N12300680WA0102201014000100049247256
B1926294214239N12300689WA0102101013000100049250263
B1926304214237N12300698WA0102101013000100047254264
B1926314214235N12300707WA0102101013000100047253261
B1926324214233N12300717WA0102201013000100048253270
B1926334214231N12300726WA0102301015000100048253235
B1926344214229N12300735WA0102601017000100045255259
B1926354214227N12300743WA0103001020000100039251242
B1926364214225N12300750WA0103101022000100035248256
B1926374214223N12300755WA0103201023000100032239251
B1926384214220N12300759WA0103001025000100032238266
B1926394214218N12300764WA0102701024000100032238267
B1926404214215N12300770WA0102601022000100035243261
B1926414214213N12300778WA0102401020000100040253270
B1926424214212N12300786WA0102401019000100042256258
B1926434214210N12300794WA0102301018000100041253274
E192643TPCWaypoint WDLAUN         reached
B1926444214208N12300802WA0102301018000100039251275
B1926454214206N12300810WA0102101016000100039255257
B1926464214205N12300818WA0102001015000100040262268
B1926474214205N12300826WA0101901013000100041266271
B1926484214204N12300834WA0101801011000100041260263
B1926494214203N12300842WA0101601009000100040250264
B1926504214200N12300849WA0101401007000100039246268
B1926514214198N12300857WA0100901003000100038251264
B1926524214197N12300865WA0100701000000100042260274
B1926534214196N12300873WA0100400997000100044261251
B1926544214195N12300883WA0100400995000100044255245
B1926554214193N12300891WA0100500993000100042249229
B1926564214190N12300897WA0100500991000100036241261
B1926574214187N12300903WA0100300990000100033243270
B1926584214185N12300909WA0100100988000100035251261
B1926594214183N12300916WA0100100988000100037253260
B1927004214181N12300923WA0100100988000100036250274
B1927014214180N12300929WA0100200988000100031251283
B1927024214178N12300934WA0100200989000100028257276
B1927034214178N12300940WA0100000988000100029261280
B1927044214177N12300946WA0100000987000100034266284
B1927054214177N12300953WA0100000987000100038268284
B1927064214177N12300961WA0099900988000100036264303
B1927074214176N12300967WA0100100989000100032259282
B1927084214175N12300973WA0100100989000100030258298
B1927094214174N12300979WA0099900988000100031261286
B1927104214174N12300986WA0099800987000100035268283
B1927114214174N12300993WA0099600986000100037279303
B1927124214176N12301000WA0099400985000100037287316
B1927134214178N12301008WA0099500985000100037290304
B1927144214179N12301014WA0099500985000100032284315
B1927154214180N12301020WA0099400985000100030280304
B1927164214181N12301027WA0099100984000100032282323
B1927174214183N12301033WA0098800982000100033287303
B1927184214184N12301038WA0098200979000100033289331
B1927194214186N12301044WA0097900975000100036293315
B1927204214188N12301050WA0097700973000100033291322
B1927214214189N12301056WA0097600971000100028286321
B1927224214190N12301060WA0097400969000100024292327
B1927234214192N12301065WA0097000965000100025297320
B1927244214194N12301069WA0096700961000100031302319
B1927254214197N12301074WA0096400958000100033303312
B1927264214199N12301080WA0096300957000100032303358
B1927274214202N12301084WA0096200955000100024306345
B1927284214203N12301087WA0096000952000100018313346
B1927294214205N12301089WA0095600949000100019320345
B1927304214208N12301091WA0095100945000100023327351
B1927314214211N12301095WA0094800942000100031324350
B1927324214215N12301099WA0094700939000100030319339
B1927334214219N12301103WA0094600938000100029313336
B1927344214221N12301107WA0094400936000100026315337
B1927354214224N12301110WA0094200933000100026324337
B1927364214228N12301113WA0093700930000100030329334
B1927374214232N12301117WA0093500927000100033328333
B1927384214236N12301120WA0093500925000100030324333
B1927394214240N12301123WA0093400924000100026327341
B1927404214243N12301126WA0093200922000100025336345
B1927414214247N12301127WA0092900919000100026345346
B1927424214251N12301128WA0092600916000100029351340
B1927434214255N12301130WA0092300913000100033343337
B1927444214260N12301132WA0092100911000100033336324
B1927454214264N12301135WA0092000909000100031333353
B1927464214268N12301138WA0092000909000100026334351
B1927474214271N12301140WA0091900907000100024339352
B1927484214275N12301141WA0091500905000100025339352
B1927494214279N12301143WA0091200901000100030336354
B1927504214283N12301146WA0090900898000100036333347
B1927514214288N12301149WA0090700895000100037333341
B1927524214292N12301152WA0090500893000100032336338
B1927534214297N12301155WA0090400891000100029335339
B1927544214300N12301157WA0090200889000100029335343
B1927554214305N12301160WA0089900886000100032336342
B1927564214309N12301162WA0089600883000100034340338
B1927574214314N12301164WA0089300880000100036342334
B1927584214319N12301167WA0089100878000100037341333
B1927594214324N12301169WA0088900876000100036334334
B1928004214329N12301173WA0088800875000100034327338
B1928014214333N12301177WA0088700874000100033328343
B1928024214337N12301180WA0088500872000100032335349
B1928034214342N12301182WA0088300870000100033342343
B1928044214347N12301184WA0088100867000100034341337
B1928054214351N12301187WA0087900865000100035333336
B1928064214356N12301190WA0087700863000100035330344
B1928074214360N12301193WA0087600862000100033336357
B1928084214365N12301195WA0087500860000100032344349
B1928094214370N12301197WA0087200858000100032342340
B1928104214374N12301199WA0087000855000100034331319
B1928114214379N12301203WA0086700853000100036320335
B1928124214383N12301208WA0086500852000100036322348
B1928134214387N12301211WA0086400850000100032337007
B1928144214392N12301213WA0086400849000100030349006
B1928154214395N12301212WA0086400848000100024004006
B1928164214399N12301212WA0086300847000100020002354
B1928174214402N12301212WA0086100845000100022000004
B1928184214405N12301212WA0085800842000100026002003
B1928194214409N12301211WA0085600840000100030002003
B1928204214414N12301211WA0085500839000100028002011
B1928214214418N12301210WA0085600840000100025007019
B1928224214421N12301209WA0085500839000100023014021
B1928234214424N12301208WA0085500839000100021020012
B1928244214427N12301207WA0085400837000100022019005
B1928254214430N12301205WA0085200836000100024016010
B1928264214434N12301204WA0085000834000100026016018
B1928274214438N12301202WA0084900833000100028021016
B1928284214441N12301199WA0084700832000100028027012
B1928294214445N12301197WA0084800832000100026029008
B1928304214448N12301194WA0084700831000100025029013
B1928314214452N12301192WA0084500829000100025029010
B1928324214455N12301190WA0084300827000100028028022
B1928334214459N12301187WA0084000825000100031026014
B1928344214463N12301184WA0083800823000100029021033
B1928354214467N12301183WA0083800822000100026013028
B1928364214471N12301182WA0083800821000100024005019
B1928374214474N12301181WA0083600819000100025011019
B1928384214478N12301179WA0083300817000100028019019
B1928394214482N12301177WA0082900815000100032026019
B1928404214487N12301173WA0082800813000100033028017
B1928414214491N12301170WA0082700811000100031033024
B1928424214494N12301166WA0082600810000100030039020
B1928434214498N12301163WA0082400808000100031038019
B1928444214502N12301159WA0082300806000100033033018
B1928454214506N12301155WA0082100805000100032029023
B1928464214510N12301152WA0082000804000100032026019
B1928474214514N12301149WA0082000803000100031030019
B1928484214518N12301146WA0081800802000100030036022
B1928494214522N12301142WA0081700801000100030040028
B1928504214525N12301138WA0081500799000100030040027
B1928514214529N12301134WA0081300798000100030041033
B1928524214532N12301130WA0081300796000100031042024
B1928534214535N12301125WA0081000794000100034044029
B1928544214539N12301121WA0080800792000100034041023
B1928554214543N12301116WA0080700790000100033036019
B1928564214547N12301113WA0080500789000100033031013
B1928574214552N12301109WA0080300786000100033032029
B1928584214556N12301105WA0080100784000100032037031
B1928594214559N12301101WA0079800782000100031041023
B1929004214563N12301097WA0079700780000100031038015
B1929014214567N12301094WA0079500779000100032030020
B1929024214571N12301090WA0079500778000100034026022
B1929034214576N12301087WA0079500777000100036028026
B1929044214580N12301083WA0079300776000100036038017
B1929054214584N12301078WA0079400775000100035048047
B1929064214586N12301073WA0079500775000100029051028
B1929074214589N12301069WA0079500775000100024043020
B1929084214592N12301067WA0079600776000100021031041
B1929094214594N12301065WA0079700777000100020022048
B1929104214597N12301063WA0079600776000100024029052
B1929114214600N12301060WA0079600776000100029037064
B1929124214604N12301055WA0079600776000100035048050
B1929134214607N12301050WA0079600776000100034057023
B1929144214609N12301044WA0079700777000100029057026
B1929154214612N12301040WA0079600777000100027052036
B1929164214614N12301035WA0079500776000100027045035
B1929174214617N12301032WA0079300775000100029036030
B1929184214621N12301029WA0079200774000100031020025
B1929194214626N12301028WA0079100773000100032006017
B1929204214631N12301028WA0079100773000100030000012
B1929214214635N12301029WA0079200773000100026353008
B1929224214639N12301029WA0079200773000100023350000
B1929234214642N12301030WA0079100772000100025348357
B1929244214646N12301032WA0078900770000100030342350
B1929254214651N12301034WA0078900770000100032338355
B1929264214655N12301036WA0079000770000100031339359
B1929274214659N12301038WA0079100772000100028346006
B1929284214663N12301039WA0079100773000100024356357
B1929294214667N12301039WA0079100773000100025359352
B1929304214671N12301039WA0079200773000100029357357
B1929314214675N12301040WA0079200773000100031353345
B1929324214680N12301040WA0079300774000100032352352
B1929334214685N12301041WA0079300774000100031350338
B1929344214689N12301043WA0079200774000100031346350
B1929354214694N12301045WA0079200773000100031340344
B1929364214698N12301047WA0079000772000100031338340
B1929374214703N12301049WA0078900771000100033335336
B1929384214707N12301052WA0078800770000100033331336
B1929394214711N12301056WA0078700769000100032328336
B1929404214715N12301059WA0078500767000100030330337
B1929414214719N12301062WA0078300765000100030331341
B1929424214724N12301065WA0078200763000100033327342
B1929434214728N12301069WA0077900761000100035320338
B1929444214731N12301073WA0077800759000100033313333
B1929454214735N12301078WA0077400757000100032313329
B1929464214738N12301082WA0077100754000100030318328
B1929474214741N12301087WA0076800750000100033316328
B1929484214745N12301092WA0076500747000100036311325
B1929494214748N12301098WA0076300744000100035306320
B1929504214751N12301104WA0076100741000100035301320
B1929514214754N12301110WA0075900739000100034298312
B1929524214756N12301116WA0075700737000100033299306
B1929534214758N12301122WA0075500735000100034299309
B1929544214761N12301128WA0075300733000100034300302
B1929554214763N12301133WA0075100731000100033301303
B1929564214766N12301139WA0075000729000100032302298
B1929574214768N12301145WA0074700726000100032299296
B1929584214771N12301151WA0074500724000100034293295
B1929594214772N12301157WA0074300721000100036286294
B1930004214774N12301164WA0074200720000100035282292
B1930014214774N12301171WA0074100718000100032281291
B1930024214775N12301177WA0074000716000100030284289
B1930034214777N12301183WA0073800714000100031286285
B1930044214778N12301189WA0073600712000100033284286
B1930054214779N12301196WA0073400711000100034281287
B1930064214780N12301203WA0073300709000100035281285
B1930074214781N12301210WA0073100708000100034283282
B1930084214782N12301216WA0073000707000100032285278
B1930094214783N12301222WA0072900705000100032283278
B1930104214784N12301228WA0072700703000100034279272
B1930114214785N12301235WA0072400701000100035273270
B1930124214784N12301243WA0072300699000100037263262
B1930134214783N12301250WA0072100697000100036251253
B1930144214781N12301256WA0072000696000100035240243
B1930154214778N12301262WA0071700694000100035229233
B1930164214774N12301267WA0071500692000100035222225
B1930174214770N12301271WA0071400691000100034223219
B1930184214766N12301276WA0071200689000100034226214
B1930194214762N12301281WA0071000688000100035224206
B1930204214758N12301286WA0070800686000100036218201
B1930214214754N12301290WA0070600683000100036212189
B1930224214749N12301294WA0070400681000100039207199
B1930234214743N12301297WA0070100679000100040206196
B1930244214738N12301300WA0070000677000100038206196
B1930254214733N12301304WA0069800675000100036203189
B1930264214728N12301306WA0069600673000100033201182
B1930284214718N12301311WA0069200667000100037199183
B1930294214713N12301313WA0068900664000100039199176
B1930304214707N12301316WA0068600662000100038196177
B1930314214702N12301318WA0068400659000100036195201
B1930324214697N12301320WA0068100657000100035200181
B1930334214692N12301323WA0067900654000100036206190
B1930344214687N12301326WA0067600651000100037207216
B1930354214682N12301330WA0067400649000100038204197
B1930364214677N12301333WA0067100646000100038204203
B1930374214672N12301336WA0066800643000100038207202
B1930384214667N12301340WA0066600641000100039213205
B1930394214662N12301345WA0066300638000100038219211
B1930404214658N12301350WA0066100636000100036221219
B1930414214654N12301355WA0065900634000100035221219
B1930424214650N12301360WA0065700632000100035225218
B1930434214647N12301365WA0065400629000100037232223
B1930444214644N12301371WA0065200626000100040240232
B1930454214641N12301379WA0065000624000100040243242
B1930464214638N12301386WA0064700622000100038241247
B1930474214636N12301392WA0064600620000100039238244
B1930484214632N12301399WA0064400618000100039235240
B1930494214629N12301405WA0064400617000100036235235
B1930504214626N12301411WA0064300616000100035237235
B1930514214623N12301417WA0064200616000100035240242
B1930524214621N12301423WA0064200615000100036239243
B1930534214618N12301430WA0064200615000100037240250
B1930544214615N12301436WA0064300615000100037247254
B1930554214614N12301443WA0064200615000100035261264
B1930564214613N12301450WA0064200615000100034270280
B1930574214614N12301457WA0064200615000100036282277
B1930584214615N12301464WA0064300616000100035281276
B1930594214615N12301471WA0064400617000100033269276
B1931004214615N12301478WA0064400617000100032257266
B1931014214612N12301483WA0064400617000100032237252
B1931024214609N12301488WA0064400618000100033224227
B1931034214605N12301492WA0064300618000100030211208
B1931044214600N12301493WA0064200618000100026194188
B1931054214596N12301490WA0064100616000100026151164
B1931064214593N12301486WA0063900615000100025139122
B1931074214591N12301481WA0063700614000100025113111
B1931084214592N12301474WA0063500612000100029078092
B1931094214594N12301469WA0063500611000100028061069
B1931104214598N12301464WA0063500611000100026044059
B1931114214600N12301461WA0063500611000100024038048
B1931124214603N12301458WA0063500611000100027041045
B1931134214606N12301454WA0063600612000100028043047
B1931144214609N12301450WA0063700613000100025049047
B1931154214611N12301446WA0063800614000100021055050
B1931164214612N12301443WA0063800614000100018060046
B1931174214614N12301440WA0063800613000100017056056
B1931184214615N12301437WA0063600611000100020048053
B1931194214617N12301434WA0063500609000100023045050
B1931204214620N12301431WA0063300608000100027041048
B1931214214623N12301427WA0063200607000100028036045
B1931224214627N12301424WA0063200606000100024030041
B1931234214630N12301422WA0063100605000100021026037
B1931244214632N12301420WA0063000604000100020029036
B1931254214635N12301418WA0062900602000100022034035
B1931264214638N12301415WA0062700600000100024042040
B1931274214640N12301412WA0062400597000100024043029
B1931284214643N12301409WA0062300596000100024038037
B1931294214646N12301406WA0062100594000100023026029
B1931304214649N12301405WA0062000592000100023013025
B1931314214652N12301404WA0061800590000100024006019
B1931324214656N12301403WA0061600588000100026004009
B1931334214660N12301403WA0061400586000100026001002
B1931344214664N12301403WA0061100584000100026354357
B1931354214668N12301404WA0060800581000100029347353
B1931364214672N12301406WA0060500578000100035340343
B1931374214678N12301409WA0060200575000100039338340
B1931384214683N12301411WA0060100573000100039338337
B1931394214689N12301415WA0060000571000100037333323
B1931404214693N12301418WA0059800570000100033328339
B1931414214697N12301422WA0059600568000100034325345
B1931424214702N12301426WA0059400565000100040328342
B1931434214708N12301430WA0059200563000100043330325
B1931444214714N12301434WA0059400561000100045329325
B1931454214719N12301438WA0059500560000100040331303
B1931464214723N12301440WA0059500560000100031334342
B1931474214727N12301442WA0059400559000100029336336
B1931484214731N12301444WA0059100558000100031341337
B1931494214736N12301446WA0058900556000100036337318
B1931504214741N12301449WA0058700554000100037329308
B1931514214745N12301453WA0058500553000100034319314
B1931524214748N12301457WA0058300551000100028314318
B1931534214751N12301462WA0058000549000100031315333
B1931544214755N12301466WA0057700546000100037312330
B1931554214759N12301472WA0057500544000100038314323
B1931564214763N12301477WA0057400543000100039317334
B1931574214768N12301483WA0057300542000100037317336
B1931584214772N12301488WA0057200541000100038314324
B1931594214776N12301494WA0057100540000100040311321
B1932004214780N12301499WA0057100539000100041313319
B1932014214784N12301505WA0057100539000100039314323
B1932024214788N12301510WA0057100539001100035314320
B1932034214791N12301515WA0057200539001100029303320
B1932044214793N12301520WA0057200540001100027295309
B1932054214794N12301525WA0057300540000100028295306
B1932064214796N12301530WA0057300541001100029292304
B1932074214797N12301536WA0057300541001100029282300
B1932084214798N12301542WA0057300541001100029271294
B1932094214798N12301548WA0057200541001100028269291
B1932104214798N12301553WA0057100541001100027271289
B1932114214798N12301558WA0057000539001100026272292
B1932124214798N12301563WA0057000538001100025279298
B1932134214800N12301568WA0056800537001100024296308
B1932144214802N12301571WA0056700536001100023320329
B1932154214806N12301572WA0056600535001100026006354
B1932164214810N12301569WA0056500534001100029029033
B1932174214812N12301562WA0056400533001100036066052
B1932184214813N12301555WA0056400532001100036083081
B1932194214812N12301548WA0056400531001100033101085
B1932204214811N12301542WA0056200531001100027108074
B1932214214810N12301538WA0056100529001100026099073
B1932224214810N12301533WA0055700528001100027082070
B1932234214813N12301528WA0055400526001100029055063
B1932244214818N12301525WA0055200524001100036017049
B1932254214824N12301524WA0055200523001100035010018
B1932264214829N12301524WA0055300522001100029003014
B1932274214833N12301525WA0055400522001100022355008
B1932284214836N12301525WA0055300521001100019355001
B1932294214839N12301527WA0055000518001100023347359
B1932304214843N12301528WA0054700517001100031342350
B1932314214848N12301531WA0054800516001100032341342
B1932324214852N12301533WA0054800516001100027336345
B1932334214855N12301535WA0054800514001100020331338
B1932344214858N12301537WA0054500513001100019336345
B1932354214861N12301539WA0054300511001100023346345
B1932364214864N12301540WA0054100510001100027346342
B1932374214868N12301542WA0054100509001100027337335
B1932384214872N12301544WA0054100508001100023332336
B1932394214874N12301546WA0054100508001100018332339
B1932404214876N12301547WA0054000507001100013337333
B1932414214878N12301548WA0054100507001100009344005
B1932424214878N12301549WA0054100507001100004344141
B1932434214879N12301549WA0054100507001100005344112
B1932444214880N12301549WA0054100507001100006338042
B1932454214880N12301550WA0054100507001100000338035
B1932464214880N12301550WA0054100507001100000338049
B1932474214880N12301549WA0054100507001100000338054
B1932484214880N12301549WA0054100507001100000338054
B1932494214880N12301549WA0054100507001100000338077
B1932504214880N12301548WA0054100507001100000338063
B1932514214880N12301548WA0054100508001100000338078
B1932524214880N12301548WA0054100508001100000338072
B1932534214880N12301548WA0054100508001100000338080
B1932544214880N12301548WA0054100508001100000338075
B1932554214880N12301548WA0054100508001100000338080
B1932564214880N12301548WA0054100508001100000338068
B1932574214880N12301548WA0054100508001100000338064
B1932584214880N12301548WA0054100508001100000338062
B1932594214880N12301548WA0054100508001100000338061
B1933004214880N12301548WA0054100508001100000338061
B1933014214880N12301548WA0054100508001100000338061
B1933024214880N12301548WA0054100508001100000338059
B1933034214880N12301548WA0054100508001100000338059
B1933044214880N12301548WA0054100508001100000338058
B1933054214880N12301548WA0054100508001100000338058
B1933064214880N12301548WA0054100508001100000338060
B1933074214880N12301548WA0054100508001100000338054
B1933084214880N12301548WA0054100508001100000338054
B1933094214880N12301548WA0054100508001100000338050
B1933104214880N12301548WA0054100508001100000338051
B1933114214880N12301548WA0054100508001100000338053
B1933124214880N12301548WA0054100508001100000338052
B1933134214880N12301548WA0054100508001100000338054
GOALK/T/IlCvrcWtfptbomL8n5V2OzpUF0jSyKyDmhFXjpRgCxXap52P24/oSl9LJ
G3qan8rOQRGfWbP3jHm9e441MqL4iJfl9eQpTDiYn6Buv1qSrC8Tm3rBqHq1NZRGI
GNPcXb9pGXb+frggBztGEVR54Ze+vGPhqcJKFDiozPBs=

