AXFH000
HFDTE080826
HFPLTPILOT:Scott O’Brien
HFGTYGLIDERTYPE:Ozone Swift 6
HFDTM100GPSDATUM:WGS84
HFRFWFIRMWAREVERSION:9.7
HFRHWHARDWAREVERSION:iPhone 15
HFFTYFRTYPE:Flyskyhy,9.7
HFGPS:Internal
HFPRSVARIO:Internal Vario
HFCCLCOMPETITIONCLASS:Paraglider
HFTZNTIMEZONE:-7
HFSITSITE:Mission Ridge (Fremont- San Jose),US
I053638FXA3941VXA4244GSP4547CCO4850HDT
B1906163731054N12153511WA0058300583005010000000192
B1906173731054N12153511WA0058300583005010000000192
B1906183731054N12153511WA0058300583005010000000190
B1906193731054N12153511WA0058300583005010000000152
B1906203731054N12153511WA0058300583005010000000170
B1906213731054N12153511WA0058300583005010000000174
B1906223731054N12153511WA0058300583005010000000174
B1906233731054N12153511WA0058300583005010001151110
B1906243731054N12153511WA0058300583005010001135033
B1906253731054N12153511WA0058300583005010001205036
B1906263731054N12153511WA0058300584005010001121029
B1906273731054N12153511WA0058400584005010000000351
B1906283731054N12153511WA0058400584005010000000318
B1906293731054N12153511WA0058400584005010000000002
B1906303731054N12153511WA0058400584005010003219018
B1906313731053N12153511WA0058400584005010006201003
B1906323731053N12153511WA0058400584005010003155017
B1906333731052N12153512WA0058400584005010004207005
B1906343731052N12153512WA0058400584005010004196041
B1906353731051N12153512WA0058400584005010004209259
B1906363731051N12153512WA0058400583005010005199198
B1906373731050N12153513WA0058300583005010007200191
B1906383731049N12153513WA0058300583005010005218250
B1906393731048N12153514WA0058300583005010003190212
B1906403731048N12153514WA0058300583005010006203213
B1906413731047N12153515WA0058300583005010009211198
B1906423731046N12153516WA0058200583005010012224212
B1906433731045N12153517WA0058200583005010010216203
B1906443731043N12153519WA0058200583005010012212193
B1906453731042N12153520WA0058200582005010015223225
B1906463731040N12153523WA0058100582005010018218214
B1906473731038N12153525WA0058100582005010019218221
B1906483731036N12153527WA0058000582005010020221218
B1906493731034N12153530WA0058000581005010024237222
B1906503731032N12153535WA0058000581005010029248233
B1906513731030N12153540WA0057900581005010029248233
B1906523731028N12153545WA0057900580005010028235232
B1906533731026N12153548WA0057800580005010027214225
B1906543731022N12153550WA0057700579005010028198207
B1906553731018N12153552WA0057600579005010028190192
B1906563731014N12153552WA0057500579005010029181182
B1906573731009N12153552WA0057400578005010029175175
B1906583731005N12153551WA0057400578005010030161162
B1906593731001N12153549WA0057400578005010031157149
B1907003730996N12153546WA0057400577005010031152131
B1907013730993N12153543WA0057400577005010030139150
B1907023730989N12153539WA0057400577005010031137126
B1907033730986N12153535WA0057500577005010029140147
B1907043730983N12153531WA0057500576005010029137127
B1907053730980N12153528WA0057500576005010027139129
B1907063730976N12153524WA0057500576005010028143132
B1907073730973N12153521WA0057500575005010029141129
B1907083730970N12153518WA0057500575005010030137131
B1907093730967N12153514WA0057400574005010029133121
B1907103730964N12153510WA0057300573005010027132136
B1907113730961N12153506WA0057200572005010026135133
B1907123730958N12153503WA0057100571005010029141140
B1907133730954N12153500WA0057000570005010032148145
B1907143730950N12153496WA0056800569005010035152139
B1907153730945N12153493WA0056600569005010034147142
B1907163730941N12153490WA0056500568005010031143138
B1907173730938N12153486WA0056300568005010028142143
B1907183730934N12153483WA0056300567005010028141148
B1907193730931N12153480WA0056300567005010029141142
B1907203730928N12153476WA0056300567005010030143166
B1907213730924N12153473WA0056300566005010029147138
B1907223730920N12153470WA0056300566005010027154163
B1907233730917N12153468WA0056300566005010028155151
B1907243730912N12153466WA0056300565005010031155170
B1907253730908N12153463WA0056200564005010033160185
B1907263730903N12153462WA0056100563005010032167195
B1907273730899N12153461WA0055900563005010030181196
B1907283730894N12153462WA0055800562005010029188190
B1907303730890N12153463WA0055600561005010029190185
B1907313730886N12153464WA0055600560005010033189173
B1907323730881N12153465WA0055500559005010034187180
B1907333730876N12153466WA0055300559005010033185176
B1907343730871N12153467WA0055200558005010029185176
B1907353730867N12153468WA0055100557005010026183173
B1907363730864N12153468WA0055100557005010026177187
B1907373730860N12153468WA0055000556005010026185190
B1907383730856N12153469WA0054900555005010028186193
B1907393730852N12153469WA0054800555005010027182181
B1907403730848N12153469WA0054700554005010024179191
B1907413730845N12153469WA0054700553005010025178187
B1907423730841N12153469WA0054600552005010029179181
B1907433730836N12153469WA0054500552005010033180175
B1907443730831N12153469WA0054400551005010032177173
B1907453730826N12153469WA0054400550005010029171171
B1907463730822N12153468WA0054300550005010027168168
B1907473730818N12153467WA0054200549005010027171169
B1907483730814N12153466WA0054200548005010029168167
B1907493730810N12153465WA0054100547005010031171172
B1907503730805N12153464WA0054000547005010031169176
B1907513730800N12153463WA0053800546005010030167173
B1907523730792N12153461WA0053700544005010028169173
B1907533730788N12153460WA0053700543005010029169181
B1907543730784N12153460WA0053600543005010029174179
B1907553730779N12153459WA0053500542005010028174181
B1907563730775N12153459WA0053300541005010025177179
B1907573730772N12153459WA0053200540005010024182180
B1907583730768N12153459WA0053100540005010025180184
B1907593730764N12153459WA0053000539005010028181174
B1908003730760N12153460WA0052900538005010032184189
B1908013730755N12153461WA0052800537005010038189183
B1908023730749N12153462WA0052600536005010038184188
B1908033730743N12153463WA0052500535005010035179191
B1908043730738N12153463WA0052300534005010033176188
B1908053730733N12153462WA0052100533005010033174196
B1908063730728N12153462WA0052000532005010036176196
B1908073730723N12153462WA0051900532005010036178200
B1908083730718N12153462WA0051900531005010032181203
B1908093730713N12153462WA0051800530005010030184194
B1908103730709N12153463WA0051800530005010029186206
B1908113730704N12153464WA0051800529005010031188196
B1908123730700N12153465WA0051800528005010032189208
B1908133730695N12153466WA0051700528005010030192205
B1908143730691N12153467WA0051700527005010027186202
B1908153730687N12153468WA0051600526005010026184190
B1908163730683N12153468WA0051600526005010028188194
B1908173730679N12153469WA0051600525005010028189194
B1908183730675N12153470WA0051600524005010028190195
B1908193730671N12153471WA0051600523005010030189184
B1908203730666N12153472WA0051500522005010032193189
B1908213730661N12153474WA0051400521005010034195188
B1908223730656N12153475WA0051200519005010034188180
B1908233730651N12153476WA0051100518005010035183196
B1908243730646N12153477WA0050900516005010034185202
B1908253730641N12153477WA0050700515005010032190200
B1908263730637N12153479WA0050500513005010030195188
B1908273730633N12153480WA0050300512005010029193190
B1908283730628N12153481WA0050300511005010031184207
B1908293730623N12153481WA0050200509005010032182198
B1908303730619N12153482WA0050100508005010029186216
B1908313730615N12153483WA0050000507005010027192205
B1908323730611N12153484WA0050000506005010025192208
B1908333730607N12153485WA0050000505005010026187204
B1908343730603N12153485WA0050000504005010029184202
B1908353730599N12153486WA0050100503005010031185208
B1908363730594N12153486WA0050100502005010030184207
B1908373730589N12153487WA0050200501005010030185203
B1908383730585N12153488WA0050200501005010031184215
B1908393730580N12153488WA0050200500005010031182215
B1908403730576N12153488WA0050200500005010030183203
B1908413730571N12153489WA0050100499005010031185196
B1908423730566N12153490WA0050100498005010035187198
B1908433730561N12153491WA0050000497005010036186195
B1908443730556N12153491WA0050000496005010032184186
B1908453730551N12153492WA0049900496005010030188192
B1908463730547N12153493WA0049800495005010028187188
B1908473730543N12153493WA0049700494005010030184194
B1908483730538N12153494WA0049600492005010033187195
B1908493730533N12153495WA0049400491005010034191198
B1908503730528N12153496WA0049300490005010034197201
B1908513730523N12153498WA0049100489005010033197196
B1908523730519N12153500WA0048900488005010032197203
B1908533730514N12153502WA0048700487005010033193201
B1908543730509N12153503WA0048600485005010036191207
B1908553730504N12153505WA0048400483005010038194204
B1908563730499N12153507WA0048200482005010037195216
B1908573730493N12153509WA0048000480005010036198203
B1908583730488N12153511WA0047900479005010034194201
B1908593730483N12153512WA0047700477005010034194205
B1909003730478N12153514WA0047500475005010035194206
B1909013730473N12153516WA0047500473005010039200203
B1909023730468N12153519WA0047300471005010039200194
B1909033730462N12153521WA0047100469005010037198187
B1909043730457N12153523WA0046900468005010036195186
B1909053730452N12153525WA0046700466005010035195193
B1909063730447N12153527WA0046500464005010035192190
B1909073730442N12153528WA0046300461005010035192201
B1909083730437N12153530WA0046200460005010034194198
B1909093730432N12153532WA0046000458005010033194193
B1909103730427N12153533WA0045800456005010032193205
B1909113730423N12153534WA0045600454005010031193195
B1909123730418N12153536WA0045500452005010031194206
B1909133730413N12153537WA0045300450005010032195190
B1909143730409N12153539WA0045200449005010033194202
B1909153730404N12153541WA0045000447005010033192194
B1909163730399N12153542WA0044900445005010033191195
B1909173730394N12153543WA0044700443005010032191197
B1909183730390N12153544WA0044600441005010032191194
B1909193730385N12153546WA0044600440005010033191198
B1909203730380N12153547WA0044500438005010033191190
B1909213730375N12153548WA0044400437005010031191210
B1909223730371N12153549WA0044300435005010029194219
B1909233730367N12153551WA0044200434005010029202209
B1909243730363N12153554WA0044100432005010032208225
B1909253730359N12153557WA0044000431005010032212214
B1909263730355N12153560WA0043900430005010031214216
B1909273730351N12153563WA0043800428005010028210221
B1909283730347N12153566WA0043700427005010029208222
B1909293730343N12153568WA0043500426005010031207226
B1909303730339N12153571WA0043400425005010032214241
B1909313730335N12153575WA0043300424005010031215241
B1909323730331N12153578WA0043200422005010031217242
B1909333730328N12153582WA0043200422005010031224239
B1909343730325N12153587WA0043200421005010031227245
B1909353730322N12153591WA0043200420005010031238241
B1909363730320N12153597WA0043200420005010031250251
B1909373730319N12153602WA0043300419005010029258256
B1909383730318N12153607WA0043400419005010025257267
B1909393730317N12153612WA0043500419005010023254261
B1909403730317N12153616WA0043600420005010022257263
B1909413730316N12153620WA0043800420005010021263266
B1909423730316N12153624WA0043900420005010022270255
B1909433730316N12153629WA0044100421005010027265237
B1909443730316N12153634WA0044200421005010026243227
B1909453730315N12153637WA0044200421005010024232203
B1909463730313N12153640WA0044300421010019022218197
B1909473730310N12153642WA0044300421005010023206187
B1909483730308N12153642WA0044300421005010021195181
B1909493730306N12153642WA0044200421005010015196176
B1909503730304N12153641WA0044200421005010011191177
B1909513730304N12153639WA0044100420005010006161219
B1909523730304N12153634WA0044000419005010010100200
B1909533730306N12153626WA0044000417005010023067118
B1909543730308N12153620WA0044000416005010015063068
B1909553730309N12153617WA0044000416005010009351071
B1909563730312N12153617WA0044000416005010025315310
B1909573730315N12153620WA0044000416005010027312298
B1909583730317N12153623WA0044100416005010026310295
B1909593730318N12153626WA0044100416005010025262293
B1910003730317N12153631WA0044200416005010029256245
B1910013730316N12153635WA0044300416005010026254240
B1910023730316N12153639WA0044400416005010024239236
B1910033730315N12153642WA0044500416010019022225219
B1910043730314N12153643WA0044500416010019021212206
B1910053730312N12153644WA0044600417010019021201194
B1910063730308N12153645WA0044600417010019022191184
B1910073730305N12153645WA0044600417010019018196177
B1910083730304N12153645WA0044500418010019013208179
B1910093730303N12153645WA0044500418010019009227184
B1910103730302N12153644WA0044500419010019004231190
B1910113730302N12153639WA0044400419010019007065172
B1910123730304N12153632WA0044400418005010011002102
B1910133730306N12153627WA0044400418005010011321050
B1910143730308N12153625WA0044500418005010022305337
B1910153730310N12153625WA0044600418005010024295295
B1910163730312N12153627WA0044700418005010023288280
B1910173730312N12153630WA0044800418005010019283270
B1910183730313N12153631WA0044900418005010022246258
B1910193730312N12153633WA0045000418005010026238222
B1910203730311N12153636WA0045000418005010025233216
B1910213730309N12153637WA0045000418005010022219211
B1910223730308N12153635WA0045100418005010021201196
B1910233730304N12153635WA0045100418005010022191182
B1910243730302N12153634WA0045200419005010019189175
B1910253730300N12153633WA0045200419005010012203171
B1910263730300N12153633WA0045100419005010007212175
B1910273730299N12153626WA0045000419005010005113171
B1910283730301N12153618WA0045000418005010010048127
B1910293730302N12153613WA0044900418005010005025090
B1910303730304N12153609WA0044900417005010015328106
B1910313730307N12153609WA0045000418005010023321349
B1910323730310N12153612WA0045200418010019022318326
B1910333730312N12153614WA0045300418010019021316322
B1910343730315N12153611WA0045500418010019022305319
B1910353730317N12153614WA0045600418010019030278302
B1910363730318N12153618WA0045700418010019027242265
B1910373730316N12153621WA0045900418005010025235216
B1910383730314N12153624WA0046000418005010024230208
B1910393730313N12153626WA0046100418005010024227200
B1910403730311N12153627WA0046200418010019021214197
B1910413730310N12153626WA0046200419010019021200185
B1910423730306N12153626WA0046300419010019023190174
B1910433730302N12153626WA0046300419010019020191168
B1910443730299N12153625WA0046300420010019016200168
B1910453730298N12153624WA0046300420010019011216170
B1910463730297N12153623WA0046300421010019007245171
B1910473730298N12153620WA0046200421005010005327169
B1910483730300N12153613WA0046200421005010013031113
B1910493730303N12153603WA0046100421005010019011073
B1910503730306N12153596WA0046000420005010025339046
B1910513730309N12153596WA0046000421005010028329000
B1910523730314N12153594WA0046000421005010030319342
B1910533730317N12153597WA0046000421005010030317325
B1910543730321N12153599WA0046000421005010034296322
B1910553730324N12153603WA0046100421005010032295291
B1910563730326N12153608WA0046200421005010029295291
B1910573730328N12153612WA0046300420005010026296290
B1910583730331N12153611WA0046400421005010023296293
B1910593730333N12153611WA0046500422010019016301293
B1911003730334N12153610WA0046500422010019011296296
B1911013730331N12153608WA0046500422010019007301222
B1911023730329N12153607WA0046500422010019006329148
B1911033730326N12153605WA0046400422010019006357116
B1911043730321N12153598WA0046400423010019007058104
B1911053730322N12153593WA0046300422010019016072105
B1911063730323N12153584WA0046200421010019025071096
B1911073730324N12153577WA0046000421010019018062089
B1911083730324N12153572WA0045900421010019011017089
B1911093730324N12153567WA0045700421010019014344079
B1911103730324N12153563WA0045600420010019020337047
B1911113730326N12153562WA0045500419010019018336010
B1911123730327N12153561WA0045500419005010018332017
B1911133730329N12153562WA0045500418005010019327015
B1911143730332N12153563WA0045500418005010022324359
B1911153730334N12153565WA0045500418005010027320348
B1911163730338N12153568WA0045400417005010028320334
B1911173730340N12153572WA0045400417005010029300334
B1911183730342N12153576WA0045400417005010029279299
B1911193730342N12153581WA0045400417005010029269265
B1911203730343N12153586WA0045400417005010027267249
B1911213730343N12153591WA0045500418005010025260240
B1911223730343N12153594WA0045600418005010023252221
B1911233730341N12153598WA0045700418005010021241208
B1911243730339N12153600WA0045800418005010016221196
B1911253730337N12153602WA0045800418005010013199173
B1911263730335N12153601WA0045900418005010012176155
B1911273730332N12153598WA0045900418005010017151140
B1911283730328N12153594WA0045900419005010019146128
B1911293730323N12153589WA0045900419005010014128125
B1911303730321N12153585WA0045900420005010013110113
B1911313730321N12153578WA0045900420005010027088102
B1911323730322N12153572WA0045900420005010019092086
B1911333730322N12153566WA0045900420005010004055091
B1911343730323N12153565WA0045800419005010011302088
B1911353730324N12153566WA0045800420005010021302301
B1911363730325N12153569WA0045800419005010021299300
B1911373730327N12153572WA0045800419005010021297297
B1911383730328N12153575WA0045800419005010022290295
B1911393730329N12153579WA0045900419005010023286287
B1911403730330N12153583WA0045900418005010024283282
B1911413730331N12153587WA0045900418005010023280278
B1911423730331N12153591WA0045900418005010022280275
B1911433730332N12153595WA0045900418005010020273274
B1911443730333N12153598WA0045800418005010020263266
B1911453730333N12153601WA0045800418005010020254255
B1911463730332N12153604WA0045800418010019016248245
B1911473730328N12153603WA0045800418010019014225235
B1911483730325N12153600WA0045800419010019011209208
B1911493730319N12153597WA0045800420010019010195187
B1911503730315N12153594WA0045800421010019005219175
B1911513730313N12153592WA0045800421010019001260169
B1911523730313N12153592WA0045800421010019006039171
B1911533730313N12153581WA0045800422005010019023077
B1911543730315N12153572WA0045800423005010025355039
B1911553730318N12153567WA0045800423005010025343005
B1911563730322N12153563WA0045800424005010024330349
B1911573730326N12153562WA0045700423005010025319332
B1911583730329N12153562WA0045700423005010028355318
B1911593730331N12153565WA0045600422005010030299359
B1912003730334N12153569WA0045600422005010032292293
B1912013730335N12153574WA0045500421005010029286286
B1912023730336N12153579WA0045400421005010028278275
B1912033730337N12153583WA0045400421005010030276263
B1912043730337N12153589WA0045400421005010030275258
B1912053730338N12153594WA0045400421005010028268255
B1912063730337N12153598WA0045500421005010023259245
B1912073730336N12153601WA0045700421005010020251237
B1912083730335N12153604WA0045800420005010018243223
B1912093730334N12153607WA0045900420005010019241208
B1912103730333N12153610WA0046000420005010019242199
B1912113730331N12153613WA0046000420005010018241203
B1912123730331N12153613WA0046000421005010015243205
B1912133730331N12153612WA0045900421005010013243204
B1912143730330N12153612WA0045900422005010011230207
B1912153730328N12153611WA0045900423005010014205191
B1912163730324N12153610WA0045900423005010018192175
B1912173730318N12153609WA0045900423005010021182162
B1912183730312N12153606WA0045900424005010023168159
B1912193730306N12153603WA0045900424005010025154144
B1912203730299N12153596WA0045900424005010031136139
B1912213730294N12153590WA0045800424005010034128124
B1912223730291N12153583WA0045700424005010038120109
B1912233730287N12153576WA0045700424005010037118098
B1912243730285N12153569WA0045600424005010039115098
B1912253730282N12153560WA0045600424005010044106089
B1912263730280N12153550WA0045500423005010049100084
B1912273730278N12153540WA0045400422005010042098079
B1912283730276N12153531WA0045400422005010026103080
B1912293730275N12153526WA0045200421005010023103091
B1912303730275N12153523WA0045000421005010019102135
B1912313730282N12153520WA0044800446010019032033133
B1912323730285N12153522WA0044700444010019029327026
B1912333730288N12153525WA0044700441010019027324312
B1912343730291N12153528WA0044700441010019027320304
B1912353730293N12153531WA0044700440010019028313298
B1912363730295N12153535WA0044600439010019027296293
B1912373730296N12153540WA0044600438005010026287279
B1912383730296N12153544WA0044500438005010024288283
B1912393730297N12153548WA0044400438005010020294288
B1912403730298N12153551WA0044300438005010019296294
B1912413730299N12153554WA0044300438005010020305295
B1912423730301N12153557WA0044300438005010022311293
B1912433730304N12153560WA0044300437005010025317288
B1912443730306N12153563WA0044300437005010025313291
B1912453730309N12153567WA0044300436005010024311283
B1912463730310N12153570WA0044300437005010019302315
B1912473730311N12153573WA0044400437005010016294308
B1912483730312N12153576WA0044500437005010014288290
B1912493730312N12153578WA0044600437005010017281291
B1912503730313N12153582WA0044800437005010023279303
B1912513730314N12153586WA0044900437005010025283285
B1912523730315N12153590WA0044900437005010024288292
B1912533730316N12153594WA0044900437005010022294280
B1912543730317N12153598WA0044800437005010022297283
B1912553730319N12153602WA0044700436005010022288280
B1912563730320N12153606WA0044600436005010024291280
B1912573730321N12153610WA0044500436005010025292287
B1912583730323N12153614WA0044400435005010026292279
B1912593730324N12153619WA0044300435005010028293277
B1913003730326N12153624WA0044100434005010031291285
B1913013730328N12153630WA0044000432005010034289280
B1913023730330N12153636WA0043800431005010034287274
B1913033730331N12153642WA0043800430005010031289292
B1913043730333N12153647WA0043600429005010028296294
B1913053730335N12153652WA0043500427005010028301290
B1913063730337N12153656WA0043300426005010030297296
B1913073730339N12153662WA0043200425005010030291293
B1913083730341N12153667WA0043000423005010030296293
B1913093730343N12153672WA0042900422005010026301300
B1913103730345N12153676WA0042800420005010026306292
B1913113730347N12153680WA0042700419005010028304287
B1913123730350N12153684WA0042500418005010030299277
B1913133730352N12153689WA0042500417005010029296291
B1913143730354N12153694WA0042400417005010028297284
B1913153730356N12153698WA0042300416005010028299287
B1913163730358N12153703WA0042300414005010033298287
B1913173730360N12153709WA0042200413005010037292293
B1913183730362N12153716WA0042100412005010040292280
B1913193730364N12153723WA0042000411005010037289293
B1913203730366N12153729WA0042000410005010033286287
B1913213730367N12153735WA0041900409005010030285289
B1913223730368N12153740WA0041800408005010029279288
B1913233730369N12153746WA0041700407005010032280291
B1913243730370N12153752WA0041600406005010036280284
B1913253730371N12153759WA0041400405005010039284292
B1913263730373N12153766WA0041300403005010038288285
B1913273730374N12153773WA0041200402005010035287281
B1913283730376N12153779WA0041000401005010034285282
B1913293730377N12153785WA0040800400005010033283285
B1913303730378N12153791WA0040700398005010034285289
B1913313730379N12153797WA0040500396005010035288293
B1913323730381N12153803WA0040300395005010034289287
B1913333730383N12153809WA0040200393005010033291287
B1913343730385N12153814WA0040000392005010032293291
B1913353730387N12153820WA0039800390005010033294288
B1913363730389N12153826WA0039600388005010034295290
B1913373730391N12153831WA0039600387005010035302285
B1913383730394N12153837WA0039500385005010034304300
B1913393730397N12153842WA0039300383005010034306293
B1913403730399N12153847WA0039200382005010025303291
B1913413730401N12153851WA0039200380005010021295310
B1913423730402N12153854WA0039100379005010024291285
B1913433730402N12153858WA0039100377005010026283274
B1913443730403N12153863WA0039100375005010027281291
B1913453730403N12153867WA0039100374005010026283305
B1913463730404N12153872WA0039100372005010024293314
B1913473730405N12153875WA0039100371005010022304319
B1913483730407N12153878WA0039100369010019018305328
B1913493730409N12153880WA0039100368010019014354330
B1913503730412N12153880WA0039100367010019024008356
B1913513730416N12153877WA0039100366010019028048018
B1913523730420N12153870WA0039200365010019036080060
B1913533730421N12153863WA0039200363010019038104096
B1913543730420N12153855WA0039300362010019042113120
B1913553730418N12153848WA0039300360010019039121131
B1913563730414N12153842WA0039300359010019040124141
B1913573730411N12153836WA0039300359010019039127143
B1913583730407N12153830WA0039300359010019032136146
B1913593730403N12153826WA0039200359010019027146156
B1914003730400N12153824WA0039100359010019022155167
B1914013730397N12153823WA0039100359010019017174179
B1914023730394N12153824WA0039000358010019020205200
B1914033730391N12153827WA0038900358010019022208226
B1914043730388N12153829WA0038800358010019024221226
B1914053730385N12153833WA0038800358010019023229237
B1914063730383N12153838WA0038800358010019027247243
B1914073730381N12153845WA0038900358010019028251256
B1914083730379N12153851WA0038900357010019027256259
B1914093730378N12153856WA0038900357010019027262263
B1914103730378N12153862WA0038900356010019026265268
B1914113730377N12153870WA0039000356010019021278270
B1914123730378N12153873WA0039000356010019014308280
B1914133730380N12153875WA0039000355010019011000299
B1914143730384N12153879WA0039100356010019029316330
B1914153730390N12153878WA0039200356010019033040311
B1914163730397N12153874WA0039300357010019033049030
B1914173730400N12153869WA0039300356010019035062041
B1914183730402N12153863WA0039400356010019035069056
B1914193730405N12153857WA0039500356010019033094064
B1914203730408N12153850WA0039700356010019040068094
B1914213730405N12153843WA0039700356010019042130064
B1914223730401N12153837WA0039800355010019040135136
B1914233730395N12153831WA0039900355010019033149142
B1914243730390N12153828WA0040000355010019030161161
B1914253730385N12153825WA0040000355010019027166174
B1914263730380N12153824WA0040100355010019025183181
B1914273730376N12153825WA0040100355010019022196199
B1914283730373N12153826WA0040200354010019021211212
B1914293730370N12153829WA0040200353010019023227226
B1914303730368N12153833WA0040200352010019023230238
B1914313730366N12153840WA0040200351010019016233241
B1914323730364N12153845WA0040300351010019006240246
B1914333730364N12153846WA0040300350010019006267260
B1914343730364N12153847WA0040400350010019001198272
B1914353730364N12153847WA0040500350010019003045272
B1914363730364N12153850WA0040600349010019007065272
B1914373730365N12153850WA0040600349010019014059339
B1914383730366N12153847WA0040700348030057027063030
B1914393730371N12153844WA0040800348010019025028052
B1914403730378N12153839WA0041000349010019029025011
B1914413730383N12153831WA0041000349010019033055010
B1914493730366N12153861WA0041200410014012020276044
B1914503730367N12153867WA0041200411005008032297278
B1914513730370N12153870WA0041200414004006032334294
B1914523730373N12153871WA0041200416004004023354329
B1914533730376N12153872WA0041300417004004023000343
B1914543730379N12153873WA0041400420004004023004352
B1914553730383N12153871WA0041400419004004025018003
B1914563730387N12153867WA0041600421004004034042025
B1914573730389N12153863WA0041800422004004034069050
B1914583730389N12153857WA0042000424004003033099076
B1914593730388N12153851WA0042000425004003033110108
B1915003730386N12153845WA0042100426004003037118127
B1915013730383N12153840WA0042300427004003035123143
B1915023730378N12153837WA0042500427004003037156152
B1915033730373N12153836WA0042500428004003037177181
B1915043730368N12153837WA0042600428004003037198202
B1915053730363N12153841WA0042800430004003038216220
B1915073730373N12153831WA0043000390010019023124210
B1915083730369N12153826WA0043100390010019012141209
B1915093730368N12153827WA0043200389010019010186223
B1915103730366N12153828WA0043200389010019013223252
B1915113730365N12153831WA0043300388010019017254267
B1915123730364N12153835WA0043400387010019018274280
B1915133730365N12153839WA0043500386010019014297292
B1915143730366N12153842WA0043500386010019015305304
B1915153730366N12153847WA0043700386010019015034309
B1915163730372N12153847WA0043800388010019028044015
B1915173730376N12153849WA0043900395010019033061035
B1915183730383N12153845WA0043900399010019035074058
B1915193730384N12153840WA0044000399010019035077072
B1915203730385N12153834WA0044100402010019037116076
B1915213730382N12153829WA0044200403010019037133122
B1915223730379N12153824WA0044200403010019037135143
B1915233730374N12153819WA0044300403010019038138146
B1915243730370N12153815WA0044400402010019037143149
B1915253730365N12153811WA0044500402010019033149155
B1915263730362N12153812WA0044500401010019029209163
B1915273730358N12153814WA0044600401010019029210221
B1915283730354N12153817WA0044700401010019028221223
B1915293730351N12153821WA0044800400010019028226232
B1915303730349N12153826WA0044800400010019029256236
B1915313730348N12153832WA0044900399010019029256261
B1915323730346N12153840WA0045000402010019023255261
B1915333730344N12153847WA0045100404010019016242261
B1915343730342N12153853WA0045100407010019002250253
B1915353730342N12153856WA0045300409010019008062253
B1915363730342N12153857WA0045500411010019017062013
B1915373730347N12153855WA0045600411010019027049051
B1915383730353N12153851WA0045600412010019032067046
B1915393730355N12153845WA0045700411010019038073067
B1915403730356N12153839WA0045800412010019035073074
B1915413730366N12153831WA0045900414010019038116074
B1915423730368N12153824WA0045900415010019038125125
B1915433730367N12153817WA0045900416010019038132135
B1915443730364N12153812WA0046000416010019039134143
B1915453730360N12153807WA0046000417010019036145146
B1915463730356N12153803WA0046000416010019033151158
B1915473730351N12153800WA0046100417010019028161166
B1915483730347N12153799WA0046100417010019024172178
B1915493730344N12153800WA0046100418010019022194190
B1915503730341N12153801WA0046100418010019020201213
B1915513730338N12153803WA0046100418010019019208220
B1915523730336N12153805WA0046200419010019018216226
B1915533730334N12153808WA0046200419010019017223234
B1915543730331N12153815WA0046200418010019022240239
B1915553730329N12153824WA0046300420010019023242251
B1915563730326N12153830WA0046300419010019014224252
B1915573730323N12153834WA0046500419010019020199242
B1915583730320N12153837WA0046500420010019024183217
B1915593730316N12153838WA0046600419010019024186196
B1916003730325N12153839WA0046700418010019006134200
B1916013730334N12153838WA0046800417010019019043213
B1916023730341N12153836WA0046800417010019026078026
B1916033730341N12153832WA0046900417010019030097071
B1916043730343N12153828WA0046900417010019030113095
B1916053730350N12153822WA0046900419005010035127121
B1916063730351N12153817WA0046900420005010037133142
B1916073730349N12153813WA0046900420005010037139152
B1916083730346N12153809WA0046900421005010037151159
B1916093730342N12153806WA0046900420010019036158170
B1916103730339N12153802WA0046900421010019036179175
B1916113730335N12153802WA0046800421010019038194200
B1916123730330N12153804WA0046800421010019037203215
B1916133730326N12153807WA0046700421010019034212228
B1916153730322N12153811WA0046700420010019035225238
B1916163730315N12153822WA0046700422010019038242255
B1916173730312N12153828WA0046800422010019039250275
B1916183730310N12153836WA0046800422010019038257280
B1916193730309N12153844WA0046900422010019033266281
B1916203730309N12153849WA0046900422010019025278286
B1916213730309N12153855WA0047000423010019023275293
B1916223730309N12153861WA0047000424010019016302292
B1916233730311N12153864WA0047100424030057018350308
B1916243730314N12153866WA0047100426030057019009341
B1916253730318N12153866WA0047200427030057023019357
B1916263730321N12153865WA0047200429030057023043007
B1916273730328N12153861WA0047300430010019030047035
B1916283730331N12153857WA0047400431010019033053043
B1916293730334N12153852WA0047500431010019032054051
B1916303730336N12153847WA0047500431010019030060052
B1916313730342N12153842WA0047700432030057026090056
B1916323730344N12153836WA0047800433010019033119087
B1916333730343N12153830WA0048000433010019033127128
B1916343730341N12153825WA0048000434010019032139141
B1916353730337N12153820WA0048100434010019032148158
B1916363730333N12153816WA0048200434010019033153171
B1916373730328N12153814WA0048200434010019034162178
B1916383730322N12153811WA0048200435010019032176185
B1916393730317N12153811WA0048200434010019031184198
B1916403730311N12153812WA0048200435010019034201204
B1916413730306N12153815WA0048200435010019034218219
B1916423730303N12153820WA0048200435010019035243234
B1916433730301N12153826WA0048200435010019036245255
B1916443730298N12153833WA0048200435010019038248256
B1916453730296N12153839WA0048200434010019038249259
B1916463730294N12153846WA0048200434010019036249259
B1916483730292N12153852WA0048200433010019034244259
B1916493730290N12153858WA0048200433010019028244255
B1916503730288N12153862WA0048200433030057025240255
B1916513730287N12153866WA0048200432030057020231253
B1916523730284N12153872WA0048100433030057010210248
B1916533730283N12153874WA0048000435030057004153238
B1916543730283N12153874WA0048000435010019012063257
B1916553730284N12153871WA0048000435010019022058033
B1916563730286N12153867WA0047900435010019023068042
B1916573730287N12153862WA0047900435010019022093054
B1916583730292N12153858WA0048000435010019028124085
B1916593730292N12153854WA0048000435010019034140126
B1917003730295N12153850WA0048000436010019036149150
B1917013730292N12153846WA0048000436010019036149165
B1917023730291N12153842WA0048000436010019035151165
B1917033730288N12153839WA0048000436010019031158169
B1917043730283N12153836WA0048000436010019025171176
B1917053730279N12153835WA0047900436010019023185193
B1917063730272N12153836WA0047800437010019026204206
B1917073730268N12153838WA0047800437010019026208222
B1917083730265N12153841WA0047800437005010028220226
B1917093730263N12153846WA0047700436005010033252236
B1917103730261N12153854WA0047600436005010033266261
B1917113730261N12153865WA0047500433005010032279275
B1917123730261N12153873WA0047500432005010029287290
B1917133730263N12153882WA0047300430005010029292297
B1917143730265N12153890WA0047200430005010033298304
B1917153730268N12153896WA0047000430005010034300306
B1917163730272N12153901WA0047000430005010031317309
B1917173730275N12153910WA0046800432005010028311317
B1917183730278N12153916WA0046700433005010025304314
B1917193730281N12153921WA0046600434005010023292308
B1917203730283N12153925WA0046600434005010025301300
B1917213730286N12153930WA0046500434005010032302309
B1917223730288N12153937WA0046400434010019037300310
B1917233730291N12153942WA0046300434010019034309298
B1917243730295N12153948WA0046300434010019034310302
B1917253730298N12153952WA0046200435010019024304302
B1917263730300N12153957WA0046000435010019026290304
B1917273730301N12153962WA0045900435010019031285300
B1917283730303N12153967WA0045900434010019033294300
B1917293730305N12153973WA0045800434010019034298299
B1917303730308N12153979WA0045700434010019033303313
B1917313730310N12153984WA0045600433010019031305298
B1917323730313N12153989WA0045600433010019031303333
B1917333730315N12153993WA0045500433010019026296320
B1917343730317N12153998WA0045500433010019026303324
B1917353730320N12154002WA0045500433010019030315312
B1917363730323N12154006WA0045500433010019032314304
B1917373730326N12154011WA0045500433010019032303305
B1917383730329N12154016WA0045500433010019034299310
B1917393730332N12154021WA0045500432010019034307317
B1917403730335N12154027WA0045300431010019035315310
B1917413730339N12154031WA0045300431010019037317322
B1917423730343N12154036WA0045200431010019034311308
B1917433730345N12154041WA0045100431010019028307317
B1917443730348N12154045WA0045100430010019024300313
B1917453730349N12154049WA0045100430010019025297311
B1917463730351N12154054WA0045100430010019030302316
B1917473730354N12154058WA0045100429010019032309306
B1917483730357N12154063WA0045000429010019031310310
B1917493730360N12154067WA0045000429010019030309303
B1917503730362N12154072WA0045000428010019028306306
B1917513730364N12154076WA0044900428010019026304315
B1917523730366N12154080WA0044800428010019026304309
B1917533730369N12154084WA0044800427010019027306314
B1917543730371N12154088WA0044700427010019031311311
B1917553730375N12154093WA0044600426010019033313321
B1917563730378N12154097WA0044400426010019031315304
B1917573730381N12154101WA0044400426010019026312313
B1917583730384N12154105WA0044300425010019026305301
B1917593730386N12154109WA0044100424010019027301304
B1918003730388N12154113WA0044000423005010027299296
B1918013730390N12154118WA0044000422005010029299300
B1918023730392N12154123WA0043800422005010031301304
B1918033730394N12154128WA0043600421005010032302311
B1918043730397N12154133WA0043400420005010031307321
B1918053730400N12154137WA0043400419005010026309318
B1918063730402N12154140WA0043300419005010024314322
B1918073730405N12154144WA0043100418005010026315317
B1918083730408N12154147WA0043000417005010029315330
B1918093730411N12154151WA0043000416005010031322322
B1918103730415N12154155WA0042800415005010030324341
B1918113730418N12154158WA0042700414005010027327327
B1918123730422N12154160WA0042500413005010028329325
B1918133730425N12154163WA0042500413005010029329318
B1918143730429N12154166WA0042400412005010031327316
B1918153730433N12154169WA0042200410005010032323306
B1918163730437N12154173WA0042100409005010034328310
B1918173730441N12154176WA0042100409005010033329331
B1918183730446N12154179WA0042000408005010031327308
B1918193730449N12154182WA0041900407005010029323310
B1918203730453N12154185WA0041800407005010027317309
B1918213730456N12154189WA0041800405005010028317309
B1918223730459N12154193WA0041700405005010031320309
B1918233730463N12154196WA0041600404005010033326309
B1918243730467N12154200WA0041500403005010032327306
B1918253730471N12154203WA0041500402005010031323302
B1918263730475N12154207WA0041400401005010030319305
B1918273730478N12154211WA0041200400005010030316297
B1918283730481N12154215WA0041100399005010032315301
B1918293730484N12154219WA0041100399005010032312297
B1918303730487N12154224WA0040900398005010030307300
B1918313730490N12154228WA0040800397005010028304307
B1918323730492N12154232WA0040600395005010027307301
B1918333730494N12154236WA0040600395005010027312304
B1918343730497N12154240WA0040500393005010028316305
B1918353730501N12154244WA0040300392005010029318300
B1918363730504N12154247WA0040200391005010027315306
B1918373730506N12154251WA0040200390005010027308308
B1918383730509N12154255WA0040000389005010027305315
B1918393730511N12154259WA0039900388005010028314319
B1918403730515N12154263WA0039700387005010032322328
B1918413730519N12154266WA0039700385005010031328348
B1918423730523N12154268WA0039500384005010028338354
B1918433730527N12154270WA0039400383005010026354001
B1918443730531N12154270WA0039200382010019027005004
B1918453730535N12154269WA0039200381010019028009359
B1918463730539N12154268WA0039100380010019027008005
B1918473730542N12154267WA0038900379010019026010001
B1918483730546N12154266WA0038800378010019025015010
B1918493730550N12154264WA0038800377010019025020355
B1918503730554N12154262WA0038700376005010027023352
B1918513730558N12154260WA0038600375010019027024354
B1918523730562N12154258WA0038400374010019026019348
B1918533730566N12154257WA0038400373010019025011347
B1918543730569N12154256WA0038300373010019025003332
B1918553730573N12154256WA0038200372010019025356334
B1918563730577N12154257WA0038100371010019024350319
B1918573730580N12154258WA0038100371005010023340318
B1918583730583N12154260WA0038100370005010025331311
B1918593730587N12154263WA0038000369005010029325305
B1919003730590N12154266WA0037900369005010031320299
B1919013730594N12154270WA0037900368005010029313293
B1919023730596N12154274WA0037800368005010029308292
B1919033730599N12154278WA0037800367005010028304294
B1919043730601N12154283WA0037800367005010027301274
B1919053730603N12154287WA0037800366005010025292265
B1919063730603N12154292WA0037800366005010026282267
B1919073730603N12154297WA0037800366005010026260256
B1919083730601N12154301WA0037800366005010029238246
B1919093730598N12154305WA0037800365005010033220237
B1919103730593N12154309WA0037800365005010035208222
B1919113730588N12154312WA0037700365005010033207213
B1919123730584N12154315WA0037700365005010031210208
B1919133730579N12154317WA0037700365005010030206197
B1919143730574N12154319WA0037600364005010033193195
B1919153730568N12154320WA0037500364005010039184183
B1919163730563N12154320WA0037400364010019039173173
B1919173730557N12154319WA0037400364010019038169167
B1919183730551N12154318WA0037400364010019035167154
B1919193730546N12154316WA0037300364010019034165150
B1919203730541N12154314WA0037200363010019036161140
B1919213730536N12154311WA0037200363010019038151135
B1919223730531N12154307WA0037200363010019039139130
B1919233730527N12154302WA0037100362010019039130120
B1919243730523N12154296WA0037000361005010037119111
B1919253730521N12154289WA0037000361005010036108104
B1919263730520N12154283WA0036900360005010036099092
B1919273730519N12154276WA0036800359005010035097080
B1919283730519N12154269WA0036700359005010035093082
B1919293730519N12154263WA0036700358005010034088069
B1919303730519N12154256WA0036600357005010034083066
B1919313730520N12154250WA0036400357005010034081053
B1919323730521N12154243WA0036300356005010034078053
B1919333730522N12154237WA0036300356005010034073050
B1919343730524N12154231WA0036200355005010032067044
B1919353730526N12154226WA0036100354005010028062043
B1919363730528N12154221WA0036100353005010027060047
B1919373730530N12154217WA0036100353005010029062041
B1919383730532N12154212WA0036000352005010031065036
B1919393730534N12154206WA0035900351005010031062033
B1919403730537N12154202WA0035800351005010030057038
B1919413730539N12154197WA0035800350005010030053031
B1919423730542N12154192WA0035700349005010032052036
B1919433730545N12154187WA0035700347005010035053036
B1919443730548N12154182WA0035500346005010037050023
B1919453730552N12154177WA0035500345005010036044019
B1919463730556N12154172WA0035400344005010032037020
B1919473730559N12154169WA0035200343005010028040031
B1919483730562N12154166WA0035000342005010027044033
B1919493730565N12154162WA0035000341005010028054026
B1919503730568N12154157WA0034800339005010036054016
B1919513730571N12154151WA0034600338005010037048013
B1919523730575N12154147WA0034400336005010034039013
B1919533730579N12154143WA0034400334005010030032011
B1919543730583N12154141WA0034200333005010027022005
B1919553730587N12154139WA0034000332005010025018356
B1919563730591N12154138WA0033900330005010025016349
B1919573730594N12154137WA0033900329005010024013342
B1919583730598N12154136WA0033700327005010021001338
B1919593730601N12154137WA0033600326005010020339330
B1920003730603N12154139WA0033500325005010022317317
B1920013730605N12154142WA0033500323005010023303305
B1920023730607N12154146WA0033400322005010023288295
B1920033730607N12154151WA0033300321005010023272286
B1920043730607N12154155WA0033100320005010022256270
B1920053730606N12154159WA0033100319005010026245259
B1920063730604N12154164WA0032900317005010027242249
B1920073730602N12154168WA0032700316005010031233237
B1920083730599N12154173WA0032500315005010029225236
B1920093730595N12154176WA0032500315005010026219229
B1920103730592N12154180WA0032400314005010027216234
B1920113730589N12154183WA0032300313005010029218225
B1920123730585N12154187WA0032100312005010029227230
B1920133730583N12154191WA0032100310005010027230230
B1920143730580N12154194WA0032000310005010026227228
B1920153730577N12154198WA0031900309005010026226229
B1920163730575N12154202WA0031800308005010029226237
B1920173730572N12154206WA0031800307005010031227245
B1920183730569N12154211WA0031600306005010031228241
B1920193730566N12154215WA0031500305005010028233225
B1920203730563N12154219WA0031400305005010026235214
B1920213730561N12154223WA0031400305005010024225209
B1920223730558N12154226WA0031300305005010029204206
B1920233730553N12154227WA0031300304005010034193197
B1920243730548N12154229WA0031300304005010034190202
B1920253730543N12154230WA0031300303005010034192200
B1920263730538N12154231WA0031200303005010034192207
B1920273730533N12154233WA0031100303005010035193208
B1920283730528N12154234WA0030900302005010035196217
B1920293730523N12154236WA0030900302005010034204228
B1920303730519N12154239WA0030700301005010033211224
B1920313730515N12154243WA0030500300005010030214233
B1920323730511N12154246WA0030400299005010029219224
B1920333730508N12154250WA0030400298010019030226237
B1920343730506N12154254WA0030200297010019027232229
B1920353730503N12154258WA0030100296010019025233231
B1920363730501N12154262WA0030000295010019027228234
B1920373730498N12154266WA0030000294010019027227228
B1920383730495N12154270WA0029900294010019030228230
B1920393730492N12154274WA0029900293010019032226225
B1920403730489N12154278WA0029900292010019029221242
B1920413730486N12154282WA0029900291010019029219228
B1920423730483N12154285WA0029800291010019026217232
B1920433730479N12154288WA0029800291010019026214227
B1920443730476N12154291WA0029800290010019027215226
B1920453730473N12154294WA0029800290010019032224235
B1920463730469N12154299WA0029700290010019033222228
B1920473730466N12154303WA0029600289010019033225237
B1920483730462N12154307WA0029600289010019032222264
B1920493730459N12154311WA0029600288010019031223263
B1920503730456N12154316WA0029500288010019029244264
B1920513730455N12154321WA0029400287010019032250278
B1920523730454N12154327WA0029300287010019032276281
B1920533730455N12154332WA0029300286005010028283301
B1920543730456N12154337WA0029200285005010028292307
B1920553730458N12154341WA0029000284005010023307313
B1920563730461N12154344WA0028900283005010022319323
B1920573730464N12154346WA0028900282010019021336331
B1920583730467N12154346WA0028600281010019021357342
B1920593730470N12154345WA0028400280005010024018354
B1921003730475N12154343WA0028200278005010029030015
B1921013730480N12154339WA0028200277005010034040030
B1921023730484N12154334WA0028000276005010036044046
B1921033730488N12154329WA0027700274005010036059055
B1921043730491N12154323WA0027500273005010037059067
B1921053730494N12154316WA0027500271005010037072073
B1921063730496N12154309WA0027300270005010039084076
B1921073730496N12154301WA0027200268005010045102092
B1921083730494N12154293WA0027000267005010044103097
B1921093730493N12154285WA0027000266005010041104108
B1921103730491N12154278WA0026900264005010036107111
B1921113730489N12154271WA0026800263005010034113109
B1921123730487N12154265WA0026700262010019037120127
B1921133730484N12154258WA0026700260010019042125129
B1921143730480N12154252WA0026600258005010042127138
B1921153730476N12154246WA0026500257005010041132130
B1921163730471N12154240WA0026400255005010041137142
B1921173730467N12154235WA0026400254005010042140139
B1921183730462N12154230WA0026300252005010044141146
B1921193730456N12154225WA0026100251005010046142153
B1921203730451N12154220WA0025900249005010045143151
B1921213730445N12154215WA0025900248005010043144151
B1921223730440N12154210WA0025700246005010038143149
B1921233730436N12154206WA0025600245005010038146152
B1921243730430N12154202WA0025500244005010042151153
B1921253730425N12154199WA0025500242005010042151153
B1921263730419N12154195WA0025400241005010041151157
B1921273730414N12154191WA0025300240005010035145159
B1921283730410N12154188WA0025300239005010035148165
B1921293730405N12154184WA0025300238005010037154169
B1921303730400N12154181WA0025200237005010037155169
B1921313730395N12154178WA0025000235005010037156175
B1921323730389N12154176WA0024900234005010036157183
B1921333730385N12154174WA0024900233005010031161184
B1921343730380N12154172WA0024800232010019030168190
B1921353730376N12154172WA0024700231010019031178201
B1921363730371N12154172WA0024700230010019031179199
B1921373730367N12154173WA0024700229010019032188206
B1921383730362N12154174WA0024600229010019030190206
B1921393730358N12154175WA0024600228010019029189212
B1921403730353N12154176WA0024500227010019029191220
B1921413730349N12154177WA0024500226010019029194230
B1921423730345N12154179WA0024400225010019029200236
B1921433730341N12154182WA0024300224010019028209242
B1921443730338N12154184WA0024200223010019027219241
B1921463730335N12154188WA0024100222010019027223242
B1921473730332N12154192WA0024100221010019026228241
B1921483730330N12154195WA0024000221010019027231250
B1921493730327N12154200WA0023900220010019029235249
B1921503730325N12154204WA0023800219010019029236259
B1921513730323N12154209WA0023800218010019029238261
B1921523730321N12154214WA0023700217010019030244263
B1921533730319N12154219WA0023600216010019029248250
B1921543730318N12154225WA0023500215010019029252255
B1921553730316N12154230WA0023500214010019026251247
B1921563730315N12154234WA0023500214010019022246246
B1921573730314N12154238WA0023500214010019021242252
B1921583730313N12154241WA0023400213010019021242248
B1921593730311N12154246WA0023400213010019027250244
B1922003730310N12154251WA0023400212010019029249244
B1922013730309N12154255WA0023400211010019027246246
B1922023730307N12154260WA0023300210010019027242241
B1922033730305N12154265WA0023300210010019027241244
B1922043730303N12154269WA0023100209010019027241240
B1922053730301N12154274WA0023000208010019027240245
B1922063730299N12154278WA0022800208010019027241242
B1922073730298N12154283WA0022800207010019027248242
B1922083730296N12154288WA0022700206010019026249247
B1922093730295N12154292WA0022600206010019021243244
B1922103730294N12154295WA0022600205010019019236261
B1922113730292N12154298WA0022600204010019018236258
B1922123730291N12154301WA0022600204010019022246253
B1922133730290N12154305WA0022600203010019024254239
B1922143730289N12154310WA0022600203010019024256245
B1922153730288N12154314WA0022600202010019023253240
B1922163730287N12154318WA0022600201010019023248248
B1922173730286N12154322WA0022500201010019023246247
B1922183730285N12154326WA0022400200010019025249260
B1922193730284N12154331WA0022400199010019025252264
B1922203730282N12154335WA0022400199010019025253293
B1922213730281N12154340WA0022400198010019021252307
B1922223730281N12154343WA0022500198010019019255312
B1922233730280N12154347WA0022500197010019017262320
B1922243730280N12154350WA0022600197005010011283328
B1922253730280N12154352WA0022700197005010006304341
B1922263730282N12154353WA0022800196005010009334349
B1922273730285N12154353WA0022800196005010010344359
B1922283730289N12154353WA0022900196005010006344004
B1922293730291N12154353WA0022900196010019002340301
B1922303730291N12154353WA0022900196010019003055309
B1922313730293N12154351WA0022900196010019004151316
B1922323730293N12154350WA0022900196010019008173298
B1922333730291N12154350WA0023000196010019011177255
B1922343730290N12154350WA0023100196010019014185246
B1922353730287N12154349WA0023100196010019017211238
B1922363730284N12154349WA0023200196010019020221251
B1922373730281N12154349WA0023400195010019024224253
B1922383730277N12154349WA0023500195010019024229257
B1922393730274N12154350WA0023500195010019025232266
B1922403730271N12154352WA0023600196010019025234274
B1922413730267N12154353WA0023800196010019026237279
B1922423730265N12154357WA0023900196010019027242288
B1922433730264N12154362WA0023900196010019027261288
B1922443730264N12154366WA0023900196010019024265291
B1922453730264N12154369WA0023900195005010018271293
B1922463730264N12154373WA0023800196005010017273293
B1922473730264N12154376WA0023800196010019016275300
B1922483730265N12154377WA0023600196005010011288292
B1922493730266N12154379WA0023500196005010013280290
B1922503730267N12154381WA0023500197005010015285289
B1922513730269N12154383WA0023500197005010020296285
B1922523730275N12154385WA0023400198005010024295272
B1922533730278N12154389WA0023400198005010027294271
B1922543730281N12154393WA0023300199010019026289270
B1922553730282N12154397WA0023300199010019023280266
B1922563730282N12154400WA0023200199010019019274261
B1922573730282N12154402WA0023100200005010013258260
B1922583730284N12154403WA0023000200005010012198255
B1922593730282N12154402WA0023000201005010018183227
B1923003730280N12154401WA0022800201010019021168202
B1923013730276N12154399WA0022700201010019024154180
B1923023730272N12154395WA0022600202010019029140159
B1923033730270N12154388WA0022600202010019042087137
B1923043730270N12154379WA0022400202010019038084071
B1923053730273N12154373WA0022300202010019035038066
B1923063730278N12154368WA0022200202005010039028019
B1923073730283N12154365WA0022200201005010039025010
B1923083730288N12154362WA0022000201005010035020008
B1923093730291N12154363WA0021900201010019028302002
B1923103730293N12154369WA0021700201010019028300295
B1923113730297N12154377WA0021700201010019023296292
B1923133730298N12154381WA0021500201010019022294283
B1923143730300N12154385WA0021400201010019023295285
B1923153730301N12154389WA0021400201010019024294293
B1923163730304N12154397WA0021300201010019023296308
B1923173730305N12154401WA0021200201010019021298311
B1923193730308N12154406WA0021100201010019012329312
B1923203730310N12154406WA0021000201010019011351320
B1923213730312N12154406WA0020900201010019016011331
B1923223730313N12154405WA0020900201010019014017355
B1923233730314N12154404WA0020900201010019013026354
B1923243730316N12154402WA0020800201005010009038358
B1923253730318N12154400WA0020700201010019009054351
B1923263730318N12154397WA0020600201010019012082354
B1923283730318N12154390WA0020500200010019010123068
B1923293730316N12154387WA0020500201010019013141174
B1923303730311N12154383WA0020500200010019020147166
B1923313730305N12154379WA0020500200010019027147152
B1923323730299N12154373WA0020400200010019032141144
B1923333730294N12154368WA0020400200010019033138130
B1923343730290N12154362WA0020400200010019037119130
B1923353730287N12154354WA0020400200010019037119112
B1923363730284N12154346WA0020300199010019036120101
B1923373730281N12154338WA0020300199010019039117095
B1923383730276N12154328WA0020200200010019041094089
B1923403730272N12154317WA0020100200005010043084065
B1923413730274N12154298WA0020100199005010043064059
B1923423730276N12154291WA0020000199005010041062042
B1923443730279N12154278WA0020000198005010027073052
B1923453730280N12154273WA0020000198005010026068050
B1923463730282N12154267WA0020100198005010029058033
B1923473730285N12154262WA0020100197005010033043032
B1923483730289N12154257WA0020100197005010033038030
B1923493730293N12154253WA0020200197005010032037040
B1923503730295N12154249WA0020300197005010023053029
B1923513730297N12154245WA0020300198005010022053039
B1923523730299N12154241WA0020400199005010024058034
B1923533730301N12154237WA0020500199005010031050036
B1923543730304N12154232WA0020600200005010033051038
B1923553730307N12154227WA0020600200005010031053052
B1923563730309N12154222WA0020600201005010029056036
B1923573730311N12154217WA0020700201005010029057029
B1923583730314N12154213WA0020700200005010031051032
B1923593730317N12154208WA0020700200005010034043025
B1924003730321N12154204WA0020600200005010033035015
B1924013730325N12154201WA0020500199005010029028008
B1924023730329N12154199WA0020400199005010025015341
B1924033730332N12154198WA0020400199005010025355311
B1924043730336N12154200WA0020400198005010026327305
B1924053730339N12154204WA0020300197005010031296284
B1924063730340N12154210WA0020200197005010032275270
B1924073730340N12154215WA0020200197005010029257264
B1924083730339N12154221WA0020200196005010027239253
B1924093730336N12154225WA0020100197005010027232255
B1924103730334N12154229WA0020000197005010029227260
B1924113730331N12154234WA0020000196005010031231257
B1924123730328N12154239WA0019900196005010032234251
B1924133730325N12154245WA0019900196010019032235256
B1924143730322N12154250WA0019800195010019032231242
B1924153730319N12154254WA0019800195010019031227247
B1924163730316N12154259WA0019800195010019031225237
B1924173730312N12154263WA0019700194010019033223237
B1924183730308N12154268WA0019600194010019034220240
B1924193730304N12154272WA0019600194010019034220241
B1924203730300N12154276WA0019500193010019034225249
B1924213730297N12154281WA0019400193010019033240262
B1924223730295N12154286WA0019300193010019030242258
B1924233730293N12154290WA0019300193010019020239256
B1924243730292N12154293WA0019200192010019017225249
B1924253730290N12154295WA0019200192010019018214238
B1924263730287N12154298WA0019200192010019027230253
B1924273730285N12154303WA0019200192010019026238275
B1924283730283N12154307WA0019200191010019026246296
B1924293730282N12154312WA0019100191010019027253302
B1924303730283N12154316WA0019100191010019021308307
B1924313730285N12154318WA0019100190005010019329337
B1924323730288N12154319WA0019000190005010021010348
B1924333730293N12154318WA0018900190005010022000009
B1924343730298N12154317WA0018800190010019021034003
B1924353730302N12154312WA0018800190010019031058021
B1924363730306N12154307WA0018700190010019033063043
B1924373730311N12154297WA0018700189010019040069050
B1924383730314N12154289WA0018600189010019038068059
B1924393730317N12154280WA0018600189010019034067056
B1924403730321N12154271WA0018600188010019031067054
B1924413730323N12154263WA0018600187010019030077052
B1924423730324N12154257WA0018500187010019034077051
B1924433730326N12154248WA0018500186010019037069048
B1924443730329N12154241WA0018500186010019037056039
B1924453730333N12154235WA0018400185005010035040028
B1924463730337N12154231WA0018200185005010031030013
B1924473730341N12154229WA0018200185005010023027006
B1924483730344N12154226WA0018100184005010015034003
B1924493730346N12154224WA0018100184005010016035351
B1924503730348N12154222WA0018100184005010017025349
B1924513730351N12154221WA0018100183005010025005344
B1924523730355N12154220WA0018000182005010029355349
B1924533730359N12154221WA0018000182005010025352345
B1924543730362N12154221WA0017900182005010016354336
B1924553730364N12154222WA0017900181005010013333318
B1924563730366N12154224WA0017800181005010015325295
B1924573730369N12154226WA0017700180005010022315277
B1924583730371N12154230WA0017500179005010023287267
B1924593730370N12154236WA0017500178005010025246251
B1925003730367N12154240WA0017400177005010021220236
B1925013730364N12154243WA0017200177010019024207230
B1925023730360N12154246WA0017100176010019026206228
B1925033730356N12154248WA0017100176010019027206233
B1925043730352N12154251WA0017000176010019029222247
B1925053730349N12154256WA0016900176010019031236256
B1925063730347N12154261WA0016800175010019026244271
B1925073730346N12154266WA0016800175010019023248281
B1925083730345N12154270WA0016700175010019020252279
B1925093730344N12154274WA0016700174010019021258282
B1925103730345N12154278WA0016500174010019019275284
B1925113730345N12154282WA0016500173010019014288293
B1925123730346N12154284WA0016300172010019009304304
B1925133730347N12154285WA0016200172010019009321308
B1925143730349N12154286WA0016100171010019007333329
B1925153730352N12154286WA0016100170010019002305041
B1925163730352N12154286WA0016000170010019001117241
B1925173730352N12154286WA0015900170010019002124253
B1925183730352N12154286WA0015900170010019003125003
B1925193730353N12154285WA0015900170010019002128350
B1925203730353N12154285WA0015900170010019001120345
B1925213730353N12154285WA0015900170010019001122340
B1925223730353N12154285WA0015900170010019001098335
B1925233730353N12154285WA0015900170010019000077331
B1925243730353N12154285WA0015900170010019000000327
B1925253730353N12154285WA0015900170010019000000325
B1925263730353N12154285WA0015900170005010000000324
B1925273730353N12154285WA0015900170005010001278322
B1925283730353N12154285WA0015900170005010000000321
B1925293730353N12154285WA0015900170005010000000320
B1925303730353N12154285WA0015900170005010000000310
B1925313730353N12154285WA0015900170005010000000319
B1925323730353N12154285WA0015900170005010001082312
B1925333730353N12154285WA0015900170005010000000317
B1925343730353N12154285WA0015900170005010000000317
B1925353730353N12154285WA0015900170005010000000317
B1925363730353N12154285WA0015900170005010000079316
B1925373730353N12154285WA0015900170005010001083316
B1925383730353N12154285WA0015900170005010002146314
B1925393730353N12154285WA0015900170005010003145316
B1925403730353N12154285WA0015900170005010002155315
B1925413730353N12154285WA0015900170005010001140315
B1925423730353N12154285WA0015900170005010002136315
B1925433730353N12154285WA0015900170005010002142315
B1925443730353N12154285WA0015900170005010002130315
B1925453730353N12154285WA0015900170005010001126315
B1925463730353N12154285WA0015900170005010001081315
GWykurS7/LZ0BbKdVzr6XbQaBU54Lko/R4goDjfMgZGhDi+gd9XkMg5aINmpkluNA
GMS3sJPxICAYLaaw6NKVQgAmblLXfNNmltuwNJCEoqIdHv0x+gH7eO9OmMRxIsTeA
GORB9EOTDFzbaoeT61K6AZYxcWvcaLR8SqW/ub+S3Mn0=

