AXFH000
HFDTE210326
HFPLTPILOT:Scott O’Brien
HFGTYGLIDERTYPE:Ozone Swift 6
HFDTM100GPSDATUM:WGS84
HFRFWFIRMWAREVERSION:9.5
HFRHWHARDWAREVERSION:iPhone 15
HFFTYFRTYPE:Flyskyhy,9.5
HFGPS:Bluetooth vario
HFPRSVARIO:Bluetooth vario
HFCCLCOMPETITIONCLASS:Paraglider
HFTZNTIMEZONE:-7
HFSITSITE:Ed Levin 600ft,US
I053638FXA3941VXA4244GSP4547CCO4850HDT
C210326194959210326000102TASK
C0000000N00000000ETAKEOFF
C1956332N10339238W00010009999999000000360000STARTAREA Tapalpa
C2003837N10343513W00000000001000000000360000TURNAREA ATV
C1958948N10346610W00000000001000000000360000TURNAREA Rocks
C1956335N10336845W00000000001000000000360000FINISHAREA TapalpaLZ
C0000000N00000000ELANDING
E195029PEVBackground
B1950293727669N12151638WA0035300354001100000250234
B1950303727669N12151638WA0035400354001100000250279
B1950313727669N12151638WA0035400354001100000250281
B1950323727669N12151637WA0035400354001100000250281
B1950333727669N12151637WA0035300354001100000250284
B1950343727669N12151637WA0035400354001100000250284
B1950353727669N12151637WA0035400354001100000250277
B1950363727669N12151637WA0035400354001100000250263
B1950373727669N12151637WA0035400354001100000250263
B1950383727669N12151637WA0035300354001100000250260
B1950393727669N12151637WA0035400354001100000250267
B1950403727669N12151637WA0035400354001100000250270
B1950413727669N12151637WA0035300354001100000250273
B1950423727669N12151637WA0035400354001100000250275
B1950433727669N12151637WA0035400354001100000250184
B1950443727669N12151637WA0035400354001100000250188
B1950453727669N12151637WA0035400354001100000250189
B1950463727669N12151637WA0035400354001100000250213
B1950473727669N12151637WA0035300354001100000250168
B1950483727669N12151637WA0035300354001100000250175
B1950493727669N12151637WA0035400354001100001250066
B1950503727669N12151637WA0035300354001100004249094
B1950513727669N12151638WA0035200353001100005249113
B1950523727669N12151639WA0035200353001100005259049
B1950533727669N12151640WA0035200353001100005260323
B1950543727668N12151641WA0035000353001100005258087
B1950553727668N12151642WA0034800353001100008258280
B1950563727668N12151644WA0034600353001100010251259
B1950573727667N12151646WA0034700353001100012250257
B1950583727667N12151650WA0034900353001100017260284
B1950593727667N12151655WA0035000352001100020270303
B1951003727667N12151660WA0034900352001100023274289
B1951013727667N12151665WA0034900352001100026270301
B1951023727666N12151671WA0034900352001100028266307
B1951033727666N12151677WA0035100351001100026267321
B1951043727666N12151681WA0035200351001100023270329
B1951053727666N12151685WA0035100351001100019276340
B1951063727667N12151689WA0035100351001100018282344
B1951073727667N12151692WA0034900350001100019277344
B1951083727667N12151697WA0034800349001100023263341
B1951093727666N12151701WA0034800348001100022248342
B1951103727664N12151704WA0034700347001100019240342
B1951113727662N12151707WA0034700347001100019233015
B1951123727659N12151708WA0034800347001100017221011
B1951133727655N12151703WA0034800347001100017151008
B1951143727652N12151698WA0034900346001100021128006
B1951153727651N12151691WA0034900346001100023108004
B1951163727650N12151685WA0035000345001100024098002
B1951173727650N12151678WA0034900345001100029088002
B1951183727650N12151671WA0034900345001100031085002
B1951193727650N12151665WA0034900344001100031093002
B1951203727650N12151658WA0034800343001100029103002
B1951213727647N12151653WA0034700342001100029123001
B1951223727645N12151648WA0034700341001100028127001
B1951233727642N12151644WA0034700341001100026135358
B1951243727638N12151642WA0034700340001100023146358
B1951253727635N12151641WA0034500339001100020157359
B1951263727632N12151641WA0034400339001100019162359
B1951273727628N12151643WA0034200338001100020178359
B1951283727625N12151645WA0034300338001100017186359
B1951293727624N12151646WA0034400337001100016193358
B1951303727626N12151651WA0034500338001100009221001
B1951313727628N12151653WA0034600337001100007268003
B1951323727636N12151654WA0034500337001100015328352
B1951333727643N12151657WA0034200336001100026330338
B1951343727648N12151661WA0034000335001100028327343
B1951353727653N12151664WA0034100334001100028329342
B1951363727658N12151669WA0034300333001100029326346
B1951373727662N12151676WA0034600333001100029313344
B1951383727665N12151681WA0034700333001100024306347
B1951393727667N12151685WA0034800332001100021304349
B1951403727668N12151688WA0034800332001100017285351
B1951413727668N12151692WA0034900331001100017272352
B1951423727668N12151696WA0034800331001100019271354
B1951433727669N12151700WA0034800331001100020278355
B1951443727669N12151704WA0034700330001100021285356
B1951453727670N12151708WA0034500329001100023287357
B1951463727672N12151713WA0034400329001100027285357
B1951473727672N12151718WA0034400329001100029281357
B1951483727673N12151723WA0034400329001100028278358
B1951493727673N12151728WA0034400329001100023274358
B1951503727673N12151732WA0034400329001100021265358
B1951513727673N12151736WA0034300329001100022257358
B1951523727672N12151740WA0034200328001100025259359
B1951533727671N12151745WA0034200328001100027259359
B1951543727670N12151750WA0034200328001100028258359
B1951553727669N12151755WA0034200328001100027253359
B1951563727667N12151761WA0034200329001100029254359
B1951573727666N12151766WA0034200329001100031259359
B1951583727665N12151772WA0034200329001100032264359
B1951593727665N12151778WA0034200330001100032271359
B1952003727665N12151784WA0034300330001100030272359
B1952013727665N12151790WA0034400331001100027268359
B1952023727665N12151795WA0034400331001100025266359
B1952033727665N12151799WA0034400331001100025265359
B1952043727664N12151804WA0034500331001100026267359
B1952053727665N12151809WA0034500332001100025275359
B1952063727665N12151814WA0034500333001100024282359
B1952073727666N12151818WA0034600333001100024294359
B1952083727668N12151822WA0034500334001100024302358
B1952093727671N12151825WA0034400333001100022305359
B1952103727674N12151826WA0034200333001100019327010
B1952113727677N12151826WA0034100333001100018340016
B1952123727680N12151823WA0034100333001100016001017
B1952133727682N12151821WA0034100334001100014014019
B1952143727684N12151813WA0034100334001100017053017
B1952153727682N12151801WA0034100334001100025092016
B1952163727679N12151793WA0034000334001100028110015
B1952173727675N12151786WA0034000333001100030124014
B1952183727672N12151781WA0033900334001100028126348
B1952193727668N12151778WA0034000334001100027136352
B1952203727664N12151776WA0034000334001100024143354
B1952213727661N12151776WA0034100335001100022158356
B1952223727658N12151779WA0034100334001100017178357
B1952233727656N12151784WA0034100334001100014208357
B1952243727655N12151791WA0034000333001100020259358
B1952253727656N12151799WA0033900332001100024273358
B1952263727657N12151806WA0034000332001100027281359
B1952273727658N12151812WA0034000332001100026282359
B1952283727658N12151817WA0034100332001100025275359
B1952293727658N12151823WA0034200332001100026272359
B1952303727658N12151828WA0034200332001100027278359
B1952313727659N12151834WA0034100332001100027287359
B1952323727661N12151839WA0034200332001100027292359
B1952333727663N12151843WA0034200332001100024299359
B1952343727665N12151845WA0034200332001100020310359
B1952353727667N12151848WA0034000331001100020311359
B1952363727669N12151851WA0033800331001100022311359
B1952373727671N12151855WA0033600330001100025301359
B1952383727673N12151860WA0033400330001100027291359
B1952393727674N12151865WA0033300329001100029282359
B1952403727674N12151870WA0033300329001100028277359
B1952413727675N12151875WA0033200328001100026273359
B1952423727675N12151880WA0033100327001100025270359
B1952433727675N12151885WA0033000326001100026267359
B1952443727674N12151890WA0032800324001100028266359
B1952453727674N12151895WA0032700323001100029267359
B1952463727674N12151901WA0032600322001100030273359
B1952473727675N12151907WA0032500321001100031277359
B1952483727675N12151913WA0032500320001100031279359
B1952493727676N12151918WA0032500320001100030276359
B1952503727676N12151924WA0032600320001100029272359
B1952513727676N12151930WA0032600319001100031267359
B1952523727676N12151936WA0032500319001100033264359
B1952533727676N12151942WA0032500318001100036267359
B1952543727676N12151949WA0032400317001100037270359
B1952553727676N12151956WA0032400316001100037269359
B1952563727676N12151962WA0032300316001100033266359
B1952573727676N12151968WA0032200315001100031268359
B1952583727676N12151974WA0032000315001100029271359
B1952593727676N12151980WA0031700314001100029273359
B1953003727677N12151986WA0031400313001100031276359
B1953013727679N12151993WA0031100311001100038278359
B1953023727680N12152001WA0030900309001100041271359
B1953033727679N12152010WA0031000309001100042263359
B1953043727678N12152018WA0031000308001100041256359
B1953053727677N12152025WA0031000307001100042258359
B1953063727675N12152031WA0030800306001100038252359
B1953073727673N12152038WA0030500304001100039250359
B1953083727671N12152044WA0030300303001100039248359
B1953093727670N12152051WA0030100302001100039251359
B1953103727668N12152058WA0030200301001100036253359
B1953113727667N12152064WA0030200301001100034254359
B1953123727666N12152069WA0030100299001100030257359
B1953133727666N12152074WA0030000298001100031258359
B1953143727665N12152077WA0029800296001100029252359
B1953153727664N12152082WA0029700295001100030252359
B1953163727663N12152087WA0029600294001100030255359
B1953173727662N12152092WA0029600293001100028258359
B1953183727661N12152097WA0029500292001100027259359
B1953193727661N12152101WA0029400290001100027260359
B1953203727660N12152106WA0029200289001100026260359
B1953213727660N12152110WA0029100287001100026258359
B1953223727658N12152115WA0028900286001100028250359
B1953233727656N12152120WA0028800284001100030241359
B1953243727654N12152125WA0028800283001100030235359
B1953253727651N12152129WA0028800282001100029231359
B1953263727648N12152133WA0028700281001100028231359
B1953273727646N12152137WA0028500279001100028232359
B1953283727643N12152141WA0028400278001100030230359
B1953293727640N12152146WA0028300276001100032227359
B1953303727636N12152150WA0028200275001100031227359
B1953313727633N12152154WA0028100274001100030228359
B1953323727630N12152158WA0028000273001100030228359
B1953333727627N12152162WA0027800271001100030226359
B1953343727624N12152166WA0027700270001100030226359
B1953353727621N12152170WA0027600268001100030227359
B1953363727617N12152174WA0027500267001100030226359
B1953373727614N12152178WA0027300266001100029226359
B1953383727611N12152182WA0027100264001100029225359
B1953393727608N12152186WA0027000262001100029225359
B1953403727605N12152190WA0026800260001100029222359
B1953413727602N12152193WA0026700259001100029222359
B1953423727599N12152197WA0026700258001100027223359
B1953433727596N12152200WA0026700257001100025224359
B1953443727593N12152203WA0026700256001100023224359
B1953453727591N12152207WA0026600254001100024224359
B1953463727588N12152210WA0026500253001100028221359
B1953473727584N12152213WA0026500252001100030217359
B1953483727580N12152217WA0026500252001100029214359
B1953493727577N12152219WA0026400251001100025212359
B1953503727574N12152221WA0026300250001100022211359
B1953513727571N12152224WA0026200249001100024212359
B1953523727567N12152226WA0025900247001100028213359
B1953533727564N12152229WA0025800246001100029216359
B1953543727560N12152233WA0025800244001100028217359
B1953553727557N12152235WA0025700244001100025215359
B1953563727554N12152238WA0025600243001100025205359
B1953573727550N12152240WA0025400241001100027200359
B1953583727546N12152241WA0025300240001100030195359
B1953593727541N12152243WA0025200239001100030196359
B1954003727537N12152244WA0025200238001100029196359
B1954013727533N12152245WA0025200238001100026191359
B1954023727529N12152246WA0025200237001100025187359
B1954033727525N12152246WA0025200237001100025179359
B1954043727522N12152245WA0025200236001100025169359
B1954053727517N12152243WA0025100235001100029154000
B1954063727513N12152239WA0025000235001100033142000
B1954073727510N12152234WA0025000234001100033132000
B1954083727509N12152227WA0025000233001100033106000
B1954093727508N12152221WA0024900232001100033099000
B1954103727508N12152214WA0024900232001100034094000
B1954113727510N12152207WA0024800231001100035085000
B1954123727512N12152200WA0024900230001100035077000
B1954133727516N12152193WA0024900229001100038068000
B1954143727519N12152189WA0024900229001100032059000
B1954153727523N12152186WA0024800228001100028046002
B1954163727528N12152186WA0024700228001100025021001
B1954173727534N12152189WA0024800227001100024000353
B1954183727540N12152193WA0024700227001100027348343
B1954193727545N12152196WA0024700226001100028340339
B1954203727548N12152199WA0024600225001100026334337
B1954213727550N12152203WA0024500225001100022323339
B1954223727550N12152208WA0024400224001100018300340
B1954233727546N12152214WA0024300224001100021244343
B1954243727542N12152219WA0024300223001100025227345
B1954253727538N12152222WA0024200223001100026213347
B1954263727534N12152225WA0024200223001100026202348
B1954273727530N12152226WA0024100223001100026195350
B1954283727526N12152228WA0024100222001100028188350
B1954293727521N12152228WA0023900221001100031182351
B1954303727516N12152228WA0023800221001100035174353
B1954313727510N12152227WA0023800220001100037171354
B1954323727504N12152226WA0023900220001100036173355
B1954333727499N12152225WA0024000219001100034172356
B1954343727494N12152224WA0024100219001100028168356
B1954353727491N12152223WA0023900218001100027164357
B1954363727487N12152221WA0023700217001100028157357
B1954373727483N12152218WA0023500216001100032148001
B1954383727478N12152214WA0023300215001100034144001
B1954393727474N12152210WA0023200214001100032141001
B1954403727471N12152205WA0023100212001100031133001
B1954413727468N12152201WA0022900211001100033130000
B1954423727465N12152196WA0022600209001100035128000
B1954433727462N12152190WA0022400208001100036125000
B1954443727459N12152184WA0022200206001100036119000
B1954453727457N12152178WA0022000205001100037112000
B1954463727455N12152171WA0021800203001100036104000
B1954473727454N12152164WA0021600202001100034097000
B1954483727454N12152158WA0021400200001100032090000
B1954493727456N12152151WA0021100199001100033082000
B1954503727457N12152144WA0020800197001100033077000
B1954513727461N12152138WA0020600196001100036062000
B1954523727466N12152131WA0020500194001100041053000
B1954533727470N12152125WA0020500193001100041049000
B1954543727474N12152119WA0020500192001100039044000
B1954553727479N12152114WA0020400191001100036040000
B1954563727483N12152110WA0020300190001100034039000
B1954573727487N12152105WA0020200188001100033043000
B1954583727491N12152101WA0020000187001100033046000
B1954593727495N12152096WA0019900185001100036046000
B1955003727499N12152091WA0019900184001100037045000
B1955013727503N12152085WA0019700183001100037047000
B1955023727507N12152080WA0019700182001100037053000
B1955033727509N12152074WA0019600181001100038060000
B1955043727512N12152067WA0019600180001100037068000
B1955053727513N12152061WA0019500179001100035075000
B1955063727514N12152055WA0019200178001100034084000
B1955073727514N12152048WA0018900177001100035090000
B1955083727514N12152041WA0018700176001100038095000
B1955093727512N12152034WA0018600174001100039101000
B1955103727509N12152029WA0018500173001100036114000
B1955113727504N12152025WA0018500172001100034129359
B1955123727500N12152021WA0018600171001100032138000
B1955133727496N12152019WA0018600170001100029143000
B1955143727493N12152016WA0018600168001100029144000
B1955153727489N12152013WA0018600167001100028141000
B1955163727486N12152011WA0018600166001100026140000
B1955173727485N12152010WA0018600166001100020140000
B1955183727485N12152012WA0018600165001100012149000
B1955193727485N12152014WA0018600164001100007151000
B1955203727484N12152014WA0018600163001100006143000
B1955213727484N12152014WA0018600162001100000143000
B1955223727485N12152015WA0018600162001100000143000
B1955233727484N12152015WA0018600163001100000143000
B1955243727484N12152015WA0018600164001100000143000
B1955253727484N12152015WA0018600164001100000143000
B1955263727484N12152015WA0018600164001100000143000
B1955273727484N12152015WA0018600164001100000143000
B1955283727484N12152015WA0018600164001100000143000
B1955293727484N12152015WA0018600164001100000143000
B1955303727484N12152015WA0018600164001100000143000
B1955313727484N12152015WA0018600164001100000143000
B1955323727484N12152015WA0018600164001100000143000
B1955333727484N12152015WA0018600164001100000143000
B1955343727484N12152015WA0018600164001100000143000
B1955353727484N12152015WA0018600164001100000143000
B1955363727484N12152015WA0018600164001100000143000
B1955373727484N12152015WA0018600164001100000143000
B1955383727484N12152015WA0018600164001100000143000
B1955393727484N12152015WA0018600164001100000143000
B1955403727484N12152015WA0018600164001100000143000
B1955413727484N12152015WA0018600164001100000143000
B1955423727484N12152015WA0018600164001100000143000
B1955433727484N12152015WA0018600164001100000143000
B1955443727484N12152015WA0018600164001100000143000
B1955453727484N12152015WA0018600164001100000143000
B1955463727484N12152015WA0018600164001100000143000
B1955473727484N12152015WA0018600164001100000143000
B1955483727484N12152015WA0018600164001100000143000
B1955493727484N12152015WA0018600164001100000143000
B1955503727484N12152015WA0018600164001100000143000
B1955513727484N12152015WA0018600164001100000143000
B1955523727484N12152015WA0018600164001100000143000
GEK+o3o4YvxjZI27YQhJ1ab5LT4JRGoI6vgUSs6Puj8A43n1IKijNbvsIzhIhjeC8
GadHoqzNWrqGMN5CtXAQEirD89yVpZQ056BgllCYycLsEhHyW+jAI4hl++mTFveox
Gxzey5zOZ1MJUwYhRUgl5/9fNnWODChD3ERbKfPOu42Q=

