AXFH000
HFDTE250524
HFPLTPILOT:Scott O’Brien
HFGTYGLIDERTYPE:BGD Epic
HFDTM100GPSDATUM:WGS84
HFRFWFIRMWAREVERSION:8.2.2
HFRHWHARDWAREVERSION:iPhone 14 Pro
HFFTYFRTYPE:Flyskyhy,8.2.2
HFGPS:Internal
HFPRSVARIO:Internal Vario
HFCCLCOMPETITIONCLASS:Paraglider
HFTZNTIMEZONE:-7
HFSITSITE:Ed Levin,US
I053638FXA3941VXA4244GSP4547CCO4850HDT
C250524184923250524000108TASK
C0000000N00000000ETAKEOFF
C3645907N11905878W00000000001000000000360000STARTAREA DNLNCH
C3645907N11905878W00010009999999000000360000TURNAREA DNLNCH
C3646886N11907285W00000000000400000000360000TURNAREA 49917
C3644411N11907767W00000000001500000000360000TURNAREA TURKEY
C3644153N11906287W00000000001000000000360000TURNAREA DNLPLZ
C3647347N11907139W00000000001000000000360000TURNAREA DELILA
C3642988N11908256W00000000001000000000360000TURNAREA AIRSTR
C3644153N11906287W00000000000400000000360000TURNAREA DNLPLZ
C3645907N11905878W00000000000400000000360000TURNAREA DNLNCH
C3644153N11906287W00000000000400000000360000FINISHAREA DNLPLZ
C0000000N00000000ELANDING
E184952PEVBackground
B1849523728521N12151684WA0069900699004003000258010
B1849533728521N12151684WA0069900699004003000258334
B1849543728522N12151684WA0069900699004003000258002
B1849553728522N12151684WA0069900700004003000258008
B1849563728522N12151684WA0069900700004003001258335
B1849573728522N12151684WA0069900700004003002258352
B1849583728523N12151684WA0069900700004003003004352
B1849593728523N12151684WA0070000700004003003005351
B1850003728524N12151684WA0070000700004003004008339
B1850013728524N12151684WA0070000699004003004008162
B1850023728524N12151684WA0070000699004003001008102
B1850033728524N12151684WA0070000699004003001008083
B1850043728523N12151683WA0070000699003003001008120
B1850053728523N12151683WA0070000699003003001008156
B1850063728523N12151683WA0070000699004003001008176
B1850073728522N12151684WA0070000699004003003204195
B1850083728522N12151685WA0070000698004003005222222
B1850093728521N12151686WA0069900698004003005236214
B1850103728520N12151688WA0069900698004004007239209
B1850113728519N12151691WA0069900699004004008237217
B1850123728518N12151693WA0069900700004004011238201
B1850133728516N12151695WA0069900703004003012199202
B1850143728514N12151696WA0070000703003003012189203
B1850153728512N12151697WA0070200702003003013190195
B1850163728509N12151698WA0070200702002003014200200
B1850173728506N12151699WA0070300702003003016194192
B1850183728503N12151699WA0070300703003003017174176
B1850193728500N12151697WA0070300704003003017153166
B1850203728497N12151694WA0070300703003003018142160
B1850213728494N12151691WA0070300703003003020143160
B1850223728490N12151688WA0070400703003003022146158
B1850233728486N12151684WA0070400704004003033143132
B1850243728482N12151681WA0070400704004003033141108
B1850253728478N12151677WA0070400705004003033143087
B1850263728475N12151674WA0070400705005003031145072
B1850273728471N12151671WA0070400704004003031141055
B1850283728467N12151666WA0070400703004003036131041
B1850293728463N12151660WA0070400703005003036124030
B1850303728460N12151653WA0070400703005003041118025
B1850313728458N12151646WA0070400703005003041115020
B1850323728455N12151638WA0070400703005003041116017
B1850333728452N12151632WA0070300703005003041118015
B1850343728449N12151625WA0070300703005003041121013
B1850353728445N12151619WA0070300703005003040125010
B1850363728442N12151613WA0070300703005003040128009
B1850373728438N12151607WA0070300703004003039130007
B1850383728434N12151602WA0070300703004003039133006
B1850393728430N12151597WA0070300704005003038136005
B1850403728427N12151593WA0070300704005003035143355
B1850413728423N12151591WA0070300703005003030158356
B1850423728421N12151591WA0070300702004003017190357
B1850433728419N12151594WA0070300701005003017232358
B1850443728419N12151597WA0070300700005003017274358
B1850453728420N12151600WA0070300700005003018299359
B1850463728422N12151602WA0070300700005003018332359
B1850473728425N12151603WA0070300700005003022345359
B1850483728429N12151604WA0070200700005003023346359
B1850493728432N12151605WA0070100699005003023344359
B1850503728436N12151607WA0070000699005003025343359
B1850513728440N12151608WA0070000699005003027343359
B1850523728444N12151610WA0070000699005003026342359
B1850533728447N12151611WA0070000700005003026340359
B1850543728451N12151613WA0070000699004003024338359
B1850553728454N12151615WA0070000699005003023335359
B1850563728456N12151617WA0070000699005003023330359
B1850573728459N12151619WA0070000699005003018322359
B1850583728460N12151621WA0070000699004003018311359
B1850593728461N12151624WA0070000699004003016302359
B1851003728462N12151626WA0070000698005003015296359
B1851013728463N12151629WA0069900697004003017292359
B1851023728465N12151632WA0069900697005003018295359
B1851033728466N12151635WA0069900697005003018298359
B1851043728467N12151639WA0069900698004003020295359
B1851053728468N12151642WA0069800699004003017287359
B1851063728468N12151644WA0069800700004003017278359
B1851073728469N12151647WA0069800701005003014276359
B1851083728469N12151649WA0069800701004003012284359
B1851093728470N12151650WA0069800702005003012297359
B1851103728471N12151653WA0069900701005003014304359
B1851113728472N12151655WA0069900701004003016304359
B1851123728474N12151658WA0070000701004003016304359
B1851133728475N12151660WA0070100701005003016305359
B1851143728476N12151663WA0070100701004003016307359
B1851153728478N12151665WA0070100701005003016308359
B1851163728479N12151667WA0070100701005003016307359
B1851173728481N12151670WA0070100701005003016304359
B1851183728482N12151672WA0070100701005003017303359
B1851193728484N12151675WA0070100701005003017308359
B1851203728485N12151677WA0070100701005003017314359
B1851213728487N12151680WA0070100701005003019318359
B1851223728490N12151682WA0070100701005003019317359
B1851233728492N12151685WA0070100702005003022318359
B1851243728495N12151688WA0070100703005003022320359
B1851253728497N12151690WA0070100703005003020320359
B1851263728499N12151692WA0070200704005003020318359
B1851273728501N12151694WA0070200705005003018317359
B1851283728502N12151696WA0070200705005003016321359
B1851293728504N12151697WA0070200705005003013327359
B1851303728506N12151699WA0070300705005003014323359
B1851313728507N12151701WA0070300704005003017315359
B1851323728509N12151703WA0070400704005003017318359
B1851333728512N12151705WA0070400704005003019332359
B1851343728515N12151706WA0070400704005003020341359
B1851353728518N12151708WA0070400704005003021340359
B1851363728520N12151709WA0070400704005003021329359
B1851373728523N12151712WA0070400703005003020320359
B1851383728525N12151714WA0070400703004003020322359
B1851393728528N12151716WA0070400703004003020326359
B1851403728530N12151718WA0070400703005003022322359
B1851413728533N12151721WA0070400703005003022316359
B1851423728535N12151724WA0070300703004003022308359
B1851433728536N12151727WA0070300704004003020303359
B1851443728537N12151729WA0070300704004003017297359
B1851453728538N12151731WA0070300704004003011282359
B1851463728538N12151733WA0070300703004003011269359
B1851473728538N12151735WA0070300702005003011273359
B1851483728538N12151738WA0070300701004003012281359
B1851493728539N12151741WA0070300701005003015287359
B1851503728540N12151743WA0070300701005003015299359
B1851513728541N12151745WA0070300701005003015313359
B1851523728543N12151747WA0070300700004003015317359
B1851533728544N12151750WA0070200699004003015302359
B1851543728544N12151752WA0070100698004003015264359
B1851553728543N12151754WA0070100697004003015219000
B1851563728539N12151754WA0070000696004003022173000
B1851573728536N12151751WA0069900696004003022144000
B1851583728532N12151746WA0069800696004003030123000
B1851593728530N12151739WA0069800696005003036111000
B1852003728528N12151733WA0069700696005003038108000
B1852013728526N12151726WA0069700696005003038116000
B1852023728523N12151721WA0069600696005003036131000
B1852033728519N12151716WA0069600695005003035140000
B1852043728515N12151713WA0069600696004003034142000
B1852053728512N12151709WA0069600696004003029142000
B1852063728508N12151706WA0069600697004003029146000
B1852073728505N12151704WA0069600696004003027152000
B1852083728501N12151701WA0069600696005003027154000
B1852093728497N12151699WA0069600695004003029153000
B1852103728492N12151696WA0069600696004003033149000
B1852113728488N12151692WA0069600696005003034141000
B1852123728484N12151687WA0069600697005003034130000
B1852133728482N12151682WA0069600697005003035118000
B1852143728479N12151674WA0069600697005003038108000
B1852153728478N12151666WA0069600696005003044102000
B1852163728476N12151658WA0069600696005003044102000
B1852173728474N12151650WA0069700697005003044109000
B1852183728471N12151644WA0069700697005003043122359
B1852193728468N12151640WA0069700697005003039145359
B1852203728465N12151638WA0069700697005003025148359
B1852213728463N12151640WA0069700698004003025234359
B1852223728463N12151645WA0069700697005003015298359
B1852233728466N12151650WA0069700700004003015323359
B1852243728470N12151653WA0069600699004003017315359
B1852253728471N12151656WA0069600697004003011291359
B1852263728470N12151658WA0069600696004003012270359
B1852273728471N12151661WA0069600695004003012280359
B1852283728472N12151664WA0069600694005003015292359
B1852293728473N12151668WA0069600694004003018305359
B1852303728476N12151670WA0069500694005003021330359
B1852313728479N12151671WA0069500694005003024346359
B1852323728483N12151672WA0069500694005003023350359
B1852333728486N12151673WA0069400694004003023340359
B1852343728488N12151675WA0069400694005003020319359
B1852353728489N12151677WA0069400695004003016308359
B1852363728491N12151679WA0069400696004003016321359
B1852373728493N12151680WA0069400697004003015337359
B1852383728495N12151681WA0069400697004003015338359
B1852393728497N12151682WA0069400697004003014327359
B1852403728499N12151684WA0069500697004003016325359
B1852413728501N12151686WA0069500697004003017336359
B1852423728504N12151686WA0069600697004003017346359
B1852433728506N12151687WA0069600697005003018347359
B1852443728509N12151688WA0069700697004003019342359
B1852453728513N12151690WA0069700697004003023339359
B1852463728516N12151691WA0069700698004003023342359
B1852473728519N12151692WA0069700699004003023349359
B1852483728522N12151693WA0069700699004003022353359
B1852493728525N12151693WA0069800699004003022346359
B1852503728528N12151695WA0069800699004003020332359
B1852513728531N12151697WA0069800698004003020319359
B1852523728533N12151700WA0069800698005003020315359
B1852533728535N12151702WA0069900699005003020317359
B1852543728537N12151704WA0069900700005003017322359
B1852553728538N12151705WA0069900700005003013329359
B1852563728540N12151706WA0069900700005003013325359
B1852573728541N12151708WA0069900699004003013315359
B1852583728542N12151710WA0070000699005003013306359
B1852593728543N12151712WA0070000698004003013293359
B1853003728543N12151715WA0070000697004003011272359
B1853013728543N12151716WA0070000697004003011230359
B1853023728540N12151717WA0069900695004003011188359
B1853033728537N12151716WA0069900694004003017168000
B1853043728533N12151715WA0069900695004003027155000
B1853053728530N12151712WA0069700695004003027145000
B1853063728527N12151709WA0069600696004003026139000
B1853073728524N12151706WA0069600695004003026143000
B1853083728520N12151703WA0069600695004003028152000
B1853093728516N12151700WA0069500695004003029151000
B1853103728513N12151697WA0069500696004003029140000
B1853113728510N12151693WA0069500697004003029130000
B1853123728507N12151689WA0069500697004003028130000
B1853133728504N12151686WA0069600696004003027136000
B1853143728501N12151682WA0069600696004003029142000
B1853153728497N12151679WA0069600696004003029140000
B1853163728494N12151674WA0069600696004003031135000
B1853173728491N12151670WA0069600696004003032134000
B1853183728487N12151666WA0069600695004003029141000
B1853193728484N12151665WA0069600695004003029160359
B1853203728480N12151664WA0069600694004003027177359
B1853213728477N12151665WA0069600694005003025193359
B1853223728476N12151667WA0069500694004003019226359
B1853233728475N12151669WA0069500692004003012265359
B1853243728476N12151671WA0069500692004003014299359
B1853253728478N12151673WA0069400692005003014319359
B1853263728480N12151674WA0069400691005003016334359
B1853273728483N12151676WA0069400690004003018336359
B1853283728485N12151678WA0069300689005003016316359
B1853293728486N12151681WA0069200688004003018288359
B1853303728485N12151684WA0069100687004003018267359
B1853313728484N12151688WA0069100687004003019249359
B1853323728483N12151691WA0069000687004003021235359
B1853333728480N12151694WA0068800687004003019219359
B1853343728478N12151695WA0068700687004003019199359
B1853353728476N12151695WA0068700687004003016181000
B1853363728473N12151694WA0068700686004003016175000
B1853373728469N12151694WA0068600685004003021170000
B1853383728464N12151692WA0068600685004003029161359
B1853393728461N12151690WA0068600686004003029160359
B1853403728458N12151690WA0068600686004003026174359
B1853413728455N12151690WA0068600686005003021198359
B1853423728455N12151694WA0068600684004003019268359
B1853433728457N12151698WA0068600682004003025308359
B1853443728462N12151700WA0068500682004003032343357
B1853453728467N12151699WA0068400683004003032007353
B1853463728472N12151697WA0068400683004003036020354
B1853473728477N12151695WA0068400684005003036017354
B1853483728481N12151694WA0068300683005003025358352
B1853493728484N12151697WA0068300682005003025330352
B1853503728487N12151700WA0068200681004003025307352
B1853513728487N12151705WA0068200682004003025283352
B1853523728486N12151708WA0068200683004003021246352
B1853533728484N12151709WA0068200684004003017197007
B1853543728480N12151708WA0068200684004003024167005
B1853553728476N12151706WA0068200684004003024157004
B1853563728472N12151703WA0068200685004003029148003
B1853573728469N12151699WA0068200686004003030136002
B1853583728466N12151694WA0068300686004003034123001
B1853593728463N12151688WA0068300686004003039114001
B1854003728461N12151680WA0068400686004003039106000
B1854013728460N12151672WA0068500687005003041099000
B1854023728460N12151665WA0068600688005003041096000
B1854033728459N12151658WA0068600688005003037103000
B1854043728456N12151652WA0068600688004003037119000
B1854053728452N12151648WA0068700687005003036140000
B1854063728447N12151645WA0068700688005003035158359
B1854073728443N12151645WA0068700688005003033182359
B1854083728441N12151648WA0068700687004003021213359
B1854093728439N12151651WA0068700686004003021240359
B1854103728438N12151654WA0068700685005003021238359
B1854113728435N12151657WA0068700684004003021224359
B1854123728432N12151660WA0068600684005003023215359
B1854133728429N12151663WA0068600684004003023219359
B1854143728427N12151666WA0068500683004003023232359
B1854153728426N12151670WA0068500682004003022237359
B1854163728423N12151673WA0068500682004003022233359
B1854173728421N12151677WA0068400684004003024233359
B1854183728420N12151681WA0068300685005003021243359
B1854193728420N12151684WA0068300687005003021268359
B1854203728421N12151687WA0068300688004003017290359
B1854213728422N12151690WA0068300688004003017299359
B1854223728424N12151693WA0068400689004003018305359
B1854233728425N12151696WA0068400689004003017305359
B1854243728426N12151698WA0068500689004003017300359
B1854253728427N12151701WA0068600689004003016295359
B1854263728428N12151703WA0068700689004003015296359
B1854273728429N12151706WA0068700689004003014303359
B1854283728431N12151708WA0068800688005003015319359
B1854293728434N12151709WA0068800687005003020341359
B1854303728438N12151709WA0068800685004003020002359
B1854313728443N12151707WA0068800685004003028016355
B1854323728447N12151705WA0068800685004003032022351
B1854333728451N12151703WA0068700684004003029020346
B1854343728455N12151702WA0068600683005003029010346
B1854353728459N12151701WA0068600682005003028003346
B1854363728463N12151701WA0068500681004003028002336
B1854373728467N12151701WA0068400681005003028359330
B1854383728470N12151701WA0068300680005003021352326
B1854393728472N12151703WA0068300679004003021327320
B1854403728472N12151707WA0068200678005003020264321
B1854413728469N12151711WA0068100677004003020229321
B1854423728465N12151713WA0067900677004003025201033
B1854433728461N12151713WA0067900677004003029174024
B1854443728456N12151711WA0067800678004003030156020
B1854453728453N12151708WA0067700678004003029151017
B1854463728449N12151706WA0067600677004003029156014
B1854473728445N12151705WA0067600676004003029167012
B1854483728440N12151704WA0067600676004003035173010
B1854493728434N12151704WA0067600676004003035167007
B1854503728429N12151702WA0067600677004003035160006
B1854513728425N12151699WA0067600677004003034159005
B1854523728421N12151698WA0067600677004003031163004
B1854533728416N12151696WA0067600676004003032167003
B1854543728410N12151695WA0067600675004003037167002
B1854553728405N12151693WA0067600675004003037166002
B1854563728399N12151691WA0067500675004003037164001
B1854573728394N12151690WA0067500675004003037166358
B1854583728390N12151689WA0067500675004003032173358
B1854593728385N12151689WA0067500674004003032176358
B1855003728380N12151688WA0067500673005003032176359
B1855013728375N12151688WA0067400673004003032175359
B1855023728371N12151687WA0067400673004003032176359
B1855033728366N12151687WA0067400673004003030177359
B1855043728362N12151687WA0067300674004003030178359
B1855053728358N12151687WA0067300674004003028181359
B1855063728353N12151687WA0067300675004003028184359
B1855073728349N12151688WA0067300676004003029184359
B1855093728345N12151688WA0067300678004003027180000
B1855103728341N12151687WA0067300679004003027175000
B1855113728337N12151687WA0067400679004003027171000
B1855123728333N12151686WA0067400680004003027172000
B1855133728328N12151685WA0067500680004003029172000
B1855143728324N12151684WA0067600680004003029169000
B1855153728320N12151683WA0067700680004003029166000
B1855163728315N12151681WA0067700680004003030163000
B1855173728311N12151679WA0067800681004003030162000
B1855183728307N12151678WA0067900682004003027161359
B1855193728304N12151677WA0067900683004003027165359
B1855203728301N12151676WA0067900682004003023178359
B1855213728299N12151677WA0068000682004003020204359
B1855223728300N12151681WA0068100679004003019292359
B1855233728304N12151684WA0068100678004003030331359
B1855243728309N12151686WA0068100678004003039359001
B1855253728315N12151683WA0068000679004003039023007
B1855263728322N12151678WA0068000679004003043041017
B1855273728325N12151670WA0067900679004003044058020
B1855283728327N12151662WA0067900679004003047073020
B1855293728327N12151652WA0067800678004003048090021
B1855303728325N12151643WA0067800678004003047105019
B1855313728323N12151635WA0067800678004003047121018
B1855323728319N12151629WA0067800678004003042132016
B1855333728314N12151625WA0067800678004003036146347
B1855343728310N12151624WA0067800677005003036164351
B1855353728306N12151625WA0067800677004003031189354
B1855363728304N12151627WA0067800676004003024223356
B1855373728304N12151630WA0067700676005003019253357
B1855383728304N12151633WA0067700675004003016281357
B1855393728305N12151636WA0067600675004003017298357
B1855403728307N12151641WA0067600674004003016291358
B1855413728307N12151644WA0067500673004003014268358
B1855423728307N12151646WA0067400672005003015254358
B1855433728306N12151649WA0067400672004003015242358
B1855443728304N12151651WA0067300672004003015228358
B1855453728302N12151653WA0067300671004003016213359
B1855463728299N12151655WA0067200670004003018201359
B1855473728295N12151656WA0067200669004003026193359
B1855483728291N12151657WA0067100669005003028189359
B1855493728287N12151657WA0067000669005003027189359
B1855503728283N12151658WA0067000670005003027190359
B1855513728280N12151659WA0067000670005003025189359
B1855523728276N12151660WA0066900669005003024188359
B1855533728272N12151660WA0066900669005003026188359
B1855543728268N12151661WA0066800669005003025189359
B1855553728265N12151662WA0066800669005003025192359
B1855563728262N12151663WA0066800669005003022197359
B1855573728259N12151665WA0066800669005003023202359
B1855583728256N12151667WA0066800668005003025200359
B1855593728252N12151668WA0066800668005003024194359
B1856003728249N12151669WA0066800668005003024194359
B1856013728247N12151670WA0066800667005003021198359
B1856023728244N12151672WA0066700666005003021202359
B1856033728241N12151673WA0066700665005003023201359
B1856043728237N12151675WA0066700664005003023199359
B1856053728233N12151676WA0066600663005003024198359
B1856063728230N12151678WA0066500663005003024200359
B1856073728227N12151679WA0066500662004003022202359
B1856083728224N12151681WA0066400661004003022204359
B1856093728221N12151683WA0066300660004003021204359
B1856103728218N12151684WA0066200659004003021200359
B1856113728215N12151685WA0066200657004003022197359
B1856123728211N12151687WA0066100655005003024197359
B1856133728208N12151688WA0066000653004003025198359
B1856143728204N12151690WA0065800652005003025200359
B1856153728200N12151692WA0065800650005003026202359
B1856163728197N12151693WA0065600649005003026202359
B1856173728193N12151695WA0065400647004003026203359
B1856183728190N12151697WA0065200646005003026203359
B1856193728186N12151699WA0065200644005003026205359
B1856203728182N12151702WA0065000643005003026205359
B1856213728178N12151704WA0064800642005003028203359
B1856223728174N12151706WA0064600642005003027202359
B1856233728171N12151707WA0064600642005003027201359
B1856243728168N12151709WA0064400641005003024201359
B1856253728164N12151711WA0064300639005003024200359
B1856263728160N12151712WA0064200637004003025199359
B1856273728156N12151714WA0064200635005003030201359
B1856283728152N12151717WA0064100634005003031203359
B1856293728148N12151719WA0063900633005003031205359
B1856303728144N12151722WA0063700633005003031204359
B1856313728140N12151724WA0063700632004003029201359
B1856323728136N12151725WA0063600631004003027198359
B1856333728132N12151727WA0063400630005003028200359
B1856343728128N12151729WA0063200628005003028204359
B1856353728124N12151732WA0063200627005003029205359
B1856363728121N12151734WA0063100626005003029204359
B1856373728117N12151736WA0063000625005003026202359
B1856383728113N12151738WA0062900624005003026202359
B1856393728110N12151739WA0062900623004003026201359
B1856403728106N12151741WA0062700622005003026199359
B1856413728102N12151743WA0062600621005003026199359
B1856423728099N12151744WA0062400620005003026199359
B1856433728095N12151746WA0062400619005003026198359
B1856443728091N12151747WA0062300618005003025196359
B1856453728088N12151748WA0062100617005003025196359
B1856463728084N12151750WA0062000616005003025199359
B1856473728081N12151751WA0062000615005003026202359
B1856483728077N12151753WA0061900613005003026203359
B1856493728074N12151755WA0061700612005003026203359
B1856503728070N12151757WA0061600612005003026199359
B1856513728066N12151758WA0061600610005003025197359
B1856523728063N12151760WA0061400609005003025197359
B1856533728059N12151761WA0061300608005003025199359
B1856543728056N12151763WA0061100606005003025201359
B1856553728052N12151765WA0061100605005003025202359
B1856563728049N12151766WA0061000604005003025202359
B1856573728045N12151768WA0060800603005003026199359
B1856583728041N12151769WA0060600601004003026197359
B1856593728037N12151771WA0060600600005003026196359
B1857003728034N12151772WA0060500598005003026197359
B1857013728030N12151774WA0060300597005003026202359
B1857023728026N12151776WA0060100595005003027205359
B1857033728023N12151779WA0060100594005003028205359
B1857043728019N12151781WA0059900593004003027204359
B1857053728015N12151783WA0059700592005003027203359
B1857063728012N12151785WA0059500590005003026205359
B1857073728009N12151787WA0059500589005003026209359
B1857083728005N12151789WA0059400587005003027210359
B1857093728002N12151792WA0059200586004003027210359
B1857103727998N12151795WA0059000586004003027208359
B1857113727994N12151797WA0059000585004003027205359
B1857123727991N12151799WA0058800585004003025204359
B1857133727988N12151800WA0058700583004003025203359
B1857153727984N12151802WA0058600582005003025204359
B1857163727980N12151804WA0058600580005003025203359
B1857173727976N12151806WA0058400579005003028203359
B1857183727972N12151808WA0058300578005003028202359
B1857193727969N12151810WA0058100578005003027200359
B1857203727965N12151812WA0058100577004003025200359
B1857213727962N12151814WA0058000575004003026202359
B1857223727958N12151816WA0057800573004003028207359
B1857233727954N12151819WA0057700572004003028210359
B1857243727951N12151821WA0057700572004003028208359
B1857253727947N12151823WA0057500572004003028202359
B1857263727943N12151825WA0057400572004003024197359
B1857273727940N12151826WA0057200570004003024194359
B1857283727936N12151827WA0057200568004003024196359
B1857293727932N12151829WA0057100565004003026199359
B1857303727928N12151831WA0057000564004003029198359
B1857313727923N12151832WA0056900562004003030194359
B1857323727919N12151833WA0056900561004003030189359
B1857333727915N12151834WA0056700560004003029188359
B1857343727911N12151835WA0056500558005003028191359
B1857353727906N12151836WA0056300556005003028194359
B1857363727902N12151838WA0056300554005003030195359
B1857373727897N12151839WA0056000552005003030194359
B1857383727893N12151840WA0055800550005003030192359
B1857393727888N12151841WA0055600549005003030191359
B1857403727884N12151843WA0055600547005003031192359
B1857413727879N12151844WA0055300546005003030195359
B1857423727875N12151846WA0055100544004003030200359
B1857433727872N12151848WA0054900543005003029203359
B1857443727868N12151850WA0054900541005003027204359
B1857453727864N12151852WA0054700539005003027204359
B1857463727861N12151855WA0054400538005003028206359
B1857473727857N12151857WA0054200537004003028208359
B1857483727854N12151860WA0054200535005003027212359
B1857493727851N12151862WA0054000534005003026213359
B1857503727847N12151865WA0053800533005003025212359
B1857513727844N12151867WA0053600531005003025212359
B1857523727841N12151870WA0053600529005003026215359
B1857533727838N12151873WA0053400528005003026220359
B1857543727835N12151877WA0053200527005003026225359
B1857553727833N12151880WA0053000526005003026228359
B1857563727831N12151884WA0053000525005003023226359
B1857573727828N12151887WA0052800523004003024222359
B1857583727825N12151890WA0052700521004003024221359
B1857593727822N12151893WA0052500520004003026224359
B1858003727819N12151897WA0052500519004003027227359
B1858013727816N12151901WA0052300518004003027230359
B1858023727814N12151905WA0052100516004003027229359
B1858033727811N12151909WA0052000515004003027230359
B1858043727809N12151913WA0052000515004003027233359
B1858053727807N12151916WA0051800516004003026237359
B1858063727806N12151919WA0051600516004003018240359
B1858073727804N12151922WA0051500516004003018239359
B1858083727803N12151925WA0051500515004003018241359
B1858093727802N12151929WA0051500514004003020248359
B1858103727801N12151934WA0051400514004003023257359
B1858113727800N12151938WA0051400513004003022262359
B1858123727800N12151941WA0051400513005003022259359
B1858133727799N12151944WA0051300511005003018249359
B1858143727798N12151948WA0051300508005003018245359
B1858153727796N12151952WA0051200505004003021247359
B1858163727795N12151957WA0051200502004003027248359
B1858173727793N12151961WA0051000501004003027239359
B1858183727790N12151964WA0050800501004003025226359
B1858193727788N12151966WA0050600499004003021214359
B1858203727786N12151968WA0050600496004003019219359
B1858213727783N12151971WA0050300492004003024228359
B1858223727781N12151975WA0050000489004003029229359
B1858233727778N12151979WA0049700489004003029226359
B1858243727774N12151982WA0049700488004003029217359
B1858253727771N12151985WA0049400487004003028213359
B1858263727765N12151991WA0048800482004003027221359
B1858273727761N12151994WA0048800480004003027220359
B1858283727758N12151998WA0048500478004003029216359
B1858293727754N12152001WA0048300476004003031212359
B1858303727749N12152004WA0048000476004003031209359
B1858313727746N12152007WA0048000475004003031207359
B1858323727742N12152009WA0047800474004003029206359
B1858333727739N12152011WA0047600472004003026207359
B1858343727735N12152013WA0047400470004003026208359
B1858353727731N12152016WA0047400467004003029209359
B1858363727727N12152019WA0047200465004003030207359
B1858373727723N12152021WA0047000463004003029204359
B1858383727719N12152023WA0046800461004003030200359
B1858393727715N12152025WA0046800459004003030199359
B1858403727710N12152027WA0046500458004003035198359
B1858413727704N12152029WA0046300457004003035194359
B1858423727699N12152030WA0046000457004003035187000
B1858433727694N12152030WA0046000456004003035181000
B1858443727689N12152030WA0045800455004003034177000
B1858453727684N12152029WA0045600454004003035178000
B1858463727678N12152029WA0045500452004003037181359
B1858473727672N12152030WA0045500450004003037183359
B1858483727666N12152030WA0045300449004003039182000
B1858493727660N12152030WA0045200449004003039180359
B1858503727655N12152030WA0045100449004003037177000
B1858513727649N12152029WA0045100448004003037175000
B1858523727644N12152029WA0044900447004003036177000
B1858533727639N12152029WA0044800445004003036180359
B1858543727633N12152029WA0044600443004003036181000
B1858553727627N12152029WA0044600442004003039181000
B1858563727622N12152029WA0044500442004003039178000
B1858573727617N12152029WA0044400443005003036175000
B1858583727612N12152028WA0044200442005003032174000
B1858593727608N12152028WA0044200441004003031176000
B1859003727603N12152027WA0044100440004003034177000
B1859013727597N12152027WA0044000440004003037177000
B1859023727592N12152027WA0043900441004003036178000
B1859033727587N12152027WA0043900442004003036179359
B1859043727582N12152027WA0043900443004003033180359
B1859053727578N12152027WA0043800444004003030182359
B1859063727574N12152028WA0043800443005003030190359
B1859073727570N12152030WA0043800443004003029206359
B1859083727568N12152034WA0043900442005003026227359
B1859093727566N12152037WA0043900442004003024244359
B1859103727566N12152041WA0044000442004003019254359
B1859113727565N12152044WA0044000442004003019261359
B1859123727565N12152047WA0044000441004003017277359
B1859133727566N12152050WA0044000440004003017296359
B1859143727568N12152054WA0043900438004003018302359
B1859153727570N12152057WA0043900436004003022296359
B1859163727570N12152061WA0043800434004003022279359
B1859173727570N12152065WA0043700433004003022266359
B1859183727569N12152069WA0043600432004003021262359
B1859193727569N12152073WA0043600430004003020264359
B1859213727569N12152076WA0043400429004003018263359
B1859223727568N12152080WA0043200427004003020254359
B1859233727566N12152083WA0043000425005003020243359
B1859243727565N12152087WA0043000423004003022235359
B1859253727562N12152090WA0042800422004003021226359
B1859263727560N12152092WA0042600420004003021217359
B1859273727557N12152094WA0042400418004003020215359
B1859283727555N12152097WA0042400416004003020215359
B1859293727552N12152099WA0042200414004003020217359
B1859303727550N12152101WA0041900412004003021218359
B1859313727547N12152104WA0041700410004003021213359
B1859323727544N12152105WA0041700408004003021207359
B1859333727542N12152107WA0041500406004003020205359
B1859343727539N12152109WA0041200404004003021207359
B1859353727536N12152110WA0041000402004003022207359
B1859363727533N12152112WA0041000400004003022205359
B1859373727529N12152114WA0040700399004003023199359
B1859383727526N12152115WA0040500397004003023193359
B1859393727522N12152116WA0040200395004003025191359
B1859403727518N12152116WA0040200393004003025192359
B1859413727515N12152118WA0040000391004003025194359
B1859423727511N12152119WA0039700389004003025190000
B1859433727507N12152119WA0039500387004003025179000
B1859443727502N12152118WA0039500385004003031170000
B1859453727498N12152116WA0039200383004003031166000
B1859463727494N12152115WA0039000382004003031164000
B1859473727489N12152113WA0038700380004003030164000
B1859483727485N12152112WA0038700378004003029165000
B1859493727481N12152110WA0038400375004003030164000
B1859503727476N12152108WA0038200372004003032162000
B1859513727471N12152106WA0037900370005003032160000
B1859523727467N12152104WA0037900368004003032160000
B1859533727462N12152102WA0037600366004003032163000
B1859543727458N12152101WA0037300364004003029167000
B1859553727454N12152100WA0037000361004003030172359
B1859563727449N12152100WA0037000359005003030178359
B1859573727445N12152101WA0036700357005003030188359
B1859583727441N12152103WA0036400356005003029205359
B1859593727439N12152106WA0036100353005003023230359
B1900003727439N12152110WA0036100351004003023263359
B1900013727440N12152114WA0035800348004003023294359
B1900023727443N12152118WA0035500346004003025316359
B1900033727446N12152121WA0035200345004003027326359
B1900043727450N12152123WA0035200344004003025330359
B1900053727453N12152125WA0035000342004003025341359
B1900063727457N12152125WA0034700339004003025357357
B1900073727462N12152124WA0034500336004003028011356
B1900083727468N12152122WA0034500333004003035021359
B1900093727473N12152118WA0034200332004003041030005
B1900103727478N12152113WA0033900330004003041042009
B1900113727481N12152107WA0033600329004003040055020
B1900123727485N12152100WA0033600328004003040066022
B1900133727487N12152092WA0033300326004003041074022
B1900143727487N12152083WA0033000324004003045084022
B1900153727487N12152075WA0032700322004003045097024
B1900163727485N12152067WA0032700321004003045109024
B1900173727482N12152060WA0032500319004003043121024
B1900183727478N12152055WA0032300317004003040133026
B1900193727474N12152051WA0032000315004003036143023
B1900203727470N12152048WA0032000312004003036153343
B1900213727465N12152046WA0031800310004003033164347
B1900223727460N12152046WA0031500307004003032177350
B1900233727456N12152047WA0031300305004003032189353
B1900243727452N12152048WA0031300304004003026202355
B1900253727450N12152051WA0031000303004003026226356
B1900263727450N12152054WA0030700301004003020261358
B1900273727451N12152058WA0030500300004003019293358
B1900283727454N12152060WA0030500298004003019324358
B1900293727458N12152061WA0030200296004003031354005
B1900303727463N12152059WA0030000293004003040025016
B1900313727469N12152055WA0029700292004003040063020
B1900323727469N12152044WA0029700288004003050087023
B1900333727466N12152035WA0029500284004003054121336
B1900343727459N12152031WA0029100280004003048159345
B1900353727453N12152033WA0028700278004003048199351
B1900363727451N12152039WA0028700276004003040245354
B1900373727450N12152043WA0028300276004003031277356
B1900383727451N12152046WA0027800275004003021303356
B1900393727453N12152047WA0027400275004003014304355
B1900403727454N12152050WA0027400273005003015281356
B1900413727454N12152053WA0027100269004003015272357
B1900423727455N12152057WA0027000269004003020280358
B1900433727456N12152061WA0026800269004003023299359
B1900443727459N12152064WA0026800266004003025337000
B1900453727463N12152065WA0026700265004003035021011
B1900463727468N12152058WA0026500259004003035048017
B1900473727469N12152048WA0026200253004003046084020
B1900483727468N12152037WA0026200254004003053138340
B1900493727461N12152031WA0025700254004003054181348
B1900503727456N12152038WA0025300250004003054225353
B1900513727457N12152046WA0024800247004003045285357
B1900523727459N12152055WA0024800246004003044352003
B1900533727466N12152055WA0024300245005003044029014
B1900543727470N12152050WA0023800244004004041063018
B1900553727472N12152042WA0023400243005004041096021
B1900563727468N12152029WA0023200239005004041136339
B1900573727461N12152025WA0023200236004004042161344
B1900583727454N12152025WA0023000234004004042191349
B1900593727450N12152029WA0022800232004003031223352
B1901003727448N12152034WA0022600231004003031246355
B1901013727448N12152038WA0022400231004003026268356
B1901023727448N12152041WA0022200230004003019306357
B1901033727451N12152042WA0022000226004003019336359
B1901043727455N12152043WA0021900223004003027352358
B1901053727460N12152042WA0021800220004003033004004
B1901063727465N12152040WA0021700219004003033021012
B1901073727469N12152036WA0021600219004003036035010
B1901083727473N12152031WA0021400218004003036046011
B1901093727476N12152025WA0021300218004003036057008
B1901103727479N12152011WA0021200216004003039075007
B1901113727480N12152003WA0021100215004003041081006
B1901123727481N12151996WA0021100214004003041080003
B1901133727483N12151990WA0021100214004003034068002
B1901143727485N12151985WA0021000213005003034050355
B1901153727489N12151982WA0021000211005003030022345
B1901163727494N12151983WA0020900210004003030350337
B1901173727498N12151986WA0020900210005003027333333
B1901183727500N12151989WA0020700209005003019312333
B1901193727502N12151992WA0020600208004003019274335
B1901203727500N12151996WA0020500205004003019240338
B1901213727498N12151999WA0020500205004003020224341
B1901223727495N12152002WA0020300204004003020216345
B1901233727494N12152003WA0020100204004003012217347
B1901243727493N12152005WA0020000202004003012228349
B1901253727491N12152006WA0019900201004003012223351
B1901273727488N12152009WA0019900198004003017209352
B1901283727485N12152010WA0019800196004003022196353
B1901293727482N12152010WA0019600195004003022192005
B1901303727479N12152011WA0019600194004003019189355
B1901313727476N12152012WA0019500194004003019182003
B1901323727472N12152012WA0019300193005003020178002
B1901333727468N12152011WA0019100193004003027173002
B1901343727464N12152010WA0019100193004003027168002
B1901353727461N12152009WA0018900192004003024165358
B1901363727459N12152008WA0018800190004003020173358
B1901373727456N12152009WA0018700187004003021198359
B1901383727453N12152012WA0018700184004003024217359
B1901393727452N12152016WA0018600182004003022239359
B1901403727451N12152019WA0018400182004003022255359
B1901413727451N12152022WA0018200181004003019274359
B1901423727452N12152024WA0018200181004003010277359
B1901433727451N12152024WA0018000180004003000277001
B1901443727451N12152024WA0017700180004003000277006
B1901453727451N12152024WA0017600180004003000277352
B1901463727451N12152024WA0017600180004003002277353
B1901473727452N12152024WA0017500179004003005047003
B1901483727452N12152024WA0017500179005003005047349
B1901493727452N12152023WA0017500179004003001047002
B1901503727452N12152023WA0017500179004003001047024
B1901513727452N12152023WA0017500179004003001047008
B1901523727452N12152023WA0017500179004003001047357
B1901533727452N12152023WA0017500179005003000047355
B1901543727452N12152023WA0017500179004003001047011
B1901553727452N12152023WA0017500179004003000047005
B1901563727452N12152023WA0017500179004003000047014
B1901573727452N12152023WA0017500179004003000047014
B1901583727452N12152023WA0017500179004003000047012
B1901593727452N12152023WA0017500179004003000047355
B1902003727452N12152023WA0017500179004003000047003
B1902013727452N12152024WA0017500179004003001047339
B1902023727452N12152023WA0017500179004003001047324
B1902033727452N12152023WA0017500179004003003047033
B1902043727452N12152022WA0017500179004003003062024
B1902053727453N12152022WA0017500179004003003062000
B1902063727453N12152021WA0017500179004003003062359
B1902073727453N12152021WA0017500179004003003062009
B1902083727453N12152020WA0017500179004003003062000
B1902093727453N12152020WA0017500179004003000062359
B1902103727453N12152020WA0017500179004003000062355
B1902113727453N12152020WA0017500179004003000062355
B1902123727453N12152020WA0017500179004003000062358
B1902133727453N12152020WA0017500178004003000062349
B1902143727453N12152020WA0017500178004003000062351
B1902153727453N12152020WA0017500179004003000062301
B1902163727454N12152019WA0017500179004003001052000
B1902173727454N12152019WA0017500179004003005060002
B1902183727455N12152018WA0017500179004003005040002
B1902193727455N12152018WA0017500179004003005024359
B1902203727456N12152017WA0017500179004003005023000
B1902213727457N12152017WA0017500179004003006047000
B1902223727457N12152016WA0017500179004003005059359
B1902233727458N12152015WA0017500179005003005070359
B1902243727458N12152014WA0017500179005003005071000
B1902253727458N12152013WA0017500179004003004063000
B1902263727458N12152012WA0017500179004003004053000
B1902273727459N12152012WA0017500179004003005053352
B1902283727459N12152011WA0017500179004003005052359
B1902293727459N12152010WA0017500179004003005071000
B1902303727460N12152009WA0017500179005003006066359
B1902313727460N12152008WA0017500179004003006064359
B1902323727460N12152007WA0017500179004003006061000
B1902333727461N12152006WA0017500179004003006054001
B1902343727461N12152006WA0017500179004003006055000
B1902353727462N12152005WA0017500179004003006064001
B1902363727462N12152004WA0017500179004003005072000
B1902373727462N12152003WA0017500179004003005075000
B1902383727463N12152002WA0017500180004003005087359
B1902393727462N12152001WA0017500180004003005088358
B1902403727462N12152000WA0017500180004003004088001
B1902413727462N12152000WA0017500181004003003088357
B1902423727462N12152000WA0017500181004003001088000
B1902433727462N12152000WA0017500180005003000088013
B1902443727461N12152000WA0017500180005003000088001
B1902453727461N12152000WA0017500180005003000088002
B1902463727461N12152000WA0017500180006003000088002
B1902473727461N12152000WA0017500180006003000088356
B1902483727461N12151999WA0017500180006003000088001
B1902493727461N12152000WA0017500180006003000088012
B1902503727461N12152000WA0017500180006003000088012
B1902513727461N12152000WA0017500179007003000088028
B1902523727461N12152000WA0017500179007003000088035
B1902533727461N12152000WA0017500179006003000088012
B1902543727461N12152000WA0017500179006003000088017
B1902553727461N12152000WA0017500179006003000088009
B1902563727461N12152000WA0017500179006003000088009
B1902573727461N12152000WA0017500180005003000088013
B1902583727461N12152000WA0017500180006003000088020
B1902593727461N12152000WA0017500180006003000088016
B1903003727461N12152000WA0017500179005003000088014
B1903013727461N12152000WA0017500179005003000088011
B1903023727461N12152000WA0017500179005003000088011
B1903033727461N12152000WA0017500179005003000088009
B1903043727461N12152000WA0017500179005003000088004
B1903053727461N12152000WA0017500179006003000088011
B1903063727461N12152000WA0017500179006003000088001
B1903073727461N12152000WA0017500179006003000088003
B1903083727461N12152000WA0017500179006003000088031
B1903093727461N12152000WA0017500179006003000088000
B1903103727461N12152000WA0017500179005003000088000
B1903113727461N12152000WA0017500179005003000088000
Gw8gjrjP8M2SRpTifRMFFzynnsfghVu1WtdXm5erje1z/vwLGyO2rlK3L5Ms+v4UW
GQFVexK2nwU1RomradPH2RwQz6K+JfaVZRIpwzzMn4v9Y/fZzRu40A3tAqvj4SxhE
GBNYSgRN9j3QI0/rlwYpdmi72pizhp98rg0nRX3Docp4=
