AXFH000
HFDTE170924
HFPLTPILOT:Scott O’Brien
HFGTYGLIDERTYPE:Phi Maestro 2
HFDTM100GPSDATUM:WGS84
HFRFWFIRMWAREVERSION:8.2.4
HFRHWHARDWAREVERSION:Unknown device (iPhone15,4)
HFFTYFRTYPE:Flyskyhy,8.2.4
HFGPS:Internal
HFPRSVARIO:Internal Vario
HFCCLCOMPETITIONCLASS:Paraglider
HFTZNTIMEZONE:-7
HFSITSITE:Ed Levin 300ft,US
I053638FXA3941VXA4244GSP4547CCO4850HDT
C170924164804170924000108TASK
C0000000N00000000ETAKEOFF
C3920440N12241116W00015009999999000000360000STARTAREA POTLAU
C3922249N12241405W00000000001000000000360000TURNAREA SNOWVL
C3920978N12239724W00000000000400000000360000TURNAREA POTLZ
C3920095N12241882W00000000000400000000360000TURNAREA TOP
C3922264N12241989W00000000001000000000360000TURNAREA SNOWLO
C3920983N12238798W00000000001000000000360000TURNAREA TROUGH
C3920095N12241882W00000000000400000000360000TURNAREA TOP
C3925826N12241497W00000000005000000000360000TURNAREA STJOHN
C3920440N12241116W00000000001500000000360000TURNAREA POTLAU
C3920978N12239724W00000000000400000000360000FINISHAREA POTLZ
C0000000N00000000ELANDING
E164833PEVBackground
B1648333727667N12151867WA0027200272004003000167359
B1648343727667N12151867WA0027200272004003000167317
B1648353727667N12151867WA0027200272004003000167256
B1648363727667N12151867WA0027200272004003000283307
B1648373727668N12151869WA0027200272004003009281284
B1648383727668N12151870WA0027200272022003009281264
B1648393727668N12151870WA0027200272022003002280320
B1648403727667N12151870WA0027200272022003002280291
B1648413727667N12151871WA0027200271022003003280286
B1648423727666N12151871WA0027200272022003002280344
B1648433727666N12151871WA0027200272022003002280163
B1648443727665N12151870WA0027200272004003000156158
B1648453727665N12151870WA0027200272004003000157228
B1648463727665N12151870WA0027200272004004000157267
B1648473727665N12151869WA0027200272004006000157254
B1648483727664N12151869WA0027200273004006002157306
B1648493727664N12151869WA0027200274004006002157286
B1648503727664N12151869WA0027200273004004002157285
B1648513727663N12151869WA0027200272004003003182299
B1648523727661N12151869WA0027200272004003011178329
B1648533727659N12151868WA0027200272004003013171346
B1648543727657N12151868WA0027200270004003013184171
B1648553727655N12151869WA0027100269004003014198191
B1648563727653N12151871WA0027100267004003018213170
B1648573727651N12151873WA0026900265004003017210187
B1648583727648N12151876WA0026800266004004022210192
B1648593727645N12151876WA0026600265004003022190190
B1649003727642N12151877WA0026500266004003022200185
B1649013727639N12151879WA0026400264004003022206181
B1649023727637N12151880WA0026300262004003015183178
B1649033727635N12151880WA0026200260004003017182169
B1649043727631N12151880WA0026100260004003017177140
B1649053727629N12151880WA0026000258004003020183118
B1649063727626N12151881WA0025800257004003020187093
B1649073727623N12151880WA0025700254004004015178075
B1649083727620N12151880WA0025600253004004018173062
B1649093727618N12151879WA0025400252004003018164050
B1649103727615N12151879WA0025300250004003019176041
B1649113727611N12151879WA0025200250004004022180034
B1649123727608N12151878WA0025000251004003017172028
B1649133727605N12151880WA0025000250004003021203337
B1649143727602N12151881WA0024900248004003021202342
B1649153727599N12151883WA0024800248004004021209347
B1649163727596N12151888WA0024700244004004028222351
B1649173727592N12151893WA0024600243004004038231353
B1649183727592N12151902WA0024500240004003048263355
B1649193727591N12151910WA0024400239004003046272357
B1649203727592N12151918WA0024200239004003046278357
B1649213727593N12151925WA0024000238004003045282358
B1649223727596N12151932WA0023800236004003041290358
B1649233727597N12151939WA0023600234004003041285358
B1649243727598N12151947WA0023400232004003041280359
B1649253727599N12151955WA0023300230004003041278359
B1649263727600N12151963WA0023100227004003042278359
B1649273727601N12151971WA0022900225004003044277359
B1649283727602N12151979WA0022700223004003044275359
B1649293727602N12151988WA0022500225004003044273359
B1649303727601N12151996WA0022500224004003043266359
B1649313727601N12152003WA0022300224004003040262359
B1649323727600N12152010WA0022100223004003037258359
B1649333727598N12152017WA0022000223004003042257359
B1649343727597N12152025WA0021900221004003041258359
B1649353727596N12152032WA0021900220004003041260359
B1649363727595N12152039WA0021800220004003040267359
B1649373727595N12152045WA0021700218004003033268359
B1649383727595N12152052WA0021600217004003034267359
B1649393727592N12152058WA0021500215004003034249359
B1649403727590N12152064WA0021400213004003034245359
B1649413727587N12152069WA0021300211004003034234359
B1649423727583N12152073WA0021100210004003031227359
B1649433727579N12152077WA0020900210004003032219359
B1649443727577N12152080WA0020700208004003031231359
B1649453727574N12152084WA0020600207004003026229359
B1649463727571N12152086WA0020400203004003024197359
B1649473727567N12152087WA0020300201004003026189359
B1649483727563N12152086WA0020300199004003027178359
B1649493727559N12152088WA0020200197004003026197359
B1649503727556N12152089WA0020000196004003026191359
B1649513727552N12152089WA0019800195004003025181000
B1649523727549N12152089WA0019600193004003023184000
B1649533727545N12152089WA0019400192004003027180000
B1649543727542N12152088WA0019300192004003023172000
B1649553727539N12152089WA0019100190004003022188000
B1649563727536N12152089WA0019000188022003015179000
B1649573727534N12152088WA0018800186022003016172000
B1649583727531N12152087WA0018700184022003016162000
B1649593727528N12152086WA0018500183022003017163000
B1650003727526N12152086WA0018400181022003018162000
B1650013727523N12152083WA0018200179022003020147000
B1650023727522N12152082WA0018100177022003018149000
B1650033727522N12152080WA0017900175022003017082000
B1650043727522N12152077WA0017700173022003017077000
B1650053727523N12152073WA0017700170022003019065000
B1650063727525N12152072WA0017500172022003017051000
B1650073727525N12152072WA0017200171022003007051000
B1650083727525N12152072WA0017100171022003003051359
B1650093727526N12152073WA0016900173022003007299357
B1650103727526N12152073WA0016900175022003000299358
B1650113727526N12152073WA0016900174022003000299344
B1650123727526N12152073WA0016900175022003000299355
B1650133727527N12152074WA0016900174022003000322359
B1650143727527N12152074WA0016900175022003001322008
B1650153727527N12152074WA0016900175022003001322011
B1650163727527N12152074WA0016900176022003000322018
B1650173727527N12152074WA0016900176022003000322015
B1650183727527N12152074WA0016900176022003000322011
B1650193727527N12152074WA0016900176022003000322011
B1650203727527N12152074WA0016900176022003000322004
B1650213727527N12152074WA0016900177022003000322004
B1650223727527N12152074WA0016900177022003000322004
B1650233727527N12152075WA0016900177022003000322003
B1650243727527N12152075WA0016900177022003000322003
B1650253727527N12152075WA0016900177022003000322002
B1650263727527N12152074WA0016900177022003000322359
B1650273727527N12152075WA0016900176022003000322014
B1650283727527N12152075WA0016900175022003001322012
B1650293727527N12152075WA0016900175022003001322000
B1650303727527N12152076WA0016900174022004004322000
B1650313727526N12152076WA0016900175022004002177000
B1650323727526N12152075WA0016900176022004001322000
B1650333727527N12152075WA0016900176022003000322000
B1650343727527N12152075WA0016900175022004000322000
B1650353727527N12152075WA0016900175022004000322000
B1650363727527N12152075WA0016900175022003000322000
B1650373727527N12152074WA0016900175022003000322000
B1650383727527N12152074WA0016900175022003000322000
B1650393727527N12152074WA0016900175022003000322000
B1650403727527N12152074WA0016900174022003000322000
B1650413727527N12152074WA0016900174022003000322000
B1650423727527N12152074WA0016900175022003000322000
B1650433727527N12152074WA0016900175022003000322000
B1650443727527N12152074WA0016900175022003000322000
B1650453727527N12152074WA0016900175022003000322000
B1650463727527N12152073WA0016900175022003000322000
B1650473727527N12152073WA0016900175022003000322000
B1650483727527N12152073WA0016900175022003000322000
B1650493727527N12152073WA0016900175022003000322000
B1650503727527N12152073WA0016900175022003000322000
B1650513727527N12152073WA0016900175022003000322000
B1650523727527N12152073WA0016900175022003000322000
B1650533727527N12152073WA0016900174022003000322000
B1650543727527N12152073WA0016900174022003000322357
B1650553727527N12152073WA0016900174022003000322356
B1650563727527N12152073WA0016900175022003001340359
B1650573727527N12152074WA0016900174022003001359024
B1650583727528N12152074WA0016900175022003002005000
B1650593727528N12152073WA0016900174022003002006000
B1651003727529N12152073WA0016900174022003005000001
B1651013727529N12152073WA0016900173022003001001011
B1651023727529N12152073WA0016900173022003000001359
B1651033727529N12152073WA0016900172022003001001019
B1651043727529N12152074WA0016900172022003002007003
B1651053727529N12152073WA0016900172022003000000002
B1651063727530N12152073WA0016900172022003000000003
B1651073727530N12152073WA0016900172022003000000359
B1651083727530N12152073WA0016900172022003000359359
B1651093727530N12152073WA0016900172022003000007359
B1651103727530N12152073WA0016900171022003000010007
B1651113727531N12152073WA0016900172022003000015006
B1651123727531N12152073WA0016900171022003000016356
B1651133727531N12152072WA0016900171022003000013025
B1651143727531N12152072WA0016900171022003000011009
B1651153727531N12152072WA0016900171022003000009013
B1651163727531N12152072WA0016900171022003000008034
B1651173727531N12152072WA0016900171022003000008019
B1651183727531N12152072WA0016900171022003000009012
B1651193727531N12152072WA0016900171022003000007009
B1651203727531N12152072WA0016900171022003000008010
B1651213727531N12152072WA0016900171022003000008342
B1651223727531N12152072WA0016900171022003000008001
B1651233727531N12152072WA0016900171022003000008000
B1651243727530N12152072WA0016900171022003000008000
B1651253727530N12152072WA0016900171022003000151000
B1651263727530N12152072WA0016900171022003000151359
B1651273727529N12152072WA0016900171022003003185000
B1651283727528N12152073WA0016900172022003005186000
B1651293727527N12152073WA0016900172022003005199000
B1651303727527N12152074WA0016900171022003005194000
B1651313727526N12152074WA0016900171022003005199000
B1651323727525N12152074WA0016900171022003003171359
B1651333727525N12152074WA0016900172022003003174000
B1651343727524N12152074WA0016900172022003006162000
B1651353727523N12152074WA0016900173022003006162000
B1651363727522N12152074WA0016900173022003006162000
B1651373727521N12152073WA0016900173022003006166000
B1651383727520N12152073WA0016900173022003005171000
B1651393727520N12152073WA0016900172022003004154000
B1651403727519N12152073WA0016900172022003004154000
B1651413727518N12152072WA0016900172022003004162000
B1651423727517N12152072WA0016900172022003006174000
B1651433727517N12152072WA0016900172022003006168000
B1651443727516N12152072WA0016900173022003006133000
B1651453727515N12152071WA0016800172022003006132000
B1651463727515N12152070WA0016800172022003006132000
B1651473727514N12152070WA0016800172022003004132000
B1651483727514N12152069WA0016800172022003004140000
B1651493727513N12152068WA0016800172022003005140000
B1651503727513N12152068WA0016800171004003005152000
B1651513727512N12152068WA0016800171004003005133000
B1651523727512N12152068WA0016800172004003004133000
B1651533727512N12152068WA0016800171004003000133000
B1651543727512N12152068WA0016800173004004003144000
B1651553727512N12152068WA0016800172004003003215000
B1651563727511N12152068WA0016800171004003003215000
B1651573727511N12152069WA0016800170004003003234000
B1651583727511N12152070WA0016800171004003004245000
B1651593727510N12152071WA0016800171004003006245000
B1652003727510N12152072WA0016800171004003006235000
B1652013727510N12152073WA0016800172004003005219000
B1652023727509N12152073WA0016800171004003003219000
B1652033727509N12152074WA0016800172004003003219358
B1652043727509N12152075WA0016800172004003005219000
B1652053727508N12152076WA0016800172004003005232000
B1652063727508N12152077WA0016800172004003005242000
B1652073727508N12152077WA0016800172004003004242000
B1652083727508N12152078WA0016800172004003004254000
B1652093727508N12152079WA0016800172004003003253358
B1652103727507N12152079WA0016800172004003003243000
B1652113727507N12152080WA0016800172004003005238000
B1652123727507N12152081WA0016800173004003005238000
B1652133727507N12152082WA0016800173004003005238000
B1652143727507N12152082WA0016800172004003003285000
B1652153727507N12152083WA0016800172004003003285359
B1652163727507N12152083WA0016800171004003004285000
B1652173727508N12152084WA0016800170004003004285000
B1652183727508N12152085WA0016800170004003004267000
B1652193727508N12152086WA0016800170004003005260359
B1652203727507N12152087WA0016800170004003005260359
B1652213727507N12152088WA0016800170004003005255000
B1652223727507N12152088WA0016800169004003005254000
B1652233727507N12152089WA0016800169004003000254001
B1652243727506N12152090WA0016800169004003005247359
B1652253727506N12152090WA0016800170004003005248000
B1652263727506N12152091WA0016800171004003006249000
B1652273727505N12152092WA0016800170004003006249000
B1652283727505N12152093WA0016800170004003004228000
B1652293727504N12152093WA0016700170004003004214000
B1652303727504N12152093WA0016700169004003004227000
B1652313727503N12152093WA0016700170004003005227000
B1652323727502N12152094WA0016700169004003005227000
B1652333727502N12152094WA0016700169004003005234000
B1652343727501N12152095WA0016700168004003005233000
B1652353727501N12152095WA0016700170004003005234000
B1652363727501N12152096WA0016700170004003003234000
B1652373727501N12152096WA0016700170004003003234000
B1652383727501N12152096WA0016700170004003000234357
B1652393727501N12152096WA0016700170004003001234000
B1652403727501N12152096WA0016700171004003001251001
B1652413727501N12152097WA0016700171004003006264000
B1652423727501N12152098WA0016700171004003006252000
B1652433727501N12152099WA0016700171004003005252000
B1652443727501N12152099WA0016700171004003003268000
B1652453727501N12152100WA0016700171004003003268000
B1652463727501N12152100WA0016700171004003000268000
B1652473727501N12152100WA0016700171004003001268000
B1652483727501N12152100WA0016700171004003000268000
B1652493727501N12152100WA0016700171004003000268000
B1652503727501N12152100WA0016700172004003000268000
B1652513727501N12152101WA0016700170004003003226000
B1652523727500N12152101WA0016700170004003005239000
B1652533727500N12152102WA0016700170004003003226000
B1652543727499N12152102WA0016700170004003005203000
B1652553727499N12152103WA0016700170004003004220000
B1652563727498N12152103WA0016700170004003003204359
B1652573727498N12152104WA0016700171004003005247000
B1652583727498N12152105WA0016700171004003005247000
B1652593727498N12152105WA0016700171004003005234001
B1653003727498N12152106WA0016700171004003005242000
B1653013727498N12152106WA0016700172004003003230355
B1653023727497N12152107WA0016700171004003003234000
B1653033727497N12152107WA0016700172004003003215000
B1653043727496N12152107WA0016700172004003003215000
B1653053727496N12152108WA0016600171004003003215000
B1653063727496N12152108WA0016600172004003004249359
B1653073727496N12152109WA0016600172004003004246000
B1653083727495N12152110WA0016600171004003004240000
B1653093727495N12152111WA0016600172004003005243000
B1653103727495N12152111WA0016600171004003005258000
B1653113727495N12152112WA0016600170004003003260000
B1653123727495N12152113WA0016600170004003006260000
B1653133727495N12152114WA0016600170004003005248000
B1653143727495N12152114WA0016600171004003005241000
B1653153727494N12152115WA0016600170004003005247000
B1653163727494N12152115WA0016600170004003003247000
B1653173727493N12152116WA0016600170004003006227000
B1653183727493N12152117WA0016600170004003003230000
B1653193727492N12152117WA0016600170004003004230000
B1653203727492N12152118WA0016600170004003004237000
B1653213727492N12152118WA0016600170004003002238000
B1653223727492N12152119WA0016600169004003002238000
B1653233727492N12152119WA0016600170004003002238000
B1653243727491N12152119WA0016600169004003002238000
B1653253727491N12152119WA0016600169004003002238000
B1653263727491N12152120WA0016600168004003002238000
B1653273727491N12152120WA0016600168004003002238000
B1653283727491N12152120WA0016600168004003002238000
B1653293727491N12152120WA0016600167004003000238000
B1653303727491N12152119WA0016600167004003000238000
B1653313727490N12152119WA0016600167004003000238000
B1653323727490N12152119WA0016600167004003000238000
B1653333727490N12152119WA0016600167022003000238000
B1653343727490N12152119WA0016600167022003000238000
B1653353727490N12152119WA0016600168022003000238000
B1653363727490N12152119WA0016600168022003000238000
B1653373727490N12152119WA0016600168022003000238000
B1653383727489N12152119WA0016600169022003000202000
B1653393727488N12152120WA0016600168022003006211000
B1653403727488N12152120WA0016600167022003006211000
B1653413727488N12152120WA0016600167022003003180000
B1653423727487N12152121WA0016600166022003003180000
B1653433727487N12152120WA0016600166022003003180000
B1653443727486N12152120WA0016600166022003003129000
B1653453727486N12152120WA0016600166022003000129000
B1653463727486N12152120WA0016600167022003000128000
B1653473727486N12152119WA0016600167022003000129000
B1653483727486N12152119WA0016600168022004000128000
B1653493727486N12152119WA0016600168022004000136000
B1653503727485N12152119WA0016600169022004000136000
B1653513727485N12152119WA0016600168022003000136000
B1653523727485N12152119WA0016600168022003000136000
B1653533727485N12152119WA0016600168022003000136000
B1653543727485N12152119WA0016600169022003000136000
B1653553727485N12152119WA0016600169022003000136000
B1653563727485N12152119WA0016600169022003000136000
B1653573727485N12152119WA0016600170022003000136000
B1653583727485N12152119WA0016600169022003000136000
B1653593727485N12152119WA0016600169022003000136000
B1654003727485N12152119WA0016600170022003000136000
B1654013727485N12152119WA0016600170022003009203000
B1654023727484N12152120WA0016600169022003009215000
B1654033727483N12152120WA0016600169022003005196000
B1654043727482N12152120WA0016600169022003005191000
B1654053727482N12152120WA0016600168022003004194000
B1654063727481N12152121WA0016600168022003005199000
B1654073727480N12152121WA0016600167022003005196359
B1654083727480N12152122WA0016600167022003005213359
B1654093727479N12152123WA0016600167022003007213000
B1654103727478N12152123WA0016600168022003005209000
B1654113727477N12152124WA0016600168004003005214000
B1654123727477N12152124WA0016600168004003005208000
B1654133727476N12152125WA0016600168004003005213000
B1654143727476N12152125WA0016600168004003005213000
B1654153727475N12152125WA0016600168004003006212359
B1654163727474N12152126WA0016600168004003006208359
B1654173727473N12152127WA0016600167004003006204359
B1654183727472N12152127WA0016600167004003006201000
B1654193727472N12152127WA0016600167004003006198000
B1654203727471N12152128WA0016600168004003005197000
B1654213727470N12152128WA0016600168004003005197000
B1654223727469N12152128WA0016600169004003005195000
B1654233727469N12152128WA0016600169004003005201000
B1654243727468N12152129WA0016700168004003004197000
B1654253727468N12152129WA0016700168004003004216359
B1654263727467N12152130WA0016700168004003005216000
B1654273727467N12152130WA0016700168004003005210000
B1654283727466N12152131WA0016700168004003005211000
B1654293727465N12152131WA0016700169004003005218000
B1654303727465N12152132WA0016700169004003006219000
B1654313727464N12152132WA0016700169004003006219000
B1654323727464N12152133WA0016700168004003004216000
B1654333727463N12152134WA0016700169004003004218000
B1654343727462N12152135WA0016700169004003005237001
B1654353727462N12152135WA0016700169004003005237359
B1654363727461N12152136WA0016700170004003007220359
B1654373727461N12152137WA0016700170004003006221000
B1654383727460N12152138WA0016700170004003006229000
B1654393727460N12152139WA0016700169004003005229000
B1654403727459N12152139WA0016700170004003005216000
B1654413727459N12152140WA0016700169004003005217000
B1654423727458N12152140WA0016700169004003005216000
B1654433727458N12152141WA0016700169004003005237000
B1654443727458N12152142WA0016700169004003005216000
B1654453727457N12152142WA0016700169004003004217000
B1654463727457N12152143WA0016700169004003007228000
B1654473727456N12152144WA0016700169004003006218000
B1654483727455N12152145WA0016700169004003006210000
B1654493727455N12152145WA0016700168004003006204000
B1654503727454N12152145WA0016700168004003005226000
B1654513727454N12152146WA0016700168004003005226359
B1654523727453N12152147WA0016700168004003005226359
B1654533727453N12152147WA0016700168004003005213359
B1654543727452N12152148WA0016700169004003005214000
B1654553727451N12152148WA0016700169004003006212000
B1654563727451N12152149WA0016700169004003006214000
B1654573727450N12152149WA0016700170004003000200000
B1654583727450N12152149WA0016700171004003000201002
B1654593727450N12152149WA0016700171004003000211001
B1655003727450N12152149WA0016700171004003000211356
B1655013727450N12152149WA0016700170004003000211356
B1655023727450N12152149WA0016700171004003000211009
B1655033727450N12152149WA0016700171004003000211015
B1655043727450N12152149WA0016700171004003000211015
B1655053727450N12152149WA0016700172004003000211016
B1655063727451N12152149WA0016700171004003000211020
B1655073727451N12152149WA0016700172004003000211010
B1655083727451N12152149WA0016700171004003000211020
B1655093727451N12152149WA0016700172004003000211020
B1655103727451N12152149WA0016700172004003000211024
B1655113727451N12152149WA0016700172004003000211026
B1655123727451N12152149WA0016700172004003000211018
B1655133727451N12152149WA0016700172004003000211334
B1655143727451N12152149WA0016700172004003001211337
B1655153727451N12152149WA0016700172004003000211349
B1655163727451N12152149WA0016700172004003000211024
B1655173727451N12152149WA0016700171004003000211018
B1655183727451N12152149WA0016700172004003000211009
B1655193727451N12152149WA0016700172004003000211009
B1655203727451N12152149WA0016700172004003000211010
B1655213727451N12152149WA0016700172004003000211009
B1655223727451N12152149WA0016700172004003000211018
B1655233727451N12152149WA0016700172004003000211012
B1655243727451N12152149WA0016700172004003000211008
B1655253727451N12152149WA0016700172004003000211345
B1655263727451N12152149WA0016700172004003000211328
B1655273727451N12152149WA0016700172004003000211337
GfIbJaR8S4mg3w6Bmz38amCZ5W6SBJ18V5BoXZSN5p04PF61IPvg9Zf5/Caiv/5xe
GJYxEywz4qD0vmuC+XwlseAMGZOm5mQmdEl+axV4zLC3gPwvY+C8IYcRSo30J8T/H
GONzBq6dGiWnxbaAh+hD7nFuEZX9Y2eR79GE/xzZlr7I=

