AXFH000
HFDTE120425
HFPLTPILOT:Scott O’Brien
HFGTYGLIDERTYPE:Ozone Swift 6
HFDTM100GPSDATUM:WGS84
HFRFWFIRMWAREVERSION:8.2.6
HFRHWHARDWAREVERSION:iPhone 15
HFFTYFRTYPE:Flyskyhy,8.2.6
HFGPS:Internal
HFPRSVARIO:Internal Vario
HFCCLCOMPETITIONCLASS:Paraglider
HFTZNTIMEZONE:-7
HFSITSITE:Dunlap,US
I053638FXA3941VXA4244GSP4547CCO4850HDT
C120425234707120425000105TASK
C0000000N00000000ETAKEOFF
C3645916N11905906W00004009999999000000360000STARTAREA DNLNCH
C3645293N11905304W00000000000400000000360000TURNAREA Ridge
C3645916N11905906W00000000000400000000360000TURNAREA DNLNCH
C3644816N11904600W00000000000400000000360000TURNAREA SONTAG
C3644084N11907030W00000000000400000000360000TURNAREA Dunlap School
C3644216N11905233W00000000000400000000360000TURNAREA LASTCH 2
C3644130N11906308W00000000000400000000360000FINISHAREA DAN
C0000000N00000000ELANDING
B2347373645904N11905881WA0140701409004003000040041
B2347383645904N11905882WA0140801408004003000040052
B2347393645904N11905883WA0140801409004003006261035
B2347403645904N11905883WA0140801409004003006261101
B2347413645904N11905884WA0140801410004003000261096
B2347423645904N11905883WA0140801410004003001262100
B2347433645904N11905883WA0140801410004003002262064
B2347443645903N11905883WA0140801410004003002266071
B2347453645903N11905883WA0140901410004003000266082
B2347463645903N11905883WA0140901409004003002266052
B2347473645904N11905883WA0140901410004003002266062
B2347483645904N11905882WA0140901410004003000033034
B2347493645904N11905882WA0140901410004003001030040
B2347503645904N11905882WA0140901410004003000030036
B2347513645904N11905882WA0141001409004003002030029
B2347523645904N11905881WA0141001409004003002030030
B2347533645904N11905881WA0141001409004003000031035
B2347543645904N11905881WA0140901409004003001030040
B2347553645904N11905881WA0140901409004003001030197
B2347563645903N11905881WA0140901409004003010189195
B2347573645901N11905883WA0140901407004003016217214
B2347583645900N11905887WA0140901405004003016240207
B2347593645899N11905890WA0140701405004003020232210
B2348003645897N11905893WA0140601404004003017224203
B2348013645896N11905894WA0140501403004003017220222
B2348023645894N11905896WA0140501402004003017220217
B2348033645892N11905899WA0140301401004003017224060
B2348043645889N11905901WA0140201403004003021215095
B2348053645887N11905903WA0140201403004003021210119
B2348063645884N11905904WA0140201404004003021194122
B2348073645881N11905905WA0140201407004003022184106
B2348083645877N11905904WA0140201409004003023163133
B2348093645875N11905902WA0140201411004003023140149
B2348103645872N11905900WA0140401414004003023154169
B2348113645868N11905900WA0140501412004003023177181
B2348123645865N11905902WA0140701412004003026219191
B2348133645863N11905906WA0140901413004003028250179
B2348143645862N11905909WA0141001414004003026262217
B2348153645862N11905912WA0141101415004003022261236
B2348163645861N11905915WA0141201415004003015255233
B2348173645860N11905919WA0141301415004003021260237
B2348183645860N11905924WA0141301414004003021261229
B2348193645859N11905929WA0141401414004003028259209
B2348203645858N11905935WA0141401416004003029260220
B2348213645858N11905940WA0141401417004003029262233
B2348223645857N11905945WA0141401417004003027264242
B2348233645857N11905949WA0141301416004003025256244
B2348243645855N11905954WA0141301415004003027241234
B2348253645854N11905959WA0141301414004003028241227
B2348263645851N11905962WA0141301414004003027236225
B2348273645850N11905966WA0141301413004003027239227
B2348283645848N11905969WA0141201412004003018236219
B2348293645846N11905972WA0141201410004003021228211
B2348303645844N11905975WA0141101407004003021220202
B2348313645840N11905979WA0141001405004003024224199
B2348323645837N11905982WA0140901402004003030221200
B2348333645835N11905986WA0140701403004003030227202
B2348343645832N11905990WA0140501403004003026227195
B2348353645829N11905992WA0140301402004003025210196
B2348363645825N11905995WA0140301401004003025205193
B2348373645822N11905997WA0140201399004003028201189
B2348383645818N11905999WA0140101398004003028202195
B2348393645815N11906001WA0140001397004003028204179
B2348403645812N11906003WA0139901396004003023209195
B2348413645808N11906004WA0139801396004003023200185
B2348423645805N11906006WA0139701394004003023206187
B2348433645801N11906008WA0139601390004003025197182
B2348443645797N11906009WA0139501389004003031196176
B2348453645793N11906010WA0139301388004003031191176
B2348463645788N11906011WA0139201386004003030189178
B2348473645784N11906012WA0139001384004003029190181
B2348483645780N11906013WA0138901383004003029190182
B2348493645776N11906014WA0138701381004003029187171
B2348503645771N11906015WA0138501379004003029188181
B2348513645767N11906016WA0138301376004003030189181
B2348523645763N11906017WA0138101374004003029188178
B2348533645758N11906017WA0138101373004003029188179
B2348543645754N11906019WA0137901370004003027193187
B2348553645750N11906020WA0137701368004003027193179
B2348563645746N11906021WA0137501364004003031193178
B2348573645741N11906022WA0137301362004003033191174
B2348583645736N11906024WA0137101361004003033192174
B2348593645731N11906025WA0136901358004003033192174
B2349003645727N11906026WA0136901357004003033193174
B2349013645722N11906027WA0136701354004003033191179
E234901TPCWaypoint DNLNCH reached
B2349023645717N11906028WA0136401353004003033187172
B2349033645711N11906029WA0136201352004003034186174
B2349043645706N11906030WA0136201350004003034186166
B2349053645701N11906030WA0135901349004003037183171
B2349063645696N11906030WA0135701348004003034183168
B2349073645691N11906031WA0135501346004003034185177
B2349083645685N11906032WA0135501344004003035191178
B2349093645680N11906033WA0135301341004003036189178
B2349103645674N11906035WA0135201340004003036191177
B2349113645669N11906036WA0135001339004003037190175
B2349123645664N11906037WA0135001339004003034189172
B2349133645659N11906038WA0134801338004003034188180
B2349143645654N11906039WA0134601337004003033183176
B2349153645650N11906039WA0134401336004003032183189
B2349163645645N11906039WA0134401334004003034182134
B2349173645640N11906040WA0134201330004003036184146
B2349183645635N11906040WA0134001328004003034186143
B2349193645630N11906041WA0133801326004003031187168
B2349203645625N11906041WA0133801325004003035182175
B2349213645619N11906041WA0133601325004003042172165
B2349223645613N11906039WA0133401325022003041171166
B2349233645607N11906038WA0133201327022003041168167
B2349243645602N11906037WA0133201328022003033171167
B2349253645597N11906036WA0133001329022003033175168
B2349263645592N11906036WA0133001330022003033177174
B2349273645588N11906037WA0133001331022003030185175
B2349283645583N11906037WA0133001332022003030189181
B2349293645579N11906038WA0133101332022003030189179
B2349303645573N11906040WA0133201334022003030192174
B2349313645567N11906041WA0133401338004003036181169
B2349323645562N11906040WA0133401341004003033179180
B2349333645558N11906040WA0133501344004003033173173
B2349343645554N11906040WA0133701345004003030179190
B2349353645549N11906040WA0134001346004003030185199
B2349363645544N11906041WA0134001347004003035189197
B2349373645538N11906045WA0134301351004003042214173
B2349383645534N11906048WA0134501354004003035207190
B2349393645530N11906050WA0134801359004003033201178
B2349403645526N11906052WA0134801361004003028201190
B2349413645522N11906053WA0135101360004003029195199
B2349423645518N11906055WA0135401360004003029201197
B2349433645514N11906058WA0135601359004003032210159
B2349443645509N11906061WA0135601358004003034206182
B2349453645505N11906063WA0135801359004003034197184
B2349463645501N11906064WA0136001359004003029194176
B2349473645496N11906066WA0136101359004003029194191
B2349483645492N11906068WA0136101357004003031197183
B2349493645488N11906070WA0136101356004003031200177
B2349503645483N11906071WA0136101355004003031195176
B2349513645478N11906071WA0136001354004003031187180
B2349523645474N11906071WA0136001353004003033180177
B2349533645469N11906071WA0136001351004003033185190
B2349543645465N11906074WA0135901348004003030198205
B2349553645461N11906076WA0135701347004003030203188
B2349563645456N11906079WA0135701345004003034205189
B2349573645452N11906081WA0135601343004003034204194
B2349583645448N11906084WA0135401342004003034206196
B2349593645444N11906087WA0135201341004003033213204
B2350003645440N11906090WA0135201340004003033213198
B2350013645436N11906094WA0135001339004003032215181
B2350023645431N11906097WA0134801340004003032209179
B2350033645427N11906098WA0134701340004003031198187
B2350043645422N11906099WA0134701339004003030193190
B2350053645417N11906101WA0134601338004003031193185
B2350063645412N11906101WA0134601338004003038184164
B2350073645406N11906101WA0134501337004003043174133
B2350083645401N11906096WA0134501336004003043141148
B2350093645396N11906091WA0134401334004003045135132
B2350103645392N11906087WA0134301332004003045142147
B2350113645387N11906084WA0134201330004003030152146
B2350123645382N11906082WA0134201327004003034161150
B2350133645377N11906079WA0134001324004003034152140
B2350143645372N11906073WA0133901320004003041143133
B2350153645367N11906068WA0133601320004003043137142
B2350163645362N11906064WA0133601319004003035155148
B2350173645357N11906062WA0133301317004003035165149
B2350183645352N11906060WA0133001314004003034162146
B2350193645347N11906057WA0132701312004003034156136
B2350203645342N11906052WA0132401309004003039141141
B2350213645337N11906048WA0132401308004003041145140
B2350223645332N11906045WA0132201307004003041154141
B2350233645327N11906042WA0132001305004003036158147
B2350243645322N11906039WA0131701304004003036155147
B2350253645318N11906036WA0131501302004003036151148
B2350263645313N11906032WA0131501300004003041148146
B2350273645307N11906029WA0131301299004003041156152
B2350283645303N11906027WA0131101300004003038164162
B2350293645298N11906025WA0130901299004003033160147
B2350303645294N11906023WA0130901300004003030157158
B2350313645289N11906020WA0130801300004003033151164
B2350323645284N11906018WA0130701300004003037158178
B2350333645279N11906016WA0130701298004003035165168
B2350343645275N11906015WA0130701299004003035175177
B2350353645271N11906015WA0130601299004003026175175
B2350363645268N11906014WA0130501298004003026171175
B2350373645264N11906013WA0130501297004003024163170
B2350383645260N11906012WA0130501296004003024165166
B2350393645256N11906011WA0130501294004003029172172
B2350403645251N11906010WA0130401294004003032174172
B2350413645247N11906009WA0130301292004003032170167
B2350423645242N11906008WA0130301293004003033165164
B2350433645237N11906006WA0130301293004003031162164
B2350443645233N11906004WA0130201293004003031160166
B2350453645229N11906003WA0130201291004003029161159
B2350463645224N11906001WA0130101289004003029163166
B2350473645219N11905999WA0130001287004003038164159
B2350483645213N11905997WA0130001285004003042164162
B2350493645208N11905995WA0130001286004003040161160
B2350503645202N11905993WA0129801286004003040162158
B2350513645198N11905991WA0129701286004003034161155
B2350523645193N11905988WA0129601285004003035155153
B2350533645188N11905985WA0129601285004003035152154
B2350543645183N11905982WA0129401284004003035148152
B2350553645179N11905979WA0129301283004003032150155
B2350563645175N11905977WA0129301281004003032163160
B2350573645170N11905976WA0129301280004003031176162
B2350583645166N11905976WA0129301280004003031178167
B2350593645161N11905975WA0129201280004003029171157
B2351003645157N11905973WA0129101281004003030158163
B2351013645153N11905971WA0129101280004003030156164
B2351023645148N11905970WA0129001280004003030173170
B2351033645144N11905971WA0128901279004003028193174
B2351043645140N11905972WA0128801279004003029194179
B2351053645136N11905972WA0128801279004003029177180
B2351063645131N11905971WA0128801279004003029170170
B2351073645128N11905971WA0128801279004003024185196
B2351083645124N11905972WA0128801278004003024197197
B2351093645120N11905974WA0128801278004003024200191
B2351103645116N11905975WA0128801279004003029194183
B2351113645111N11905977WA0128701280004003030192186
B2351123645107N11905977WA0128701281004003030188180
B2351133645104N11905978WA0128701282004003028181188
B2351143645100N11905978WA0128701282004003025177180
B2351153645096N11905978WA0128801282004003027181185
B2351163645091N11905978WA0128801282004003031184185
B2351173645087N11905979WA0128801281004003031183185
B2351183645082N11905978WA0128901283004003033178177
B2351193645077N11905978WA0128901284004003029174183
B2351203645073N11905978WA0129001285004003029178185
B2351213645069N11905978WA0129001285004003029179186
B2351223645063N11905978WA0129001285004003030180187
B2351233645058N11905978WA0129101285004003038177178
B2351243645052N11905978WA0129201287004003038177184
B2351253645047N11905977WA0129201290004003037177177
B2351263645043N11905978WA0129201293004003034185173
B2351273645039N11905978WA0129401295004003023190181
B2351283645035N11905979WA0129501296004003026190195
B2351293645031N11905979WA0129701298004003026188180
B2351303645026N11905981WA0129701301004003030189193
B2351313645022N11905981WA0130001306004003030180175
B2351323645018N11905981WA0130301309004003030185206
B2351333645014N11905982WA0130601310004003026189190
B2351343645010N11905983WA0130601312004003026195194
B2351353645005N11905985WA0130901314004003033193193
B2351363645000N11905986WA0131201318004003034190193
B2351373644995N11905987WA0131201322004003033187189
B2351383644991N11905987WA0131501324004003031186186
B2351393644987N11905988WA0131901327004003026189195
B2351403644983N11905989WA0132201327004003028184195
B2351413644979N11905989WA0132201327004003028185187
B2351423644974N11905989WA0132601328004003028180190
B2351433644969N11905990WA0132901329004003029185191
B2351443644965N11905991WA0133101331004003030187196
B2351453644961N11905991WA0133101330004003029187188
B2351463644957N11905991WA0133301330004003029187187
B2351473644952N11905992WA0133401330004003033184196
B2351483644947N11905993WA0133501331004003033180175
B2351493644942N11905992WA0133501331004003032176187
B2351503644938N11905992WA0133601332004003031177188
B2351513644933N11905992WA0133601331004003031178178
B2351523644928N11905992WA0133701330004003033179192
B2351533644923N11905993WA0133701331004003033181191
B2351543644917N11905993WA0133701331004003034182189
B2351553644912N11905993WA0133701332004003034186191
B2351563644908N11905994WA0133701333004003034183192
B2351573644902N11905994WA0133701335004003034183179
B2351583644898N11905994WA0133701337004003032181192
B2351593644893N11905994WA0133801341004003027184188
B2352003644890N11905995WA0133901345004003027193178
B2352013644887N11905996WA0133901348004003021194205
B2352023644883N11905997WA0134101348004003021189184
B2352033644879N11905998WA0134401348004003031193192
B2352043644875N11906000WA0134601350004003031195207
B2352053644870N11906001WA0134601352004003031195176
B2352063644867N11906002WA0134901354004003028182200
B2352073644864N11906001WA0135201355004003023169171
B2352083644861N11906001WA0135401354004003023181194
B2352093644858N11906002WA0135401352004003020185194
B2352103644855N11906001WA0135601353004003020168195
B2352113644850N11906003WA0135701351004003020193181
B2352123644846N11906003WA0135801351004003026184190
B2352133644843N11906003WA0135801349004003026178195
B2352143644839N11906003WA0135801347004003026180188
B2352153644834N11906003WA0135701345004003029181190
B2352163644830N11906003WA0135501344004003030181186
B2352173644826N11906003WA0135501343004003028179181
B2352183644821N11906003WA0135401341004003029175188
B2352193644817N11906002WA0135201340004003029176192
B2352203644812N11906002WA0135101338004003029177189
B2352213644808N11906001WA0135101338004003029172185
B2352223644804N11906000WA0134901336004003029171189
B2352233644800N11905999WA0134701335004003029172192
B2352243644796N11905999WA0134601334004003028177183
B2352253644791N11905999WA0134601333004003028179207
B2352263644786N11905999WA0134401333004003029175173
B2352273644782N11905998WA0134301332004003029173182
B2352283644778N11905997WA0134101333004003029166186
B2352293644774N11905996WA0134101334004003029167194
B2352303644770N11905996WA0134001333004003028180200
B2352313644765N11905996WA0134001333004003028191198
B2352323644761N11905997WA0133901332004003028188185
B2352333644757N11905997WA0133901336004003028187184
B2352343644753N11905998WA0133901337004003027182192
B2352353644749N11905998WA0133901338004003027181193
B2352363644746N11905999WA0134001336004003026187208
B2352373644742N11906000WA0134001335004003026200200
B2352383644739N11906001WA0134101335004003026201195
B2352393644735N11906003WA0134101337004003026198189
B2352403644731N11906004WA0134201338004003026194193
B2352413644727N11906005WA0134201338004003025188187
B2352423644724N11906006WA0134201339004003023184193
B2352433644720N11906006WA0134301339004003024187193
B2352443644717N11906007WA0134301339004003023194192
B2352453644714N11906007WA0134301338004003023190197
B2352463644710N11906008WA0134401337004003023191181
B2352473644706N11906009WA0134401337004003027189180
B2352483644702N11906009WA0134401337004003027186161
B2352493644698N11906010WA0134401337004003027191154
B2352503644695N11906011WA0134401337004003025189159
B2352513644692N11906012WA0134401336004003021182157
B2352523644688N11906011WA0134301336004003026167161
B2352533644684N11906010WA0134301335004003028168155
B2352543644680N11906008WA0134301336004003027159157
B2352553644675N11906008WA0134201337004004028169132
B2352563644672N11906005WA0134201334004003028162138
B2352573644668N11906003WA0134201333004003028158134
B2352583644663N11906002WA0134101331004003030157144
B2352593644659N11905999WA0134001328004003030157148
B2353003644654N11905997WA0133901326004003034158149
B2353013644649N11905994WA0133901324004003038158151
B2353023644643N11905991WA0133701324004003039154153
B2353033644638N11905988WA0133501323004003041148153
B2353043644633N11905984WA0133401322004003041144146
B2353053644627N11905979WA0133201322004003042145144
B2353063644621N11905974WA0133001323004003043144140
B2353073644616N11905970WA0132901324004003045147141
B2353083644611N11905966WA0132801325004003045151144
B2353093644605N11905963WA0132801325004003042159157
B2353103644600N11905962WA0132801326004003036167160
B2353113644595N11905962WA0132901324004003034187168
B2353123644590N11905963WA0132901322004003035185159
B2353133644585N11905962WA0132901322004003035177158
B2353143644581N11905962WA0132901321004003032174147
B2353153644577N11905961WA0132901320004003028172154
B2353163644574N11905960WA0132901317004003023178172
B2353173644570N11905961WA0132801313004003027184167
B2353183644565N11905961WA0132701311004003031183169
B2353193644560N11905961WA0132601310004003031176162
B2353203644556N11905960WA0132401308004003031166154
B2353213644552N11905959WA0132301305004003031165150
B2353223644548N11905958WA0132001303004003028169179
B2353233644542N11905957WA0131801300004003037173178
B2353243644537N11905957WA0131501298004003037174155
B2353253644532N11905957WA0131301298004003037176174
B2353263644528N11905956WA0131101298004003035176169
B2353273644524N11905955WA0130901297004003026169148
B2353283644520N11905955WA0130701292004003026178157
B2353293644515N11905955WA0130601289004003026176152
B2353303644511N11905955WA0130601288004003030181148
B2353313644506N11905955WA0130401288004003030177147
B2353323644503N11905955WA0130201285004003019175146
B2353333644500N11905955WA0130001284004003022176177
B2353343644496N11905956WA0129801281004003022187159
B2353353644491N11905957WA0129601279004003027194160
B2353363644487N11905959WA0129401280004003029202169
B2353373644484N11905961WA0129301279004003024199167
B2353383644481N11905962WA0129101279004003024205165
B2353393644478N11905963WA0129001278004003023190175
B2353403644474N11905964WA0128901275004003023196164
B2353413644470N11905966WA0128801274004003029194169
B2353423644466N11905967WA0128701273004003025192176
B2353433644463N11905968WA0128501273004003025195174
B2353443644460N11905969WA0128401271004003023197182
B2353453644457N11905970WA0128201270004003023202178
B2353463644453N11905972WA0128101269004003025200170
B2353473644449N11905974WA0128101269004003026198175
B2353483644446N11905975WA0128001269004003026201179
B2353493644444N11905977WA0127901268004003019209182
B2353503644441N11905979WA0127801266004003019213180
B2353513644438N11905981WA0127701265004003024212183
B2353523644435N11905984WA0127601264004003027214187
B2353533644432N11905987WA0127501263004003024216186
B2353543644430N11905989WA0127501264004003024227188
B2353553644428N11905991WA0127401264004003019226203
B2353563644425N11905995WA0127301263004003021226198
B2353573644423N11905997WA0127201262004003024221188
B2353583644420N11906001WA0127201262004003024220193
B2353593644417N11906003WA0127201262004003024220190
B2354003644415N11906006WA0127101263004003022219187
B2354013644412N11906009WA0127101263004003023219197
B2354023644409N11906012WA0127001262004003023219187
B2354033644407N11906015WA0127001262004003023222195
B2354043644405N11906017WA0127001262004003023228195
B2354053644403N11906020WA0126901262004003020236205
B2354063644401N11906023WA0126901262004003020231202
B2354073644399N11906025WA0126901260004003019226201
B2354083644397N11906028WA0126901258004003019215204
B2354093644394N11906031WA0126801256004003021221201
B2354103644392N11906033WA0126801253004003025228197
B2354113644389N11906036WA0126801251004003025223190
B2354123644387N11906039WA0126601249004003025216181
B2354133644383N11906041WA0126401247004003024208189
B2354143644380N11906044WA0126201244004003024204183
B2354153644377N11906046WA0126201242004003026204181
B2354163644373N11906047WA0126001240004003026198179
B2354173644369N11906049WA0125701238004003026201205
B2354183644365N11906052WA0125401236004003029207192
B2354193644361N11906055WA0125401236004003031214226
B2354203644358N11906060WA0125201239004003029228201
B2354213644356N11906062WA0124901239004003029215213
B2354223644353N11906063WA0124701237004003021195218
B2354233644349N11906065WA0124701236004003021198206
B2354243644346N11906068WA0124501233004003027212203
B2354253644342N11906071WA0124401232004003032224224
B2354263644339N11906075WA0124301229004003032224210
B2354273644336N11906079WA0124301232004003030222215
B2354283644333N11906083WA0124301232004003029218218
B2354293644329N11906086WA0124201232004003028214207
B2354303644326N11906089WA0124101231004003024218223
B2354313644323N11906092WA0124101232004003028210209
B2354323644320N11906095WA0124001229004003027227217
B2354333644317N11906098WA0124001229004003028222202
B2354343644313N11906101WA0123901230004003031217209
B2354353644310N11906105WA0123901230004003026214210
E235435TPCWaypoint DNLPLZ reached
B2354363644307N11906108WA0123901230004003026217217
B2354373644305N11906111WA0123801231004003024228225
B2354383644302N11906114WA0123801229004003024228219
B2354393644299N11906118WA0123801228004003024223216
B2354403644297N11906122WA0123801227004003028229216
B2354413644293N11906125WA0123801231004003030217225
B2354423644290N11906128WA0123801233004003028221219
B2354433644288N11906132WA0123801233004003027230225
B2354443644286N11906135WA0123801233004003022232226
B2354453644284N11906139WA0123901233004003025238222
B2354463644282N11906143WA0124001233004003025238223
B2354473644280N11906147WA0124001233004003025238223
B2354483644278N11906151WA0124001234004003025233213
B2354493644275N11906155WA0124201236004003026231216
B2354503644273N11906158WA0124201238004004026228218
B2354513644270N11906163WA0124201237004003028231216
B2354523644267N11906167WA0124301237004003028233225
B2354533644265N11906171WA0124401239004003028236215
B2354543644262N11906175WA0124501242004003028235242
B2354553644261N11906178WA0124501242004003023238251
B2354563644260N11906182WA0124601244004003023252275
B2354573644261N11906187WA0124801243004003023294282
B2354583644264N11906191WA0124901242004003025320304
B2354593644268N11906194WA0124901242004003034340324
B2355003644273N11906195WA0125101243004003032357341
B2355013644277N11906195WA0125201245004003032359011
B2355023644281N11906192WA0125301246004003032022025
B2355033644285N11906188WA0125301246004003032046048
B2355043644288N11906182WA0125301248004003037062069
B2355053644291N11906176WA0125401250004003038060102
B2355063644293N11906171WA0125501250004004038064112
B2355073644284N11906163WA0125501249004003038123120
B2355083644281N11906158WA0125601251004003040132157
B2355093644274N11906157WA0125701253004003044165171
B2355103644268N11906157WA0125801255004003035183195
B2355113644266N11906162WA0125801257004003035242208
B2355123644264N11906166WA0125901257004003029261250
B2355133644264N11906171WA0126001258004003026274263
B2355143644265N11906175WA0126101258004003025292284
B2355153644267N11906179WA0126101258004003024315305
B2355163644269N11906182WA0126301258004003024321324
B2355173644273N11906184WA0126401257004003024339339
B2355183644278N11906181WA0126501257004003027004353
B2355193644283N11906178WA0126501257004003037028018
B2355203644287N11906172WA0126501258004003041045035
B2355213644288N11906165WA0126501259004003041068054
B2355223644287N11906159WA0126601260004003041092075
B2355233644285N11906152WA0126601261004003038123101
B2355243644282N11906147WA0126601261004003037136138
B2355253644277N11906144WA0126701261004003036157160
B2355263644273N11906141WA0126701266004003036161182
B2355273644268N11906143WA0126701265004003036202190
B2355283644264N11906147WA0126801264004003035225226
B2355293644262N11906151WA0126901265004003034246251
B2355303644261N11906156WA0127001266004003025273268
B2355313644261N11906160WA0127001266004003025287281
B2355323644263N11906164WA0127001266004003025306301
B2355333644265N11906167WA0127101266004003025327320
B2355343644269N11906168WA0127101265004003027350345
B2355353644274N11906168WA0127101265004003037008003
B2355363644279N11906166WA0127201264004003041030019
B2355373644284N11906163WA0127201265004003037027043
B2355383644287N11906158WA0127201265004003036046050
B2355393644288N11906150WA0127201266004003036076068
B2355403644289N11906143WA0127201267004003038092091
B2355413644287N11906136WA0127301266004003041113113
B2355423644284N11906130WA0127301265004003040117137
B2355433644280N11906126WA0127301266004003040149144
B2355443644275N11906122WA0127301266004003038161173
B2355453644270N11906120WA0127301267004003034161172
B2355463644266N11906121WA0127401266004003034176191
B2355473644261N11906122WA0127401267004003032196194
B2355483644257N11906122WA0127401267004003029191200
B2355493644253N11906125WA0127401265004003029199201
B2355503644248N11906128WA0127501265004003037203194
B2355513644243N11906130WA0127501264004003037194189
B2355523644238N11906131WA0127501267004003037188183
B2355533644233N11906132WA0127501267004003034189179
B2355543644228N11906133WA0127501267004003032190190
B2355553644223N11906135WA0127501267004003033198185
B2355563644219N11906137WA0127501267004003034197175
B2355573644213N11906138WA0127501266004003034189185
B2355583644208N11906138WA0127501266004003036179167
B2355593644203N11906138WA0127501266004003036181182
B2356003644197N11906139WA0127601266004003036183192
B2356013644192N11906140WA0127601265004003036188202
B2356023644187N11906143WA0127601264004003035197190
B2356033644182N11906144WA0127601265004003035196189
B2356043644177N11906146WA0127501264004003035192199
B2356053644172N11906148WA0127501263004003036199208
B2356063644167N11906150WA0127401262004003036200219
B2356073644163N11906153WA0127401261004003035206219
B2356083644159N11906156WA0127301261004003031217223
B2356093644156N11906159WA0127301260004003027221233
B2356103644153N11906161WA0127201259004003026214234
B2356113644150N11906165WA0127201258004003026223250
B2356123644148N11906169WA0127101258004003026235250
B2356133644146N11906173WA0127101256004003026243242
B2356143644144N11906178WA0126901256004003027245250
B2356153644142N11906182WA0126901254004003024246215
B2356163644140N11906186WA0126801253004003025230213
B2356173644136N11906188WA0126501248004003025201206
B2356183644131N11906189WA0126301245004003031195192
B2356193644125N11906189WA0126301241004003039181192
B2356203644120N11906187WA0126101241004003039162176
B2356213644115N11906185WA0125801239004003039162159
B2356223644111N11906183WA0125501237004003033152148
B2356233644108N11906179WA0125501234004003033132137
B2356243644104N11906172WA0125301230004003042114117
B2356253644104N11906165WA0125001226004003046091097
B2356263644106N11906158WA0124701224004003044061072
B2356273644110N11906153WA0124701220004003044029040
B2356283644115N11906151WA0124401215004003042023008
B2356293644120N11906157WA0124101216004003043310000
B2356303644121N11906161WA0123701214004003043277297
B2356313644123N11906166WA0123701212004003032284269
B2356323644116N11906170WA0123301210004003032230271
B2356333644112N11906172WA0123001207004003034203230
B2356343644106N11906166WA0122701201004003050142205
B2356353644102N11906162WA0122701195004003050141144
B2356363644102N11906151WA0122401194004003050084142
B2356373644104N11906144WA0122101192004003046061079
B2356383644109N11906140WA0121701192004003046028053
B2356393644114N11906139WA0121701190004003038355017
B2356403644118N11906142WA0121301187004003038322343
B2356413644121N11906146WA0121001185004003036292313
B2356423644121N11906151WA0120701185004003033264287
B2356433644113N11906155WA0120701178004003033196264
B2356443644108N11906155WA0120301176004003041166206
B2356453644102N11906149WA0120001174004003051135175
B2356463644100N11906142WA0119701171004003049103140
B2356473644099N11906134WA0119701170004003049099102
B2356483644101N11906128WA0119401170004003044078098
B2356493644103N11906122WA0119001168004004036066073
B2356503644113N11906125WA0118701166004003053004059
B2356513644118N11906126WA0118701162004004038347355
B2356523644118N11906134WA0118401160004003040267336
B2356533644119N11906139WA0118101160004003038269266
B2356543644109N11906140WA0117801155004003053186267
B2356553644105N11906139WA0117801153004003053160189
B2356563644100N11906137WA0117501151004003039163161
B2356573644098N11906131WA0117201148004003039135165
B2356583644099N11906121WA0116901145004003039082136
B2356593644100N11906114WA0116901143004003045068074
B2357003644103N11906107WA0116601140004003045063056
B2357013644109N11906104WA0116301138004003042034048
B2357023644114N11906105WA0116001134004003040001017
B2357033644119N11906105WA0115701132004004037000345
B2357043644123N11906112WA0115401130004006041305342
B2357053644117N11906119WA0115401133004004041231296
B2357063644111N11906120WA0115001126004003041187233
B2357073644106N11906120WA0114801123004003036180191
B2357083644102N11906116WA0114501122004003042153184
B2357093644098N11906109WA0114301120004003049113157
B2357103644098N11906100WA0114101116004003049086112
B2357113644098N11906092WA0113901115004003049086080
B2357123644103N11906087WA0113601114004003044060079
B2357133644108N11906084WA0113401112004003044033051
B2357143644113N11906083WA0113201109004003034354022
B2357153644117N11906083WA0113001109004003034354341
B2357163644119N11906087WA0112801107004003027306341
B2357173644122N11906091WA0112601106004003024292293
B2357183644123N11906095WA0112401104004003024281277
B2357193644122N11906100WA0112201103004003023251268
B2357203644121N11906103WA0112201101004003023252250
B2357213644120N11906107WA0112101100004003022246248
B2357223644118N11906111WA0111901099004003022236240
B2357233644117N11906114WA0111701097004003021223226
B2357243644113N11906116WA0111701094004003026199207
B2357253644110N11906117WA0111501093004003031186185
B2357263644104N11906116WA0111301090004003031163171
B2357273644100N11906113WA0111101087004003036146145
B2357283644096N11906106WA0111101084004003040120128
B2357293644093N11906099WA0110901081004003048104102
B2357303644094N11906090WA0110701080004003048073083
B2357313644097N11906084WA0110401077004003048056051
B2357323644101N11906078WA0110401075004003042049034
B2357333644106N11906077WA0110101074004003039359041
B2357343644111N11906077WA0109801072004003029347016
B2357353644114N11906079WA0109501070004003029339011
B2357363644117N11906081WA0109501068004003026332003
B2357373644124N11906085WA0109001064004003025332297
B2357383644127N11906089WA0108801062004004022314304
B2357393644129N11906091WA0108801061004004023317292
B2357403644132N11906094WA0108601061004003022315298
B2357413644134N11906097WA0108401059004003022315298
B2357423644137N11906100WA0108201058004003022323299
B2357433644140N11906103WA0108201057004003025315306
B2357443644143N11906106WA0108001056004003025317302
B2357453644145N11906109WA0107801054004003025315304
B2357463644148N11906112WA0107601053004003024315304
B2357473644150N11906115WA0107601051004003024317303
B2357483644153N11906118WA0107401049004003024319306
B2357493644155N11906121WA0107201047004004024320307
B2357503644158N11906124WA0107001044004003024321308
B2357513644161N11906127WA0107001041004003024326309
B2357523644164N11906130WA0106801039004003025325314
B2357533644167N11906132WA0106601037004003024324313
B2357543644170N11906135WA0106301035004003024317312
B2357553644172N11906137WA0106301032004003021327307
B2357563644175N11906139WA0106001029004003021326313
B2357573644178N11906142WA0105801026004003022324313
B2357583644181N11906145WA0105501025004003024317312
B2357593644183N11906148WA0105501022004003024312307
B2358003644185N11906150WA0105101020004003021307302
B2358013644187N11906153WA0104801019004003018309292
B2358023644189N11906156WA0104501017004003018307291
B2358033644190N11906159WA0104501015004003021298292
B2358043644191N11906162WA0104201014004003021280284
B2358053644192N11906166WA0104001013004003020275271
B2358063644192N11906169WA0103701012004003019261270
B2358073644192N11906173WA0103701011004003018276259
B2358083644193N11906176WA0103501011004003019282266
B2358093644193N11906180WA0103401011004003019291271
B2358103644193N11906183WA0103301010004003019272273
B2358113644193N11906185WA0103301009004003015243262
B2358123644191N11906187WA0103101008004003015212245
B2358133644188N11906188WA0103001006004003026189225
B2358143644184N11906188WA0102901005004003032167201
B2358153644179N11906185WA0102901004004003032146177
B2358163644175N11906179WA0102801002004003039126155
B2358173644172N11906173WA0102601001004003043110132
B2358183644171N11906165WA0102500999004003047089112
B2358193644173N11906157WA0102500998004003047071087
B2358203644176N11906150WA0102300997004003046052066
B2358223644180N11906143WA0102100994004003044054043
B2358233644185N11906141WA0102000993004003041009045
B2358243644191N11906141WA0102000991004003041356357
B2358253644195N11906142WA0101800990004003035332344
B2358263644198N11906145WA0101600989004003032315321
B2358273644201N11906148WA0101400988004003026307306
B2358283644203N11906151WA0101400988004003019315298
B2358293644206N11906153WA0101200987004003021326302
B2358303644209N11906156WA0101000986004003021322311
B2358313644211N11906159WA0100900986004003024315308
B2358323644214N11906162WA0100900987004004024317303
B2358333644216N11906166WA0100800988004003021302306
B2358343644218N11906168WA0100700988004003021310290
B2358353644220N11906171WA0100600987004003019311292
B2358363644222N11906174WA0100600986004003019305292
B2358373644223N11906177WA0100600985004003020297277
B2358383644224N11906181WA0100500984004003018284277
B2358393644225N11906184WA0100500984004003019286284
B2358403644224N11906188WA0100500984004003019256269
B2358413644224N11906191WA0100500983004003019259273
B2358423644224N11906194WA0100400985004003018264284
B2358433644223N11906198WA0100300984004003020260278
B2358443644223N11906202WA0100300983004003021260280
B2358453644222N11906206WA0100300983004003021258282
B2358463644222N11906210WA0100200983004003021260279
B2358473644222N11906213WA0100200984004003021264287
B2358483644221N11906216WA0100200984004003017271288
B2358493644221N11906220WA0100200984004003017272289
B2358503644221N11906223WA0100200983004003017266290
B2358513644221N11906226WA0100100983004003017258283
B2358523644220N11906230WA0100100982004003018261286
B2358533644220N11906234WA0100100982004003020264290
B2358543644220N11906237WA0100100982004003020265290
B2358553644220N11906241WA0100100982004003020265288
B2358563644219N11906244WA0100100982004003019260281
B2358573644219N11906248WA0100000982004003019258279
B2358583644217N11906252WA0099900982004003024245276
B2358593644215N11906256WA0099900981004003024240276
B2359003644214N11906259WA0099900981004003023239275
B2359013644213N11906263WA0099900982004003022244272
B2359023644211N11906267WA0099900981004003023245276
B2359033644210N11906271WA0099900981004003023247271
B2359043644209N11906275WA0099900983004003023244271
B2359053644207N11906278WA0099900983004003021245279
B2359063644206N11906282WA0099900984004003021253278
B2359073644205N11906286WA0099900984004003021254275
B2359083644204N11906290WA0099900985004003024248271
B2359093644202N11906298WA0100000987004003023253281
B2359103644202N11906301WA0100000990004003020273280
B2359113644201N11906304WA0100000991004003016266285
B2359123644200N11906306WA0100100992004003015248282
B2359133644199N11906310WA0100200993004003022235266
B2359143644197N11906313WA0100400995004003022233243
B2359153644195N11906315WA0100400996004003022214234
B2359163644191N11906317WA0100600997004003027196217
B2359173644187N11906317WA0100700998004003033180201
B2359183644182N11906317WA0100900998004003033171185
B2359193644177N11906316WA0100901000004003033163180
B2359203644172N11906313WA0101101003004003036148163
B2359213644167N11906308WA0101301006004003038141145
B2359223644164N11906302WA0101501008004003042117136
B2359233644161N11906296WA0101501010004003042113136
B2359243644158N11906290WA0101701011004003038118139
B2359253644156N11906283WA0102001012004003038117126
B2359263644153N11906277WA0102201014004003038116132
B2359273644150N11906269WA0102201016004003045113112
B2359283644149N11906261WA0102501018004003048100094
B2359293644148N11906252WA0102701018004003045090087
B2359303644149N11906244WA0102901019004003044083065
B2359313644149N11906236WA0102901021004003043084070
B2359323644151N11906229WA0103001021004003043072050
B2359333644154N11906222WA0103201023004003043058037
B2359343644157N11906217WA0103301025004003039037014
B2359353644161N11906215WA0103301027004003034017000
B2359363644164N11906211WA0103501030004003027040354
B2359373644167N11906212WA0103801031004003022357353
B2359383644170N11906211WA0104001029004003022008347
B2359393644174N11906211WA0104001029004003022002347
B2359403644178N11906211WA0104201028004003026358340
B2359413644182N11906211WA0104401029004003026354338
B2359423644186N11906212WA0104501031004003022352328
B2359433644189N11906212WA0104501032004003022346330
B2359443644192N11906213WA0104601032004003022346343
B2359453644196N11906215WA0104701032004003023348328
B2359463644200N11906216WA0104801034004003027349338
B2359473644203N11906217WA0104801036004003020343324
B2359483644205N11906218WA0104901038004003020333321
B2359493644208N11906219WA0105001038004003017326323
B2359503644210N11906222WA0105101039004003017321317
B2359513644212N11906224WA0105101040004003020316315
B2359523644214N11906227WA0105201041004003018311307
B2359533644216N11906229WA0105401042004003018316312
B2359543644218N11906230WA0105501042004003015326319
B2359553644220N11906232WA0105501042004003015333322
B2359563644222N11906233WA0105701043004003016331319
B2359573644225N11906236WA0105801044004003020322319
B2359583644226N11906238WA0105801046004003020317313
B2359593644227N11906239WA0105801049004003016291297
B0000003644228N11906242WA0105901049004003011285307
B0000013644229N11906244WA0106101050004003011277298
B0000023644229N11906247WA0106201050004003020276282
B0000033644229N11906251WA0106201051004003020272292
B0000043644229N11906254WA0106301052004003020262281
B0000053644229N11906257WA0106501053004003015251282
B0000063644228N11906259WA0106601053004003015246278
B0000073644227N11906263WA0106601053004003019253286
B0000083644227N11906267WA0106701053004003022258281
B0000093644226N11906271WA0106701054004003022253285
B0000103644226N11906274WA0106801055004003022276287
B0000113644226N11906278WA0106801055004003019267290
B0000123644225N11906282WA0106801056004003018262269
B0000133644225N11906285WA0106801057004003020259276
B0000143644224N11906289WA0106901060004003020259275
B0000153644224N11906293WA0106901059004003020259275
B0000163644224N11906297WA0106901059004003021260274
B0000173644223N11906301WA0107001059004003027254275
B0000183644222N11906306WA0107101061004003027259286
B0000193644222N11906311WA0107101062004003027262282
B0000203644221N11906316WA0107101064004003027261285
B0000213644220N11906320WA0107201065004003027258280
B0000223644219N11906326WA0107301066004003028256276
B0000233644218N11906331WA0107301068004003028256285
B0000243644218N11906335WA0107401070004003027262284
B0000253644218N11906339WA0107601072004003020264287
B0000263644218N11906341WA0107801071004003019272293
B0000283644218N11906345WA0107801071004003018270284
B0000293644217N11906348WA0108001071004003020258284
B0000303644216N11906352WA0108201072004003020249284
B0000313644215N11906355WA0108301073004003020246278
B0000323644215N11906358WA0108301074004003016258279
B0000333644214N11906361WA0108401073004003016259279
B0000343644213N11906364WA0108501072004003016246266
B0000353644211N11906368WA0108501072004003021229258
B0000363644208N11906371WA0108501072004003026216247
B0000373644204N11906374WA0108501073004003028206250
B0000383644201N11906375WA0108501073004003028201248
B0000393644198N11906378WA0108501073004003025209246
B0000403644195N11906380WA0108501073004003023214249
B0000413644192N11906383WA0108501073004003023216252
B0000423644189N11906385WA0108601072004003024215249
B0000433644186N11906388WA0108601073004003024219263
B0000443644184N11906390WA0108601073004003022224256
B0000453644182N11906393WA0108601072004003020235258
B0000463644181N11906396WA0108601072004003019241260
B0000473644179N11906400WA0108601072004003021243261
B0000483644177N11906403WA0108601072004003022230244
B0000493644174N11906405WA0108601071004003022196226
B0000503644169N11906405WA0108501071004003028175198
B0000513644162N11906402WA0108501068004003038155169
B0000523644156N11906398WA0108501067004003049150144
B0000533644152N11906390WA0108401067004003051134125
B0000543644152N11906379WA0108301068004003051085110
B0000553644152N11906370WA0108201068004003051088063
B0000563644156N11906364WA0108201068004003047067060
B0000573644163N11906358WA0108201067004003032026014
B0000583644166N11906360WA0108201067004003026319351
B0000593644167N11906362WA0108201066004003021297297
B0001003644166N11906366WA0108201066004003021238274
B0001013644165N11906369WA0108301065004003023226246
B0001023644161N11906371WA0108301064022003028199223
B0001033644156N11906371WA0108301065022004028184200
B0001043644149N11906368WA0108301063022003036167179
B0001053644143N11906364WA0108201062022003045151157
B0001063644139N11906354WA0108101064022003058126143
B0001073644138N11906346WA0108101066004004058113113
B0001083644139N11906336WA0108001071004003048076104
B0001093644140N11906329WA0108001071004003045083069
B0001103644141N11906322WA0108001071004003037080070
B0001113644142N11906315WA0108001071004003038079064
B0001123644144N11906307WA0108201070004003049075068
B0001133644146N11906298WA0108301068004003049071044
B0001143644149N11906292WA0108401070004003049060043
B0001153644152N11906285WA0108401071004003039061026
B0001163644154N11906282WA0108401069004003027052025
B0001173644158N11906278WA0108401069004003031041035
B0001183644161N11906273WA0108401068004003031046032
B0001193644164N11906268WA0108401068004003034049034
B0001203644167N11906264WA0108401068004003034049034
B0001213644171N11906259WA0108401069004003033048028
B0001223644174N11906255WA0108401070004003033046026
B0001233644177N11906251WA0108401071004003030045025
B0001243644180N11906248WA0108501072004003029044012
B0001253644182N11906244WA0108501072004003025047024
B0001263644185N11906241WA0108501072004003024041005
B0001273644188N11906239WA0108501071004003025024000
B0001283644193N11906238WA0108601071004003025002343
B0001293644196N11906239WA0108601070004003025339321
B0001303644198N11906241WA0108601069004003022307301
B0001313644199N11906243WA0108601069004003015292307
B0001323644199N11906246WA0108601066004003018266303
B0001333644200N11906249WA0108501064004003018278310
B0001343644200N11906252WA0108401062004003018287303
B0001353644201N11906256WA0108401062004003018288301
B0001363644201N11906258WA0108201061004003012277303
B0001373644201N11906261WA0108101059004003012267299
B0001383644202N11906263WA0107901057004003012271304
B0001393644202N11906266WA0107901055004003014279298
B0001403644204N11906270WA0107701052004003019297308
B0001413644205N11906273WA0107401051004003020299304
B0001423644206N11906276WA0107201050004003020292299
B0001433644206N11906279WA0107201049004003018270295
B0001443644206N11906282WA0107001047004003017270299
B0001453644207N11906286WA0106801045004003017277305
B0001463644207N11906290WA0106601042004003025284307
B0001473644208N11906294WA0106601041004003025279298
B0001483644208N11906298WA0106401041004003024266297
B0001493644207N11906301WA0106201040004003020253296
B0001503644207N11906304WA0106001038004003017256299
B0001513644207N11906308WA0106001035004003020267304
B0001523644207N11906312WA0105801033004003024277292
B0001533644208N11906316WA0105601031004003024280298
B0001543644208N11906320WA0105401030004003024278295
B0001553644208N11906324WA0105401028004003020272288
B0001563644208N11906327WA0105201026004003016271294
B0001573644208N11906331WA0105001024004003021274299
B0001583644209N11906335WA0104701022004003021275295
B0001593644209N11906339WA0104701019004003022267293
B0002003644208N11906343WA0104501018004003022260294
B0002013644208N11906347WA0104201016004003017259292
B0002023644208N11906350WA0104001013004003017271303
B0002033644208N11906354WA0104001010004003017281304
B0002043644209N11906358WA0103701008004003021283296
B0002053644209N11906362WA0103401006004003022271265
B0002063644208N11906366WA0103201004004003020249234
B0002073644204N11906369WA0103201001004003033208224
B0002083644199N11906370WA0102900998004003033185196
B0002093644193N11906370WA0102600996004004041185178
B0002103644186N11906362WA0102300992004003042138168
B0002113644181N11906355WA0102300990004003056119129
B0002123644179N11906347WA0102000989004003056110103
B0002133644181N11906339WA0101700989004003048071092
B0002143644183N11906334WA0101400988004003044051046
B0002153644185N11906330WA0101400987004003033052020
B0002163644188N11906327WA0101100983004003022024011
B0002173644191N11906327WA0100900979004003022349336
B0002183644195N11906329WA0100600978004003022320310
B0002193644196N11906333WA0100600975004003026278292
B0002203644195N11906338WA0100400973004004026259267
B0002213644190N11906341WA0100100968004004039221255
B0002223644181N11906338WA0099800964004004061164227
B0002233644174N11906336WA0099800963004004054160172
B0002243644169N11906328WA0099500962004003054134168
B0002253644166N11906321WA0099100962004003054123137
B0002263644165N11906313WA0098800961004004041105123
B0002273644167N11906306WA0098800957004003041069098
B0002283644170N11906300WA0098500955004003041050045
B0002293644173N11906296WA0098200953004003038027022
B0002303644177N11906295WA0097900950004003033000356
B0002313644182N11906295WA0097900949004003030358330
B0002323644184N11906298WA0097700947004003030309329
B0002343644185N11906300WA0097400947004003021308295
B0002353644187N11906302WA0097100945004003016292290
B0002363644187N11906304WA0097100943004003011274284
B0002373644188N11906307WA0096900941004003015273277
B0002383644188N11906310WA0096700938004003015277278
B0002393644188N11906314WA0096500935004003019275279
B0002403644189N11906318WA0096500934004003023279274
B0002413644190N11906322WA0096200933004003023280279
B0002423644190N11906326WA0096000933004003022285281
B0002433644192N11906328WA0095700933004003021300289
B0002443644193N11906330WA0095700932004003016304289
B0002453644194N11906333WA0095500931004003019307294
B0002463644196N11906336WA0095300930004003019309291
B0002473644198N11906339WA0095200929004003020310290
B0002483644199N11906342WA0095200928004003020299273
B0002493644199N11906345WA0095100927004003016267265
B0002503644197N11906351WA0094900922004003020226240
B0002513644194N11906354WA0094900920004003025217229
B0002523644190N11906357WA0094700919004003030210220
B0002533644185N11906358WA0094500916004003037197218
B0002543644180N11906359WA0094300916004003037180207
B0002553644175N11906359WA0094300916004003035182202
B0002563644171N11906360WA0094100915004003030187199
B0002573644166N11906360WA0093900913004003030182197
B0002583644160N11906360WA0093700912004003040171188
B0002593644154N11906357WA0093700911004003043153171
B0003003644149N11906352WA0093500910004003043134154
B0003013644146N11906345WA0093400908004003044117132
B0003023644144N11906338WA0093300907004003044102107
B0003033644142N11906331WA0093300907004003041103094
B0003043644141N11906324WA0093100908004003041099093
B0003053644139N11906317WA0093000907004003038107097
B0003063644137N11906310WA0092900905004003038110101
B0003073644135N11906302WA0092900904004003041108097
B0003083644133N11906294WA0092800904004003046108105
B0003093644131N11906287WA0092600904004003046110102
B0003103644128N11906280WA0092500904004003042111108
B0003113644126N11906274WA0092500905004003038111106
B0003123644124N11906267WA0092400904004003038112103
B0003133644122N11906260WA0092400904004003041112105
B0003143644119N11906253WA0092300903004003041112097
B0003153644117N11906246WA0092300902004003041112091
B0003163644115N11906239WA0092300900004003041110098
B0003173644113N11906231WA0092300899004003041110095
B0003183644110N11906223WA0092200896004003048108099
B0003193644108N11906215WA0092100895004003049107095
B0003203644106N11906206WA0092100895004003048106087
B0003213644104N11906198WA0091900894004003048107087
B0003223644102N11906191WA0091800893004003045107094
B0003233644100N11906182WA0091600891004003044105088
B0003243644099N11906174WA0091600890004003046100078
B0003253644098N11906165WA0091500888004003045096067
B0003263644097N11906157WA0091300887004003045094045
B0003273644099N11906150WA0091200885004003045071044
B0003283644101N11906144WA0091200883004003035068024
B0003293644105N11906140WA0091000881004003035030010
B0003303644108N11906138WA0090800879004003032011347
B0003313644111N11906138WA0090700877004003026345330
B0003323644114N11906139WA0090700875004003021322313
B0003333644116N11906140WA0090500874004003017316308
B0003343644118N11906142WA0090200872004003017331312
B0003353644121N11906143WA0090000871004003017348321
B0003363644124N11906143WA0090000870004003018350319
B0003373644127N11906145WA0089800870004003020346317
B0003383644131N11906146WA0089600871004003023348315
B0003393644134N11906147WA0089600871004003023351307
B0003403644137N11906147WA0089500871004003021347316
B0003413644140N11906148WA0089400871004003021343320
B0003423644144N11906150WA0089400871004003022348321
B0003433644147N11906151WA0089400872004004024346309
B0003443644150N11906151WA0089300874004003024349313
B0003453644152N11906152WA0089300875004003019342304
B0003463644155N11906153WA0089400875004003017338308
B0003473644158N11906153WA0089400877004003017000305
B0003483644162N11906158WA0089400877004003033325307
B0003493644165N11906161WA0089500879004003033319290
B0003503644168N11906163WA0089600882004003028329316
B0003513644170N11906165WA0089600884004003023334307
B0003523644173N11906166WA0089700885004003016335295
B0003533644175N11906168WA0089800888004003017330315
B0003543644177N11906170WA0090000886004004022330293
B0003553644180N11906173WA0090100887004003022328302
B0003563644184N11906175WA0090100887004003024333318
B0003573644187N11906176WA0090300886004003024335302
B0003583644190N11906179WA0090400888004003027321312
B0003593644192N11906180WA0090500887004004027346306
B0004003644195N11906182WA0090500886004004023332299
B0004013644198N11906183WA0090600884004003023324297
B0004023644201N11906187WA0090600884004003025310293
B0004033644203N11906190WA0090600886004003024308290
B0004043644205N11906193WA0090600886004004024315289
B0004053644208N11906194WA0090600887004004019330296
B0004063644210N11906196WA0090600887004003018337284
B0004073644212N11906198WA0090600886004003018324281
B0004083644214N11906200WA0090600886004003020306283
B0004093644216N11906203WA0090600886004003020315274
B0004103644216N11906207WA0090700886004003020269285
B0004113644216N11906210WA0090700887004003019263266
B0004123644216N11906212WA0090700888004003015270267
B0004133644216N11906215WA0090700889004003014286268
B0004143644217N11906218WA0090800889004003016294270
B0004153644218N11906221WA0090800890004003016291272
B0004163644219N11906224WA0090800891004003017288276
B0004173644220N11906226WA0090900892004003017291277
B0004183644221N11906229WA0091000893004003015297284
B0004193644223N11906232WA0091000892004003021304282
B0004203644224N11906235WA0091000893004003019304282
B0004213644226N11906239WA0091100894004004021295280
B0004223644226N11906242WA0091200895004003019274278
B0004233644226N11906246WA0091300897004003018261273
B0004243644226N11906249WA0091300897004003019266271
B0004253644227N11906254WA0091400897004003019280270
B0004263644228N11906258WA0091500898004003022293272
B0004273644229N11906261WA0091600899004003022293277
B0004283644230N11906264WA0091600900004003018283279
B0004293644230N11906267WA0091700901004003018268272
B0004303644230N11906271WA0091800901004003016269274
B0004313644230N11906274WA0091900901004003016284275
B0004323644231N11906278WA0091900901004004019281274
B0004333644232N11906281WA0091900901004003020299269
B0004343644233N11906284WA0092000902004003020276270
B0004353644232N11906286WA0092100903004003015253268
B0004363644232N11906288WA0092100903004003013253270
B0004373644232N11906291WA0092100902004003013268263
B0004383644233N11906294WA0092100901004003022281267
B0004393644233N11906298WA0092200902004003022270266
B0004403644232N11906302WA0092200903004003022255253
B0004413644232N11906305WA0092200905004003020258253
B0004423644231N11906308WA0092200906004004019243264
B0004433644230N11906311WA0092200903004003019257255
B0004443644230N11906315WA0092200903004003019266262
B0004453644230N11906319WA0092200903004003022273267
B0004463644230N11906322WA0092200904004003017277258
B0004473644230N11906324WA0092200905004003017287270
B0004483644231N11906327WA0092200904004003013288266
B0004493644231N11906330WA0092200903004003013279264
B0004503644231N11906333WA0092200902004003016261263
B0004513644230N11906335WA0092200900004003019232254
B0004523644228N11906338WA0092200898004003024216241
B0004533644224N11906340WA0092200897004003024202228
B0004543644219N11906341WA0092200896004003030185220
B0004553644214N11906341WA0092000894004003035179202
B0004563644208N11906338WA0092000893004003045151196
B0004573644203N11906334WA0091900892004003045148162
B0004583644198N11906331WA0091700891004003041152164
B0004593644192N11906329WA0091500890004003037158165
B0005003644187N11906326WA0091500889004003037161167
B0005013644182N11906324WA0091400887004003039159166
B0005023644177N11906320WA0091200886004003039155168
B0005033644171N11906318WA0091100885004003039156162
B0005043644166N11906315WA0091100884004003039154165
B0005053644161N11906312WA0091000883004003037157158
B0005063644156N11906309WA0090800882004003036151149
B0005073644151N11906304WA0090700880004003040138144
B0005083644147N11906298WA0090700879004003040133130
B0005093644144N11906290WA0090600877004003045111122
B0005103644142N11906281WA0090400876004003049101096
B0005113644141N11906273WA0090300877004003043089087
B0005123644141N11906265WA0090300876004003043080067
B0005133644143N11906257WA0090200876004003043073055
B0005143644145N11906250WA0090100877004003043062047
B0005153644148N11906245WA0090000877004003041057035
B0005163644152N11906242WA0090000877004003031026029
B0005173644156N11906239WA0089900877004003031019354
B0005183644159N11906237WA0089900877004003025017350
B0005193644163N11906236WA0089900878004003025013344
B0005203644167N11906235WA0089900877004003025013342
B0005213644171N11906234WA0089900875004004026013342
B0005223644174N11906233WA0089900878004003026008343
B0005233644178N11906232WA0089900878004003024010340
B0005243644181N11906231WA0089900877004003023015339
B0005253644184N11906230WA0089900876004003021013342
B0005263644187N11906229WA0089900874004003022010338
B0005273644190N11906228WA0089800871004003022016337
B0005283644193N11906229WA0089800871004003022352341
B0005293644196N11906229WA0089800871004003020342326
B0005303644198N11906230WA0089700870004003018335319
B0005313644201N11906231WA0089600868004003018340311
B0005323644204N11906232WA0089600866004004023344311
B0005333644208N11906233WA0089500866004003023340311
B0005343644210N11906235WA0089300866004003023329310
B0005353644213N11906238WA0089200866004003019316306
B0005363644215N11906240WA0089200865004003017318297
B0005373644217N11906241WA0089000864004003019332295
B0005383644220N11906243WA0088900863004003019338295
B0005393644222N11906244WA0088800863004003019331298
B0005403644223N11906246WA0088800862004003015308296
B0005413644224N11906248WA0088800862004003011287288
B0005423644225N11906251WA0088700861004003013288278
B0005433644226N11906253WA0088700860004003013292274
B0005443644226N11906255WA0088700860004003013290276
B0005453644227N11906257WA0088600860004003013279273
B0005463644227N11906259WA0088500859004003011265273
B0005473644227N11906262WA0088400858004003012262268
B0005483644227N11906264WA0088400857004003012269262
B0005493644227N11906267WA0088300856004003014274267
B0005503644227N11906269WA0088200855004003014266269
B0005513644226N11906272WA0088100855004003013263265
B0005523644226N11906274WA0088100854004003015248266
B0005533644224N11906276WA0088000852004003015234260
B0005543644222N11906278WA0087900851004003017227256
B0005553644220N11906281WA0087800851004003018230248
B0005563644219N11906283WA0087800850004003016237247
B0005573644218N11906285WA0087600849004003016241249
B0005583644217N11906288WA0087500848004003014242247
B0005593644215N11906290WA0087300846004003014243247
B0006003644214N11906293WA0087300846004003016242243
B0006013644213N11906295WA0087100845004003015232245
B0006023644212N11906297WA0087000844004003015224244
B0006033644210N11906300WA0086800843004003015227240
B0006043644209N11906302WA0086800841004003015236240
B0006053644207N11906305WA0086700840004003016240238
B0006063644206N11906308WA0086600839004003019234238
B0006073644204N11906310WA0086400838004003019223240
B0006083644202N11906312WA0086400836004003019228234
B0006093644200N11906314WA0086200836004003020213237
B0006103644198N11906317WA0086100836004003020224228
B0006113644197N11906319WA0085900834004003018236238
B0006123644195N11906322WA0085900833004003019230236
B0006133644194N11906324WA0085800832004003018227231
B0006143644192N11906326WA0085700831004003017225235
B0006153644190N11906328WA0085600829004003017232236
B0006163644189N11906331WA0085600828004003019238234
B0006173644188N11906334WA0085400827004003019245238
B0006183644187N11906337WA0085300826004003018248235
B0006193644186N11906339WA0085100825004003016251243
B0006203644185N11906342WA0085100824004003016249243
B0006213644184N11906346WA0085000823004003017249248
B0006223644184N11906349WA0084800823004003017252242
B0006233644183N11906351WA0084700822004003017254241
B0006243644182N11906354WA0084700821004003015245248
B0006253644180N11906357WA0084600820004003015230244
B0006263644178N11906359WA0084500818004003023208235
B0006273644174N11906360WA0084300817004003030182220
B0006283644169N11906358WA0084300815004003030159196
B0006293644165N11906354WA0084200814004003037138177
B0006303644161N11906348WA0084100813004003044122150
B0006313644158N11906341WA0084000810004003046109124
B0006323644157N11906332WA0084000808004003051089105
B0006333644156N11906323WA0083800805004004049094078
B0006343644161N11906316WA0083600805004003051048083
B0006353644166N11906311WA0083400803004003049026027
B0006363644170N11906309WA0083400802004003032354004
B0006373644174N11906311WA0083300800004003032315329
B0006383644175N11906314WA0083100799004003026272301
B0006393644174N11906317WA0082900798004003023225272
B0006403644170N11906319WA0082900797004003023187243
B0006413644166N11906318WA0082700795004003036165219
B0006423644161N11906315WA0082500793004003040148190
B0006433644157N11906310WA0082300792004003040129170
B0006443644154N11906302WA0082300790004003046109148
B0006453644153N11906294WA0082100788004003051088119
B0006463644154N11906285WA0082000788004003051070089
B0006473644157N11906278WA0081800787004003049051063
B0006483644161N11906274WA0081800786004003044028037
B0006493644166N11906272WA0081600784004003030004008
B0006503644169N11906273WA0081400783004003030333335
B0006513644172N11906274WA0081300781004003024312311
B0006523644172N11906277WA0081300780004003021256293
B0006533644169N11906280WA0081100779004003025210259
B0006543644166N11906281WA0081000777004003030182229
B0006553644162N11906280WA0080800775004003030175207
B0006563644156N11906276WA0080800773004003032144201
B0006573644152N11906270WA0080600771004003049126172
B0006583644148N11906263WA0080400771004003050111142
B0006593644147N11906255WA0080200771004003049097123
B0007003644146N11906247WA0080200770004003047087103
B0007013644146N11906239WA0080100769004003042085090
B0007023644146N11906230WA0079900768004003045088088
B0007033644147N11906222WA0079800767004003045087092
B0007043644147N11906213WA0079800767004003045083090
B0007053644148N11906206WA0079700767004003042078084
B0007063644149N11906198WA0079600766004003042076077
B0007073644151N11906191WA0079500765004003042075074
B0007083644153N11906184WA0079500765004003042072073
B0007093644155N11906176WA0079400763004003043067067
B0007103644158N11906168WA0079300763004003045061061
B0007113644161N11906161WA0079200763004003045059053
B0007123644164N11906155WA0079200763004003042058049
B0007133644167N11906149WA0079100762004003038060048
B0007143644169N11906143WA0079000761004003036059049
B0007153644172N11906137WA0078900761004003037058047
B0007163644175N11906131WA0078900760004003038054046
B0007173644179N11906126WA0078800759004003037052041
B0007183644182N11906122WA0078800760004003037045038
B0007193644185N11906118WA0078700759004003029042028
B0007203644188N11906115WA0078700759004003026035017
B0007213644192N11906112WA0078600758004003030027003
B0007223644195N11906110WA0078600757004003028022359
B0007233644199N11906108WA0078500757004003028018352
B0007243644202N11906106WA0078500756004003023031348
B0007253644205N11906105WA0078400755004004020009353
B0007263644208N11906104WA0078400752004003023013324
B0007273644211N11906103WA0078300750004003023017333
B0007283644215N11906102WA0078300748004003026011332
B0007293644218N11906102WA0078200747004003026355330
B0007303644221N11906104WA0078100746004003022319320
B0007313644223N11906107WA0077900745004003023306295
B0007323644226N11906110WA0077900745004003022310307
B0007333644227N11906112WA0077700744004003020316304
B0007343644230N11906114WA0077500744004003018325307
B0007353644232N11906116WA0077400744004003020325306
B0007363644235N11906118WA0077400745004003020331314
B0007373644237N11906119WA0077300745004003020342321
B0007383644239N11906120WA0077200746004003016354322
B0007393644242N11906120WA0077200746004003016001326
B0007403644245N11906120WA0077200745004003019001327
B0007413644247N11906121WA0077300745004003020346328
B0007423644249N11906123WA0077300745004003019315323
B0007433644251N11906126WA0077400746004003019294308
B0007443644252N11906128WA0077400747004003018291301
B0007453644253N11906130WA0077400748004003012299294
B0007463644255N11906132WA0077400747004003014318292
B0007473644257N11906135WA0077400745004003014316300
B0007483644259N11906138WA0077400745004003019307300
B0007493644261N11906141WA0077400744004003021304295
B0007503644263N11906144WA0077400745004003018311314
B0007513644265N11906146WA0077400745004003019318311
B0007523644267N11906147WA0077400745004003018343308
B0007533644269N11906148WA0077300746004003018354311
B0007543644269N11906149WA0077300744004003009288311
B0007553644269N11906151WA0077300743004003014257279
B0007563644268N11906154WA0077300743004003024242261
B0007573644265N11906156WA0077300743004003024204239
B0007583644261N11906157WA0077200743004003026178214
B0007593644257N11906156WA0077200743004003033162194
B0008003644252N11906153WA0077200744004003035155211
B0008013644247N11906151WA0077200745004003035149189
B0008023644243N11906147WA0077100745004003035142199
B0008033644238N11906144WA0077100745004003035150190
B0008043644233N11906141WA0077100744004003037160191
B0008053644228N11906139WA0077200744004003038165200
B0008063644223N11906137WA0077200744004003038163189
B0008073644218N11906135WA0077200744004003033163206
B0008083644213N11906133WA0077200743004003033163198
B0008093644208N11906132WA0077200742004003034171219
B0008103644203N11906132WA0077200742004003030185209
B0008113644199N11906133WA0077200742004003030194223
B0008123644196N11906134WA0077200742004003025200230
B0008133644192N11906135WA0077100741004003025200228
B0008143644189N11906137WA0077100741004003025200233
B0008153644186N11906139WA0077000741004003021203241
B0008163644183N11906141WA0077000740004003021213254
B0008173644182N11906143WA0077000739004003016242262
B0008183644180N11906146WA0077000739004003016246282
B0008193644182N11906149WA0076900737004003018300289
B0008203644185N11906151WA0076900736004003027340316
B0008213644189N11906150WA0076800734004003035011336
B0008223644193N11906148WA0076700732004003035033004
B0008233644198N11906143WA0076600732004003039043019
B0008243644201N11906140WA0076600732004003039045023
B0008253644205N11906136WA0076400731004003026040017
B0008263644208N11906133WA0076200730004003026031001
B0008273644212N11906132WA0076100728004003025013350
B0008283644215N11906131WA0076100727004003025355328
B0008293644219N11906132WA0076000726004003024337319
B0008303644222N11906134WA0075900725004003023334306
B0008313644223N11906135WA0075800726004003023297301
B0008323644224N11906137WA0075800726004003014315303
B0008333644226N11906139WA0075700725004003014319307
B0008343644228N11906142WA0075600725004003018316306
B0008353644230N11906145WA0075500726004003019307304
B0008363644231N11906147WA0075500728004003019300292
B0008373644233N11906150WA0075500729004003015296300
B0008383644233N11906152WA0075500728004003014287293
B0008393644234N11906155WA0075500728004003014290299
B0008403644235N11906159WA0075500728004003021293300
B0008413644237N11906162WA0075500729004003021297297
B0008423644238N11906165WA0075600729004003018295285
B0008433644238N11906167WA0075600729004003016258280
B0008443644236N11906170WA0075600729004003016223252
B0008453644233N11906172WA0075600728004003029207245
B0008463644229N11906174WA0075600729004003034196235
B0008473644225N11906174WA0075600730004003029180226
B0008483644221N11906174WA0075600730004003029160227
B0008493644217N11906173WA0075600729004003026163217
B0008503644213N11906172WA0075600728004003030172219
B0008513644208N11906171WA0075600727004003031174216
B0008523644203N11906171WA0075600728004003031178212
B0008533644199N11906170WA0075600728004003031169214
B0008543644194N11906169WA0075600727004003032165218
B0008553644190N11906168WA0075600726004003032169214
B0008563644185N11906167WA0075600725004003032173214
B0008573644181N11906168WA0075600724004003029183215
B0008583644177N11906168WA0075500723004003026188220
B0008593644172N11906169WA0075400723004003029188229
B0009003644168N11906169WA0075400723004003029190224
B0009013644164N11906171WA0075400723004003029196238
B0009023644161N11906173WA0075300721004003024198232
B0009033644159N11906178WA0075300722004003032255249
B0009043644157N11906183WA0075300723004003031244264
B0009053644154N11906187WA0075200724004003031229263
B0009063644152N11906189WA0075200725004003019209256
B0009073644150N11906192WA0075200726004003019217255
B0009083644148N11906195WA0075200725004003019230260
B0009093644145N11906199WA0075200724004003022230260
B0009103644142N11906203WA0075200724004003029222259
B0009113644139N11906206WA0075300726004003030218248
B0009123644136N11906209WA0075300727004003030214248
B0009133644132N11906212WA0075300729004003028206248
B0009143644129N11906214WA0075400730004003025203252
B0009153644126N11906216WA0075400730004003025210249
B0009163644122N11906219WA0075400730004003028221241
B0009173644119N11906223WA0075500730004003030229256
B0009183644116N11906227WA0075600730004003030225243
B0009193644113N11906230WA0075700730004003030220269
B0009203644111N11906233WA0075700729004003025224270
B0009213644109N11906237WA0075800728004003026240265
B0009223644107N11906242WA0075800729004003031253276
B0009233644107N11906246WA0075800732004003026274295
B0009243644106N11906250WA0075800735004003020262303
B0009253644109N11906251WA0075800733004003019356293
B0009263644110N11906253WA0075800732004003019326320
B0009273644113N11906255WA0075800731004003025317321
B0009283644116N11906259WA0075800731004003025320320
B0009293644120N11906260WA0075800732004003029348333
B0009303644124N11906260WA0075900735004003029008344
B0009313644127N11906258WA0075900737004003024039353
B0009323644129N11906256WA0075900738004003024033354
B0009333644132N11906255WA0076000737004003018023352
B0009343644134N11906253WA0076000736004003018022359
B0009353644138N11906251WA0076200737004003023027353
B0009363644142N11906248WA0076200736004003032036013
B0009373644146N11906244WA0076300736004003032040341
B0009383644149N11906241WA0076400735004003032039005
B0009393644152N11906238WA0076400735004003030031357
B0009403644156N11906236WA0076400734004003026023353
B0009413644159N11906234WA0076400734004003025025358
B0009423644163N11906231WA0076300734004003025032354
B0009433644166N11906228WA0076200733004003025036002
B0009443644169N11906225WA0076200732004003027033354
B0009453644173N11906223WA0076200732004003028030346
B0009463644176N11906221WA0076100732004003026026341
B0009473644179N11906219WA0076000731004003026025339
B0009483644182N11906217WA0076000730004003020026338
B0009493644185N11906215WA0076000729004003019023340
B0009503644188N11906214WA0075900727004003019018341
B0009513644191N11906212WA0075800726004003024016343
B0009523644195N11906210WA0075800725004003025022344
B0009533644198N11906208WA0075700724004003025029347
B0009543644201N11906206WA0075600724004003025027329
B0009553644204N11906205WA0075500723004003024018333
B0009563644206N11906205WA0075500722004003014357311
B0009573644208N11906205WA0075300720004003014325293
B0009583644208N11906206WA0075200719004003010267280
B0009593644208N11906209WA0075100717004003010243249
B0010003644205N11906211WA0075100716004003014208238
B0010013644201N11906212WA0075000714004003032184213
B0010023644196N11906211WA0074900713004003038166187
B0010033644191N11906208WA0074700713004003038153179
B0010043644186N11906205WA0074700712004003038152182
B0010053644181N11906203WA0074500711004003038154185
B0010063644176N11906200WA0074300711004003037158192
B0010073644171N11906198WA0074200711004003037159199
B0010083644166N11906196WA0074200711004003036164217
B0010093644161N11906196WA0074100709004003033178219
B0010103644157N11906197WA0074000707004003031194233
B0010113644154N11906199WA0073900705004003024223244
B0010123644153N11906202WA0073900703004003024262264
B0010133644153N11906205WA0073800701004003020311287
B0010143644156N11906206WA0073600700004003020352314
B0010153644160N11906204WA0073400698004003027020335
B0010163644165N11906201WA0073400697004003038039002
B0010173644168N11906197WA0073200697004003038048010
B0010183644171N11906193WA0073000696004003035046012
B0010193644175N11906190WA0072800694004003027033004
B0010203644178N11906190WA0072800691004003025357348
B0010213644181N11906190WA0072600689004003024345322
B0010223644184N11906191WA0072500688004003024343316
B0010233644188N11906191WA0072300688004003022348318
B0010243644190N11906191WA0072300686004003020359322
B0010253644194N11906191WA0072100686004003020005328
B0010263644197N11906191WA0072000685004003025000331
B0010273644200N11906192WA0071800685004003025341331
B0010283644202N11906194WA0071800684004003020304317
B0010293644202N11906197WA0071700684004003019257292
B0010303644201N11906200WA0071600683004003019228263
B0010313644198N11906202WA0071500683004003025204245
B0010323644194N11906203WA0071500682004003031180225
B0010333644190N11906203WA0071400681004003031177201
B0010343644184N11906200WA0071400681004003033162199
B0010353644179N11906197WA0071300680004003038145182
B0010363644175N11906193WA0071300679004003038148158
B0010373644170N11906190WA0071200680004003038151164
B0010383644165N11906187WA0071100678004003037162174
B0010393644161N11906187WA0071000676004003034181196
B0010403644157N11906188WA0071000674004003030206217
B0010413644154N11906189WA0070900670004003023207245
B0010423644155N11906193WA0070800671004003024288257
B0010433644157N11906196WA0070700670004003024330295
B0010443644160N11906198WA0070700669004003027345294
B0010453644164N11906199WA0070500670004003028356307
B0010463644168N11906199WA0070300670004003022358311
B0010473644171N11906200WA0070200670004003022003317
B0010483644175N11906199WA0070200668004003022008309
B0010493644178N11906199WA0070100668004003026354309
B0010503644182N11906201WA0070100666004003026332308
B0010513644185N11906204WA0070000666004003025315299
B0010523644187N11906206WA0070000667004003025325295
B0010533644190N11906207WA0069900665004003020342296
B0010543644193N11906208WA0069900665004003018348305
B0010553644194N11906210WA0069800663004003018324303
B0010563644196N11906212WA0069800661004003015299291
B0010573644194N11906216WA0069700658004003027240276
B0010583644191N11906219WA0069500657004003027209241
B0010593644187N11906220WA0069400657004003033181220
B0011003644181N11906218WA0069400658004003042153196
B0011013644177N11906215WA0069200660004003042150165
B0011023644174N11906211WA0069100661004003035135163
B0011033644170N11906208WA0068900660004003030157151
B0011043644165N11906207WA0068900659004003037170177
B0011053644159N11906206WA0068900659004003041175176
B0011063644154N11906204WA0068900661004003037170181
B0011073644150N11906202WA0069000662004003036156197
B0011083644147N11906201WA0069000662004003019162189
B0011093644144N11906202WA0069000660004003019195217
B0011103644141N11906204WA0069000657004003019228245
B0011113644140N11906207WA0069000656004003019262276
B0011123644142N11906210WA0069000654004003024330296
B0011133644146N11906211WA0068900655004003027355306
B0011143644150N11906209WA0068900654004003033027308
B0011153644153N11906208WA0068700654004003027017332
B0011163644157N11906208WA0068700653004003023001328
B0011173644160N11906208WA0068600651004003023349319
B0011183644163N11906210WA0068400649004003022331314
B0011193644165N11906212WA0068200647004003022314303
B0011203644166N11906214WA0068200645004003019296297
B0011213644167N11906217WA0068000642004003015285283
B0011223644169N11906220WA0067800639004003015291279
B0011233644170N11906223WA0067600636004003019292277
B0011243644169N11906229WA0067600636004003032263280
B0011253644168N11906234WA0067400636004003029249261
B0011263644167N11906237WA0067100638004003029241250
B0011273644166N11906240WA0066900638004003020253249
B0011283644166N11906242WA0066900637004003014273252
B0011293644167N11906246WA0066700634004003019268264
B0011303644166N11906250WA0066600632004003019254256
B0011313644165N11906254WA0066400629004003022256250
B0011323644165N11906258WA0066400627004003023256250
B0011333644164N11906262WA0066300627004003020271256
B0011343644164N11906265WA0066200625004003020278256
B0011353644164N11906268WA0066000623004003017260256
B0011363644163N11906272WA0066000621004003017255249
B0011373644162N11906276WA0065800620004003022249248
B0011383644162N11906280WA0065600619004003022270246
B0011393644162N11906284WA0065300619004003022285262
B0011403644163N11906287WA0065300617004003019281262
B0011413644163N11906289WA0065100617004003017271249
B0011423644162N11906290WA0065000616004003006270295
B0011433644162N11906290WA0064800615004003005270014
B0011443644162N11906289WA0064800618004003005270208
B0011453644161N11906290WA0064700618004003004270225
B0011463644161N11906290WA0064700618004003000270221
B0011473644161N11906290WA0064700618004003002270246
B0011483644161N11906290WA0064700619004003002270242
B0011493644161N11906290WA0064700618004003000270250
B0011503644161N11906290WA0064700618004003000270257
B0011513644161N11906290WA0064700618004003000270261
B0011523644161N11906291WA0064700619004003000270265
B0011533644161N11906291WA0064700619004003000270296
B0011543644161N11906291WA0064700618004003001270271
B0011553644161N11906291WA0064700618004003001270272
B0011563644161N11906291WA0064700618004004001270274
B0011573644161N11906291WA0064700618004004000270275
B0011583644161N11906291WA0064700618004004000270277
B0011593644161N11906291WA0064700617004003000270278
B0012003644161N11906291WA0064700617004003000270278
B0012013644161N11906291WA0064700617004003000270279
B0012023644161N11906291WA0064700616004003000270284
B0012033644161N11906291WA0064700617004003001270280
B0012043644161N11906291WA0064700617004003002270280
B0012053644161N11906291WA0064700616004003002140279
B0012063644160N11906290WA0064700618004003003136274
B0012073644160N11906290WA0064700618004003003270270
B0012083644159N11906290WA0064700618004003003147279
B0012093644159N11906289WA0064700618004003003147268
B0012103644159N11906289WA0064700618004003003270268
B0012113644158N11906289WA0064700616004003000270275
B0012123644158N11906289WA0064700617004003001225276
B0012133644158N11906289WA0064700616004003000270273
B0012143644158N11906289WA0064700616004003000270276
B0012153644159N11906289WA0064700616004003000270276
B0012163644159N11906289WA0064700616004003000270276
G1B0LLNKx1rpit/TnC5+vs7FE0MuIQ45S3BMuRkcnpxxE0GT2pXDzSudHxudExcGo
GyAOoOdMyTfaXar2xy9kV9Co0m3t0LY34d0sDrEIUXnAOizIgEjX8R/whHow0NaSR
GljdozGVb6feQd4acKem/WnWIdgV7eZASzsgmjDs1Xo4=

