AXFH000
HFDTE220725
HFPLTPILOT:Scott O’Brien
HFGTYGLIDERTYPE:Ozone Swift 6
HFDTM100GPSDATUM:WGS84
HFRFWFIRMWAREVERSION:9.3
HFRHWHARDWAREVERSION:iPhone 15
HFFTYFRTYPE:Flyskyhy,9.3
HFGPS:Internal
HFPRSVARIO:Bluetooth vario
HFCCLCOMPETITIONCLASS:Paraglider
HFTZNTIMEZONE:2
HFSITSITE:Wispile-1900 (Saanen- Gstaad),CH
I053638FXA3941VXA4244GSP4547CCO4850HDT
B1146564626389N00717525EA0190301903005010000000059
B1146574626389N00717525EA0190301903005010001061059
B1146584626389N00717525EA0190301903005010001066059
B1146594626389N00717525EA0190301903005010000000059
B1147004626389N00717525EA0190301903005010000000058
B1147014626389N00717525EA0190301903005010000000054
B1147024626389N00717525EA0190301903005010000000057
B1147034626389N00717525EA0190301903005010000000062
B1147044626389N00717525EA0190301903005010000000064
B1147054626389N00717525EA0190301903005010000177061
B1147064626389N00717525EA0190301903005010001172061
B1147074626389N00717525EA0190301903005010000152059
B1147084626389N00717525EA0190301903005010000000059
B1147094626389N00717525EA0190301903005010000000060
B1147104626389N00717525EA0190301903010019000000061
B1147114626389N00717525EA0190301903010019000000061
B1147124626389N00717525EA0190301903010019000000062
B1147134626389N00717525EA0190301903010019000000061
B1147144626389N00717525EA0190301903010019000000062
B1147154626389N00717525EA0190301903010019000000064
B1147164626389N00717525EA0190301903005010000000064
B1147174626389N00717525EA0190301903005010000000062
B1147184626389N00717525EA0190301903005010000000085
B1147194626389N00717525EA0190401903005010000000125
B1147204626389N00717525EA0190301903005010002325110
B1147214626389N00717525EA0190201903005010006318116
B1147224626390N00717524EA0190201903005010004327036
B1147234626391N00717524EA0189901904005010007329043
B1147244626393N00717521EA0189701904005010009302158
B1147254626394N00717519EA0189601904005010014312161
B1147264626396N00717516EA0189401904005010018330151
B1147274626398N00717514EA0189201904005010021326184
B1147284626401N00717510EA0189401904005010026317322
B1147294626404N00717506EA0189501903005010027317310
B1147304626407N00717502EA0189401903005010026318308
B1147314626411N00717499EA0189201903005010026324312
B1147324626414N00717495EA0189101903005010030330310
B1147334626419N00717492EA0189201903005010030332313
B1147344626422N00717489EA0189101902005010026322319
B1147354626425N00717485EA0189101902005010025314310
B1147364626428N00717481EA0189001902005010026308305
B1147374626431N00717477EA0189001901005010028313301
B1147384626434N00717473EA0188901901005010032328308
B1147394626438N00717470EA0188901900005010033336322
B1147404626443N00717467EA0189001900005010032343329
B1147414626448N00717466EA0189101899005010028352337
B1147424626452N00717466EA0189101899005010023003345
B1147434626455N00717467EA0189001899005010022005353
B1147444626459N00717468EA0188801898005010025013351
B1147454626462N00717470EA0188901898005010031019359
B1147464626467N00717472EA0188901898005010033020007
B1147474626472N00717475EA0189001897005010030023009
B1147484626476N00717477EA0189001897005010026020012
B1147494626479N00717479EA0189001897005010025020007
B1147504626483N00717482EA0188801897005010030022001
B1147514626487N00717485EA0188801897005010032034005
B1147524626491N00717489EA0188801896005010032030016
B1147534626495N00717491EA0188801895005010031015006
B1147544626500N00717492EA0188801895005010031356346
B1147554626504N00717490EA0188801895005010032332338
B1147564626508N00717485EA0188601894005010037307308
B1147574626510N00717477EA0188601893005010041280286
B1147584626510N00717468EA0188601893005010042259271
B1147594626508N00717459EA0188601892005010041240248
B1148004626504N00717452EA0188701892005010038230232
B1148014626500N00717446EA0188601892005010037220226
B1148024626496N00717441EA0188601891005010039208219
B1148034626490N00717438EA0188601891005010041200208
B1148044626484N00717435EA0188701890005010043196201
B1148054626478N00717433EA0188801890005010035187199
B1148064626473N00717432EA0188801890005010031181190
B1148074626468N00717432EA0188601891005010030185185
B1148084626464N00717430EA0188301890005010028194189
B1148094626459N00717427EA0188201890005010037215195
B1148104626455N00717422EA0188201889005010040219211
B1148114626450N00717417EA0188301889005010035215218
B1148124626446N00717413EA0188201888005010031209213
B1148134626442N00717410EA0188101888005010029202207
B1148144626438N00717408EA0187801888005010030200202
B1148154626434N00717405EA0187801887005010033205200
B1148164626429N00717401EA0187701885005010035218206
B1148174626426N00717395EA0187601884005010036239221
B1148184626424N00717388EA0187701882005010034260241
B1148194626424N00717381EA0187601881005010033288261
B1148204626427N00717375EA0187701880005010031309289
B1148214626430N00717371EA0187701879005010033334308
B1148224626435N00717369EA0187601877005010033346332
B1148234626441N00717367EA0187601876005010035349342
B1148244626446N00717367EA0187701875005010036358347
B1148254626451N00717367EA0187801874005010035011357
B1148264626457N00717370EA0187901874005010036021011
B1148274626461N00717373EA0187901873005010032025020
B1148284626465N00717376EA0187901873005010030028023
B1148294626469N00717380EA0187801873005010028034028
B1148304626473N00717383EA0187601872005010030035033
B1148314626476N00717387EA0187301872005010034034035
B1148324626481N00717392EA0187301871005010037035034
B1148334626485N00717396EA0187401870005010037036035
B1148344626489N00717401EA0187601869005010032038036
B1148354626493N00717404EA0187701869005010025027039
B1148364626496N00717406EA0187501868005010024017030
B1148374626500N00717407EA0187501868005010026006022
B1148384626504N00717408EA0187501868005010031003013
B1148394626509N00717408EA0187501868005010031003009
B1148404626513N00717408EA0187501868005010029002009
B1148414626517N00717409EA0187501868005010026007009
B1148424626521N00717409EA0187501868005010025007012
B1148434626525N00717410EA0187501868005010027006011
B1148444626529N00717411EA0187601868005010032010009
B1148454626533N00717412EA0187701869005010029017019
B1148464626537N00717414EA0187901870005010024029025
B1148474626539N00717417EA0187801870005010018046042
B1148484626541N00717420EA0187801871005010017063045
B1148494626542N00717424EA0187701872005010021067055
B1148504626544N00717429EA0187701873005010029064058
B1148514626546N00717435EA0187701873005010031064065
B1148524626547N00717441EA0187801874005010029072065
B1148534626548N00717447EA0187901875005010026082063
B1148544626549N00717452EA0187901875005010024083059
B1148554626549N00717458EA0187901876005010024079058
B1148564626550N00717463EA0187901876005010027074058
B1148574626551N00717469EA0187901877005010028073059
B1148584626552N00717475EA0188101878005010027076066
B1148594626553N00717480EA0188101878005010024080046
B1149004626554N00717486EA0188001879005010023078053
B1149014626555N00717490EA0188001879005010021070051
B1149024626556N00717495EA0188001880005010026060042
B1149034626558N00717500EA0188001880005010028060050
B1149044626561N00717505EA0188101881005010028055047
B1149054626563N00717510EA0188001881005010023061044
B1149064626564N00717514EA0187901882005010021067042
B1149074626566N00717519EA0187701882005010025065046
B1149084626568N00717524EA0187701882005010032061053
B1149094626570N00717530EA0187601882005010031062036
B1149104626572N00717536EA0187501882005010027069047
B1149114626573N00717541EA0187501881005010024069047
B1149124626575N00717546EA0187501881005010027056048
B1149134626578N00717551EA0187501881005010029049039
B1149144626580N00717556EA0187601881005010026048046
B1149154626583N00717559EA0187501880005010020048048
B1149164626585N00717562EA0187501880005010019043043
B1149174626587N00717565EA0187301880005010019041041
B1149184626590N00717568EA0186901880005010022041044
B1149194626592N00717572EA0186801879005010027038039
B1149204626596N00717576EA0186701879005010031041032
B1149214626599N00717580EA0186701877005010031040041
B1149224626602N00717584EA0186601876005010028041034
B1149234626605N00717588EA0186701876005010024039033
B1149244626608N00717591EA0186701874005010023034029
B1149254626611N00717594EA0186601874005010027037033
B1149264626614N00717598EA0186801873005010029051051
B1149274626616N00717604EA0186901872005010031059053
B1149284626618N00717609EA0187001872005010023067041
B1149294626619N00717613EA0186801871005010016068037
B1149304626620N00717616EA0186801871005010015056047
B1149314626621N00717619EA0186601870005010025050037
B1149324626624N00717624EA0186701869005010030058042
B1149334626626N00717630EA0186901868005010032060026
B1149344626628N00717635EA0186901868005010025062041
B1149354626630N00717639EA0186901867005010017052043
B1149364626632N00717642EA0186701867005010017034043
B1149374626634N00717644EA0186701866005010023032039
B1149384626637N00717647EA0186701866005010027041044
B1149394626640N00717651EA0186701866005010028045045
B1149404626643N00717656EA0186801865005010024054058
B1149414626644N00717660EA0186801865005010023069068
B1149424626645N00717665EA0186701865005010025079070
B1149434626646N00717671EA0186801865005010029082073
B1149444626646N00717677EA0186901865005010029084054
B1149454626646N00717683EA0186901866005010027087058
B1149464626647N00717689EA0187001866005010025082060
B1149474626648N00717694EA0186801866005010025071060
B1149484626649N00717699EA0186701867005010026064054
B1149494626651N00717704EA0186701867005010026061054
B1149504626653N00717709EA0186601867005010024056050
B1149514626655N00717713EA0186401867005010022043049
B1149524626657N00717715EA0186301867005010021029042
B1149534626660N00717717EA0186201867005010021027034
B1149544626663N00717719EA0186101866005010022037035
B1149554626665N00717723EA0186001866005010024047047
B1149564626668N00717727EA0185901866005010026054049
B1149574626670N00717732EA0185901866005010026062051
B1149584626672N00717738EA0185801865005010028068045
B1149594626673N00717744EA0185801865005010030066046
B1150004626676N00717750EA0186001864005010031057049
B1150014626678N00717755EA0186001864005010028051045
B1150024626680N00717759EA0186001864005010020050041
B1150034626682N00717762EA0185801863005010019048042
B1150044626684N00717765EA0185601863005010016056037
B1150054626686N00717769EA0185401862005010024054033
B1150064626688N00717773EA0185601861005010030048033
B1150074626691N00717778EA0185601861005010029041028
B1150084626694N00717782EA0185701860005010025039027
B1150104626697N00717785EA0185801860005010020040040
B1150114626702N00717791EA0185601859005010026039017
B1150134626705N00717795EA0185701858005010028056042
B1150144626708N00717805EA0185501858005010022064032
B1150154626710N00717808EA0185401857005010019038036
B1150164626713N00717811EA0185301857005010024023031
B1150174626716N00717813EA0185401856005010023027016
B1150194626720N00717815EA0185601855005010025023015
B1150204626727N00717818EA0185801855005010025007013
B1150224626731N00717818EA0185801855005010027359356
B1150234626739N00717816EA0185701855005010021343349
B1150254626742N00717815EA0185701855005010024338347
B1150274626749N00717810EA0185601854005010030339000
B1150284626758N00717808EA0185501854005010026006028
B1150304626761N00717809EA0185401854005010022023025
B1150314626767N00717816EA0184901853005010026045019
B1150334626770N00717820EA0184901852005010033035013
B1150344626780N00717826EA0184801851005010034009358
B1150364626785N00717826EA0184801850005010029352349
B1150374626789N00717825EA0184601850005010030336340
B1150394626796N00717816EA0184201848005010034303317
B1150404626799N00717809EA0184101846005010036290302
B1150414626800N00717802EA0184101845005010034273288
B1150424626799N00717794EA0183901844005010034257273
B1150434626798N00717787EA0183901843005010036245252
B1150444626795N00717780EA0183801841005010042235233
B1150454626791N00717773EA0183901840005010046227220
B1150464626786N00717766EA0184101839005010045217207
B1150474626780N00717761EA0184301840005010044206198
B1150484626773N00717757EA0184201841005010043198188
B1150494626767N00717755EA0184301841005010043194187
B1150504626761N00717753EA0184101842005010045191192
B1150514626754N00717751EA0184201842005010046191196
B1150524626747N00717748EA0184201842005010048197213
B1150534626740N00717744EA0184201842005010050208202
B1150544626734N00717739EA0184201842005010048216231
B1150554626729N00717733EA0184301842005010041222234
B1150564626725N00717727EA0184201842005010036225237
B1150574626722N00717721EA0184101842005010032233241
B1150584626719N00717715EA0183901842005010036241238
B1150594626717N00717708EA0183801842005010041249243
B1151004626714N00717699EA0183801842005010045247242
B1151014626712N00717690EA0184001842005010041248251
B1151024626710N00717682EA0184101842005010035250260
B1151034626709N00717676EA0184201842005010029254252
B1151044626708N00717670EA0183901842005010029252289
B1151054626706N00717664EA0183801842005010028252270
B1151064626704N00717658EA0183601841005010038242258
B1151074626702N00717650EA0183701841005010038246267
B1151084626700N00717643EA0183801841005010036246263
B1151094626698N00717636EA0183801840005010028248256
B1151104626696N00717631EA0183701840005010028244248
B1151114626695N00717625EA0183501839005010029248252
B1151124626693N00717619EA0183601839005010036244253
B1151134626690N00717612EA0183501838005010042241248
B1151144626687N00717603EA0183501837005010045240250
B1151154626684N00717595EA0183501836005010043241255
B1151164626681N00717587EA0183501836005010039244256
B1151174626678N00717579EA0183301835005010038246270
B1151184626676N00717571EA0183301834005010042245242
B1151194626673N00717563EA0183601834005010046241263
B1151204626670N00717554EA0183701834005010046242263
B1151214626667N00717546EA0183801834005010039247269
B1151224626665N00717538EA0184001835005010032252271
B1151234626664N00717532EA0183801835005010028258250
B1151244626663N00717526EA0183801836005010028265257
B1151254626663N00717520EA0183701836005010029270260
B1151264626663N00717514EA0183401836005010030272246
B1151274626663N00717507EA0183201836005010031260255
B1151284626662N00717501EA0183101835005010033257256
B1151294626661N00717493EA0183101835005010034253247
B1151304626659N00717486EA0183101834005010035247247
B1151314626657N00717480EA0183001834005010032242238
B1151324626655N00717474EA0182801833005010029238238
B1151334626652N00717468EA0182601832005010030241227
B1151344626650N00717462EA0182401831005010034242232
B1151354626647N00717456EA0182301830005010039235231
B1151364626644N00717449EA0182101828005010041228228
B1151374626639N00717442EA0181901827005010040226229
B1151384626635N00717436EA0181801825005010039230232
B1151394626632N00717429EA0181701823005010040233228
B1151404626628N00717422EA0181701822005010043233222
B1151414626624N00717415EA0181701820005010042227222
B1151424626615N00717403EA0181601818005010036222220
B1151434626611N00717397EA0181401816005010035226232
B1151444626608N00717391EA0181101815005010040232221
B1151454626604N00717384EA0181001813005010046232222
B1151464626599N00717376EA0181101811005010047226218
B1151474626595N00717370EA0181101810005010035223200
B1151484626591N00717365EA0181101808005010031222230
B1151494626588N00717360EA0180801807005010035221223
B1151504626584N00717355EA0180501806005010033229226
B1151514626581N00717349EA0180401805005010042230215
B1151524626577N00717342EA0180401804005010042226217
B1151534626572N00717335EA0180501803005010041219224
B1151544626567N00717330EA0180601803005010038218218
B1151554626563N00717325EA0180601803005010040219204
B1151564626558N00717319EA0180701803005010041218209
B1151574626553N00717314EA0180601803005010041214178
B1151584626549N00717309EA0180601803005010037210200
B1151594626544N00717305EA0180401802005010036204188
B1152004626539N00717302EA0180301802005010038203188
B1152014626533N00717298EA0180201801005010045204184
B1152024626527N00717294EA0180301801005010046203203
B1152034626521N00717291EA0180301800005010041199189
B1152044626515N00717288EA0180401800005010038197197
B1152054626510N00717286EA0180201800005010040199186
B1152064626504N00717282EA0180101799005010043203189
B1152074626498N00717279EA0179901798005010047202170
B1152084626491N00717275EA0180001797005010044198182
B1152094626485N00717272EA0180001797005010039195179
B1152104626480N00717270EA0179801796005010038197175
B1152114626474N00717268EA0179601795005010039198181
B1152124626468N00717265EA0179501794005010041196167
B1152134626463N00717263EA0179501793005010037186176
B1152144626458N00717263EA0179401792005010032180182
B1152154626453N00717263EA0179201791005010028181195
B1152164626449N00717261EA0178701790005010033199207
B1152174626444N00717258EA0178701789005010042203213
B1152184626438N00717255EA0178901788005010036203223
B1152194626435N00717252EA0179001787005010022225228
B1152204626433N00717248EA0178901786005010022241238
B1152214626432N00717243EA0178701785005010024266238
B1152224626432N00717237EA0178601785005010028269256
B1152234626432N00717231EA0178301783005010035261278
B1152244626432N00717223EA0178201782005010037270290
B1152254626433N00717215EA0178401781005010037287297
B1152264626435N00717208EA0178401780005010038305310
B1152274626439N00717201EA0178501780005010039318308
B1152284626443N00717196EA0178501780005010038324316
B1152294626448N00717192EA0178401779005010035328335
B1152304626452N00717188EA0178301778005010034324327
B1152314626456N00717184EA0178301778005010031320327
B1152324626460N00717180EA0178301777005010030323325
B1152334626463N00717176EA0178201777005010031324336
B1152344626467N00717172EA0178201776005010032326326
B1152354626471N00717168EA0178101776005010032325328
B1152364626475N00717165EA0178001775005010030323344
B1152374626479N00717161EA0177801774005010028324334
B1152384626482N00717158EA0177601773005010028332346
B1152394626486N00717155EA0177301772005010031339339
B1152404626490N00717153EA0177101770005010031336004
B1152414626495N00717150EA0176701769005010034340349
B1152424626500N00717148EA0176601767005010036345354
B1152434626505N00717147EA0176401765005010035353349
B1152444626510N00717146EA0176501763005010035356349
B1152454626515N00717146EA0176401761005010028002351
B1152464626519N00717146EA0176301759005010023005351
B1152474626522N00717147EA0176201758005010022002356
B1152484626525N00717147EA0176001756005010023357348
B1152494626529N00717146EA0175801754005010026355346
B1152504626533N00717146EA0175601752005010027357345
B1152514626537N00717146EA0175501751005010028005348
B1152524626541N00717147EA0175401749005010029004343
B1152534626545N00717147EA0175201748005010031352338
B1152544626550N00717145EA0175001746005010034342346
B1152554626555N00717143EA0174901745005010035346356
B1152564626560N00717142EA0174801743005010036358348
B1152574626565N00717142EA0174601742005010035006347
B1152584626570N00717142EA0174501740005010034001340
B1152594626576N00717142EA0174301739005010035352339
B1153004626581N00717141EA0174201738005010036350343
B1153014626586N00717140EA0174101736005010032359346
B1153024626590N00717141EA0174001735005010030012353
B1153034626595N00717142EA0174001733005010031014345
B1153044626599N00717144EA0174001732005010030007354
B1153054626604N00717144EA0174001731005010031359349
B1153064626608N00717143EA0174101730005010028350349
B1153074626612N00717142EA0174401729005010024349351
B1153084626615N00717142EA0174601729005010017357347
B1153094626617N00717142EA0174601729005010016001348
B1153104626620N00717142EA0174701729005010019355344
B1153114626623N00717141EA0174701729005010026348345
B1153124626627N00717139EA0174901729005010026343348
B1153134626630N00717138EA0175001728005010021343357
B1153144626633N00717137EA0175101728005010017351015
B1153154626635N00717136EA0175101728005010018355018
B1153164626638N00717136EA0175101728005010019010025
B1153174626641N00717137EA0175201728005010023027030
B1153184626643N00717139EA0175201729005010023034027
B1153194626646N00717142EA0175501729005010022044032
B1153204626648N00717146EA0175601729005010021051015
B1153214626650N00717149EA0175701729005010022043000
B1153224626653N00717152EA0175701729005010024020347
B1153234626656N00717152EA0175701730005010028346329
B1153244626660N00717149EA0175901730005010035306314
B1153254626662N00717141EA0175901731005010046274281
B1153264626661N00717130EA0176201731005010052250261
B1153274626657N00717121EA0176501733005010048218230
B1153284626651N00717117EA0176701734005010039192203
B1153294626646N00717117EA0176601736005010029175178
B1153304626642N00717118EA0176401738005010023167158
B1153314626639N00717119EA0176101740005010024165148
B1153324626636N00717122EA0176001741005010030155142
B1153334626631N00717125EA0176001742005010037144133
B1153344626628N00717131EA0176201744005010031111124
B1153354626628N00717137EA0176201746005010024067091
B1153364626631N00717141EA0176501747005010029023056
B1153374626635N00717144EA0176701749005010029019026
B1153384626639N00717145EA0176901750005010022002024
B1153394626643N00717145EA0177001752005010018355009
B1153404626646N00717145EA0177001753005010020356016
B1153414626649N00717145EA0176901755005010022019355
B1153424626652N00717148EA0177101757005010030039031
B1153434626656N00717153EA0177301758005010031049023
B1153444626659N00717158EA0177401760005010027045030
B1153454626662N00717161EA0177501762005010024030027
B1153464626665N00717163EA0177501764005010022008021
B1153474626669N00717163EA0177501765005010026349011
B1153484626673N00717161EA0177601767005010029338359
B1153494626677N00717159EA0177801769005010032333343
B1153504626681N00717155EA0178001770005010031328343
B1153514626685N00717152EA0178201772005010028322336
B1153524626688N00717148EA0178401774005010027324335
B1153534626692N00717145EA0178501776005010027324338
B1153544626695N00717141EA0178601778005010029320339
B1153554626699N00717137EA0178801780005010033323333
B1153564626703N00717133EA0178901782005010034327339
B1153574626707N00717129EA0179201783005010032331340
B1153584626711N00717126EA0179301785005010030336336
B1153594626716N00717124EA0179401787005010032344343
B1154004626720N00717122EA0179501789005010033345348
B1154014626725N00717120EA0179601790005010031340346
B1154024626729N00717118EA0179601792005010030337350
B1154034626733N00717116EA0179701793005010031341349
B1154044626738N00717114EA0179801794005010034352357
B1154054626743N00717114EA0179901796005010037004003
B1154064626749N00717115EA0180001797005010038011001
B1154074626754N00717117EA0180201798005010037013358
B1154084626760N00717119EA0180301799005010037014340
B1154094626765N00717121EA0180401800005010033006343
B1154104626770N00717120EA0180401801005010029347336
B1154114626774N00717118EA0180301802005010030321327
B1154124626776N00717113EA0180401802005010030296311
B1154134626777N00717107EA0180401803005010028268290
B1154144626776N00717101EA0180501803005010026234264
B1154154626773N00717098EA0180501804005010028199220
B1154164626768N00717098EA0180501804005010035169174
B1154174626763N00717100EA0180601805005010038151145
B1154184626759N00717106EA0180801806005010037125129
B1154194626757N00717113EA0180701807005010040098107
B1154204626757N00717123EA0180801808005010046074086
B1154214626760N00717132EA0181001808005010049055066
B1154224626765N00717140EA0181101809005010046040050
B1154234626770N00717145EA0181201809005010038024038
B1154244626775N00717147EA0181201810005010035008023
B1154254626781N00717147EA0181101811005010037359009
B1154274626787N00717146EA0181101811005010040352001
B1154284626797N00717140EA0181401811005010034321341
B1154304626800N00717135EA0181501812005010029298324
B1154314626801N00717125EA0181501813005010021254287
B1154334626799N00717121EA0181601814005010021223268
B1154354626793N00717118EA0181801815005010028177209
B1154364626784N00717122EA0181901816005010031144168
B1154384626781N00717127EA0182001817005010034127147
B1154394626777N00717143EA0182201819005010043094105
B1154414626778N00717152EA0182401820005010045078089
B1154424626784N00717170EA0182501822005010047045055
B1154444626789N00717176EA0182601823005010047032037
B1154454626802N00717180EA0182501824005010039356006
B1154474626808N00717178EA0182601825005010038338347
B1154494626816N00717169EA0182701826005010029302316
B1154504626817N00717164EA0182701826005010025282298
B1154514626817N00717158EA0182801827005010022261281
B1154524626816N00717154EA0182801827005010021234264
B1154534626813N00717151EA0182801828005010024206242
B1154544626810N00717150EA0183001828005010026182219
B1154554626805N00717151EA0183101829005010030156195
B1154564626802N00717155EA0183201830005010034136168
B1154574626798N00717161EA0183201830005010039112145
B1154584626797N00717170EA0183401831005010041095117
B1154594626797N00717179EA0183401832005010045080096
B1155014626803N00717197EA0183401833005010044054062
B1155024626807N00717204EA0183301833005010043043049
B1155034626812N00717209EA0183201834005010040030036
B1155044626818N00717213EA0183101834005010040016022
B1155054626823N00717214EA0183001834005010038359007
B1155064626829N00717213EA0183001833005010036339349
B1155074626833N00717209EA0183101833005010033318329
B1155084626837N00717204EA0183201832005010028302309
B1155094626838N00717198EA0183201832005010023277293
B1155104626838N00717194EA0183401833005010018254272
B1155114626836N00717190EA0183401833005010018230255
B1155124626834N00717187EA0183401833005010019212238
B1155134626831N00717185EA0183501833005010022199223
B1155144626828N00717184EA0183701834005010024183208
B1155154626824N00717185EA0183701834005010024170191
B1155164626820N00717186EA0183801834005010023163179
B1155174626817N00717187EA0183801835005010021159174
B1155184626814N00717189EA0183701835005010020159174
B1155194626812N00717190EA0183701835005010019160170
B1155204626809N00717192EA0183601836005010022163166
B1155214626805N00717193EA0183601836005010024158152
B1155224626802N00717195EA0183501836005010024148150
B1155234626799N00717199EA0183601836005010026130142
B1155244626797N00717204EA0183601836005010032112126
B1155254626796N00717212EA0183501836005010043097105
B1155264626796N00717222EA0183701836005010049085089
B1155274626797N00717232EA0183701836005010048068074
B1155284626801N00717241EA0183901836005010045053058
B1155294626805N00717248EA0183801836005010043039041
B1155304626811N00717252EA0183801836005010038020027
B1155314626816N00717254EA0183701836005010032012005
B1155324626821N00717255EA0183601837005010032003352
B1155334626826N00717255EA0183401836005010035358341
B1155344626831N00717255EA0183301836005010037001333
B1155354626837N00717255EA0183501836005010037000330
B1155364626842N00717254EA0183401836005010033358326
B1155374626846N00717254EA0183401836005010028351328
B1155384626851N00717252EA0183301836005010028344322
B1155394626855N00717250EA0183301835005010031335313
B1155404626859N00717247EA0183401834005010031328304
B1155414626862N00717242EA0183601834005010028317299
B1155424626865N00717238EA0183901835005010023309293
B1155434626867N00717235EA0183901836005010019301281
B1155444626868N00717231EA0183901837005010019289274
B1155454626868N00717227EA0183901837005010018269268
B1155464626868N00717223EA0183901838005010017258254
B1155474626867N00717220EA0183901839005010023233248
B1155484626864N00717216EA0184101839005010024209231
B1155494626861N00717215EA0184201840005010024181214
B1155504626857N00717216EA0184201841005010027155194
B1155514626853N00717219EA0184101842005010028142169
B1155524626850N00717224EA0184001842005010029131156
B1155534626847N00717229EA0183801842005010035123145
B1155544626845N00717237EA0183701841005010041106134
B1155554626844N00717247EA0183501840005010049089112
B1155564626845N00717257EA0183501839005010051074091
B1155574626848N00717267EA0183601838005010050054074
B1155584626853N00717274EA0183401837005010043036049
B1155594626858N00717278EA0183301837005010040019028
B1156004626864N00717281EA0183501836005010040010007
B1156014626870N00717282EA0183601835005010039011357
B1156024626875N00717283EA0183701835005010033007357
B1156034626880N00717283EA0183901835005010027355350
B1156044626884N00717282EA0183801835005010026348328
B1156054626888N00717280EA0183901835005010027344320
B1156064626891N00717278EA0184001835005010028336310
B1156074626895N00717274EA0184101835005010029326300
B1156084626898N00717270EA0184301835005010030317293
B1156094626901N00717266EA0184401836005010026312285
B1156104626904N00717262EA0184601837005010019308281
B1156114626905N00717259EA0184501838005010018288273
B1156124626906N00717254EA0184501839005010021283265
B1156134626906N00717249EA0184501840005010026270254
B1156144626906N00717244EA0184601840005010027263248
B1156154626905N00717238EA0184801841005010024262240
B1156164626904N00717234EA0185001842005010021246239
B1156174626903N00717230EA0185001843005010019233235
B1156184626901N00717227EA0185001844005010017230232
B1156194626899N00717224EA0185001845005010020233230
B1156204626897N00717220EA0185001845005010026234236
B1156214626895N00717215EA0185201846005010025235248
B1156224626893N00717211EA0185201847005010024233262
B1156234626891N00717207EA0185301848005010019243266
B1156244626890N00717203EA0185401849005010019258270
B1156254626890N00717199EA0185301849005010020278277
B1156264626891N00717195EA0185301850005010024305282
B1156274626894N00717191EA0185301851005010028318306
B1156284626897N00717187EA0185301851005010030330319
B1156294626901N00717185EA0185201852005010031347328
B1156304626906N00717185EA0185201852005010035008342
B1156314626912N00717188EA0185101852005010043025004
B1156324626918N00717193EA0185101852005010048040024
B1156334626922N00717201EA0185201851005010048058044
B1156344626924N00717211EA0185301851005010044080063
B1156354626924N00717220EA0185301851005010042100089
B1156364626922N00717228EA0185301850005010041120113
B1156374626919N00717236EA0185401850005010038128140
B1156384626915N00717241EA0185401850005010033136156
B1156394626911N00717245EA0185401850005010030150166
B1156404626907N00717247EA0185301850005010028171182
B1156414626903N00717247EA0185301850005010029190199
B1156424626898N00717245EA0185301849005010030198210
B1156434626894N00717243EA0185401849005010028202212
B1156444626890N00717240EA0185501849005010028207215
B1156454626887N00717237EA0185701849005010028209226
B1156464626883N00717234EA0185901850005010026203213
B1156474626880N00717232EA0185901851005010021201218
B1156484626877N00717230EA0185801852005010018204229
B1156494626875N00717228EA0185701853005010016210220
B1156504626873N00717227EA0185601854005010012223225
B1156514626872N00717224EA0185501854005010021222216
B1156524626869N00717221EA0185401855005010021216220
B1156534626867N00717219EA0185301856005010019213219
B1156544626864N00717217EA0185301856005010019210219
B1156554626862N00717215EA0185201857005010021208220
B1156564626859N00717212EA0185101857005010023208218
B1156574626856N00717210EA0185101857005010023206222
B1156584626853N00717208EA0184901857005010021204222
B1156594626850N00717206EA0184901857005010022204222
B1157004626847N00717204EA0184901857005010025207224
B1157014626843N00717201EA0184901857005010029210217
B1157024626840N00717198EA0185001857005010029207224
B1157034626836N00717195EA0185001857005010024208208
B1157044626833N00717193EA0184901857005010020219223
B1157054626831N00717190EA0184701857005010019231233
B1157064626830N00717187EA0184501856005010019237227
B1157074626828N00717183EA0184401856005010023229254
B1157084626826N00717179EA0184401856005010025232263
B1157094626824N00717174EA0184201855005010026251284
B1157104626823N00717168EA0184301855005010028265274
B1157114626824N00717162EA0184201855005010029286282
B1157124626825N00717156EA0184401854005010031298268
B1157134626828N00717151EA0184501854005010029298282
B1157144626830N00717146EA0184501854005010025306278
B1157154626832N00717142EA0184601854005010022314283
B1157164626835N00717139EA0184601854005010023321291
B1157174626837N00717136EA0184701854005010024326294
B1157184626841N00717133EA0184701854005010027327309
B1157194626844N00717130EA0184701854005010029331316
B1157204626848N00717127EA0184601854005010030339326
B1157214626853N00717125EA0184501854005010033349330
B1157224626858N00717124EA0184501853005010037354326
B1157234626864N00717124EA0184201852005010040357311
B1157244626870N00717124EA0184101852005010039359314
B1157254626876N00717124EA0183901851005010038357322
B1157264626881N00717123EA0183801849005010038353320
B1157274626887N00717122EA0183601848005010039351315
B1157284626893N00717121EA0183501846005010039351315
B1157294626899N00717120EA0183401844005010038350313
B1157304626904N00717118EA0183301843005010036348320
B1157314626910N00717116EA0183201841005010037348316
B1157324626915N00717115EA0183101840005010037348339
B1157334626920N00717114EA0182901839005010035354341
B1157344626925N00717114EA0182701837005010035001346
B1157354626931N00717114EA0182501835005010039006329
B1157364626937N00717115EA0182401834005010042005331
B1157374626943N00717116EA0182301832005010043004322
B1157384626949N00717116EA0182301830005010040002327
B1157394626955N00717117EA0182301829005010036002339
B1157404626960N00717117EA0182201827005010035003319
B1157414626965N00717117EA0182001826005010035002339
B1157424626970N00717118EA0181901824005010037001328
B1157434626976N00717118EA0181901823005010038359337
B1157444626982N00717118EA0181901821005010037004346
B1157454626987N00717119EA0181801820005010035011349
B1157464626992N00717121EA0181601819005010034014338
B1157474626997N00717123EA0181401818005010039015341
B1157484627003N00717125EA0181301817005010043012340
B1157494627009N00717127EA0181201815005010043010331
B1157504627016N00717128EA0181001813005010041010328
B1157514627022N00717130EA0180901812005010040010332
B1157524627027N00717131EA0180801811005010040007325
B1157534627033N00717132EA0180701809005010041003321
B1157544627039N00717132EA0180701808005010039358326
B1157554627045N00717132EA0180801806005010036356330
B1157564627050N00717131EA0180701805005010031355324
B1157574627054N00717131EA0180501804005010030359326
B1157584627059N00717131EA0180401803005010032001336
B1157594627064N00717131EA0180201802005010035000344
B1158004627069N00717131EA0180101801005010038003353
B1158014627075N00717132EA0180001800005010039011007
B1158024627081N00717134EA0179601798005010040020016
B1158034627086N00717138EA0179601797005010040024022
B1158044627092N00717142EA0179301795005010042026017
B1158054627098N00717146EA0179001794005010042028015
B1158064627103N00717151EA0178801792005010043032006
B1158074627109N00717156EA0178701789005010044033355
B1158084627114N00717161EA0178501787005010042030340
B1158094627119N00717165EA0178301785005010040027358
B1158104627125N00717169EA0178201783005010038019349
B1158114627130N00717171EA0178101781005010040016341
B1158124627136N00717173EA0178101779005010040014343
B1158134627142N00717175EA0178001778005010038011334
B1158144627147N00717176EA0177901776005010035006335
B1158154627152N00717177EA0177901775005010035359335
B1158164627157N00717176EA0177801773005010035355328
B1158174627162N00717176EA0177701772005010035356326
B1158184627167N00717176EA0177601771005010034359328
B1158194627172N00717176EA0177601770005010034359325
B1158204627177N00717175EA0177401769005010034356320
B1158214627183N00717175EA0177301768005010036353324
B1158224627188N00717174EA0177301767005010036352319
B1158234627193N00717172EA0177201767005010035350327
B1158244627198N00717171EA0177101766005010034349330
B1158254627203N00717170EA0177101765005010034350333
B1158264627208N00717168EA0177001764005010036352336
B1158274627214N00717167EA0177001763005010038354336
B1158284627220N00717167EA0177001763005010039354340
B1158294627225N00717166EA0177001762005010038356338
B1158304627231N00717166EA0177101761005010036002337
B1158314627236N00717167EA0177001761005010035005343
B1158324627241N00717167EA0176801761005010036006333
B1158334627247N00717168EA0176701760005010038005336
B1158344627253N00717169EA0176501759005010040003349
B1158354627259N00717170EA0176501758005010044003340
B1158364627266N00717171EA0176401758005010045003344
B1158374627272N00717171EA0176501757005010042005346
B1158384627278N00717172EA0176401756005010040006356
B1158394627285N00717173EA0176201756005010041005345
B1158404627291N00717174EA0176101755005010043004349
B1158414627297N00717174EA0176101755005010043004007
B1158424627304N00717175EA0175901754005010041005333
B1158434627310N00717176EA0175801753005010044005352
B1158444627317N00717177EA0175701752005010048006341
B1158454627324N00717179EA0175801751005010048007338
B1158464627331N00717180EA0175801750005010045006322
B1158474627337N00717181EA0175601750005010038005340
B1158484627343N00717181EA0175301749005010036004335
B1158494627348N00717182EA0175101748005010037001353
B1158504627354N00717182EA0175001746005010043359357
B1158514627361N00717182EA0174801745005010047002001
B1158524627368N00717183EA0174801744005010048010002
B1158534627374N00717185EA0174801742005010042017353
B1158544627380N00717188EA0174701741005010038018347
B1158554627385N00717190EA0174501740005010037012353
B1158564627391N00717191EA0174501739005010039005357
B1158574627397N00717192EA0174301738005010041005352
B1158584627403N00717193EA0174201737005010041010356
B1158594627409N00717195EA0174201735005010037014007
B1159004627414N00717197EA0174001734005010036015002
B1159014627419N00717199EA0173801733005010036013006
B1159024627424N00717201EA0173801732005010038014359
B1159034627430N00717203EA0173501731005010039018352
B1159044627435N00717206EA0173301730005010039022333
B1159054627440N00717209EA0173101729005010036019334
B1159064627446N00717211EA0172601728005010036012342
B1159074627451N00717212EA0172401726005010036358346
B1159084627456N00717212EA0172201723005010038354354
B1159094627462N00717211EA0172101721005010041353000
B1159104627468N00717210EA0172001719005010040006356
B1159114627474N00717212EA0171801717005010037013348
B1159124627479N00717214EA0171701715005010033018336
B1159134627483N00717215EA0171401713005010030008325
B1159144627488N00717216EA0171101711005010031353319
B1159154627492N00717214EA0170901709005010032334302
B1159164627496N00717210EA0170801706005010029310293
B1159174627498N00717204EA0170601704005010028282274
B1159184627498N00717198EA0170401702005010026259259
B1159194627496N00717193EA0170301699005010026244245
B1159204627494N00717188EA0170001697005010025226235
B1159214627491N00717185EA0169701695005010025209226
B1159224627487N00717183EA0169401693005010024189215
B1159234627484N00717183EA0169101690005010025177203
B1159244627480N00717183EA0168801688005010026172190
B1159254627476N00717184EA0168501686005010028169183
B1159264627471N00717185EA0168301683005010030169182
B1159274627467N00717187EA0168001680005010029171181
B1159284627463N00717187EA0167701678005010028175186
B1159294627459N00717188EA0167501675005010026177189
B1159304627455N00717188EA0167201672005010025181197
B1159314627451N00717187EA0167001670005010026185205
B1159324627447N00717186EA0166801667005010028193215
B1159334627443N00717184EA0166601664005010029203224
B1159344627439N00717181EA0166401662005010027214228
B1159354627436N00717178EA0166201659005010024227234
B1159364627434N00717174EA0166001657005010022237236
B1159374627433N00717169EA0165801654005010024243245
B1159384627431N00717164EA0165501652005010027244259
B1159394627429N00717158EA0165401649005010029245272
B1159404627428N00717152EA0165301646005010029253283
B1159414627427N00717146EA0165101644005010028270288
B1159424627428N00717140EA0164901642005010029290289
B1159434627431N00717134EA0164701640005010034307296
B1159444627434N00717129EA0164701638005010036317313
B1159454627439N00717125EA0164501636005010035330320
B1159464627444N00717122EA0164301634005010034343327
B1159474627449N00717121EA0164201632005010036358333
B1159484627455N00717121EA0163901630005010040003330
B1159494627461N00717122EA0163501628005010041002328
B1159504627467N00717121EA0163201626005010037346321
B1159514627472N00717118EA0162701623005010040328307
B1159524627476N00717112EA0162401621005010036295298
B1159534627477N00717105EA0162301618005010036274272
B1159544627476N00717097EA0162301615005010035250256
B1159554627474N00717091EA0162301613005010031231238
B1159564627470N00717087EA0162101611005010026212225
B1159574627467N00717085EA0162001610005010024191212
B1159584627463N00717085EA0161801608005010026180196
B1159594627459N00717085EA0161701607005010027177191
B1200004627454N00717086EA0161401605005010028178183
B1200014627450N00717086EA0161201604005010028181183
B1200024627446N00717086EA0161101602005010029183179
B1200034627442N00717085EA0161001600005010027181178
B1200044627437N00717085EA0160901599005010026180180
B1200054627434N00717085EA0160701597005010024181188
B1200064627430N00717085EA0160601595005010025186191
B1200074627426N00717084EA0160401594005010027192194
B1200084627422N00717082EA0160401592005010030200207
B1200094627418N00717079EA0160301591005010030209230
B1200104627414N00717076EA0160201589005010030222242
B1200114627411N00717071EA0160101588005010030235262
B1200124627409N00717064EA0160201587005010034253274
B1200134627409N00717057EA0160201585005010036273281
B1200144627410N00717050EA0160401584005010036297293
B1200154627414N00717044EA0160401583005010039327306
B1200164627420N00717041EA0160601583005010041349329
B1200174627426N00717040EA0160601583005010038003352
B1200184627437N00717043EA0160601583005010040016003
B1200204627448N00717053EA0160601583005010041044023
B1200224627455N00717065EA0160401583005010033051048
B1200234627458N00717070EA0160201583005010030055051
B1200244627461N00717076EA0160001582005010035052044
B1200254627464N00717083EA0159801581005010037052033
B1200264627468N00717088EA0159501581005010033044025
B1200274627472N00717092EA0159301580005010030015017
B1200284627477N00717092EA0159001578005010037356352
B1200294627482N00717090EA0158601576005010041336332
B1200304627487N00717085EA0158501574005010042314314
B1200314627490N00717078EA0158401572005010038287292
B1200324627491N00717070EA0158201570005010035264268
B1200334627490N00717063EA0157901568005010031243249
B1200344627487N00717058EA0157601567005010030222228
B1200354627483N00717055EA0157401565005010029199212
B1200364627478N00717055EA0157101563005010030175193
B1200374627474N00717056EA0156701561005010034156175
B1200384627469N00717060EA0156601559005010035139159
B1200394627466N00717066EA0156501557005010034116144
B1200404627465N00717074EA0156201555005010035086124
B1200414627467N00717081EA0156001553005010039064095
B1200424627470N00717088EA0155801551005010039044071
B1200434627474N00717093EA0155601549005010036027048
B1200444627479N00717095EA0155401547005010033005028
B1200454627484N00717094EA0155101545005010032342002
B1200464627489N00717091EA0154801542005010037323334
B1200474627493N00717084EA0154601539005010039297314
B1200484627494N00717076EA0154401537005010039273287
B1200494627492N00717069EA0154201534005010041231264
B1200504627487N00717064EA0153901532005010042195225
B1200514627481N00717064EA0153801530005010042167193
B1200524627476N00717068EA0153801528005010037128168
B1200534627474N00717075EA0153601526005010035097133
B1200544627474N00717082EA0153501524005010034077104
B1200554627476N00717089EA0153301522005010032062086
B1200564627479N00717095EA0153101520005010031047071
B1200574627483N00717100EA0152701518005010033028056
B1200584627488N00717102EA0152401516005010037002035
B1200594627493N00717100EA0152001513005010041337006
B1201004627499N00717095EA0151801510005010043312338
B1201014627502N00717087EA0151701507005010041296310
B1201024627504N00717079EA0151401505005010036275292
B1201034627504N00717072EA0151301502005010031262266
B1201044627503N00717065EA0151101499005010031251248
B1201054627501N00717059EA0150701497005010033242240
B1201064627498N00717053EA0150401494005010040235230
B1201074627494N00717045EA0150301491005010046230228
B1201084627489N00717038EA0150301488005010045225215
B1201094627484N00717032EA0150301485005010039223215
B1201104627480N00717027EA0150101484005010035217204
B1201114627476N00717022EA0149901482005010035212193
B1201124627471N00717019EA0149701481005010038205179
B1201134627465N00717016EA0149301479005010044195166
B1201144627458N00717014EA0149301477005010048183166
B1201154627451N00717015EA0149201475005010046170150
B1201164627445N00717017EA0149201474005010040157147
B1201174627440N00717021EA0149001473005010033146130
B1201184627437N00717025EA0148901472005010028127126
B1201194627435N00717031EA0148501470005010030107114
B1201204627434N00717038EA0148101467005010039096099
B1201214627434N00717047EA0147901465005010041083089
B1201224627436N00717055EA0147701463005010034061076
B1201234627439N00717060EA0147501461005010030035059
B1201244627443N00717062EA0147201458005010030006037
B1201254627448N00717062EA0147101456005010029345010
B1201264627452N00717059EA0146901454005010028325350
B1201274627455N00717054EA0146701452005010029305328
B1201284627457N00717048EA0146501450005010033291301
B1201294627458N00717040EA0146301448005010037279282
B1201304627458N00717032EA0146201446005010039266268
B1201314627457N00717024EA0146101444005010040254254
B1201324627455N00717015EA0146001443005010041247247
B1201334627452N00717007EA0145901441005010042244251
B1201344627450N00716999EA0145801440005010042245262
B1201354627447N00716990EA0145801439005010042252266
B1201364627446N00716982EA0145701437005010039260278
B1201374627446N00716974EA0145701436005010037272285
B1201384627446N00716966EA0145601435005010035283295
B1201394627448N00716959EA0145501434005010033301307
B1201404627451N00716954EA0145501434005010031322324
B1201414627455N00716951EA0145501433005010028347344
B1201424627459N00716951EA0145501432005010026013007
B1201434627462N00716954EA0145501432005010024050030
B1201444627464N00716959EA0145501431005010024080062
B1201454627463N00716964EA0145401430005010026114089
B1201464627461N00716969EA0145401430005010029132108
B1201474627457N00716974EA0145401429005010031138110
B1201484627454N00716979EA0145301428005010029138108
B1201494627451N00716984EA0145201428005010026128111
B1201504627449N00716988EA0145101427005010024111106
B1201514627448N00716994EA0145101426005010025096097
B1201524627448N00716999EA0145001425005010024088082
B1201534627448N00717004EA0144901425005010020080075
B1201544627449N00717008EA0144801424005010017072071
B1201554627450N00717011EA0144701423005010018060064
B1201564627452N00717015EA0144501422005010023055052
B1201574627454N00717019EA0144301421005010026054040
B1201584627456N00717023EA0144101420005010024051058
B1201594627458N00717027EA0143801419005010021042039
B1202004627461N00717030EA0143501418005010019035030
B1202014627463N00717032EA0143201417005010018026036
B1202024627466N00717033EA0142901415005010022023026
B1202034627469N00717036EA0142701414005010027025033
B1202044627473N00717038EA0142501413005010026021012
B1202054627476N00717039EA0142501411005010021019036
B1202064627479N00717041EA0142201410005010017019024
B1202074627482N00717042EA0142001409005010015018031
B1202084627484N00717043EA0141801408005010019017021
B1202094627487N00717044EA0141601406005010023014018
B1202104627491N00717045EA0141401405005010023009016
B1202114627494N00717046EA0141201403005010021005027
B1202124627497N00717046EA0141001402005010021004028
B1202134627500N00717047EA0140801400005010021008031
B1202144627504N00717048EA0140601398005010024017031
B1202154627507N00717050EA0140501397005010025024031
B1202164627511N00717052EA0140301395005010025026034
B1202174627514N00717055EA0140101394005010024026026
B1202184627517N00717057EA0139901392005010025025019
B1202194627521N00717059EA0139801390005010025023029
B1202204627524N00717061EA0139601389005010025018017
B1202214627528N00717063EA0139501387005010023015032
B1202224627531N00717064EA0139401385005010022017022
B1202234627534N00717066EA0139301384005010019022023
B1202244627536N00717067EA0139101382005010016022020
B1202254627538N00717068EA0138901380005010017012011
B1202264627541N00717069EA0138601379005010021001014
B1202274627545N00717069EA0138501377005010023001027
B1202284627548N00717070EA0138401375005010022010032
B1202294627551N00717071EA0138201374005010018022027
B1202304627553N00717072EA0138101372005010016027023
B1202314627555N00717074EA0138001370005010018021009
B1202324627558N00717075EA0137801369005010020014358
B1202334627561N00717076EA0137601367005010021355338
B1202344627564N00717074EA0137401365005010026317332
B1202354627567N00717068EA0137201363005010035294323
B1202364627569N00717061EA0137201361005010034288333
B1202374627571N00717054EA0137101360005010033300341
B1202384627574N00717049EA0136701358005010028317348
B1202394627577N00717048EA0136501356005010028023357
B1202404627581N00717052EA0136501354005010032045044
B1202414627583N00717058EA0136501352005010027071064
B1202424627583N00717064EA0136501350005010025101087
B1202434627581N00717069EA0136401348005010027123105
B1202444627578N00717074EA0136201346005010034135122
B1202454627574N00717080EA0136001345005010038141134
B1202464627569N00717085EA0135901343005010042150153
B1202474627563N00717088EA0135701341005010045164174
B1202484627557N00717090EA0135501339005010046181174
B1202494627550N00717089EA0135401337005010047193186
B1202504627543N00717086EA0135301335005010046196175
B1202514627537N00717084EA0135201333005010042194178
B1202524627531N00717082EA0135001331005010038190181
B1202534627525N00717080EA0134801330005010038189194
B1202544627519N00717079EA0134501328005010039194205
B1202554627514N00717076EA0134301326005010043203215
B1202564627508N00717071EA0134101324005010045213230
B1202574627503N00717065EA0133901322005010046226242
B1202584627499N00717057EA0133701320005010043243251
B1202594627497N00717049EA0133501318005010041258265
B1203004627496N00717040EA0133201316005010040274280
B1203014627498N00717032EA0133101314005010038291295
B1203024627501N00717026EA0132901312005010033309313
B1203034627504N00717022EA0132701310005010029332331
B1203044627508N00717020EA0132401308005010026359353
B1203054627512N00717022EA0132301306005010022025016
B1203064627514N00717025EA0132101304005010021055037
B1203074627516N00717029EA0131801303005010022074064
B1203084627516N00717034EA0131601301005010024092077
B1203094627515N00717040EA0131401299005010027105092
B1203104627514N00717046EA0131301297005010029112089
B1203114627512N00717052EA0131101295005010028115090
B1203124627510N00717058EA0130901293005010027115087
B1203134627508N00717063EA0130701291005010026114085
B1203144627507N00717068EA0130501289005010026106080
B1203154627506N00717074EA0130301287005010025099077
B1203164627505N00717080EA0130101285005010026090073
B1203174627506N00717085EA0129801282005010025081067
B1203184627507N00717090EA0129701281005010022062061
B1203194627509N00717094EA0129601279005010021038048
B1203204627511N00717096EA0129501277005010021017034
B1203214627515N00717096EA0129501275005010020355020
B1203224627518N00717095EA0129301273005010020342004
B1203234627520N00717093EA0129301271005010021324355
B1203244627523N00717089EA0129101270005010025303338
B1203254627524N00717083EA0128901268005010032284316
B1203264627524N00717076EA0128901266005010037266293
B1203274627523N00717068EA0128801264005010039252268
B1203284627521N00717060EA0128701263005010039241252
B1203294627518N00717053EA0128601262005010037234246
B1203304627515N00717046EA0128401261005010038234249
B1203314627512N00717039EA0128201259005010039239250
B1203324627509N00717031EA0128101258005010041249254
B1203334627507N00717023EA0127901256005010038256264
B1203344627507N00717015EA0127801255005010036268271
B1203354627507N00717007EA0127701253005010034277284
B1203364627508N00717000EA0127501251005010032288294
B1203374627510N00716994EA0127301250005010030301305
B1203384627513N00716989EA0127301248005010029315322
B1203394627516N00716986EA0127201247005010026333334
B1203404627520N00716985EA0127201246005010024354354
B1203414627523N00716985EA0127101245005010021007012
B1203424627526N00716986EA0127001244005010019016021
B1203434627529N00716988EA0126701242005010019026027
B1203444627531N00716990EA0126601241005010020030034
B1203454627534N00716993EA0126301240005010022037025
B1203464627536N00716996EA0126201239005010024039023
B1203474627539N00717000EA0126101237005010024039023
B1203484627542N00717003EA0126101236005010025033032
B1203494627545N00717006EA0126001235005010025031012
B1203504627548N00717009EA0126001234005010024031021
B1203514627551N00717012EA0126001232005010023033023
B1203524627554N00717015EA0125801231005010021033016
B1203534627557N00717018EA0125701230005010022034021
B1203544627560N00717021EA0125701229005010024034029
B1203554627563N00717024EA0125601228005010025034023
B1203564627566N00717027EA0125701227005010026033025
B1203574627569N00717030EA0125601226005010024032024
B1203584627572N00717032EA0125601225005010022029024
B1203594627575N00717035EA0125401224005010022028024
B1204004627578N00717037EA0125401223005010024031017
B1204014627581N00717040EA0125401222005010024030039
B1204024627584N00717042EA0125301221005010023030013
B1204034627587N00717044EA0125201220005010021028024
B1204044627590N00717046EA0125101219005010020024024
B1204054627592N00717048EA0124901218005010021019018
B1204064627595N00717050EA0124801217005010022019019
B1204074627598N00717051EA0124801216005010022022018
B1204084627601N00717053EA0124601215005010021022007
B1204094627604N00717055EA0124501214005010021017007
B1204104627607N00717055EA0124301213005010022008001
B1204114627611N00717056EA0124301212005010024000353
B1204124627614N00717055EA0124301212005010025359346
B1204134627618N00717055EA0124201211005010024353342
B1204144627621N00717054EA0124101210005010023344356
B1204154627624N00717052EA0123901209005010023332354
B1204164627627N00717049EA0123701208005010024331354
B1204174627631N00717047EA0123601207005010025337359
B1204184627634N00717045EA0123501206005010025343359
B1204194627638N00717044EA0123301204005010025346356
B1204204627641N00717042EA0123201203005010023346008
B1204214627645N00717041EA0123001202005010023347011
B1204224627648N00717040EA0122901201005010024351018
B1204234627652N00717040EA0122901200005010025001018
B1204244627655N00717040EA0122801199005010025010015
B1204254627659N00717041EA0122801198005010024014013
B1204264627663N00717043EA0122801197005010023012017
B1204274627666N00717044EA0122601196005010021011026
B1204284627669N00717045EA0122501195005010020016046
B1204294627671N00717047EA0122401194005010021032061
B1204304627674N00717050EA0122301193005010022051071
B1204314627675N00717054EA0122201192005010027076081
B1204324627675N00717061EA0122201191005010032097091
B1204334627674N00717068EA0122101190005010033111103
B1204344627672N00717074EA0122001189005010035130113
B1204354627668N00717079EA0121901188005010036140127
B1204364627663N00717084EA0121801187005010037148133
B1204374627658N00717088EA0121701186005010039155140
B1204384627653N00717091EA0121501185005010042161154
B1204394627646N00717094EA0121501185005010044165165
B1204404627640N00717096EA0121501184005010043170156
B1204414627634N00717097EA0121401183005010041174157
B1204424627627N00717098EA0121301182005010040175160
B1204434627621N00717099EA0121201181005010039174165
B1204444627616N00717099EA0121001180005010040174168
B1204454627609N00717100EA0120901179005010041177173
B1204464627603N00717100EA0120801179005010042180173
B1204474627597N00717100EA0120601177005010041184172
B1204484627591N00717099EA0120501176005010041187180
B1204494627585N00717097EA0120301175005010041188167
B1204504627579N00717096EA0120201174005010042187183
B1204514627572N00717095EA0120001173005010042185196
B1204524627566N00717094EA0119901171005010042189217
B1204534627560N00717092EA0119801170005010043199224
B1204544627554N00717087EA0119801169005010044213230
B1204554627549N00717081EA0119701168005010045225237
B1204564627544N00717074EA0119801167005010044229237
B1204574627541N00717067EA0119701166005010039241241
B1204584627539N00717060EA0119601165005010034246261
B1204594627537N00717053EA0119301164005010033250269
B1205004627535N00717046EA0119101163005010034253285
B1205014627534N00717038EA0118901162005010038263296
B1205024627534N00717030EA0118801160005010038278304
B1205034627536N00717023EA0118801159005010035296315
B1205044627539N00717017EA0118801158005010031315325
B1205054627543N00717013EA0118801158005010026326345
B1205064627546N00717011EA0118801158005010021334358
B1205074627549N00717009EA0118701157005010020339008
B1205084627552N00717008EA0118501157005010020355013
B1205094627555N00717009EA0118301156005010021022024
B1205104627557N00717013EA0118301156005010025057036
B1205114627559N00717018EA0118301156005010029074056
B1205124627559N00717024EA0118301155005010028091057
B1205134627559N00717030EA0118301155005010021092057
B1205144627559N00717034EA0118101155005010018087053
B1205154627560N00717037EA0117801154005010014060046
B1205164627561N00717039EA0117501154005010014023021
B1205174627564N00717039EA0117301153005010025352008
B1205184627568N00717038EA0117301152005010023336353
B1205194627571N00717034EA0117201152005010029304347
B1205204627574N00717028EA0117101151005010029291316
B1205214627575N00717022EA0116901150005010029292310
B1205224627577N00717016EA0116701149005010029288310
B1205234627579N00717010EA0116501148005010031293306
B1205244627581N00717003EA0116301146005010033294309
B1205254627583N00716997EA0116301144005010032294307
B1205264627585N00716990EA0116301143005010030291319
B1205274627587N00716985EA0116201141005010028291326
B1205284627589N00716979EA0116101140005010029299342
B1205294627591N00716974EA0116101138005010026315354
B1205304627594N00716971EA0116001137005010026339009
B1205314627598N00716970EA0115801136005010026000023
B1205324627602N00716972EA0115601134005010024027035
B1205344627604N00716975EA0115501133005010023059049
B1205354627602N00716988EA0115201130005010038126087
B1205374627597N00716995EA0115101129005010042139109
B1205384627588N00717007EA0114901126005010034132107
B1205404627585N00717013EA0114701125005010030111097
B1205414627585N00717026EA0114301123005010027063061
B1205434627587N00717030EA0114201121005010023028043
B1205444627593N00717029EA0114001118005010021325000
B1205464627596N00717026EA0113901117005010024312337
B1205474627598N00717023EA0113901116005010025308323
B1205484627600N00717018EA0113801114005010025301314
B1205494627602N00717013EA0113701113005010027291307
B1205504627603N00717007EA0113701112005010030282306
B1205514627604N00717001EA0113501111005010032279311
B1205524627605N00716994EA0113301109005010031289324
B1205534627607N00716989EA0113001108005010029309339
B1205544627610N00716985EA0112801106005010028338354
B1205554627614N00716984EA0112701105005010026006012
B1205564627618N00716986EA0112701103005010024032027
B1205574627620N00716990EA0112801101005010024069041
B1205584627621N00716996EA0112801099005010025076065
B1205594627621N00717002EA0112801098005010024088061
B1206004627621N00717007EA0112701096005010021094051
B1206014627620N00717011EA0112501095005010019086051
B1206024627621N00717015EA0112301093005010017060045
B1206034627622N00717018EA0112201091005010020030029
B1206044627625N00717020EA0112001090005010023005014
B1206054627628N00717019EA0112001088005010024334358
B1206064627630N00717016EA0111801087005010027306340
B1206074627632N00717010EA0111601085005010029283320
B1206084627632N00717003EA0111501084005010033272302
B1206094627632N00716996EA0111301083005010032274300
B1206104627633N00716990EA0111201081005010029285302
B1206114627635N00716984EA0111101080005010028299312
B1206124627636N00716979EA0111101079005010025299321
B1206134627638N00716974EA0111001078005010025293328
B1206144627640N00716969EA0110801077005010024292342
B1206154627641N00716964EA0110601075005010022299356
B1206164627643N00716961EA0110401074005010021329003
B1206174627647N00716961EA0110201072005010027015011
B1206184627650N00716964EA0110201071005010026038029
B1206194627652N00716969EA0110301069005010026069030
B1206204627654N00716975EA0110301068005010024059038
B1206214627656N00716978EA0110201066005010022021032
B1206224627659N00716980EA0110201065005010023358012
B1206234627663N00716980EA0110201064005010022345356
B1206244627666N00716978EA0110101064005010020329347
B1206254627668N00716976EA0110001063005010022315349
B1206264627671N00716972EA0109901063005010024317359
B1206274627674N00716969EA0109701062005010027333005
B1206284627678N00716968EA0109601061005010024006017
B1206294627681N00716970EA0109501060005010026035032
B1206304627684N00716974EA0109601059005010026055046
B1206314627684N00716980EA0109601058005010026101054
B1206324627683N00716985EA0109501058005010020105073
B1206334627682N00716990EA0109301057005010015101066
B1206344627682N00716993EA0109001056005010016077057
B1206354627683N00716998EA0108801055005010026066049
B1206364627684N00717003EA0108701054005010025056043
B1206374627687N00717007EA0108601053005010023044037
B1206384627689N00717010EA0108401052005010019033030
B1206394627691N00717012EA0108301051005010018026029
B1206404627693N00717014EA0108201050005010016025034
B1206414627696N00717016EA0108301049005010015030014
B1206424627697N00717017EA0108301048005010009027019
B1206434627698N00717017EA0108301047005010004014021
B1206444627698N00717017EA0108301047005010003049032
B1206454627698N00717018EA0108201046005010003059034
B1206464627698N00717018EA0108301045005010003039018
B1206474627698N00717018EA0108301044005010002037008
B1206484627698N00717019EA0108301043005010002013020
B1206494627699N00717019EA0108301043005010003026025
B1206504627699N00717019EA0108201042005010002019007
B1206514627699N00717019EA0108301041005010003026009
B1206524627699N00717019EA0108301040005010004032025
B1206534627700N00717020EA0108301040005010004029033
B1206544627700N00717021EA0108301039005010004034016
B1206554627701N00717021EA0108301038005010005029025
B1206564627702N00717022EA0108301037005010006035028
B1206574627702N00717023EA0108301037005010005040014
B1206584627703N00717024EA0108301036005010005042021
B1206594627703N00717024EA0108301036005010004028023
B1207004627704N00717025EA0108401035005010004031179
B1207014627704N00717026EA0108301035005010004016262
B1207024627705N00717026EA0108301035005010003053295
B1207034627705N00717027EA0108301035005010003052319
B1207044627706N00717028EA0108301036005010003045320
B1207054627706N00717028EA0108301036005010004054324
B1207064627706N00717029EA0108301036005010004101061
B1207074627706N00717030EA0108301036005010004113067
B1207084627707N00717031EA0108301036005010001016062
B1207094627707N00717031EA0108301036005010001335059
B1207104627707N00717031EA0108301036005010001091055
B1207114627707N00717031EA0108301036005010002181054
B1207124627706N00717031EA0108301036005010002154052
B1207134627706N00717031EA0108301036005010001150050
B1207144627706N00717031EA0108301036005010000000050
B1207154627706N00717031EA0108301036005010000000049
B1207164627706N00717031EA0108301036005010000000049
B1207174627706N00717031EA0108301036005010000000048
B1207184627706N00717031EA0108301036005010000000048
B1207194627706N00717031EA0108301036005010000000048
B1207204627706N00717031EA0108301036005010000000047
B1207214627706N00717031EA0108301036005010001038047
B1207224627706N00717031EA0108301036005010001014047
B1207234627706N00717031EA0108301036005010001017047
B1207244627706N00717031EA0108301036005010000021047
B1207254627706N00717031EA0108301036005010000000047
B1207264627706N00717031EA0108301036010019000000047
B1207274627706N00717031EA0108301036010019000000046
B1207284627706N00717031EA0108301036010019000000046
B1207294627706N00717031EA0108301036010019000000046
B1207304627706N00717031EA0108301036010019000000046
B1207314627706N00717031EA0108301036010019000000046
GAqx5r6VnY3CGA7b73qtyVWzrJBYlS26VkV6SJKkVmh3m4wQf2vTCUe30Gvc8JN30
GIGKAaSqaWxVhuJ0pEC9TSnibKFI4V8/T3LBLMmHcuz/Lh4PFzBlUOUjv4Lkr3EM2
GycZmTE1Axyz0GNC4hkf5sTr61E0L1NsXLnICuq6Sjiw=

