AXFH000
HFDTE270824
HFPLTPILOT:Scott O’Brien
HFGTYGLIDERTYPE:BGD Epic M
HFDTM100GPSDATUM:WGS84
HFRFWFIRMWAREVERSION:8.2.4
HFRHWHARDWAREVERSION:Unknown device (iPhone15,4)
HFFTYFRTYPE:Flyskyhy,8.2.4
HFGPS:Internal
HFPRSVARIO:Internal Vario
HFCCLCOMPETITIONCLASS:Paraglider
HFTZNTIMEZONE:-7
HFSITSITE:Ed Levin 300ft,US
I053638FXA3941VXA4244GSP4547CCO4850HDT
C270824163601270824000108TASK
C0000000N00000000ETAKEOFF
C3920440N12241116W00015009999999000000360000STARTAREA POTLAU
C3922249N12241405W00000000001000000000360000TURNAREA SNOWVL
C3920978N12239724W00000000000400000000360000TURNAREA POTLZ
C3920095N12241882W00000000000400000000360000TURNAREA TOP
C3922264N12241989W00000000001000000000360000TURNAREA SNOWLO
C3920983N12238798W00000000001000000000360000TURNAREA TROUGH
C3920095N12241882W00000000000400000000360000TURNAREA TOP
C3925826N12241497W00000000005000000000360000TURNAREA STJOHN
C3920440N12241116W00000000001500000000360000TURNAREA POTLAU
C3920978N12239724W00000000000400000000360000FINISHAREA POTLZ
C0000000N00000000ELANDING
E163631PEVBackground
B1636313727667N12151884WA0028200282022003001183094
B1636323727667N12151884WA0028200282022003000222077
B1636333727667N12151883WA0028200282022003000218129
B1636343727667N12151883WA0028200282022003001073108
B1636353727667N12151883WA0028200282022003000204094
B1636363727667N12151884WA0028200281022004001334082
B1636373727667N12151883WA0028200281022004001109082
B1636383727667N12151883WA0028200282023004000175075
B1636393727667N12151883WA0028200282024004001250074
B1636403727667N12151883WA0028200282023006001135086
B1636413727667N12151883WA0028200282023006000002089
B1636423727667N12151883WA0028200282022004001119085
B1636433727667N12151883WA0028200282022004000202085
B1636443727666N12151884WA0028200279022003001100088
B1636453727666N12151884WA0028200279022004001122121
B1636463727666N12151886WA0028100279022004010256116
B1636473727667N12151886WA0028100279022003006288110
B1636483727667N12151886WA0028000278022003006265095
B1636493727667N12151887WA0028000279022003006256001
B1636503727666N12151886WA0028000279022003008149329
B1636513727664N12151888WA0027900280022004020217091
B1636523727663N12151889WA0027900278022004014220359
B1636533727662N12151891WA0027800279022006014226217
B1636543727661N12151891WA0027800278023008012224280
B1636553727658N12151895WA0027700280024012017228294
B1636563727659N12151900WA0027600278024012019242277
B1636573727657N12151903WA0027500279024012017241268
B1636583727658N12151906WA0027500280024008017268279
B1636593727653N12151908WA0027500284023008017224278
B1637003727650N12151913WA0027600281022006029228266
B1637013727645N12151918WA0027700279022006036221262
B1637023727642N12151922WA0027600278022006032211272
B1637033727639N12151924WA0027500278022004032210303
B1637043727636N12151927WA0027400279022004023223309
B1637053727635N12151931WA0027300277022003023245327
B1637063727632N12151934WA0027300277022003025232336
B1637073727631N12151938WA0027200276022003023231334
B1637083727629N12151941WA0027100276022003021232341
B1637093727628N12151944WA0027100275022003021249347
B1637103727626N12151949WA0027000274022003025248348
B1637113727624N12151953WA0027000274022004025232351
B1637123727624N12151956WA0026900273022003025255352
B1637133727622N12151960WA0026800272022003020245353
B1637143727621N12151964WA0026800272022003020255355
B1637153727621N12151968WA0026700271022003023264355
B1637163727621N12151972WA0026600270022003023270357
B1637173727621N12151976WA0026500270022003022263357
B1637183727621N12151979WA0026400270022003019267357
B1637193727620N12151982WA0026400269022003019264358
B1637203727620N12151986WA0026300267022004023267358
B1637213727619N12151991WA0026300266022004027254358
B1637223727619N12151995WA0026200262022004024256358
B1637233727616N12151998WA0026200261022004024214358
B1637243727613N12152001WA0026100260022006023214358
B1637253727609N12152001WA0026000253023006027175358
B1637263727604N12151999WA0025900255022006028148001
B1637273727602N12151994WA0025800254023006028123000
B1637283727600N12151988WA0025700251023008035113000
B1637293727598N12151981WA0025600248022006037101000
B1637303727598N12151975WA0025500249022006033086000
B1637313727597N12151970WA0025300247022006033098000
B1637323727596N12151964WA0025200247022006030112000
B1637333727594N12151959WA0025100245022006030117000
B1637343727592N12151954WA0025100245022006032119000
B1637353727588N12151948WA0025000245022006032121000
B1637363727585N12151944WA0025000243022006032130000
B1637373727582N12151940WA0024900242022004032138000
B1637383727579N12151936WA0024800242022004031130000
B1637393727576N12151932WA0024800240022004031137000
B1637403727572N12151927WA0024800239022004034135000
B1637413727569N12151924WA0024700240022004034143000
B1637423727564N12151921WA0024600239022004031151359
B1637433727560N12151917WA0024500238022004031147359
B1637443727557N12151914WA0024400236022004031145000
B1637453727553N12151911WA0024400235022003031143000
B1637463727550N12151908WA0024300235022003032150359
B1637473727545N12151906WA0024200234022003031163359
B1637483727542N12151905WA0024200233022003029177359
B1637493727538N12151905WA0024100232022003026186359
B1637503727535N12151905WA0024000232022003025195359
B1637513727532N12151907WA0023900231022003025207359
B1637523727529N12151910WA0023800230022003024227359
B1637533727528N12151913WA0023700230022003024249359
B1637543727526N12151918WA0023600228022003025261359
B1637553727526N12151922WA0023500228022003026272359
B1637563727526N12151926WA0023300228022003026275359
B1637573727527N12151930WA0023300226022003025296359
B1637583727528N12151934WA0023200226022003025297359
B1637593727530N12151939WA0023100224022003026303359
B1638003727532N12151943WA0022900223022003026294359
B1638013727533N12151947WA0022800223022003026286359
B1638023727534N12151952WA0022600220022004025288359
B1638033727535N12151956WA0022500217022006024301359
B1638043727536N12151959WA0022400219023006022279359
B1638053727532N12151965WA0022200217023006033235359
B1638063727530N12151969WA0022100217022006033246359
B1638073727528N12151972WA0022000219022006025233359
B1638083727526N12151976WA0021900216022006022246359
B1638093727523N12151979WA0021800215022004022214359
B1638103727520N12151981WA0021600213022006022210359
B1638113727517N12151983WA0021400213022006022202359
B1638123727513N12151985WA0021300213023006022203359
B1638133727510N12151986WA0021200212023006021197359
B1638143727506N12151987WA0021200211023006021190359
B1638153727503N12151989WA0021000208023006022206359
B1638163727500N12151991WA0020900207023006026207359
B1638173727497N12151993WA0020800207023006024207359
B1638183727493N12151995WA0020600205023006024209359
B1638193727490N12151997WA0020500203023008023210359
B1638203727487N12151999WA0020300202023008023202359
B1638213727485N12152001WA0020200199023006023206359
B1638223727481N12152002WA0020100200023006020196359
B1638233727479N12152002WA0020000198023006019204359
B1638243727476N12152004WA0020000195023006019207359
B1638253727474N12152007WA0019900192023006025225359
B1638263727471N12152011WA0019800193022006030236359
B1638273727469N12152014WA0019700192022006025255359
B1638283727468N12152018WA0019500191022006021273359
B1638293727469N12152022WA0019300191022006019279359
B1638303727470N12152026WA0019200189022006018275359
B1638313727471N12152028WA0019200185022004018277359
B1638323727471N12152032WA0019100184022004018271359
B1638333727471N12152034WA0019000184022004017275000
B1638343727471N12152035WA0018900184022004005273000
B1638353727470N12152036WA0018900184022004002272000
B1638363727470N12152035WA0018900183022004001273000
B1638373727470N12152035WA0018900183022003002272000
B1638383727471N12152035WA0018900184022003002272003
B1638393727471N12152035WA0018900183022003000273002
B1638403727472N12152035WA0018900181022003004273002
B1638413727472N12152035WA0018900182022003001273002
B1638423727472N12152035WA0018900181022003002273001
B1638433727472N12152035WA0018900182022003001273001
B1638443727472N12152036WA0018900182004003000273000
B1638453727472N12152036WA0018900182004003000273003
B1638463727472N12152036WA0018900182004003000273006
B1638473727472N12152036WA0018900182004003000273004
B1638483727472N12152035WA0018900183004003000273012
B1638493727472N12152035WA0018900183004003000273006
B1638503727472N12152035WA0018900183004003000273005
B1638513727472N12152035WA0018900183004003000273349
B1638523727472N12152035WA0018900183004003000273000
B1638533727471N12152035WA0018900182004003001273000
B1638543727471N12152034WA0018900182004003001273000
B1638553727471N12152033WA0018900181004003002273000
B1638563727470N12152032WA0018900181004003002273000
B1638573727470N12152032WA0018900181004004001273000
B1638583727471N12152031WA0018900182004006001273000
B1638593727471N12152032WA0018900181004004001273000
B1639003727471N12152032WA0018900181004003000273000
B1639013727472N12152033WA0018900181004003002273000
B1639023727473N12152032WA0018900181004003001273000
B1639033727473N12152031WA0018900181004003002273000
B1639043727474N12152032WA0018900181004003001273000
B1639053727473N12152031WA0018900181004003001273000
B1639063727474N12152032WA0018900182004003001273000
B1639073727474N12152031WA0018900182004003001273000
B1639083727474N12152031WA0018900182004003001273000
B1639093727474N12152031WA0018900182004003001064000
B1639103727474N12152030WA0018900182004003002064000
B1639113727474N12152030WA0018900182004003000064000
GpaCYnTlCdHCRImWeFNqoyFleCm2CmvWIawU4W9GHBgWXm/u7fEOH6LQqIvcb+XfE
GmNLhmdA28S4GVW3yXbW4DV3QfsuoDozf6da9NLRRxLvV9NM0VmnAW37Sz6uPArhQ
GpoQXiQpARNPS1SOtsFfclDnPbVW7SPFP06aYpA+zvjs=

