AXFH000
HFDTE261024
HFPLTPILOT:Scott O’Brien
HFGTYGLIDERTYPE:Ozone Swift 6
HFDTM100GPSDATUM:WGS84
HFRFWFIRMWAREVERSION:8.2.5
HFRHWHARDWAREVERSION:iPhone 15
HFFTYFRTYPE:Flyskyhy,8.2.5
HFGPS:Internal
HFPRSVARIO:Internal Vario
HFCCLCOMPETITIONCLASS:Paraglider
HFTZNTIMEZONE:-7
HFSITSITE:Ed Levin 300ft,US
I053638FXA3941VXA4244GSP4547CCO4850HDT
C261024182237261024000105TASK
C0000000N00000000ETAKEOFF
C3832449N11204411W00000000001000000000360000STARTAREA T04
C3832449N11204411W00030009999999000000360000TURNAREA T04
C3833533N11148217W00000000002000000000360000TURNAREA P30
C3845304N11125100W00000000006000000000360000TURNAREA S08
C3913309N11109083W00000000002000000000360000TURNAREA F04
C3935774N11050460W00000000003000000000360000TURNAREA G14
C3935774N11050460W00000000000400000000360000FINISHAREA G14
C0000000N00000000ELANDING
E182306PEVBackground
B1823063727663N12151867WA0027600276022003000299319
B1823073727663N12151867WA0027600276022003000299318
B1823083727663N12151867WA0027600276022003000299297
B1823093727663N12151867WA0027600276022003000299323
B1823103727663N12151867WA0027600277022003000324052
B1823113727663N12151868WA0027600278022003000324354
B1823123727663N12151868WA0027700278022003000324034
B1823133727663N12151868WA0027700278022003000324358
B1823143727663N12151868WA0027700278022003000324079
B1823153727663N12151868WA0027700278022003000324036
B1823163727663N12151868WA0027700278022003000321084
B1823173727663N12151868WA0027700278022003000321037
B1823183727663N12151869WA0027800278022003006243032
B1823193727662N12151869WA0027800278022003003177028
B1823203727662N12151869WA0027800277022003003177018
B1823213727662N12151869WA0027700276022003002177028
B1823223727661N12151869WA0027700276022003003177050
B1823233727661N12151869WA0027700275022003007195270
B1823243727659N12151869WA0027600276022003007191106
B1823253727658N12151870WA0027600276022003009183359
B1823263727654N12151871WA0027600278022003014187189
B1823273727652N12151872WA0027600277022003020198203
B1823283727647N12151873WA0027600279022003028192214
B1823293727643N12151874WA0027600280022003025186204
B1823303727640N12151875WA0027600283022003025183200
B1823313727638N12151876WA0027600282022003019205210
B1823323727637N12151877WA0027700284022003013183228
B1823333727635N12151879WA0027900286022003016215247
B1823343727634N12151885WA0028000284022003016254250
B1823353727634N12151890WA0028100282022003027270258
B1823363727635N12151896WA0028100281022003027284266
B1823373727636N12151901WA0028000280022003027293296
B1823383727638N12151906WA0028000279022003030299309
B1823393727640N12151910WA0027900279022003028296316
B1823403727642N12151915WA0027900278022003028298325
B1823413727644N12151919WA0027800277022003025293330
B1823423727646N12151924WA0027800276022003029296335
B1823433727647N12151929WA0027700276022003031294340
B1823443727650N12151934WA0027700276022003029297345
B1823453727652N12151938WA0027600277022003028293346
B1823463727653N12151942WA0027600277022003025297348
B1823473727655N12151946WA0027600277022003021291350
B1823483727656N12151949WA0027600278022003021284351
B1823493727657N12151953WA0027600277022003020285352
B1823503727657N12151957WA0027600276022003020280353
B1823513727657N12151962WA0027600275022003023270354
B1823523727657N12151967WA0027600275024006026265354
B1823533727654N12151970WA0027500274024008027230354
B1823543727651N12151970WA0027500271023008026199004
B1823553727649N12151970WA0027500271024012020182003
B1823563727645N12151967WA0027400266023012020153002
B1823573727642N12151961WA0027300262023012028128001
B1823583727639N12151951WA0027200272023008042120001
B1823593727642N12151945WA0027100272022006032086001
B1824003727642N12151939WA0027100272022006032082000
B1824013727641N12151933WA0027200269022004028085000
B1824023727641N12151928WA0027200268022004031095000
B1824033727639N12151922WA0027300267022004033112000
B1824043727637N12151918WA0027300267022003031132000
B1824053727634N12151914WA0027300266022003031137000
B1824063727631N12151911WA0027200266022003027142000
B1824073727629N12151908WA0027100264022003023140359
B1824083727626N12151905WA0027000263022003027137000
B1824093727623N12151901WA0027000262022003027133000
B1824103727620N12151897WA0026900261022003029130000
B1824113727617N12151893WA0026800261022003029133000
B1824123727614N12151890WA0026800260022003024137000
B1824133727612N12151886WA0026700259022003026137000
B1824143727609N12151882WA0026600258022003026135000
B1824153727606N12151879WA0026500257022003029138000
B1824163727602N12151876WA0026400256022003029152359
B1824173727599N12151875WA0026300255022003025172359
B1824183727595N12151876WA0026200254022003026194359
B1824193727592N12151878WA0026100253022003026214359
B1824203727590N12151882WA0026000252022003027240359
B1824213727588N12151886WA0025900251022003028262359
B1824223727589N12151891WA0025800250022003028278359
B1824233727589N12151896WA0025700250022003028277359
B1824243727590N12151900WA0025600249022003025285359
B1824253727591N12151904WA0025500247022003025287359
B1824263727592N12151910WA0025400246022003026287359
B1824273727593N12151915WA0025400245022003027286359
B1824283727594N12151920WA0025300245022003030281359
B1824293727595N12151926WA0025300245022003029276359
B1824303727596N12151930WA0025200244022003029280359
B1824313727597N12151936WA0025100245022003027285359
B1824323727598N12151940WA0025000245022003025290359
B1824333727600N12151945WA0024900244022003025290359
B1824343727601N12151949WA0024900244022003025293359
B1824353727602N12151953WA0024800243022003025288359
B1824363727603N12151958WA0024800243022003023276359
B1824373727603N12151963WA0024800241022003026273359
B1824383727603N12151968WA0024800241022003028264359
B1824393727603N12151973WA0024700241022003028267359
B1824403727601N12151977WA0024600240022003028259359
B1824413727600N12151982WA0024500239022004025249359
B1824423727597N12151984WA0024400238022004025203359
B1824433727593N12151987WA0024400238023004029210359
B1824443727589N12151988WA0024300238023006025190000
B1824453727583N12151982WA0024300239023004029157000
B1824463727581N12151980WA0024300239022006025135000
B1824473727578N12151976WA0024300240022006031113000
B1824483727575N12151972WA0024300240022004031133000
B1824493727574N12151967WA0024300240022006027106000
B1824503727573N12151962WA0024300237022004027106000
B1824513727571N12151957WA0024300236022004032113000
B1824533727570N12151951WA0024300234022004035114000
B1824553727566N12151940WA0024100233022004028116000
B1824563727564N12151936WA0024000232022004028127000
B1824573727561N12151933WA0023900230022003030142000
B1824583727558N12151929WA0023800229022003030145359
B1824593727555N12151927WA0023800230022003030164359
B1825003727551N12151928WA0023600228022003027197359
B1825013727548N12151930WA0023500226022003027223359
B1825023727546N12151934WA0023400222022003030248359
B1825033727545N12151940WA0023200222022003030263359
B1825043727545N12151945WA0023200222022003030271359
B1825053727546N12151949WA0023000222022003023270359
B1825063727546N12151953WA0022800222022003023286359
B1825073727548N12151962WA0022500220022003025287359
B1825083727549N12151967WA0022400221022003026279359
B1825093727550N12151972WA0022300220022003026282359
B1825103727551N12151976WA0022300220022003026278359
B1825113727552N12151980WA0022200218022003022275359
B1825123727553N12151984WA0022200217022003022284359
B1825133727554N12151989WA0022100215022003027285359
B1825143727555N12151993WA0022100217022003025286359
B1825153727556N12151997WA0022100217022003025279359
B1825163727556N12152001WA0022100217022003021270359
B1825173727556N12152005WA0022100217022003021273359
B1825183727556N12152008WA0022100216022004021257359
B1825193727555N12152012WA0022100215022004023248359
B1825203727550N12152015WA0022100213023006032218359
B1825213727547N12152017WA0022100211024006025200359
B1825223727542N12152015WA0022000210023008031167000
B1825233727538N12152008WA0021900211022006031137000
B1825243727535N12152002WA0021900212022006036124000
B1825253727535N12151997WA0021800211022006036106000
B1825263727533N12151993WA0021700206022006027107000
B1825273727532N12151988WA0021700203022006027113000
B1825283727530N12151983WA0021600201022004028116000
B1825293727527N12151978WA0021500198022004035132000
B1825303727524N12151974WA0021300198022004035144000
B1825313727520N12151972WA0021100197022004030147359
B1825323727517N12151971WA0020900197022004025157359
B1825333727514N12151970WA0020800198022004023169359
B1825343727511N12151971WA0020700197023006020203359
B1825353727509N12151973WA0020600197023004021223359
B1825363727507N12151975WA0020600197022004021249359
B1825373727506N12151978WA0020600195022004022256359
B1825383727505N12151982WA0020500194022004023256359
B1825393727503N12151986WA0020400194022003023231359
B1825403727501N12151988WA0020200194022003023229359
B1825413727499N12151992WA0020100194022004021232359
B1825423727497N12151994WA0019900193022003021228359
B1825433727495N12151997WA0019800192022003018226359
B1825443727493N12152000WA0019700191022003018208359
B1825453727491N12152002WA0019600189022003018217359
B1825463727489N12152004WA0019500188022004018217359
B1825473727485N12152007WA0019400187023004023211359
B1825483727482N12152009WA0019200188022004023209359
B1825493727480N12152010WA0019000188022003018204359
B1825503727478N12152013WA0018900188022003018211359
B1825513727476N12152015WA0018800187022004016216359
B1825523727473N12152016WA0018700186022004016215359
B1825533727472N12152018WA0018600186022003016215359
B1825543727470N12152020WA0018600186022003010227359
B1825553727470N12152020WA0018600184022003010215359
B1825563727469N12152020WA0018500182022003003216006
B1825573727469N12152020WA0018400180022003003217004
B1825583727469N12152019WA0018400179022003004151000
B1825593727468N12152019WA0018400179022003005151000
B1826003727467N12152018WA0018400179022003005151000
B1826013727467N12152017WA0018400179022003005134000
B1826023727466N12152016WA0018500179022003005141359
B1826033727466N12152016WA0018500179022003004141000
B1826043727467N12152015WA0018500179022003011006000
B1826053727468N12152015WA0018500178022003011029001
B1826063727468N12152015WA0018500178022003000029354
B1826073727469N12152014WA0018500178022003000029354
B1826083727469N12152014WA0018500178022003000029355
B1826093727469N12152014WA0018500178022004000029356
B1826103727469N12152014WA0018500178022004000029357
B1826113727469N12152014WA0018500178022004000029000
B1826123727469N12152014WA0018500177022004000029005
B1826133727468N12152014WA0018500178022003001029350
B1826143727468N12152014WA0018500179022003001029347
B1826153727468N12152014WA0018500179022004000029345
B1826163727469N12152014WA0018500179022004000029347
B1826173727469N12152014WA0018500179022003000029352
B1826183727469N12152014WA0018400179022003000029001
B1826193727469N12152014WA0018400179022004000029017
B1826203727469N12152014WA0018500179022003000029014
B1826213727469N12152014WA0018500179022003000029008
B1826223727469N12152014WA0018500180022003000029351
B1826233727469N12152013WA0018500178022003000029350
B1826243727470N12152013WA0018500179022004000029350
B1826253727470N12152013WA0018500179022003002046013
B1826263727470N12152013WA0018500178022003001046356
B1826273727470N12152013WA0018500178022004000046007
B1826283727470N12152012WA0018500178022004001046054
B1826293727470N12152012WA0018500179022004001046003
B1826303727471N12152012WA0018500179022003002046001
B1826313727471N12152013WA0018500179022004000024004
B1826323727471N12152013WA0018500178022003000023002
B1826333727471N12152013WA0018500178022003000023005
B1826343727472N12152013WA0018500178022003001023002
B1826353727472N12152012WA0018400178022003000023002
B1826363727471N12152012WA0018400177022003000023002
Gqt7B1S1y2JMsF9B7tS3ModMArf+ATrb9HfLbIk6/CqaimShnmwARZkeihlhRQU+C
GRD9MLVToXweTqVPVxnfPfNXwS8Kmyku0JojfW0bdUwqZRVHyWVCFV5zVKS6k2LWA
GReW4iMh24gFSwwBhVJcwsbLUNda4SyooBaTQX/MXlpI=

