AXFH000
HFDTE090724
HFPLTPILOT:Scott O’Brien
HFGTYGLIDERTYPE:BGD Epic
HFDTM100GPSDATUM:WGS84
HFRFWFIRMWAREVERSION:8.2.3
HFRHWHARDWAREVERSION:Unknown device (iPhone15,4)
HFFTYFRTYPE:Flyskyhy,8.2.3
HFGPS:Internal
HFPRSVARIO:Internal Vario
HFCCLCOMPETITIONCLASS:Paraglider
HFTZNTIMEZONE:-7
HFSITSITE:Tollhouse,US
I053638FXA3941VXA4244GSP4547CCO4850HDT
C090724191540090724000106TASK
C0000000N00000000ETAKEOFF
C3645916N11905906W00004009999999000000360000STARTAREA DNLNCH
C3645916N11905906W00000000000400000000360000TURNAREA DNLNCH
C3644815N11904600W00000000000400000000360000TURNAREA SONTAG
C3644227N11904778W00000000000400000000360000TURNAREA LASTCH
C3645916N11905906W00000000000400000000360000TURNAREA DNLNCH
C3645983N11907769W00000000000400000000360000TURNAREA BIGCAT
C3644130N11906307W00000000000400000000360000TURNAREA DNLPLZ
C3644130N11906307W00004009999999000000360000FINISHAREA DNLPLZ
C0000000N00000000ELANDING
B1916113700895N11922396WA0124501245005010000000034
B1916123700895N11922396WA0124501245005010000000033
B1916133700895N11922396WA0124501245010019000000034
B1916143700895N11922396WA0124501245005010000000034
B1916153700895N11922396WA0124501245010019000000034
B1916163700895N11922396WA0124501245005010000000036
B1916173700895N11922396WA0124501245005010000000042
B1916183700895N11922396WA0124501245005010000000041
B1916193700895N11922396WA0124501245005010000000040
B1916203700895N11922396WA0124501245005010000000027
B1916213700895N11922396WA0124501245005010000000058
B1916223700895N11922396WA0124501245005010001263072
B1916233700895N11922396WA0124501245005010002229069
B1916243700895N11922396WA0124501245005010001356092
B1916253700895N11922396WA0124501245005010001083063
B1916263700895N11922396WA0124501245005010002198005
B1916273700895N11922396WA0124501245005010005249253
B1916283700895N11922397WA0124501243005010005207254
B1916293700894N11922398WA0124401242005010009246259
B1916303700893N11922400WA0124401242005010013246256
B1916313700892N11922403WA0124301241005010017239255
B1916323700891N11922406WA0124201241005010017232245
B1916333700889N11922409WA0124101240005010020234247
B1916343700887N11922412WA0124101239005010023241247
B1916353700885N11922416WA0124001239005010025245232
B1916363700884N11922421WA0124001238005010027244229
B1916373700881N11922425WA0124001238005010027225224
B1916383700878N11922428WA0123901238005010028222219
B1916393700875N11922431WA0123901238005010028220215
B1916403700872N11922435WA0123901238005010026222215
B1916413700869N11922437WA0123901237005010023221225
B1916423700866N11922440WA0123901237005010019219218
B1916433700864N11922442WA0123901237005010018224225
B1916443700862N11922444WA0123901237005010019227227
B1916453700860N11922447WA0123901237005010021227220
B1916463700858N11922450WA0123901237005010024224221
B1916473700855N11922453WA0123901236005010029219220
B1916483700851N11922457WA0123801236005010029220216
B1916493700848N11922460WA0123701236005010026208203
B1916503700844N11922461WA0123701236005010022199193
B1916513700841N11922462WA0123701236005010022194189
B1916523700837N11922463WA0123701236005010026190193
B1916533700833N11922464WA0123801236005010030191196
B1916543700829N11922465WA0123901236005010029192211
B1916553700825N11922466WA0124001236005010023205225
B1916563700822N11922468WA0124001236005010022210248
B1916573700820N11922471WA0124201236005010018247262
B1916583700820N11922474WA0124401237005010014261284
B1916593700820N11922476WA0124701237005010014298296
B1917003700822N11922479WA0124901238005010023331319
B1917013700826N11922480WA0125101238005010031355347
B1917023700831N11922479WA0125201238005010044013008
B1917033700838N11922477WA0125201238005010049022029
B1917043700842N11922470WA0125201238005010047077037
B1917053700843N11922462WA0125101238005010041097088
B1917063700839N11922455WA0125001238010019039145110
B1917073700834N11922452WA0125001238010019030167165
B1917083700830N11922452WA0125101238010019022186180
B1917093700827N11922452WA0125301239010019020178199
B1917103700823N11922452WA0125501239010019029164195
B1917113700818N11922450WA0125701240010019037162191
B1917123700813N11922448WA0125901240010019032163202
B1917133700809N11922447WA0126101240010019023182205
B1917143700805N11922448WA0126201241010019022192229
B1917153700802N11922449WA0126201241005010023213236
B1917163700800N11922452WA0126201241005010024230250
B1917173700798N11922455WA0126101242005010022249267
B1917183700798N11922459WA0126101242005010022277274
B1917193700798N11922464WA0126001242005010024294286
B1917203700801N11922467WA0125901242005010031321293
B1917223700805N11922470WA0125901243005010030339310
B1917233700809N11922471WA0125801243005010029352325
B1917243700814N11922472WA0125801244005010028358333
B1917253700818N11922472WA0125801244005010031356334
B1917263700823N11922473WA0125901244005010035351339
B1917273700828N11922474WA0125901244005010038354331
B1917283700834N11922475WA0125901244005010041355339
B1917293700841N11922476WA0125901244005010044354345
B1917303700847N11922477WA0125901244005010037350345
B1917313700852N11922478WA0125901244005010035346338
B1917323700857N11922479WA0125901244005010036354349
B1917333700863N11922480WA0125801244005010039355341
B1917343700868N11922481WA0125801244005010041359339
B1917353700874N11922481WA0125801244005010040001321
B1917363700880N11922482WA0125901244005010041341305
B1917373700886N11922485WA0125901245005010036331292
B1917383700890N11922489WA0126001247005010029316278
B1917393700892N11922494WA0126101248005010027297272
B1917403700894N11922498WA0126301250005010027284259
B1917413700894N11922503WA0126501252005010027269243
B1917423700894N11922508WA0126701253005010026265230
B1917433700892N11922513WA0126901254005010024233222
B1917443700890N11922515WA0127001256005010025199205
B1917453700885N11922515WA0127101257005010029163183
B1917463700881N11922511WA0127201258010019037121158
B1917473700880N11922504WA0127301260010019043084122
B1917483700882N11922496WA0127401261010019052063078
B1917493700887N11922488WA0127401262010019051041051
B1917503700894N11922486WA0127501263010019051353025
B1917513700901N11922488WA0127501264010019044342332
B1917523700907N11922492WA0127601264050095041312320
B1917533700910N11922498WA0127701264050095027295289
B1917543700911N11922502WA0127901264010019020283270
B1917553700911N11922510WA0128001265010019027277254
B1917563700911N11922516WA0128001265010019031263244
B1917573700910N11922521WA0128101265010019029243231
B1917583700908N11922525WA0128201265005010022223219
B1917593700905N11922527WA0128201266005010021190207
B1918003700901N11922526WA0128201267005010027163191
B1918013700898N11922523WA0128201267005010032141171
B1918023700895N11922517WA0128301268005010035121151
B1918033700893N11922511WA0128301268005010037104134
B1918043700892N11922504WA0128301269005010039087117
B1918053700893N11922496WA0128301269005010041076097
B1918063700896N11922490WA0128301270010019041044083
B1918073700902N11922486WA0128301270010019044022041
B1918083700908N11922485WA0128201271010019045357011
B1918093700915N11922486WA0128201271010019045354339
B1918103700922N11922487WA0128101271010019041346337
B1918113700926N11922491WA0128001271010019036309327
B1918123700930N11922497WA0128001272010019032308285
B1918133700932N11922502WA0128001272010019031309281
B1918143700935N11922506WA0128001272010019021298281
B1918153700936N11922510WA0128001273005010021296262
B1918163700937N11922515WA0128001273005010025293257
B1918173700939N11922520WA0128001273005010026293255
B1918183700940N11922525WA0128001273005010024282247
B1918193700940N11922530WA0127901274005010023279242
B1918203700940N11922534WA0127901274005010020275240
B1918213700940N11922538WA0127801275005010017270230
B1918223700939N11922541WA0127801275005010017247224
B1918233700937N11922543WA0127801275005010021231234
B1918243700935N11922546WA0127901275005010021233238
B1918253700933N11922550WA0127901276005010023242258
B1918263700931N11922554WA0127901276005010020247271
B1918273700930N11922557WA0127801276005010016255278
B1918283700930N11922561WA0127801276005010018270282
B1918293700930N11922564WA0127801276005010017279289
B1918303700931N11922567WA0127801276005010011310293
B1918313700933N11922568WA0127701277005010013350298
B1918323700937N11922569WA0127501277005010027013317
B1918333700942N11922566WA0127401277005010031037014
B1918343700946N11922561WA0127401277005010042044053
B1918353700952N11922555WA0127201277010019038040063
B1918363700956N11922550WA0127001277010019036042055
B1918373700959N11922545WA0126901277010019031056056
B1918383700957N11922539WA0126901277050095024086076
B1918393700954N11922535WA0126901277050095023134122
B1918403700950N11922534WA0127101277010019020147163
B1918413700945N11922533WA0127201276010019026149165
B1918423700941N11922531WA0127301276010019029150158
B1918433700936N11922529WA0127401276010019036135153
B1918443700931N11922524WA0127401275010019038127153
B1918453700927N11922519WA0127401275010019034126153
B1918463700923N11922514WA0127401275010019031134157
B1918473700919N11922510WA0127401275010019030144162
B1918483700915N11922507WA0127401275010019030144163
B1918493700911N11922504WA0127401275010019022139162
B1918503700908N11922501WA0127501276010019020128177
B1918513700906N11922499WA0127601276010019019132187
B1918523700903N11922496WA0127801276010019019143204
B1918533700900N11922495WA0127901276010019020168212
B1918543700897N11922495WA0127901276010019021198223
B1918553700894N11922497WA0127901276010019023216238
B1918563700891N11922500WA0127901276010019019230247
B1918573700890N11922503WA0127901277005010017266253
B1918583700890N11922507WA0127801277005010019301270
B1918593700892N11922510WA0127801277005010024331289
B1919003700896N11922512WA0127801277005010031351315
B1919013700902N11922512WA0127801277005010041011341
B1919023700909N11922511WA0127901277005010041025009
B1919033700915N11922507WA0128001277010019045029026
B1919043700921N11922503WA0128001277010019048033032
B1919053700923N11922496WA0128101277010019046109036
B1919063700921N11922487WA0128101277010019041115126
B1919073700918N11922481WA0128101277010019032126134
B1919083700916N11922476WA0128201277010019026132151
B1919093700914N11922472WA0128301277010019024132160
B1919103700911N11922469WA0128401276010019022140166
B1919113700908N11922467WA0128401276010019022180172
B1919123700903N11922467WA0128401276005010027188201
B1919143700899N11922468WA0128301276005010026190212
B1919153700895N11922469WA0128301276005010021200217
B1919163700892N11922470WA0128301277005010019210227
B1919173700889N11922472WA0128301276005010019223232
B1919183700887N11922475WA0128301276005010018236240
B1919193700886N11922478WA0128401276005010016257247
B1919203700886N11922481WA0128401276005010013280256
B1919213700887N11922484WA0128401276005010021319262
B1919223700890N11922487WA0128501276005010029340291
B1919233700895N11922490WA0128501276005010035346316
B1919243700901N11922492WA0128501277005010035345320
B1919253700906N11922494WA0128501278005010032344314
B1919263700911N11922496WA0128601278005010033340302
B1919273700916N11922499WA0128601278005010034323289
B1919283700920N11922503WA0128701279005010032310273
B1919293700923N11922509WA0128701279005010032287259
B1919303700924N11922515WA0128701279005010030270243
B1919313700923N11922520WA0128701279005010028263232
B1919323700922N11922523WA0128701279005010021167228
B1919333700919N11922521WA0128701279010019020138175
B1919343700917N11922517WA0128701279010019025128157
B1919353700913N11922511WA0128801280010019035120144
B1919363700910N11922503WA0128801281010019038101130
B1919373700909N11922494WA0128801281010019042088110
B1919383700912N11922487WA0128901282010019044024095
B1919393700926N11922483WA0128901283010019042359013
B1919413700938N11922486WA0129001283010019032331343
B1919423700942N11922489WA0129001284010019029325306
B1919433700945N11922492WA0129101284010019028314293
B1919443700947N11922496WA0129201284010019025297278
B1919453700949N11922501WA0129301284010019027285260
B1919463700949N11922506WA0129301285010019029266247
B1919473700948N11922511WA0129301285010019024236233
B1919483700946N11922515WA0129301286010019023231210
B1919493700943N11922517WA0129301286010019023209201
B1919503700939N11922518WA0129301287005010023183188
B1919513700935N11922518WA0129401287005010024155171
B1919523700932N11922514WA0129401288005010029129153
B1919533700930N11922507WA0129401288005010048088130
B1919543700931N11922498WA0129301288005010052082085
B1919553700932N11922488WA0129301289005010052076076
B1919563700934N11922478WA0129301290010019050076070
B1919573700937N11922475WA0129301290010019028341071
B1919583700941N11922477WA0129301291010019029337308
B1919593700945N11922480WA0129301291010019031305306
B1920003700948N11922485WA0129301291010019032304283
B1920013700950N11922491WA0129301291010019033303280
B1920023700953N11922496WA0129401292010019033296270
B1920033700955N11922502WA0129501292010019030290262
B1920043700956N11922508WA0129601293010019028281260
B1920053700957N11922514WA0129801293010019030271246
B1920063700957N11922520WA0129901293010019029267232
B1920073700957N11922526WA0129901293010019028257225
B1920083700955N11922530WA0129901293010019023238220
B1920093700952N11922533WA0129901293010019021227214
B1920103700949N11922535WA0129801294005010020211211
B1920113700946N11922537WA0129801294005010018204206
B1920123700943N11922539WA0129701294005010015199202
B1920133700939N11922537WA0129701294005010020167201
B1920143700935N11922535WA0129601295005010020148183
B1920153700931N11922530WA0129601295005010030134171
B1920163700927N11922525WA0129501295005010034127153
B1920173700924N11922519WA0129501295005010034125143
B1920183700920N11922513WA0129401295005010036123141
B1920193700917N11922506WA0129401295005010039124144
B1920203700913N11922500WA0129401295005010039128146
B1920213700909N11922494WA0129401295005010038129151
B1920223700905N11922488WA0129501296005010037131153
B1920233700901N11922483WA0129601296005010036134155
B1920243700898N11922479WA0129701296005010033138174
B1920253700894N11922475WA0130001297005010032140190
B1920263700890N11922471WA0130201297005010031148204
B1920273700886N11922470WA0130401297005010027172221
B1920283700882N11922469WA0130501298005010026177238
B1920293700879N11922469WA0130701298005010025179246
B1920303700875N11922470WA0130701298005010025182147
B1920313700871N11922470WA0130701298005010024184167
B1920323700868N11922471WA0130701298010019022187182
B1920333700865N11922471WA0130701298010019021184193
B1920433700892N11922485WA0131701325004006039305239
B1920443700898N11922487WA0131701327004006043336307
B1920453700907N11922483WA0131601327004003043018355
B1920463700912N11922478WA0131601329004003041036015
B1920473700916N11922472WA0131701329004003041053039
B1920483700917N11922464WA0131801329004003046079062
B1920493700917N11922456WA0132001330004003043100097
B1920503700915N11922450WA0132101330004003043126125
B1920513700911N11922446WA0132201330004003038151153
B1920523700907N11922443WA0132301331004003038171175
B1920533700903N11922443WA0132301334004003031191186
B1920543700901N11922444WA0132401335004003021203197
B1920553700898N11922444WA0132401335004003015195204
B1920563700896N11922445WA0132501334004003019194205
B1920573700893N11922447WA0132601333004003019211218
B1920583700891N11922451WA0132701332004003023242242
B1920593700890N11922457WA0132701332004003036267264
B1921003700891N11922463WA0132701332004003041291285
B1921013700894N11922469WA0132701335004003040310302
B1921023700898N11922473WA0132701337004003040328320
B1921033700890N11922470WA0132701322005010034316329
B1921043700894N11922474WA0132701323005010033330326
B1921053700898N11922477WA0132801323005010032346338
B1921063700904N11922478WA0132901324005010034001354
B1921073700910N11922477WA0133001324005010039019011
B1921083700916N11922475WA0133101325005010036017033
B1921093700921N11922472WA0133101325010019037050033
B1921103700924N11922466WA0133101324005010040051073
B1921113700925N11922459WA0133101324010019047112073
B1921123700922N11922451WA0133001324010019040122135
B1921133700918N11922446WA0132901323010019029142146
B1921143700915N11922444WA0132901323010019023169166
B1921153700911N11922444WA0132901323010019023175195
B1921163700908N11922444WA0133101323010019016194200
B1921173700905N11922446WA0133201322010019020211214
B1921183700902N11922449WA0133401322010019025227223
B1921193700899N11922454WA0133401322010019027238233
B1921203700897N11922458WA0133501322010019024254240
B1921213700897N11922463WA0133501322010019022276250
B1921223700898N11922467WA0133501321010019022306264
B1921233700901N11922471WA0133601321010019026332285
B1921243700905N11922473WA0133601321005010033348309
B1921253700910N11922475WA0133601321005010034005331
B1921263700915N11922474WA0133601321005010034014351
B1921273700920N11922472WA0133601321010019034020001
B1921283700924N11922469WA0133601321010019033056009
B1921293700925N11922462WA0133601320010019046098062
B1921313700924N11922454WA0133501319010019046107115
B1921323700922N11922445WA0133501319010019041110125
B1921333700920N11922438WA0133401318010019032110129
B1921343700919N11922433WA0133401317010019026114134
B1921353700917N11922429WA0133501317010019025115141
B1921363700915N11922424WA0133501316010019024119144
B1921373700913N11922421WA0133601315010019021134148
B1921383700911N11922418WA0133601315010019020138164
B1921393700909N11922417WA0133601315010019017152169
B1921403700907N11922416WA0133501315010019015167182
B1921413700902N11922417WA0133501316010019020198193
B1921423700897N11922420WA0133401316010019025211209
B1921433700892N11922424WA0133401316010019026219217
B1921443700889N11922428WA0133401317005010026224225
B1921453700886N11922432WA0133401316005010025228233
B1921463700883N11922436WA0133401316005010025233234
B1921473700878N11922445WA0133401316005010022246236
B1921493700877N11922450WA0133401315005010020250244
B1921503700876N11922459WA0133401316005010016285245
B1921513700877N11922464WA0133401317005010021305264
B1921523700879N11922469WA0133301317005010026314283
B1921543700883N11922475WA0133101319005010029313288
B1921553700890N11922488WA0133101320005010031300285
B1921573700893N11922494WA0133001321005010032297288
B1921583700899N11922506WA0133001321005010032305294
B1921593700903N11922511WA0133001322005010031317309
B1922003700908N11922515WA0133001322005010031324328
B1922013700913N11922519WA0133101322005010034340334
B1922023700919N11922520WA0133201322005010040355347
B1922033700925N11922521WA0133201322005010045001359
B1922043700933N11922520WA0133201322005010049012006
B1922053700940N11922518WA0133301322005010049018017
B1922063700947N11922515WA0133301322005010036032021
B1922073700952N11922511WA0133301322005010033047036
B1922083700955N11922506WA0133301322005010036058054
B1922093700958N11922500WA0133301322005010040069069
B1922103700959N11922492WA0133201321005010046085083
B1922113700959N11922483WA0133001321005010050099099
B1922123700958N11922473WA0133001321005010050103116
B1922133700955N11922464WA0132801320005010047109125
B1922143700953N11922456WA0132601320005010043115133
B1922153700949N11922449WA0132401319005010038122144
B1922163700946N11922445WA0132301319010019029134157
B1922173700943N11922442WA0132301318010019027145172
B1922183700939N11922440WA0132301318010019027156186
B1922193700935N11922438WA0132301317010019027159195
B1922203700931N11922437WA0132201316010019027165200
B1922213700928N11922437WA0132101316010019026184204
B1922223700924N11922439WA0132001315010019026200212
B1922233700920N11922442WA0131801314010019029207219
B1922243700916N11922445WA0131701314010019031210214
B1922253700913N11922448WA0131501313010019029208216
B1922263700909N11922451WA0131501312010019026206216
B1922273700906N11922454WA0131401312010019022205212
B1922283700903N11922456WA0131401311010019021205211
B1922293700901N11922458WA0131301310010019024211210
B1922303700897N11922461WA0131301310010019027214209
B1922313700894N11922464WA0131201309010019027212202
B1922323700891N11922467WA0131201309010019026209202
B1922333700887N11922469WA0131201308010019024202203
B1922343700884N11922471WA0131101308010019023197204
B1922353700880N11922472WA0131101308010019023197201
B1922363700877N11922473WA0131101307010019021198205
B1922373700874N11922474WA0131201307010019020197208
B1922383700872N11922476WA0131201307010019019200207
B1922393700869N11922477WA0131301307010019021207208
B1922403700866N11922479WA0131401307010019021207209
B1922413700862N11922481WA0131501307010019021200205
B1922433700860N11922482WA0131501307010019018194209
B1922443700857N11922483WA0131601307010019015196203
B1922453700855N11922485WA0131601307010019018208197
B1922463700853N11922486WA0131601307010019022203184
B1922473700849N11922488WA0131501306010019026200185
B1922483700846N11922489WA0131301306010019028177188
B1922493700842N11922488WA0131201305005010026156178
B1922503700838N11922486WA0131101305005010023150167
B1922513700836N11922484WA0131001305005010021146165
B1922523700833N11922482WA0130901305005010021147162
B1922533700830N11922480WA0130901305005010024146159
B1922543700827N11922476WA0130901305005010034142153
B1922553700823N11922472WA0130901305005010034135153
B1922563700816N11922464WA0130901307005010028138150
B1922573700813N11922460WA0131001307005010029139156
B1922583700809N11922457WA0131001308005010033139154
B1922593700806N11922453WA0131101309005010034140171
B1923003700802N11922449WA0131201309005010033148189
B1923013700797N11922447WA0131301310005010034161204
B1923023700792N11922446WA0131401310005010031188216
B1923033700788N11922448WA0131401311005010028216228
B1923043700786N11922452WA0131301311005010024253243
B1923053700786N11922457WA0131301311005010024263265
B1923063700786N11922461WA0131201312005010023282271
B1923073700787N11922466WA0131201312005010026290285
B1923083700790N11922471WA0131201312005010026309291
B1923093700794N11922475WA0131201312005010034329305
B1923103700800N11922476WA0131101313005010046022324
B1923113700808N11922472WA0131001313005010052030020
B1923123700815N11922466WA0130801312010019056036028
B1923133700822N11922460WA0130701312010019056040037
B1923143700828N11922452WA0130601312010019054044043
B1923153700834N11922445WA0130601312010019048055052
B1923163700838N11922438WA0130601312010019048057068
B1923173700842N11922430WA0130701312005010045070072
B1923183700843N11922421WA0130701312005010046083087
B1923193700843N11922413WA0130801312005010045097102
B1923203700842N11922404WA0130901312005010044100116
B1923213700840N11922396WA0131001312005010033118122
B1923223700837N11922391WA0131101312005010032140145
B1923233700833N11922388WA0131201312005010028154166
B1923243700830N11922388WA0131201312005010022196178
B1923253700827N11922389WA0131201311005010021209210
B1923263700824N11922391WA0131201311005010016225218
B1923273700823N11922394WA0131101310005010015253229
B1923283700824N11922398WA0131101310005010018281244
B1923293700825N11922402WA0131001309005010022297263
B1923303700827N11922406WA0131001309005010026308280
B1923313700830N11922410WA0131001309005010034317296
B1923323700834N11922416WA0131001309005010039314310
B1923333700840N11922422WA0131101309005010040321315
B1923343700845N11922427WA0131201308005010041331315
B1923353700850N11922430WA0131401309005010035336312
B1923363700856N11922434WA0131601309005010033336307
B1923383700861N11922437WA0131901310005010033324291
B1923393700865N11922441WA0132101311005010035304274
B1923403700868N11922447WA0132301311005010038286261
B1923413700869N11922454WA0132401312005010035269244
B1923423700868N11922459WA0132501313005010028227233
B1923433700864N11922462WA0132601314005010026200210
B1923443700861N11922462WA0132701314005010022170194
B1923453700857N11922459WA0132701315005010025137178
B1923463700855N11922455WA0132701315010019032120153
B1923473700853N11922448WA0132601315010019037102134
B1923483700853N11922441WA0132501316010019040077113
B1923493700856N11922433WA0132301316010019049051081
B1923503700862N11922427WA0132201316010019055031048
B1923513700870N11922422WA0132001316010019056025024
B1923523700878N11922418WA0131901316010019056020016
B1923533700886N11922414WA0131901316010019054021011
B1923543700892N11922414WA0131901316010019038323012
B1923553700897N11922419WA0131901317010019037321304
B1923563700901N11922423WA0132101317010019036319298
B1923573700905N11922428WA0132201318010019035318294
B1923583700909N11922433WA0132401318010019034317296
B1923593700913N11922437WA0132501318010019033314288
B1924003700916N11922442WA0132501318010019033314298
B1924013700920N11922446WA0132601319010019034315290
B1924023700923N11922451WA0132601319010019035315287
B1924033700927N11922456WA0132601319010019034311286
B1924043700932N11922467WA0132601319010019034305275
B1924053700934N11922473WA0132601320005010032297272
B1924063700936N11922479WA0132601320010019032293277
B1924073700938N11922485WA0132601320005010031292281
B1924083700939N11922491WA0132601320005010031293292
B1924093700940N11922496WA0132501320005010030296304
B1924103700942N11922501WA0132501320005010029298301
B1924113700945N11922506WA0132401320005010029300295
B1924123700948N11922510WA0132301319005010032327274
B1924133700952N11922513WA0132101319005010029320265
B1924143700954N11922517WA0132001319005010020293252
B1924153700955N11922521WA0131801318005010019279232
B1924163700954N11922524WA0131701318005010018249222
B1924173700952N11922526WA0131501317005010020188208
B1924183700948N11922525WA0131301316005010025147184
B1924193700944N11922521WA0131201316005010033133160
B1924203700940N11922516WA0131001315005010037128157
B1924213700936N11922510WA0130801315005010035135156
B1924223700932N11922506WA0130601314005010035143163
B1924233700927N11922502WA0130501314005010030144158
B1924243700923N11922498WA0130301313005010032139158
B1924253700919N11922494WA0130201313005010035140157
B1924263700915N11922490WA0129901312005010034143154
B1924273700911N11922486WA0129701311005010029142148
B1924283700907N11922482WA0129701310005010029134140
B1924293700905N11922478WA0129401309005010033122135
B1924303700902N11922472WA0129201308005010036118131
B1924313700899N11922466WA0128901306005010038118129
B1924323700897N11922460WA0128601305005010039115130
B1924333700895N11922453WA0128301303005010039112128
B1924343700893N11922446WA0128101302005010039112129
B1924353700890N11922439WA0127801300005010038114135
B1924363700888N11922433WA0127601298005010038116138
B1924373700886N11922427WA0127401297005010038119139
B1924383700883N11922421WA0127101295005010036125156
B1924393700880N11922416WA0126901294005010033134166
B1924403700877N11922412WA0126701292005010032139166
B1924413700873N11922408WA0126601291005010034145176
B1924423700868N11922404WA0126501289005010037146173
B1924433700864N11922401WA0126401288005010034145169
B1924443700860N11922397WA0126401287005010029145182
B1924453700857N11922394WA0126501286005010028141174
B1924463700853N11922391WA0126501285010019030144170
B1924473700850N11922388WA0126501284010019034148180
B1924483700845N11922385WA0126501282010019037153173
B1924493700839N11922382WA0126501281010019042158170
B1924503700833N11922379WA0126401280010019044156172
B1924513700828N11922376WA0126301279010019038147179
B1924523700824N11922371WA0126201277010019034136183
B1924533700820N11922367WA0126101276010019032137185
B1924543700816N11922364WA0126101275010019030146176
B1924553700812N11922361WA0126201274010019031150174
B1924563700808N11922357WA0126201273005010033147173
B1924583700804N11922354WA0126301272005010033142175
B1924593700800N11922350WA0126401271005010031142180
B1925003700796N11922347WA0126501270005010029144177
B1925013700792N11922344WA0126601270005010028144188
B1925023700789N11922341WA0126801269005010024144201
B1925033700786N11922338WA0127001269005010022143192
B1925043700783N11922336WA0127201268005010022148191
B1925053700780N11922334WA0127401268005010021155191
B1925063700777N11922333WA0127501267005010021162195
B1925073700774N11922332WA0127601267010019022166194
B1925083700766N11922331WA0127701266010019026178207
B1925093700761N11922331WA0127801266010019028184204
B1925103700757N11922331WA0127901266010019023176207
B1925113700754N11922330WA0128101266010019022170201
B1925123700750N11922330WA0128301266010019023170213
B1925133700747N11922329WA0128301266010019024178219
B1925143700743N11922330WA0128501266010019024191219
B1925153700740N11922331WA0128701266010019023203228
B1925163700737N11922333WA0128801266010019018209231
B1925173700735N11922335WA0128901266005010014223228
B1925183700734N11922338WA0128901266005010015245238
B1925193700734N11922341WA0128901265005010019249247
B1925203700733N11922345WA0128801265005010022258250
B1925213700733N11922350WA0128801265005010023281257
B1925223700735N11922355WA0128701265005010027300271
B1925233700739N11922359WA0128701265005010030326286
B1925243700743N11922363WA0128701265005010031344309
B1925253700748N11922365WA0128701265005010033346326
B1925263700754N11922367WA0128801265005010034343329
B1925273700759N11922365WA0129001264010019039039327
B1925283700764N11922360WA0129001264010019042051041
B1925293700768N11922354WA0129001263010019044053062
B1925303700772N11922347WA0129001262010019046057066
B1925313700776N11922339WA0128901261010019047057069
B1925323700780N11922331WA0128801260010019046057069
B1925333700781N11922323WA0128801260010019044105068
B1925343700778N11922314WA0128801259010019043106126
B1925353700776N11922305WA0128901258010019037107133
B1925363700773N11922299WA0128901258010019028130140
B1925373700770N11922295WA0129101257010019027140163
B1925383700766N11922291WA0129301256010019030148167
B1925403700762N11922288WA0129401255010019030150172
B1925413700758N11922285WA0129401254010019030152179
B1925423700754N11922283WA0129401253010019029160192
B1925433700750N11922282WA0129301252010019030166196
B1925443700745N11922281WA0129201252010019030172207
B1925453700741N11922281WA0129201252010019030186207
B1925463700736N11922281WA0129201252010019030186218
B1925473700731N11922282WA0129201252010019028188223
B1925483700726N11922283WA0129201253010019025193224
B1925493700722N11922283WA0129201253010019024195232
B1925503700717N11922285WA0129201254010019024204233
B1925513700713N11922288WA0129201254010019027209237
B1925523700709N11922291WA0129201254010019026210233
B1925533700706N11922294WA0129101254010019020228232
B1925543700704N11922298WA0129001254010019021252245
B1925553700703N11922303WA0128901255010019023253255
B1925563700702N11922314WA0128801255010019035271277
B1925573700703N11922322WA0128601255010019041288294
B1925583700705N11922329WA0128401255010019042305305
B1925593700709N11922335WA0128201254005010043316311
B1926003700714N11922341WA0128001255005010045332315
B1926013700721N11922345WA0127801255005010047338323
E192601Waypoint TOLLLN reached
B1926023700727N11922349WA0127801255005010042341332
B1926033700733N11922352WA0127701255005010044341335
B1926043700739N11922354WA0127601255005010046345336
B1926053700746N11922357WA0127501255005010049350332
B1926063700753N11922359WA0127401256005010046350327
B1926073700760N11922361WA0127401256005010038335309
B1926083700765N11922365WA0127301256005010036320293
B1926093700769N11922370WA0127301256005010038311279
B1926103700772N11922376WA0127401257005010038295280
B1926113700774N11922383WA0127501258005010040292284
B1926123700777N11922390WA0127601259005010039291304
B1926133700779N11922396WA0127701260005010034304321
B1926143700782N11922400WA0127901260005010028311326
B1926153700785N11922403WA0128201261005010026344335
B1926163700789N11922404WA0128401262005010027346359
B1926173700793N11922402WA0128601263010019039048005
B1926183700797N11922396WA0128801263010019040061069
B1926193700799N11922389WA0128901263010019040073083
B1926203700799N11922381WA0128901263050095039093096
B1926213700797N11922374WA0128801263010019043109118
B1926223700794N11922366WA0128701263010019043117132
B1926233700791N11922359WA0128701263010019037124138
B1926243700788N11922354WA0128801263010019032134146
B1926253700784N11922350WA0128901263010019030141158
B1926263700780N11922349WA0128901263010019027177164
B1926273700776N11922349WA0129101263010019027193192
B1926283700771N11922351WA0129201263010019028195205
B1926293700767N11922352WA0129401263010019027196206
B1926303700764N11922355WA0129501263010019018269206
B1926313700762N11922359WA0129601263005010016281254
B1926323700761N11922364WA0129801264005010015296260
B1926333700761N11922369WA0129901264005010015316268
B1926343700763N11922371WA0130101264005010016337282
B1926353700766N11922373WA0130201264010019017351299
B1926363700768N11922373WA0130401264010019018352313
B1926373700772N11922374WA0130501264010019012005317
B1926383700774N11922374WA0130501264010019010032305
B1926393700777N11922374WA0130601264010019008060289
B1926403700779N11922373WA0130701264010019009086188
B1926413700780N11922372WA0130701264010019010099169
B1926423700780N11922371WA0130801264010019010111176
B1926433700782N11922359WA0130901265010019014123178
B1926443700782N11922351WA0130901265010019016126180
B1926453700781N11922348WA0130901264010019016129186
B1926463700780N11922346WA0131101264010019017129193
B1926473700777N11922337WA0131201264010019019158198
B1926483700775N11922335WA0131401264010019021174212
B1926493700772N11922332WA0131501264010019021181218
B1926503700768N11922332WA0131601263010019021183218
B1926513700765N11922332WA0131601263010019019182219
B1926523700759N11922334WA0131701264010019016182219
B1926533700755N11922338WA0131701264010019008188183
B1926543700753N11922340WA0131901265010019010358199
B1926563700754N11922340WA0132001264010019016358311
B1926573700758N11922341WA0132201264010019017358334
B1926583700760N11922342WA0132301264030057020018320
B1926593700765N11922342WA0132401264010019022040004
B1927003700767N11922339WA0132501264010019022042038
B1927013700770N11922336WA0132601264010019021041041
B1927023700772N11922333WA0132701264010019019050039
B1927033700776N11922326WA0132801264010019017062054
B1927043700779N11922320WA0132901263010019015072076
B1927053700774N11922312WA0133001264010019014098098
B1927063700771N11922306WA0133101265010019010119137
B1927073700767N11922304WA0133101265010019006157166
B1927083700764N11922304WA0133101265010019010222197
B1927093700760N11922306WA0133201265010019012239223
B1927103700755N11922314WA0133201265010019014255233
B1927113700754N11922317WA0133301265010019007279243
B1927133700758N11922323WA0133401264010019029009248
B1927143700764N11922323WA0133401264010019036011359
B1927153700771N11922325WA0133401264010019040022004
B1927163700776N11922322WA0133501264030057040024018
B1927173700780N11922319WA0133501264030057040059021
B1927183700782N11922313WA0133601264030057037074063
B1927193700784N11922307WA0133601264030057030093082
B1927203700784N11922302WA0133701264030057028094107
B1927253700759N11922308WA0134001346004003021244110
B1927263700758N11922312WA0134001345004003025253238
B1927273700758N11922316WA0134001346004003025268247
B1927283700758N11922319WA0133901346004003021296260
B1927293700760N11922322WA0133901346004003021321283
B1927303700763N11922325WA0133901344004003025324306
B1927313700766N11922328WA0133801342004003025322308
B1927323700769N11922330WA0133801342004003025327309
B1927333700772N11922333WA0133701342004003025328312
B1927343700775N11922336WA0133601341004003025324305
B1927353700778N11922339WA0133601341004003028320305
B1927373700782N11922342WA0133601340004003028316298
B1927383700784N11922346WA0133501339004003028306291
B1927393700786N11922350WA0133401337004003024296282
B1927403700788N11922354WA0133401336004003028299296
B1927413700790N11922358WA0133301335004003028304288
B1927423700792N11922362WA0133201334004003028307284
B1927433700795N11922366WA0133101334004003029305276
B1927443700795N11922366WA0132901329010019028307280
B1927453700797N11922371WA0132801329010019031295262
B1927463700799N11922376WA0132801328010019030289259
B1927473700799N11922381WA0132801328010019022275262
B1927483700799N11922385WA0132801329010019021268271
B1927493700799N11922389WA0132801329010019021269274
B1927503700800N11922393WA0132901329010019022281275
B1927513700800N11922397WA0133001329010019023283287
B1927523700801N11922401WA0133001330010019027288290
B1927533700804N11922407WA0133001330010019036298278
B1927543700807N11922414WA0133001330010019042304293
B1927553700811N11922420WA0133101332010019040310284
B1927563700815N11922425WA0133101334010019032312273
B1927573700817N11922429WA0133201337010019020310261
B1927583700819N11922431WA0133501340010019017287249
B1927593700820N11922435WA0133701342010019024271231
B1928003700820N11922440WA0134001345010019026254214
B1928013700818N11922444WA0134301347010019023242200
B1928023700817N11922446WA0134501349010019012194189
B1928033700814N11922446WA0134701351005010019175163
B1928043700811N11922444WA0134801353010019023142150
B1928053700808N11922439WA0135001354010019028100128
B1928063700812N11922431WA0135101357030057052042093
B1928073700818N11922425WA0135201359030057043040029
B1928083700822N11922420WA0135301361030057034037028
B1928093700830N11922419WA0135401366030057025320027
B1928113700833N11922423WA0135701368030057023295295
B1928123700834N11922427WA0135801370030057022290272
B1928133700836N11922432WA0136001372030057016272268
B1928143700836N11922434WA0136201374010019012228248
B1928153700833N11922436WA0136201376010019019180219
B1928163700830N11922436WA0136401378005010023171189
B1928173700826N11922434WA0136501379005010026138181
B1928183700822N11922430WA0136501381005010033137154
B1928193700820N11922423WA0136601383010019049090149
B1928203700821N11922413WA0136701386010019050074099
B1928213700827N11922397WA0136801391010019040031081
B1928233700832N11922395WA0137101393010019039000030
B1928243700838N11922396WA0137201394050095039346351
B1928253700844N11922398WA0137401394050095039337334
B1928263700848N11922401WA0137501394050095035325325
B1928273700853N11922405WA0137601394010019034320310
B1928283700856N11922410WA0137801394010019035314303
B1928293700860N11922415WA0137901394010019031301294
B1928303700862N11922420WA0138001394010019031291280
B1928313700863N11922425WA0138001394005010030294273
B1928323700865N11922431WA0138201394005010030295272
B1928333700867N11922436WA0138401395005010028297274
B1928343700868N11922441WA0138701395005010026289265
B1928353700870N11922446WA0139001396005010026288255
B1928363700871N11922450WA0139301396005010026289255
B1928373700872N11922455WA0139501397005010025288251
B1928383700873N11922460WA0139801398005010024277238
B1928393700872N11922464WA0140001398005010026265244
B1928403700869N11922468WA0140301400005010030245241
B1928413700866N11922472WA0140501401005010031226247
B1928423700862N11922476WA0140701402005010030226256
B1928433700859N11922479WA0140901402005010021225260
B1928443700857N11922482WA0141101403005010019229260
B1928453700854N11922487WA0141301405010019019236264
B1928463700853N11922490WA0141501406010019013278266
B1928483700855N11922491WA0141901407010019014358284
B1928493700864N11922489WA0141901409010019032033339
B1928513700868N11922484WA0142301409010019037040044
B1928523700877N11922475WA0142501410010019039042054
B1928533700882N11922469WA0142801410010019035040056
B1928543700886N11922465WA0143001410010019030034052
B1928553700889N11922461WA0143301410050095023028025
B1928563700892N11922460WA0143601410050095014019015
B1928573700893N11922459WA0143901410050095008006343
B1928583700893N11922459WA0144101409050095004296272
B1928593700886N11922456WA0144401410030057009214241
B1929003700882N11922455WA0144501410030057011223225
B1929013700880N11922456WA0144701410030057011224228
B1929073700871N11922485WA0145101470004003042014227
B1929083700876N11922481WA0145101472004003044043014
B1929093700881N11922466WA0145301476004003048091087
B1929103700879N11922458WA0145401478004003048117119
B1929113700875N11922453WA0145601480004003040148147
B1929123700870N11922451WA0145701480004003040174177
B1929133700865N11922452WA0145901480004003037193202
B1929143700861N11922453WA0146101482004003036208221
B1929153700859N11922456WA0146201483004003020234241
B1929163700858N11922459WA0146201483004003020272254
B1929173700858N11922462WA0146301482004003020292271
B1929183700860N11922466WA0146301481004003021302284
B1929193700862N11922470WA0146401480004003028304297
B1929203700865N11922474WA0146401480004003029319311
B1929213700869N11922476WA0146401480004003029340327
B1929223700861N11922469WA0146401446005010031328338
B1929233700866N11922474WA0146301451005010033347341
B1929243700871N11922476WA0146301453005010036004356
B1929253700878N11922476WA0146301455005010041007016
B1929263700885N11922474WA0146301456010019041026025
B1929273700890N11922469WA0146301456030057044044042
B1929283700894N11922463WA0146401456030057044048062
B1929293700898N11922457WA0146501457030057043053063
B1929303700902N11922450WA0146601457030057029059064
B1929313700902N11922444WA0146701458030057037109070
B1929323700901N11922437WA0146801459030057030102116
B1929333700897N11922429WA0146901459010019030089113
B1929343700895N11922421WA0147001459010019036072099
B1929353700897N11922414WA0147101460010019042069075
B1929363700898N11922407WA0147201460010019040047070
B1929373700903N11922403WA0147201461010019044020043
B1929383700909N11922400WA0147201461010019044010010
B1929393700914N11922401WA0147201462010019037346354
B1929403700919N11922403WA0147301463010019036341330
B1929413700924N11922405WA0147501464010019034331325
B1929423700926N11922409WA0147501471010019035331315
B1929433700929N11922413WA0147701475010019036328309
B1929443700934N11922416WA0148001476010019035323301
B1929453700938N11922419WA0148301480010019031310297
B1929463700941N11922423WA0148601483010019036302286
B1929473700943N11922429WA0148801487010019036297278
B1929483700945N11922434WA0149001490005010031284261
B1929493700945N11922439WA0149201494005010029265243
B1929503700944N11922444WA0149401496005010027246232
B1929513700942N11922448WA0149601497005010032225222
B1929523700938N11922452WA0149801499005010035215208
B1929533700932N11922454WA0149901503005010031208195
B1929543700927N11922455WA0150101506005010028191185
B1929553700923N11922455WA0150201509005010029177171
B1929563700918N11922453WA0150401511005010034166152
B1929573700913N11922450WA0150501513005010038146136
B1929583700909N11922444WA0150601515005010041119121
B1929593700907N11922436WA0150601517005010046093099
B1930003700907N11922428WA0150701518005010050090076
B1930013700910N11922421WA0150801520010019048034073
B1930023700917N11922416WA0150901521010019050028018
B1930033700924N11922414WA0151001521010019039008013
B1930043700929N11922414WA0151201522010019031353349
B1930053700933N11922415WA0151401522010019029338328
B1930063700938N11922418WA0151601523010019034339318
B1930073700942N11922421WA0151901523010019032331313
B1930083700946N11922425WA0152101524010019030316300
B1930093700949N11922429WA0152201524010019028306289
B1930103700951N11922433WA0152301525010019026300284
B1930113700953N11922438WA0152401526010019029292267
B1930123700954N11922444WA0152501527010019032280255
B1930133700955N11922450WA0152601527010019032266239
B1930143700953N11922455WA0152801528010019032238229
B1930153700950N11922460WA0152901529005010035204211
B1930163700943N11922459WA0152901531005010033185187
B1930173700937N11922458WA0153001533005010035170168
B1930183700932N11922456WA0153101534010019040152157
B1930193700927N11922451WA0153201535010019046133141
B1930203700923N11922443WA0153301535010019047109124
B1930213700922N11922435WA0153401536010019046093102
B1930223700923N11922426WA0153401537010019046077088
B1930233700926N11922419WA0153501538010019043043073
B1930243700932N11922414WA0153501539010019040031035
B1930253700938N11922412WA0153501539010019036020018
B1930263700943N11922410WA0153501539010019034014004
B1930273700948N11922408WA0153601539010019035011357
B1930283700954N11922407WA0153701540010019034007345
B1930293700959N11922407WA0153701540010019034358345
B1930303700964N11922408WA0153801540010019032351336
B1930313700969N11922409WA0153801540010019034344335
B1930323700974N11922411WA0153801541010019034339324
B1930333700978N11922414WA0153801541010019033334320
B1930343700983N11922417WA0153801541010019032328316
B1930353700986N11922421WA0153801542010019033319316
B1930363700990N11922425WA0153801542005010036317318
B1930373700994N11922430WA0153701543005010036315317
B1930383700997N11922434WA0153601544005010034317319
B1930393701001N11922438WA0153601544005010031317312
B1930403701004N11922442WA0153601545005010030317308
B1930413701008N11922446WA0153701546005010030313311
B1930423701011N11922450WA0153801547005010031310307
B1930433701014N11922455WA0153801548005010029307307
B1930443701017N11922459WA0153801548005010038315307
B1930453701022N11922465WA0153801548005010043313307
B1930463701026N11922471WA0153601547005010044311306
B1930473701031N11922478WA0153501547005010044306304
B1930483701034N11922484WA0153401547005010039303308
B1930493701037N11922490WA0153301547005010035303307
B1930503701041N11922495WA0153301546005010035313308
B1930513701044N11922500WA0153301546005010036312308
B1930523701048N11922505WA0153301545005010037309304
B1930533701051N11922510WA0153301545005010038305306
B1930543701055N11922516WA0153301544005010037305309
B1930553701058N11922522WA0153201543005010036307309
B1930563701061N11922527WA0153101543005010035308308
B1930573701065N11922532WA0153001542005010036310308
B1930583701068N11922537WA0152901541005010038311308
B1930593701072N11922543WA0152801541005010039311307
B1931003701076N11922548WA0152701540005010039309304
B1931013701080N11922554WA0152601539005010039309305
B1931023701084N11922560WA0152501538005010038305302
B1931033701087N11922566WA0152401537005010037302299
B1931043701090N11922572WA0152401536005010037301301
B1931053701092N11922577WA0152301536005010036300302
B1931063701095N11922583WA0152201534005010037306303
B1931073701098N11922589WA0152101533005010037302300
B1931083701101N11922595WA0151901532005010039301301
B1931093701105N11922601WA0151901531005010039302305
B1931103701108N11922607WA0151801529005010037305303
B1931113701112N11922613WA0151601528005010037307306
B1931123701115N11922618WA0151401526005010037303306
B1931133701118N11922624WA0151201524005010040305306
B1931143701122N11922630WA0151001522005010041306311
B1931153701125N11922636WA0150701520005010039308312
B1931163701129N11922642WA0150501518005010038309307
B1931173701133N11922648WA0150301516005010037307305
B1931183701136N11922653WA0150001514005010037305309
B1931193701140N11922659WA0149801512005010040306314
B1931203701143N11922665WA0149601510005010040308319
B1931213701147N11922671WA0149401507005010040316311
B1931223701152N11922675WA0149201505005010036323315
B1931233701156N11922679WA0149001503005010034324312
B1931243701160N11922683WA0148801501005010034320307
B1931253701164N11922687WA0148601499005010034319313
B1931263701168N11922691WA0148501497005010033324315
B1931273701172N11922694WA0148501496005010031331309
B1931283701176N11922697WA0148301495005010029330304
B1931293701180N11922700WA0148201494005010028322305
B1931303701183N11922703WA0148101492005010026314310
B1931313701185N11922707WA0148101491005010028314310
B1931323701189N11922710WA0147901490005010030319307
B1931333701192N11922714WA0147801489005010031319307
B1931343701196N11922718WA0147701487005010032311298
B1931353701199N11922723WA0147601486005010033306302
B1931363701201N11922728WA0147401484005010034298318
B1931373701204N11922734WA0147201482005010035300314
B1931383701207N11922739WA0146901480005010040315316
B1931393701212N11922744WA0146701479005010039318316
B1931403701216N11922749WA0146401478005010036314306
B1931413701220N11922754WA0146201478005010035312307
B1931423701223N11922759WA0146101478005010031306307
B1931433701226N11922763WA0146101477005010028311308
B1931443701228N11922767WA0146101476005010025309314
B1931453701231N11922770WA0146101475005010026313307
B1931463701234N11922774WA0146001474005010034313307
B1931473701239N11922779WA0145901473005010037311313
B1931483701243N11922785WA0145701471005010037313311
B1931493701247N11922789WA0145501470005010031321316
B1931503701251N11922792WA0145301469005010028325315
B1931513701255N11922795WA0145101467005010033334312
B1931523701259N11922798WA0144901465005010031327312
B1931533701263N11922802WA0144701462005010033323314
B1931543701268N11922806WA0144501460005010036324308
B1931553701272N11922810WA0144301457005010036324304
B1931563701276N11922814WA0144001455005010033319304
B1931573701280N11922818WA0143801453005010031313301
B1931583701283N11922822WA0143601451005010031312313
B1931593701286N11922826WA0143401449005010030315310
B1932003701289N11922830WA0143201446005010033321312
B1932013701294N11922834WA0143001444005010036320304
B1932023701298N11922839WA0143001442005010035321303
B1932033701302N11922843WA0142801441005010033315300
B1932043701305N11922847WA0142701439005010029310296
B1932053701308N11922851WA0142501437005010027307296
B1932063701311N11922855WA0142401435005010028306302
B1932073701313N11922860WA0142301433005010031306301
B1932083701316N11922864WA0142101431005010035308300
B1932093701319N11922870WA0141901429005010033306305
B1932103701322N11922875WA0141701427005010031302297
B1932113701325N11922879WA0141501425005010030302300
B1932123701327N11922884WA0141301423005010030300299
B1932133701330N11922889WA0141101421005010031303299
B1932143701333N11922894WA0141001419005010033307298
B1932153701336N11922899WA0140801418005010032306294
B1932163701338N11922903WA0140601416005010030304289
B1932173701341N11922908WA0140501414005010029302290
B1932183701343N11922912WA0140501412005010029302291
B1932193701346N11922917WA0140301410005010030302292
B1932203701348N11922922WA0140201409005010031304287
B1932213701351N11922926WA0140001407005010031302285
B1932223701353N11922931WA0139801405005010027298280
B1932233701355N11922936WA0139701403005010026298291
B1932243701357N11922940WA0139501402005010026296292
B1932253701359N11922944WA0139301400005010028297296
B1932263701361N11922949WA0139101398005010028304295
B1932273701364N11922953WA0138901396005010029308295
B1932283701367N11922957WA0138601395005010026304294
B1932293701369N11922961WA0138401393005010025306293
B1932303701371N11922964WA0138201391005010024305294
B1932313701374N11922968WA0137901389005010025307298
B1932323701376N11922971WA0137701387005010026311301
B1932333701379N11922975WA0137401385005010029312298
B1932343701383N11922979WA0137101383005010032315304
B1932353701387N11922983WA0137101381005010034317300
B1932363701390N11922988WA0136701378005010032316303
B1932373701394N11922992WA0136301376005010034316304
B1932383701398N11922996WA0136001373005010035315304
B1932393701402N11923001WA0135601370005010034316302
B1932403701405N11923005WA0135301367005010029316297
B1932413701408N11923009WA0135101364005010027315297
B1932423701411N11923012WA0134801362005010026313299
B1932433701413N11923016WA0134601359005010027311302
B1932443701416N11923020WA0134401356005010029314304
B1932453701419N11923024WA0134201354005010029315302
B1932463701422N11923028WA0134001351005010029312300
B1932473701425N11923032WA0133701349005010029307299
B1932483701428N11923036WA0133501346005010029304304
B1932493701430N11923041WA0133201343005010030306304
B1932503701433N11923045WA0133001341005010031310300
B1932513701436N11923050WA0132701338005010031313298
B1932523701439N11923054WA0132701336005010029312295
B1932533701442N11923058WA0132501333005010027310301
B1932543701444N11923062WA0132301331005010026310302
B1932553701447N11923065WA0132101328005010027312303
B1932563701450N11923069WA0131901326005010027316296
B1932573701453N11923073WA0131701323005010031319292
B1932583701457N11923077WA0131501320005010029314294
B1932593701460N11923080WA0131201318005010027311294
B1933003701462N11923084WA0130901315005010025314297
B1933013701465N11923087WA0130601313005010026321298
B1933023701469N11923090WA0130301310005010026323299
B1933033701472N11923093WA0130101308005010026322299
B1933043701475N11923096WA0129801305005010027319303
B1933053701478N11923099WA0129501302005010026315303
B1933063701481N11923103WA0129201300005010027315305
B1933073701484N11923107WA0128901297005010029312300
B1933083701488N11923111WA0128601294005010031307295
B1933093701490N11923116WA0128601291005010030301303
B1933103701493N11923121WA0128201289005010031303295
B1933113701496N11923126WA0127901286005010032309301
B1933123701499N11923131WA0127601284005010033310294
B1933133701503N11923136WA0127401281005010034311287
B1933143701507N11923141WA0127201279005010035311291
B1933153701510N11923146WA0127101277005010037314284
B1933163701514N11923150WA0126901275005010037314285
B1933173701518N11923156WA0126801272005010035309287
B1933183701521N11923161WA0126701270005010032304294
B1933193701523N11923166WA0126601268005010030301296
B1933203701525N11923170WA0126501265005010030304293
B1933213701528N11923175WA0126301263005010031307291
B1933223701530N11923179WA0126101261005010030306291
B1933243701533N11923184WA0125901258005010030305296
B1933253701537N11923193WA0125501253005010032303288
B1933273701540N11923198WA0125201250005010033301288
B1933283701544N11923210WA0125001246010019036296296
B1933303701547N11923215WA0124801244010019034299296
B1933313701553N11923225WA0124401241010019034316297
B1933333701556N11923229WA0124301240010019034313293
B1933343701564N11923240WA0124101236010019041313296
B1933363701568N11923245WA0124001235010019039313288
B1933373701575N11923256WA0123801232010019036303288
B1933393701578N11923262WA0123701231010019038302280
B1933403701584N11923275WA0123601228010019040300289
B1933423701587N11923281WA0123601228010019034293281
B1933433701589N11923286WA0123501227010019028287287
B1933443701590N11923291WA0123501226010019028291290
B1933453701591N11923296WA0123501225010019029294294
B1933463701593N11923301WA0123501224010019030301294
B1933473701596N11923306WA0123401224005010035311299
B1933483701600N11923311WA0123301223010019035307298
B1933493701603N11923316WA0123201222010019033306295
B1933503701606N11923321WA0123001221010019031305297
B1933513701609N11923326WA0122801220010019041318301
B1933523701614N11923331WA0122601218010019041315297
B1933533701619N11923337WA0122401217010019046313295
B1933543701624N11923343WA0122201216010019046311285
B1933553701627N11923349WA0121901214010019034307291
B1933563701631N11923353WA0121801214010019031311292
B1933573701634N11923357WA0121701213010019030311299
B1933583701636N11923362WA0121701212010019032304295
B1933593701639N11923367WA0121601211010019034301302
B1934003701641N11923372WA0121601210010019030295297
B1934013701643N11923377WA0121601209010019028293299
B1934023701645N11923382WA0121601208010019027294305
B1934033701647N11923387WA0121501207010019026298304
B1934043701649N11923391WA0121401205010019028304302
B1934053701652N11923395WA0121301204010019031310300
B1934063701655N11923399WA0121101203010019029313307
B1934073701658N11923403WA0121001202010019029316306
B1934083701661N11923407WA0120801201010019029320308
B1934093701665N11923410WA0120701199010019031327313
B1934103701669N11923413WA0120501198010019031328317
B1934113701673N11923416WA0120401197010019030325324
B1934123701676N11923419WA0120301196010019029325323
B1934133701680N11923422WA0120101195010019030329327
B1934143701685N11923425WA0120001194010019043338324
B1934153701692N11923428WA0119801193010019045337325
B1934163701698N11923432WA0119601192010019042333323
B1934173701703N11923435WA0119501191010019038329323
B1934183701708N11923439WA0119401190010019036329330
B1934193701713N11923442WA0119401190010019035332315
B1934203701718N11923445WA0119401190005010035337321
B1934213701723N11923447WA0119401189005010034338323
B1934223701728N11923450WA0119401189005010035331326
B1934233701733N11923453WA0119401188005010033327326
B1934243701737N11923456WA0119401188005010031334335
B1934253701741N11923458WA0119401187005010032345331
B1934263701746N11923459WA0119301186005010034350328
B1934273701751N11923460WA0119101185005010034345330
B1934283701755N11923462WA0119001184005010033337331
B1934293701760N11923465WA0118901184005010031334335
B1934303701764N11923467WA0118801183005010033339332
B1934313701769N11923469WA0118801183005010034345332
B1934323701774N11923470WA0118801182005010035346334
B1934333701779N11923472WA0118801182005010032343345
B1934343701783N11923474WA0118901182005010030341342
B1934353701787N11923475WA0118901182005010031343340
B1934363701792N11923476WA0118901181005010034352341
B1934373701797N11923477WA0118901181005010036351342
B1934383701802N11923478WA0118901180005010036346343
B1934393701808N11923480WA0118801180005010038344353
B1934403701813N11923482WA0118701179005010039346354
B1934413701819N11923483WA0118601178005010040350353
B1934423701825N11923485WA0118601178005010040353000
B1934433701831N11923485WA0118501178005010039357004
B1934443701837N11923485WA0118501177005010034008015
B1934453701841N11923483WA0118501176005010034019025
B1934463701846N11923480WA0118401176005010035032038
B1934473701851N11923477WA0118301175010019037034050
B1934483701855N11923472WA0118101174010019035054055
B1934493701856N11923467WA0117901173010019024085079
B1934503701856N11923462WA0117701172010019021099111
B1934513701854N11923458WA0117501171010019018133133
B1934523701852N11923455WA0117401170010019016138159
B1934533701849N11923453WA0117401170010019013155164
B1934543701846N11923453WA0117401169010019016195177
B1934553701844N11923454WA0117401168010019015211200
B1934563701842N11923457WA0117301167010019019238209
B1934573701840N11923461WA0117301166010019027243227
B1934583701837N11923468WA0117301165010019029246227
B1934593701833N11923474WA0117301164010019034229227
B1935003701829N11923480WA0117401163010019035229219
B1935013701826N11923485WA0117501162010019026222215
B1935023701822N11923489WA0117701161010019023209213
B1935033701819N11923490WA0117901160010019020198219
B1935043701817N11923492WA0118101160010019020202227
B1935053701814N11923494WA0118201159010019021219236
B1935063701811N11923497WA0118301158010019022221239
B1935073701809N11923500WA0118301158005010022219239
B1935083701806N11923503WA0118301157005010020217234
B1935093701804N11923506WA0118201156005010013234226
B1935103701804N11923510WA0118101155005010014283223
B1935113701806N11923516WA0118101155005010025301247
B1935123701811N11923523WA0118001154005010028301272
B1935133701815N11923529WA0117901154005010027295272
B1935143701820N11923537WA0117801153005010026287264
B1935153701823N11923543WA0117701152005010025272255
B1935163701824N11923548WA0117601151005010022256241
B1935173701823N11923553WA0117501150005010022236227
B1935183701820N11923556WA0117301149005010023212212
B1935193701817N11923557WA0117001147005010024175196
B1935203701813N11923555WA0116801146005010030154172
B1935213701809N11923552WA0116701145005010031144154
B1935223701806N11923548WA0116501144005010033136141
B1935233701802N11923543WA0116401144010019036132132
B1935243701799N11923538WA0116301143010019038129125
B1935253701795N11923532WA0116201142010019038125129
B1935263701792N11923526WA0116101141010019039122134
B1935273701789N11923520WA0116101140010019036117145
B1935283701787N11923514WA0116101139010019033122144
B1935293701784N11923510WA0116001138010019031133158
B1935303701781N11923506WA0116001137005010031142163
B1935313701777N11923503WA0115901137010019029156179
B1935323701773N11923501WA0115901136010019028164193
B1935333701769N11923501WA0115801135010019030175200
B1935343701764N11923501WA0115701134010019032185209
B1935353701760N11923503WA0115701134010019032198210
B1935363701756N11923505WA0115701133010019031207206
B1935373701751N11923508WA0115701133010019034210202
B1935383701748N11923512WA0115701132010019031213198
B1935393701744N11923516WA0115701132010019033210202
B1935403701740N11923520WA0115701131010019034211200
B1935413701736N11923524WA0115701130010019034210195
B1935423701733N11923528WA0115601130010019031212193
B1935433701730N11923531WA0115601129010019028212192
B1935443701727N11923534WA0115601129010019028209189
B1935453701723N11923537WA0115601128010019030204188
B1935463701720N11923540WA0115601128010019031204191
B1935473701716N11923542WA0115601127010019031205199
B1935483701712N11923545WA0115601127010019031205218
B1935493701708N11923547WA0115501126010019028209237
B1935503701704N11923550WA0115501125010019028220250
B1935513701702N11923554WA0115401125010019028239263
B1935523701700N11923559WA0115301124010019032253279
B1935533701699N11923565WA0115201123010019031256285
B1935543701700N11923570WA0115101122010019027304280
B1935553701704N11923574WA0115101122010019033327310
B1935563701708N11923577WA0115101121010019033334331
B1935573701714N11923580WA0115101120010019034348340
B1935583701722N11923582WA0115201120010019036352352
B1935593701727N11923583WA0115301120010019036001356
B1936003701733N11923582WA0115301120010019039011004
B1936013701738N11923580WA0115401120010019040014014
B1936023701744N11923578WA0115401120010019030032015
B1936033701747N11923574WA0115401120010019029056034
B1936043701749N11923570WA0115401120010019024069061
B1936053701750N11923564WA0115501120010019028081080
B1936063701751N11923558WA0115601119010019028085091
B1936073701751N11923552WA0115601119010019027091087
B1936083701751N11923547WA0115601119010019026091088
B1936093701751N11923541WA0115601118010019024085082
B1936103701751N11923537WA0115501118010019024085084
B1936113701752N11923532WA0115501118010019026083083
B1936123701753N11923528WA0115401118010019029065094
B1936133701755N11923523WA0115301118010019030067095
B1936143701757N11923518WA0115301118010019029067098
B1936153701759N11923513WA0115201118010019026068100
B1936163701760N11923508WA0115201118010019024074096
B1936173701762N11923501WA0115101118010019022085100
B1936183701763N11923496WA0115101119010019020100105
B1936193701762N11923491WA0115001119010019021123122
B1936203701759N11923487WA0114901119010019023134139
B1936213701756N11923484WA0114901119010019023142148
B1936223701753N11923482WA0114701119010019024151163
B1936233701745N11923479WA0114501118010019029184166
B1936253701740N11923479WA0114201119010019031187178
B1936263701736N11923480WA0114101118010019025188189
B1936273701732N11923481WA0113901118010019024188199
B1936283701728N11923482WA0113701118010019024193211
B1936293701722N11923486WA0113601117010019029216219
B1936303701719N11923490WA0113401117010019033240232
B1936313701717N11923497WA0113101116010019035247230
B1936323701716N11923503WA0112801116010019035252240
B1936333701715N11923509WA0112601116010019033256241
B1936343701714N11923516WA0112401115010019033266249
B1936363701714N11923522WA0111901114010019035268262
B1936373701716N11923537WA0111701113005010042290258
B1936383701719N11923544WA0111701111005010044285255
B1936393701720N11923551WA0111501109005010042273249
B1936403701721N11923559WA0111201107005010039264243
B1936423701719N11923572WA0110701103005010033254241
B1936433701717N11923578WA0110401102005010031247236
B1936443701715N11923583WA0110201100005010031240229
B1936463701709N11923594WA0109501095005010041232221
B1936473701705N11923600WA0109101093005010041227216
B1936483701700N11923606WA0108701091005010039222210
B1936493701696N11923610WA0108401089005010034219210
B1936503701692N11923614WA0108101087005010031217207
B1936513701689N11923617WA0107901085005010031216207
B1936523701685N11923621WA0107801083005010031217210
B1936533701681N11923625WA0107701081005010037223210
B1936543701677N11923630WA0107501079005010040228220
B1936553701673N11923636WA0107401078005010040228217
B1936563701669N11923641WA0107301076005010038226215
B1936573701665N11923645WA0107201074005010030219217
B1936583701662N11923649WA0107201073005010031218226
B1936593701658N11923653WA0107201071005010032221222
B1937003701655N11923658WA0107201069005010034234221
B1937013701652N11923663WA0107201068005010035240217
B1937023701650N11923669WA0107101066005010034238207
B1937033701647N11923674WA0107101064005010032234201
B1937043701644N11923678WA0106901062005010030226207
B1937053701642N11923682WA0106801061005010029224210
B1937063701639N11923686WA0106701059005010029223208
B1937073701636N11923689WA0106601057005010030222212
B1937083701633N11923693WA0106501056005010031222209
B1937093701629N11923697WA0106301054005010032221206
B1937103701626N11923701WA0106201052005010030216203
B1937113701623N11923704WA0106001051005010031212202
B1937133701619N11923707WA0105701049005010031213205
B1937143701611N11923714WA0105301046005010031216210
B1937153701608N11923718WA0105101044005010032217202
B1937163701604N11923721WA0104901043005010033220212
B1937173701600N11923725WA0104701041005010034221208
B1937183701597N11923730WA0104601039005010035222217
B1937193701593N11923734WA0104501038005010036221214
B1937203701588N11923739WA0104401036005010037221214
B1937223701584N11923743WA0104201035005010037223213
B1937233701580N11923748WA0104201033005010038223214
B1937243701576N11923753WA0104101031005010038222202
B1937253701572N11923758WA0103901029005010038222207
B1937263701567N11923763WA0103601028005010036221203
B1937273701564N11923767WA0103401026005010034220201
B1937283701560N11923771WA0103201024005010033219201
B1937293701556N11923775WA0103001022005010031216200
B1937303701552N11923778WA0102901021005010033214197
B1937313701548N11923782WA0102701019005010033212193
B1937323701544N11923785WA0102601017005010033212196
B1937333701540N11923788WA0102401016005010031214191
B1937343701536N11923791WA0102201014005010029213197
B1937353701533N11923794WA0102101012005010028214191
B1937363701529N11923797WA0101901011005010028214193
B1937373701525N11923800WA0101801009005010029211198
B1937383701522N11923803WA0101701008005010029211210
B1937393701518N11923806WA0101601006005010030213207
B1937403701514N11923809WA0101501005005010031213206
B1937413701511N11923812WA0101501003005010030225204
B1937423701507N11923817WA0101501002005010031226221
B1937433701504N11923821WA0101601000005010031226234
B1937443701501N11923825WA0101800999005010031227260
B1937453701498N11923829WA0101900997005010030232276
B1937463701496N11923834WA0102100996005010026242286
B1937473701494N11923837WA0102200995005010023245295
B1937483701493N11923841WA0102300994005010019250296
B1937493701493N11923843WA0102400993005010017264174
B1937503701494N11923847WA0102500992010019017280178
B1937513701500N11923853WA0102500992010019019300174
B1937523701501N11923856WA0102600993010019018299160
B1937533701503N11923859WA0102700993010019017300160
B1937543701504N11923861WA0102700993010019014298158
B1937553701506N11923863WA0102700993010019012295160
B1937563701507N11923864WA0102800993010019011289163
B1937573701509N11923864WA0102900992010019008286176
B1937583701511N11923863WA0103100992010019008270183
B1937593701512N11923862WA0103300991010019010262185
B1938003701513N11923863WA0103500991010019013261193
B1938013701511N11923863WA0103700991010019016249198
B1938023701510N11923865WA0103700991010019018252204
B1938033701509N11923868WA0103900990010019020255209
B1938043701508N11923873WA0104000990010019020257153
B1938103701528N11923838WA0104501040004003022161175
B1938113701525N11923837WA0104701043004003019167156
B1938123701523N11923836WA0104901044004003018172162
B1938133701520N11923836WA0104901045004003018195167
B1938143701517N11923838WA0105201046004003018206189
B1938153701514N11923841WA0105501046004003023216197
B1938163701511N11923847WA0105701047004003040248212
B1938173701512N11923854WA0105901045004003046287237
B1938183701517N11923860WA0106001043004003046322268
B1938193701524N11923864WA0106001042004003057343306
B1938203701530N11923865WA0106001043004003048004002
B1938213701536N11923863WA0106001044004003048025046
B1938223701540N11923860WA0106001044004003039048074
B1938233701543N11923854WA0105901045004003035073092
B1938243701543N11923848WA0105901047004003035097109
B1938253701542N11923843WA0105901050004003035117124
B1938263701540N11923840WA0106001052004003029140141
B1938273701538N11923838WA0106201053004003020155153
B1938283701535N11923836WA0106301053004003020159165
B1938293701532N11923835WA0106501052004003025162175
B1938303701528N11923834WA0106501053004003025179176
B1938313701524N11923836WA0106601054004003029204189
B1938323701520N11923839WA0106701054004003029218198
B1938333701517N11923841WA0106801055004003029214205
B1938343701514N11923844WA0106801056004003027214225
B1938353701511N11923848WA0106801057004003026240228
B1938363701511N11923853WA0106901057004003032268249
B1938373701511N11923860WA0106901056004003041282269
B1938383701514N11923867WA0107001057004003041299290
B1938393701518N11923872WA0107001057004003045322311
B1938403701524N11923875WA0107101057004003045347333
B1938413701530N11923875WA0107101056004003045013007
B1938423701535N11923871WA0107101056004003044038039
B1938433701538N11923866WA0107101055004003042067069
B1938443701539N11923860WA0107101056004003036090091
B1938453701539N11923854WA0107101058004003036100113
B1938463701539N11923849WA0107101059004003031097112
B1938473701539N11923845WA0107101061004003025101118
B1938483701538N11923842WA0107101061004003017117127
B1938493701536N11923839WA0107101061004003020136142
B1938503701533N11923836WA0107201061004003020150151
B1938513701529N11923835WA0107301061004003026168158
B1938523701525N11923834WA0107401063004003029173161
B1938533701521N11923832WA0107501066004003029164157
B1938543701518N11923831WA0107501066004003023158158
B1938553701515N11923830WA0107601066004003022165162
B1938563701511N11923829WA0107701065004003028181181
B1938573701506N11923831WA0107801064004003036198191
B1938583701502N11923834WA0107901065004003036215212
B1938593701498N11923839WA0107901066004003037232236
B1939003701496N11923844WA0107901067004003029254257
B1939013701496N11923849WA0107901066004003029280270
B1939023701497N11923855WA0107901064004003029298282
B1939033701501N11923861WA0107901062004003036315301
B1939043701506N11923865WA0107901061004003046333323
B1939053701512N11923867WA0107901061004003046355346
B1939063701518N11923866WA0107901060004003043016011
B1939073701514N11923865WA0107700961010019030336353
B1939083701522N11923870WA0107600961010019028336356
B1939093701529N11923874WA0107500961010019027338352
B1939103701535N11923877WA0107400962010019024342353
B1939113701541N11923876WA0107300962010019029032354
B1939123701545N11923872WA0107200962010019035050054
B1939133701549N11923866WA0107200962010019037050073
B1939143701552N11923860WA0107200962010019034049075
B1939153701555N11923855WA0107300962010019029076081
B1939163701556N11923849WA0107500962010019028073097
B1939173701556N11923844WA0107700962010019024090104
B1939183701556N11923839WA0107800962010019026089123
B1939203701556N11923834WA0107900963010019026092132
B1939213701556N11923829WA0107900962010019023103139
B1939223701554N11923824WA0107800963010019021125143
B1939233701552N11923819WA0107700962010019020147154
B1939243701549N11923815WA0107500962010019023165164
B1939253701545N11923813WA0107400962010019026173174
B1939263701541N11923812WA0107300962010019027176177
B1939273701537N11923812WA0107200962010019029181191
B1939283701532N11923812WA0107100962010019031189198
B1939293701527N11923813WA0107000963010019030193207
B1939303701523N11923814WA0106800963010019029196211
B1939313701519N11923816WA0106700963010019030202215
B1939323701515N11923818WA0106500963010019035215215
B1939333701503N11923815WA0106300969005010035225215
B1939343701495N11923815WA0106100973005010037233207
B1939353701492N11923820WA0105900974005010037228214
B1939363701484N11923821WA0105700980005010038225209
B1939373701479N11923825WA0105500983005010040227214
B1939383701474N11923830WA0105300985005010040229214
B1939393701470N11923836WA0105000987010019040232212
B1939403701467N11923842WA0105000988010019039232210
B1939413701463N11923848WA0104800989010019036229209
B1939423701460N11923853WA0104500990010019035228205
B1939433701457N11923858WA0104200990010019034229207
B1939443701453N11923863WA0103800990010019036228207
B1939453701449N11923868WA0103400990010019037223209
B1939463701445N11923872WA0103000990010019038220216
B1939473701441N11923877WA0102500990010019039222213
B1939483701436N11923882WA0102000989010019039225200
B1939493701433N11923887WA0101500989010019037226185
B1939503701424N11923894WA0101100985010019036198189
B1939513701419N11923896WA0100700982010019039187194
B1939523701413N11923896WA0100200978010019038190191
B1939533701407N11923898WA0099800975010019037198190
B1939543701402N11923900WA0099400972010019033202188
B1939553701398N11923902WA0099000969010019030204182
B1939563701394N11923904WA0098700966010019029195190
B1939573701389N11923906WA0098400962010019037201188
B1939583701384N11923909WA0098100959010019038207195
B1939593701380N11923911WA0098100957010019030194191
B1940003701376N11923912WA0097800954010019024186184
B1940013701372N11923912WA0097600952010019026182189
B1940023701368N11923912WA0097400949010019027180191
B1940033701364N11923913WA0097300947010019030191189
B1940043701360N11923914WA0097200944010019031191191
B1940053701355N11923915WA0097000942010019031190192
B1940063701351N11923916WA0096800939010019031189193
B1940073701346N11923917WA0096600937010019031192197
B1940083701342N11923919WA0096400934010019031194194
B1940093701337N11923920WA0096200932010019031192190
B1940103701333N11923921WA0096000929010019034189190
B1940113701328N11923922WA0095800927010019034186189
B1940123701323N11923923WA0095600925010019034191203
B1940133701318N11923924WA0095400922010019033200208
B1940143701314N11923927WA0095100920010019031205212
B1940153701310N11923930WA0094900918010019032207216
B1940163701305N11923933WA0094700915010019032209213
B1940173701301N11923936WA0094500913010019033212211
B1940183701297N11923939WA0094300911010019033216213
B1940193701293N11923943WA0094100908010019033218210
B1940203701289N11923948WA0094100906005010033217212
B1940213701285N11923952WA0093900904005010033217214
B1940223701282N11923956WA0093800902005010032218212
B1940233701278N11923960WA0093600900005010034222207
B1940243701274N11923965WA0093400898005010034223203
B1940253701271N11923969WA0093300896005010033221199
B1940263701267N11923973WA0093100894005010031215196
B1940273701263N11923976WA0093000891005010029211198
B1940283701259N11923979WA0092900889005010030213196
B1940293701255N11923982WA0092700887005010032213192
B1940303701251N11923985WA0092600885005010032208187
B1940313701247N11923988WA0092400883005010033201189
B1940323701242N11923990WA0092300881005010034203197
B1940333701238N11923993WA0092100879005010035210201
B1940343701233N11923997WA0091900877005010036214199
B1940353701229N11924001WA0091700875005010037213198
B1940363701224N11924004WA0091500873005010037207196
B1940373701219N11924007WA0091400871005010036202203
B1940383701214N11924009WA0091200869005010035203209
B1940393701210N11924012WA0091100867005010033208210
B1940403701205N11924015WA0091100866005010031212205
B1940413701202N11924018WA0090900864005010030215200
B1940423701198N11924021WA0090800862005010031211196
B1940433701194N11924024WA0090700861005010031208198
B1940443701190N11924026WA0090500859005010032205198
B1940453701186N11924029WA0090400857005010033202198
B1940463701182N11924031WA0090200855005010034203206
B1940473701177N11924033WA0090000854005010033205208
B1940483701173N11924036WA0089900852005010032208213
B1940493701169N11924039WA0089700850005010031212220
B1940503701165N11924042WA0089600849005010031214225
B1940513701162N11924046WA0089400847005010031220226
B1940523701159N11924050WA0089300845005010030229229
B1940533701156N11924054WA0089100843005010030233217
B1940543701153N11924059WA0089000842005010033229211
B1940553701149N11924063WA0088800840005010033222213
B1940563701146N11924067WA0088700838005010033220212
B1940573701141N11924072WA0088700837005010034219215
B1940583701138N11924076WA0088500836005010032219212
B1940593701134N11924080WA0088300834005010032220206
B1941003701130N11924084WA0088200833005010032218207
B1941023701126N11924087WA0088000831005010032214213
B1941033701122N11924091WA0087900830005010032215215
B1941043701119N11924094WA0087700828005010031219222
B1941053701115N11924098WA0087500826005010032227228
B1941063701113N11924103WA0087300824005010028236230
B1941073701111N11924107WA0087200823010019026242228
B1941083701109N11924112WA0087000821005010027242233
B1941093701107N11924116WA0086900819005010029244224
B1941103701105N11924121WA0086700818005010031244222
B1941113701103N11924127WA0086500816005010031239207
B1941123701101N11924131WA0086300814005010029235198
B1941133701098N11924135WA0086100813005010028220194
B1941143701094N11924138WA0085900811005010029213189
B1941153701090N11924141WA0085800809005010030211192
B1941163701086N11924144WA0085700808005010031207195
B1941173701082N11924146WA0085700806005010030205196
B1941183701078N11924149WA0085500804005010029206204
B1941193701074N11924151WA0085500802005010026210204
B1941203701071N11924153WA0085400801005010026210201
B1941213701067N11924156WA0085300799005010028211203
B1941223701064N11924159WA0085200797005010029212201
B1941233701060N11924162WA0085000796005010030211202
B1941243701056N11924165WA0084900794005010030210204
B1941253701052N11924168WA0084700792005010029207208
B1941263701048N11924170WA0084600791005010029209208
B1941273701044N11924173WA0084500789005010027210201
B1941283701041N11924176WA0084300788005010028212197
B1941293701037N11924179WA0084200786005010031211189
B1941303701033N11924182WA0084000784005010031208186
B1941313701029N11924184WA0083900782005010033200184
B1941323701024N11924186WA0083600780005010033196192
B1941333701020N11924187WA0083500779005010026190198
B1941343701016N11924188WA0083300777005010025192198
B1941353701012N11924189WA0083300775005010026196200
B1941363701009N11924191WA0083100774005010027203203
E194136Waypoint TOLLLZ reached
B1941373701005N11924194WA0083000772005010027212196
B1941383701002N11924197WA0082800770005010027217189
B1941393700999N11924199WA0082600769005010022207183
B1941403700996N11924200WA0082500767005010021189182
B1941413700993N11924201WA0082300765005010023179171
B1941423700990N11924201WA0082200764005010023181174
B1941433700987N11924201WA0082100762005010022181166
B1941443700983N11924200WA0082000761005010022174166
B1941453700980N11924199WA0081900760005010023163178
B1941463700977N11924198WA0081800758005010022160187
B1941473700974N11924197WA0081700757005010020166187
B1941483700970N11924197WA0081600754005010013204184
B1941493700968N11924198WA0081600752005010013220193
B1941503700967N11924200WA0081700751005010013222194
B1941513700966N11924201WA0081700750005010012221201
B1941523700965N11924203WA0081800749005010012227207
B1941533700964N11924205WA0081800748005010013228207
B1941543700962N11924207WA0081800747005010016228207
B1941553700961N11924210WA0081800746005010016228213
B1941563700959N11924212WA0081800745005010017226202
B1941573700957N11924215WA0081700745005010017226204
B1941583700956N11924218WA0081700744005010016224203
B1941593700954N11924220WA0081700743005010015220215
B1942003700953N11924222WA0081800742005010013217230
B1942013700951N11924223WA0081900741005010012232242
B1942023700949N11924226WA0081900740005010016259256
B1942033700949N11924230WA0082000739005010018264269
B1942043700949N11924236WA0082000738005010019275279
B1942053700950N11924241WA0082000737005010021293287
B1942063700952N11924244WA0081900736010019023316295
B1942073700955N11924247WA0081900735010019029329311
B1942083700959N11924249WA0081900734010019027341323
B1942093700963N11924250WA0082000734010019030356339
B1942103700968N11924249WA0082100734010019032004355
B1942113700973N11924248WA0082200734010019032008006
B1942123700985N11924251WA0082200735010019027018010
B1942133700990N11924250WA0082200735010019027024021
B1942143700994N11924246WA0082100735010019033040029
B1942153700999N11924240WA0082100735010019030039049
B1942163701003N11924233WA0082100735010019018031047
B1942173701006N11924228WA0082100735010019010036036
B1942183701009N11924219WA0082100735010019014111075
B1942193701010N11924213WA0082100735010019021128147
B1942203701008N11924208WA0082200736010019024146157
B1942213701005N11924206WA0082200736010019025162170
B1942223701000N11924202WA0082200737010019023179175
B1942233700995N11924199WA0082100738010019021188178
B1942243700989N11924197WA0082100739010019018186174
B1942253700985N11924195WA0082000740010019020173172
B1942263700981N11924194WA0082000741010019023170176
B1942273700978N11924193WA0081900741010019024179174
B1942283700974N11924193WA0081800741010019023195183
B1942293700970N11924194WA0081800742010019021205180
B1942303700967N11924196WA0081700742010019019200175
B1942323700965N11924196WA0081700743010019018181176
B1942333700962N11924196WA0081800743010019019172173
B1942343700960N11924195WA0081800744010019019176166
B1942353700957N11924195WA0081800745010019020179162
B1942363700954N11924195WA0081900745010019019172166
B1942373700952N11924194WA0081900746010019015164168
B1942383700950N11924193WA0081900746010019013150163
B1942393700948N11924192WA0082000747010019013145159
B1942403700946N11924191WA0082000747010019016155161
B1942413700944N11924190WA0082000747010019019159165
B1942423700941N11924189WA0082000748010019017160168
B1942433700939N11924187WA0082000749010019014159169
B1942443700936N11924186WA0081900749010019013167170
B1942453700934N11924186WA0081800750010019017169172
B1942463700931N11924185WA0081700750010019021171175
B1942473700927N11924184WA0081600750010019024174172
B1942483700924N11924184WA0081600751010019020175187
B1942493700921N11924183WA0081600751010019018179183
B1942503700918N11924183WA0081600751010019017180167
B1942513700916N11924183WA0081600752010019018170166
B1942523700913N11924182WA0081600752010019022170169
B1942533700909N11924182WA0081500753010019022172164
B1942543700906N11924181WA0081500753010019022170161
B1942553700902N11924181WA0081400754010019020168167
B1942563700900N11924181WA0081300754010019020171167
B1942573700897N11924181WA0081200754010019020174167
B1942583700893N11924181WA0081100754010019021177163
B1942593700890N11924181WA0081100754010019022178164
B1943003700887N11924181WA0080900755010019025179161
B1943013700883N11924181WA0080800755010019025175160
B1943023700879N11924181WA0080600755010019026171165
B1943033700875N11924180WA0080300755010019027171161
B1943043700870N11924180WA0080100754010019033182159
B1943053700865N11924181WA0079800753010019034181166
B1943063700860N11924180WA0079500751010019032174168
B1943073700855N11924179WA0079300750010019032163149
B1943083700850N11924177WA0079000749010019031156163
B1943093700846N11924175WA0078800747010019028154162
B1943103700843N11924172WA0078600746010019025155156
B1943113700839N11924170WA0078400744010019026152151
B1943123700836N11924167WA0078200743010019024142146
B1943133700833N11924164WA0078000741010019025131139
B1943143700831N11924160WA0077800740010019026124137
B1943153700828N11924156WA0077600738010019026123134
B1943163700826N11924152WA0077400736010019027121126
B1943173700824N11924147WA0077300734010019029114123
B1943183700823N11924141WA0077300733010019032108126
B1943193700822N11924135WA0077100732010019033104133
B1943203700820N11924129WA0077000730010019033104137
B1943213700819N11924123WA0076800729010019031103141
B1943223700818N11924117WA0076700728010019030107140
B1943233700817N11924112WA0076600727010019028105137
B1943243700815N11924108WA0076400725010019026114131
B1943253700814N11924103WA0076300724010019028111130
B1943263700812N11924098WA0076100723010019031109133
B1943273700811N11924093WA0075900721010019029107133
B1943283700810N11924087WA0075800720010019029106125
B1943293700807N11924077WA0075600717010019029103125
B1943303700806N11924071WA0075500715010019031104133
B1943313700805N11924066WA0075300714010019029110138
B1943323700803N11924061WA0075200712010019028112140
B1943333700802N11924056WA0075000711010019026108143
B1943343700801N11924052WA0074900709010019026105136
B1943353700800N11924047WA0074800708010019024108142
B1943363700799N11924043WA0074800707010019023113148
B1943373700797N11924039WA0074700705010019024119149
B1943383700795N11924036WA0074700704010019019126155
B1943393700793N11924033WA0074600703010019019129161
B1943403700791N11924030WA0074600701010019018130158
B1943413700790N11924028WA0074600700010019017113150
B1943423700789N11924024WA0074600699010019021097138
B1943433700789N11924020WA0074700698010019024093141
B1943443700788N11924015WA0074700696010019024103140
B1943453700787N11924011WA0074700695010019021115144
B1943463700785N11924007WA0074700694010019022116140
B1943473700783N11924003WA0074600693010019024113147
B1943483700782N11923999WA0074500691010019026110153
B1943493700780N11923994WA0074300690010019024116157
B1943503700779N11923991WA0074200689010019021122158
B1943513700777N11923988WA0074100688010019019132157
B1943523700775N11923985WA0073900687010019019131161
B1943533700773N11923982WA0073800686010019019124161
B1943543700771N11923979WA0073700685010019021121155
B1943553700770N11923976WA0073700683010019021119155
B1943563700768N11923972WA0073600682010019022122155
B1943573700766N11923969WA0073500681010019021123159
B1943583700765N11923966WA0073500680010019021123168
B1943593700763N11923963WA0073400679010019019125171
B1944003700761N11923960WA0073200677010019017133178
B1944013700759N11923958WA0073100676010019015146184
B1944023700758N11923957WA0072900675010019014147190
B1944033700756N11923956WA0072800674010019011155196
B1944043700756N11923957WA0072600672010019006244202
B1944053700755N11923959WA0072400671010019012235229
B1944063700754N11923962WA0072100671010019016253228
B1944073700754N11923966WA0071900671010019019266239
B1944083700754N11923971WA0071700671010019022273244
B1944093700758N11923977WA0071400671010019024282246
B1944103700761N11923983WA0071200671005010025290247
B1944113700763N11923989WA0071000670005010027293249
B1944123700766N11923995WA0070800670005010026293246
B1944133700768N11924000WA0070600669005010025292246
B1944143700770N11924005WA0070500669005010023292244
B1944153700772N11924010WA0070300669005010021288244
B1944163700773N11924014WA0070300668005010020280240
B1944173700773N11924018WA0070100668005010017269238
B1944183700773N11924022WA0070000667005010015252232
B1944193700771N11924024WA0069800667005010015239222
B1944203700769N11924027WA0069600666005010017229217
B1944213700766N11924029WA0069400666005010014213212
B1944223700763N11924030WA0069300665005010011177203
B1944233700761N11924029WA0069200665005010013139188
B1944243700759N11924027WA0069000665005010016122166
B1944253700757N11924024WA0068900664010019018118158
B1944263700756N11924022WA0068800664010019019125163
B1944273700753N11924019WA0068600664010019020142172
B1944283700750N11924017WA0068400663010019020165182
B1944293700747N11924016WA0068100662010019020181193
B1944303700743N11924017WA0067900662010019019192200
B1944313700740N11924018WA0067700661010019019201209
B1944323700737N11924020WA0067400660010019021209209
B1944333700734N11924022WA0067400659010019023214215
B1944343700731N11924025WA0067200658010019024224213
B1944353700728N11924028WA0067000658010019024231216
B1944363700726N11924032WA0066800657010019024235211
B1944383700724N11924036WA0066700657010019023232218
B1944393700720N11924043WA0066500656010019019239241
B1944413700718N11924046WA0066500655010019021243244
B1944423700715N11924053WA0066400653005010020266224
B1944443700717N11924058WA0066400653005010022275199
B1944453700715N11924065WA0066300651005010015233184
B1944473700713N11924066WA0066300650005010018163176
B1944483700711N11924063WA0066300649005010022129152
B1944503700707N11924053WA0066100647005010027106131
B1944513700706N11924048WA0066100646005010029106133
B1944523700705N11924042WA0066000646005010026117139
B1944533700703N11924037WA0066000645005010025122143
B1944543700701N11924033WA0066000645005010023124157
B1944553700700N11924030WA0066000644005010021121168
B1944563700699N11924027WA0066000644010019017121182
B1944573700697N11924025WA0065900643010019018170187
B1944583700695N11924025WA0065800642010019014184204
B1944593700692N11924026WA0065700641010019016207209
B1945003700692N11924031WA0065500640010019024251211
B1945013700693N11924038WA0065300639010019028265225
B1945023700694N11924045WA0065100638010019027261231
B1945033700693N11924051WA0064900637010019026256227
B1945043700692N11924057WA0064800636010019024259223
B1945053700692N11924062WA0064700635010019017237226
B1945063700691N11924064WA0064500633010019012212214
B1945073700690N11924065WA0064300631010019011189200
B1945083700688N11924065WA0064200630010019011188188
B1945093700687N11924066WA0064000629010019011195187
B1945103700685N11924066WA0063800628010019013201183
B1945113700683N11924066WA0063600626010019017205188
B1945123700678N11924067WA0063200623010019029199202
B1945133700674N11924070WA0063200622010019032204198
B1945143700669N11924071WA0062900620010019028204205
B1945153700665N11924073WA0062700618010019021219199
B1945163700663N11924075WA0062500616010019009232197
B1945173700662N11924077WA0062400615010019007225272
B1945183700663N11924077WA0062400611010019009232271
B1945193700663N11924078WA0062400608005010004263253
B1945203700666N11924076WA0062400602005010003326285
B1945213700668N11924075WA0062300596005010002322275
B1945223700669N11924075WA0062300592005010005313272
B1945233700670N11924076WA0062300589005010003308288
B1945243700670N11924076WA0062300587005010001267282
B1945253700670N11924076WA0062300587005010000001280
B1945263700670N11924076WA0062300587005010000023291
B1945273700670N11924076WA0062300587005010001045280
B1945283700670N11924076WA0062300587005010000031276
B1945293700670N11924076WA0062300587005010000000275
B1945303700670N11924076WA0062300587005010000000275
B1945313700670N11924076WA0062300587005010000000274
B1945323700670N11924076WA0062300587005010000000272
B1945333700670N11924076WA0062300587005010000000274
B1945343700670N11924076WA0062300587005010001060273
B1945353700670N11924076WA0062300587005010001013273
B1945363700671N11924075WA0062300586005010003007272
B1945383700672N11924075WA0062300584005010003342278
B1945403700673N11924076WA0062200583005010003004278
B1945413700673N11924076WA0062200582005010002351278
B1945433700673N11924076WA0062200581005010000359276
B1945443700673N11924076WA0062200581005010000000273
B1945453700673N11924076WA0062200581005010000000273
B1945463700673N11924076WA0062200581005010000000273
B1945473700673N11924076WA0062200581005010000000273
B1945483700673N11924076WA0062200581005010000000273
B1945493700673N11924076WA0062200581005010000000273
B1945503700673N11924076WA0062200581005010000000273
B1945513700673N11924076WA0062200581005010000209269
B1945523700673N11924076WA0062200581005010002213265
B1945533700673N11924076WA0062200581005010003222268
B1945543700672N11924076WA0062200580005010004229260
B1945553700671N11924076WA0062200579005010003224259
B1945563700670N11924076WA0062200578005010003222257
B1945573700669N11924077WA0062100576005010003209254
B1945583700669N11924077WA0062100576005010002177250
B1945593700668N11924077WA0062100575005010003206251
B1946003700667N11924077WA0062100574005010003211245
B1946013700667N11924078WA0062100573005010002205245
B1946023700667N11924078WA0062100572005010002186242
B1946033700666N11924078WA0062100571005010002186243
B1946043700666N11924079WA0062100570005010002190248
B1946053700666N11924079WA0062100569005010003211246
B1946063700665N11924080WA0062200569005010004235253
B1946073700665N11924080WA0062200568005010004249265
B1946083700665N11924081WA0062200567005010004243259
B1946093700664N11924082WA0062200567005010004232247
B1946103700664N11924083WA0062200566005010003236253
B1946113700663N11924084WA0062200566005010004249259
B1946123700663N11924084WA0062200565005010004256249
B1946133700663N11924085WA0062200565005010005252268
B1946143700662N11924086WA0062200565005010003253269
B1946153700662N11924087WA0062200564005010003238245
B1946163700662N11924088WA0062200564005010004244247
B1946173700661N11924089WA0062200564005010004239240
B1946183700661N11924090WA0062200563005010004236237
B1946193700661N11924091WA0062200563005010004246243
B1946203700660N11924092WA0062200563005010004252240
B1946213700660N11924092WA0062200562005010004246252
B1946223700660N11924093WA0062200562005010003254265
B1946233700659N11924094WA0062200562005010003250261
B1946243700659N11924095WA0062200561005010004247257
B1946253700659N11924095WA0062200561005010004249257
B1946263700659N11924096WA0062200561005010004249245
B1946273700658N11924097WA0062200561005010004259243
B1946283700658N11924098WA0062200560005010004261246
B1946293700658N11924099WA0062200560005010004259262
B1946303700658N11924100WA0062200560005010003270268
B1946313700658N11924100WA0062200560005010003258250
B1946323700658N11924101WA0062200560005010003242222
B1946333700658N11924102WA0062200559005010002233283
B1946343700657N11924102WA0062200559005010001162280
B1946353700657N11924102WA0062200559005010001109315
B1946363700657N11924102WA0062200559005010001148313
B1946373700657N11924102WA0062200559005010001157303
B1946383700657N11924102WA0062200559005010001144295
B1946393700657N11924102WA0062200559005010001158289
B1946403700657N11924102WA0062200559005010000000284
B1946413700657N11924102WA0062200559005010000000280
B1946423700657N11924102WA0062200559005010000000276
B1946433700657N11924102WA0062200559005010000000275
B1946443700657N11924102WA0062200559005010000000272
B1946453700657N11924102WA0062200559005010000000270
B1946463700657N11924102WA0062200559005010000000269
B1946473700657N11924102WA0062200559005010000000268
B1946483700657N11924102WA0062200559005010001184267
B1946493700657N11924102WA0062200559005010001187266
B1946503700657N11924102WA0062200559005010001187266
B1946513700657N11924102WA0062200559005010001191265
B1946523700657N11924102WA0062200559005010001195265
B1946533700657N11924102WA0062200559005010001193264
B1946543700657N11924102WA0062200559005010001195264
B1946553700657N11924102WA0062200559005010001197264
B1946563700657N11924102WA0062200559005010001206264
B1946573700657N11924102WA0062200559005010001204263
B1946583700657N11924102WA0062200559005010001202263
B1946593700657N11924102WA0062200559005010001202263
GyaCWow8umX8ifCFLPmQvi0D0EgCXXfn+gjtzUHwnJu74lBaUUGwSYI6NDP7uMETQ
GGrxuChc5JVH8UhcmKuqELzgo47QlCpP3IyetxvUL878m6dIC4+162sdFKk1ClU/B
GL5vI5epSP1Rj/JPzPhz3e8xhrzeXHPEEO/TlEL5lZuo=

