AXFH000
HFDTE070925
HFPLTPILOT:Scott O’Brien
HFGTYGLIDERTYPE:Ozone Swift 6
HFDTM100GPSDATUM:WGS84
HFRFWFIRMWAREVERSION:9.3
HFRHWHARDWAREVERSION:iPhone 15
HFFTYFRTYPE:Flyskyhy,9.3
HFGPS:Internal
HFPRSVARIO:Bluetooth vario
HFCCLCOMPETITIONCLASS:Paraglider
HFTZNTIMEZONE:-7
HFSITSITE:Mission Ridge (Fremont- San Jose),US
I053638FXA3941VXA4244GSP4547CCO4850HDT
C070925200143070925000100TASK
C0000000N00000000ETAKEOFF
C3731062N12153514W00004009999999000000360000STARTAREA 
C3726317N12149880W00000000000400000000360000FINISHAREA Big Dog Vineyards
C0000000N00000000ELANDING
B2002133731051N12153510WA0058600586005010000000359
B2002143731051N12153510WA0058600586005010000000358
B2002153731051N12153510WA0058600586005010000000359
B2002163731051N12153510WA0058600586005010000000359
B2002173731051N12153510WA0058600586005010000000359
B2002183731051N12153510WA0058600586005010000000358
B2002193731051N12153510WA0058600586005010000000359
B2002203731051N12153510WA0058600586005010000000000
B2002213731051N12153510WA0058600586005010000000358
B2002223731051N12153510WA0058600586005010000000001
B2002233731051N12153510WA0058600586005010000000032
B2002243731051N12153510WA0058600586005010000000032
B2002253731051N12153510WA0058600586005010003248047
B2002263731051N12153510WA0058600586005010001287045
B2002273731051N12153510WA0058600586005010001128061
B2002283731051N12153510WA0058600586005010001061040
B2002293731051N12153510WA0058500586005010002282243
B2002303731051N12153511WA0058500586005010002231239
B2002313731051N12153512WA0058400586005010004231249
B2002323731050N12153512WA0058400586005010006232238
B2002333731050N12153513WA0058500586005010005232240
B2002343731049N12153514WA0058500586005010004205230
B2002353731049N12153515WA0058400586005010007220242
B2002363731048N12153516WA0058400585005010005218221
B2002373731047N12153517WA0058400585005010007240250
B2002383731046N12153518WA0058400585005010010230222
B2002393731045N12153520WA0058400584005010007237231
B2002403731044N12153521WA0058200584005010010237226
B2002413731044N12153523WA0058200584005010012245223
B2002423731043N12153526WA0058200583005010014250250
B2002433731042N12153529WA0058200583005010016246214
B2002443731041N12153532WA0058200582005010019241246
B2002453731039N12153536WA0058100582005010023235275
B2002463731037N12153540WA0058100581005010025240284
B2002473731036N12153544WA0058000581005010026263273
B2002483731036N12153549WA0057900581005010026280274
B2002493731037N12153554WA0057800580005010030303276
B2002503731040N12153558WA0057900580005010031300297
B2002513731042N12153564WA0057900579005010033293284
B2002523731044N12153570WA0057800579005010034288307
B2002533731046N12153576WA0057900579005010033290299
B2002543731048N12153581WA0058100579005010026304322
B2002553731051N12153584WA0058300579005010023321310
B2002563731053N12153587WA0058400579005010022320311
B2002573731056N12153590WA0058600579005010022312317
B2002583731058N12153593WA0058900579005010026313313
B2002593731061N12153596WA0059100580005010027325336
B2003003731065N12153598WA0059500581005010022346343
B2003013731068N12153598WA0059700582005010026014342
B2003023731072N12153597WA0059800584005010027027353
B2003033731076N12153594WA0059900586005010024030350
B2003043731079N12153593WA0060100587005010021010347
B2003053731082N12153593WA0060300589005010020337324
B2003063731084N12153596WA0060300590005010021300301
B2003073731085N12153599WA0060400591005010022261269
B2003083731083N12153603WA0060400593005010025229243
B2003093731080N12153606WA0060500594005010030198216
B2003103731075N12153607WA0060600595005010038177192
B2003113731069N12153605WA0060800597005010042157173
B2003123731064N12153600WA0060800599005010045133154
B2003133731060N12153593WA0060900600005010047117129
B2003143731057N12153585WA0060900602005010041113111
B2003163731056N12153578WA0061000603005010043092107
B2003173731057N12153570WA0061100605010019028071083
B2003183731060N12153566WA0061200607005010027035050
B2003193731064N12153563WA0061400608005010019016010
B2003203731069N12153564WA0061500610005010019329348
B2003213731071N12153567WA0061600612005010015310317
B2003223731073N12153569WA0061500613005010013281303
B2003233731074N12153572WA0061600615005010015259294
B2003243731074N12153575WA0061800616005010016276288
B2003253731075N12153578WA0062000618005010016296304
B2003263731077N12153581WA0062000619005010017324314
B2003273731080N12153582WA0062100621005010020346328
B2003283731083N12153583WA0062200622005010021357312
B2003293731087N12153583WA0062300624005010023358315
B2003303731091N12153584WA0062300625005010019335302
B2003313731093N12153586WA0062200626005010015290293
B2003323731093N12153589WA0062200627005010017236278
B2003333731091N12153591WA0062300628005010022205252
B2003343731088N12153593WA0062400629005010027185228
B2003353731084N12153593WA0062400630005010027171202
B2003363731080N12153592WA0062300631005010028158184
B2003373731077N12153589WA0062200631005010032140168
B2003383731073N12153584WA0062100630005010040126139
B2003393731070N12153577WA0062100630005010050112118
B2003403731069N12153567WA0062000629005010053095099
B2003413731069N12153557WA0061900629005010052074079
B2003423731072N12153549WA0061900628005010045064053
B2003433731075N12153542WA0061700628005010031055040
B2003443731079N12153539WA0061800627005010020043023
B2003453731080N12153538WA0061800626005010005081357
B2003463731080N12153537WA0061900626005010007163308
B2003473731079N12153539WA0061900625005010008236267
B2003483731079N12153541WA0062000625005010008242269
B2003493731079N12153544WA0062000625005010013251279
B2003503731080N12153550WA0062200625005010017252269
B2003513731080N12153554WA0062300625005010016242279
B2003523731080N12153557WA0062400624005010013252289
B2003533731080N12153560WA0062600624005010008285287
B2003543731081N12153562WA0062500624005010007288289
B2003553731081N12153564WA0062400624005010004290283
B2003563731082N12153565WA0062200623005010004292288
B2003573731083N12153566WA0061900623005010010334278
B2003583731085N12153568WA0062000622005010017291293
B2003593731087N12153571WA0061900622005010019280287
B2004003731088N12153575WA0061800621005010014298284
B2004013731089N12153577WA0061500620005010012310293
B2004023731091N12153579WA0061200620005010013322292
B2004033731093N12153581WA0061000619005010016320292
B2004043731095N12153583WA0060900618005010018294299
B2004053731097N12153587WA0060800617005010025304310
B2004063731100N12153591WA0060800617005010024314309
B2004073731103N12153594WA0060500616005010024324298
B2004083731106N12153597WA0060300615005010026332298
B2004093731110N12153600WA0060100613005010030330300
B2004103731114N12153603WA0060100612005010035322287
B2004113731119N12153607WA0060200610005010031314288
B2004123731122N12153612WA0060300609005010030305297
B2004133731125N12153616WA0060500609005010023311301
B2004143731127N12153619WA0060500608005010019323298
B2004153731130N12153621WA0060500608005010017326294
B2004163731132N12153623WA0060300608005010018322304
B2004173731135N12153625WA0060300608005010023316301
B2004183731137N12153628WA0060300608005010025315302
B2004193731140N12153632WA0060400608005010026320303
B2004203731143N12153635WA0060500607005010022332303
B2004213731146N12153636WA0060300607005010021335307
B2004223731149N12153638WA0060200607005010021334303
B2004233731152N12153640WA0060200606005010023330307
B2004243731156N12153642WA0060000606005010023333293
B2004253731159N12153644WA0059900606005010024331302
B2004263731162N12153647WA0059800605005010021329274
B2004273731165N12153649WA0059600605005010018325285
B2004283731167N12153651WA0059400604005010017318282
B2004293731169N12153653WA0059100604005010016306278
B2004303731170N12153656WA0058900603005010020291273
B2004313731171N12153660WA0058900603005010026282265
B2004323731172N12153665WA0058800602005010025276259
B2004333731172N12153670WA0058800601005010022268256
B2004343731172N12153674WA0058700600005010020256252
B2004353731171N12153677WA0058500599005010020248245
B2004363731170N12153681WA0058300598005010020242248
B2004373731169N12153685WA0058300598005010022239248
B2004383731167N12153688WA0058100597005010023237246
B2004393731165N12153692WA0058000596005010024237243
B2004403731163N12153696WA0057800594005010023235241
B2004413731161N12153699WA0057700593005010022231240
B2004423731159N12153703WA0057500592005010022228249
B2004433731157N12153706WA0057300591005010023229250
B2004443731155N12153710WA0057100590005010024234244
B2004453731153N12153714WA0057000589005010026243235
B2004463731151N12153718WA0056900588005010027248227
B2004473731149N12153723WA0056800586005010026238226
B2004483731147N12153726WA0056700585005010026222228
B2004493731144N12153729WA0056500584005010028210218
B2004503731140N12153732WA0056400583005010029208206
B2004513731136N12153734WA0056300581005010028202204
B2004523731132N12153735WA0056100579005010028187201
B2004533731127N12153735WA0055800577005010032170192
B2004543731122N12153734WA0055600574005010039160178
B2004553731117N12153731WA0055500571005010042151170
B2004563731111N12153726WA0055400568005010042142158
B2004573731106N12153721WA0055300566005010041138148
B2004583731102N12153716WA0055100563005010039137147
B2004593731098N12153711WA0054900561005010039137146
B2005003731093N12153706WA0054800558005010040134147
B2005013731089N12153701WA0054600555005010041132148
B2005023731085N12153695WA0054500553005010043132154
B2005033731080N12153689WA0054300550005010042137160
B2005043731071N12153680WA0054200546005010036148160
B2005053731066N12153677WA0054100543005010035151169
B2005063731061N12153674WA0054000541005010036155175
B2005083731051N12153669WA0053800536005010038164179
B2005093731045N12153667WA0053800534005010039167180
B2005103731040N12153666WA0053800533005010037164178
B2005113731035N12153664WA0053800532005010034164181
B2005123731030N12153662WA0053700531005010033167179
B2005133731025N12153661WA0053600530005010035170179
B2005143731020N12153660WA0053500529005010039169177
B2005153731014N12153658WA0053500528005010041162169
B2005163731008N12153655WA0053400527005010041153156
B2005173731003N12153652WA0053400527005010040148159
B2005183730998N12153647WA0053300526005010040146157
B2005193730993N12153643WA0053200526005010040145155
B2005203730988N12153638WA0053100525005010041142156
B2005213730983N12153633WA0053000524005010043141153
B2005223730978N12153628WA0052800523005010044143158
B2005233730973N12153624WA0052700522005010043144163
B2005243730967N12153619WA0052600521005010042146165
B2005253730962N12153615WA0052600520005010040149167
B2005263730957N12153611WA0052400519005010040154173
B2005273730951N12153608WA0052300518005010041156174
B2005283730945N12153605WA0052200517005010043156175
B2005293730939N12153602WA0052200516005010044156167
B2005303730933N12153598WA0052100515005010044158170
B2005313730927N12153595WA0052000514005010044157173
B2005323730921N12153592WA0052000513005010045153169
B2005333730915N12153588WA0052000513005010043151173
B2005343730910N12153584WA0052000512005010041154173
B2005353730904N12153581WA0051900511005010040157169
B2005363730899N12153578WA0051700511005010041154168
B2005373730893N12153575WA0051700510005010045151162
B2005383730887N12153570WA0051900510005010049152145
B2005393730880N12153566WA0051900510005010049150182
B2005403730874N12153561WA0052100511005010045143184
B2005413730870N12153556WA0052300512005010036143187
B2005423730865N12153552WA0052300513005010033144137
B2005433730862N12153550WA0052100514005010027153205
B2005443730858N12153548WA0052000514005010031167192
B2005453730853N12153547WA0051800514005010034184232
B2005463730848N12153548WA0052000514005010032189219
B2005473730844N12153550WA0052000514005010025201238
E200547TPCWaypoint  reached
B2005483730841N12153552WA0052000514005010019209243
B2005493730839N12153553WA0052100514005010017214251
B2005503730837N12153556WA0052200514005010018223262
B2005513730835N12153558WA0052300513005010017235262
B2005523730834N12153561WA0052200514005010017266264
B2005533730835N12153565WA0052200514005010024285279
B2005543730836N12153570WA0052200514005010027282302
B2005553730837N12153575WA0052600514005010026272287
B2005563730837N12153580WA0052700514005010025286297
B2005573730839N12153582WA0053000514005010010328304
B2005583730840N12153582WA0053100514005010009001322
B2005593730841N12153582WA0053100514005010008351316
B2006003730843N12153583WA0053100514005010014339323
B2006013730845N12153584WA0053300515005010022344325
B2006023730849N12153585WA0053700515005010024338323
B2006033730852N12153586WA0053800515005010018347310
B2006043730854N12153588WA0054100516005010013301293
B2006053730854N12153590WA0054100517005010020257271
B2006063730853N12153594WA0054300517005010026240242
B2006073730849N12153598WA0054600518005010038204211
B2006083730844N12153599WA0054900518005010031188185
B2006093730839N12153596WA0054900519005010054132163
B2006103730834N12153587WA0054900520010019056118108
B2006113730831N12153577WA0055200521010019053105090
B2006123730830N12153567WA0055300522005010051094075
B2006133730832N12153561WA0055600523010019026013064
B2006143730835N12153561WA0055700524005010017348345
B2006153730838N12153561WA0056000525005010009335328
B2006163730839N12153562WA0056100527005010006354315
B2006173730840N12153562WA0056200528005010008343323
B2006183730842N12153563WA0056200529005010018331316
B2006193730844N12153565WA0056400531005010018331322
B2006203730847N12153567WA0056500532005010017323319
B2006213730849N12153569WA0056600533005010015331320
B2006223730851N12153570WA0056600535005010016334323
B2006233730854N12153571WA0056600536005010017351327
B2006243730858N12153572WA0056400538005010023353322
B2006253730862N12153573WA0056400539005010026355315
B2006263730866N12153573WA0056300540005010024355315
B2006273730869N12153574WA0056100540005010019338289
B2006283730872N12153576WA0055800540005010016306288
B2006293730873N12153579WA0055600540005010019271281
B2006303730873N12153583WA0055400540005010023257266
B2006313730871N12153587WA0055600540005010027240261
B2006323730869N12153591WA0055800541005010024238245
B2006333730867N12153595WA0056300541005010025236270
B2006343730865N12153598WA0056500542005010021234251
B2006353730864N12153601WA0056800543005010015240271
B2006363730863N12153604WA0057000544005010013244255
B2006373730862N12153606WA0057200545005010016236254
B2006383730861N12153608WA0057400545005010018225231
B2006393730859N12153610WA0057200547005010017214211
B2006403730856N12153611WA0057000547005010016178220
B2006413730854N12153610WA0056600548005010015163202
B2006423730852N12153608WA0056200549005010020154198
B2006433730849N12153605WA0055800549005010031148176
B2006443730844N12153600WA0055700550005010043131154
B2006453730841N12153592WA0055300549005010048112124
B2006463730839N12153583WA0055000546005010052096100
B2006473730838N12153573WA0054800543005010052088079
B2006483730840N12153563WA0054800541005010047070069
B2006493730843N12153555WA0054800538005010046065047
B2006503730846N12153551WA0055000536005010028014041
B2006513730850N12153550WA0055100537005010018357347
B2006523730852N12153551WA0055200537005010014347328
B2006533730854N12153552WA0055300538005010014336314
B2006543730857N12153554WA0055400538005010016322309
B2006553730859N12153556WA0055600539005010019317310
B2006563730861N12153559WA0055800539005010019328310
B2006573730864N12153560WA0056000540005010022346313
B2006583730867N12153561WA0056100541005010023354321
B2006593730871N12153562WA0056300541005010022348317
B2007003730874N12153563WA0056500542005010022342320
B2007013730877N12153564WA0056600543005010023346327
B2007023730881N12153565WA0056800544005010025350338
B2007033730884N12153567WA0057100546005010026348333
B2007043730888N12153568WA0057300547005010021343325
B2007053730891N12153570WA0057500548005010014341321
B2007063730893N12153571WA0057400549005010006321335
B2007073730894N12153572WA0057400551005010013316315
B2007083730896N12153575WA0057400552005010023328317
B2007093730900N12153577WA0057600552005010035335324
B2007103730905N12153580WA0057900554005010032336306
B2007113730909N12153582WA0058200557005010024324293
B2007123730911N12153585WA0058400559005010020301280
B2007133730913N12153589WA0058400562005010020283271
B2007143730913N12153593WA0058400564005010025276266
B2007153730914N12153597WA0058500567005010025269265
B2007163730913N12153602WA0058800569005010022252258
B2007173730912N12153606WA0058900571005010021243244
B2007183730910N12153609WA0059200574005010020243266
B2007193730909N12153612WA0059600577005010017257275
B2007203730909N12153615WA0059900579005010013270259
B2007213730909N12153617WA0060200582005010013264235
B2007223730908N12153619WA0060300584005010016216226
B2007233730906N12153620WA0060300587005010027189211
B2007243730901N12153619WA0060600589005010037167193
B2007253730895N12153616WA0060700592005010046144158
B2007263730891N12153610WA0061000594005010048121135
B2007273730888N12153602WA0061100597005010042111105
B2007283730886N12153594WA0061300600005010042106093
B2007293730885N12153586WA0061500603005010042098084
B2007303730885N12153578WA0061600605005010036105072
B2007313730884N12153572WA0061900607005010030111126
B2007323730882N12153568WA0062100608010019029117132
B2007333730880N12153566WA0062500608005010016210140
B2007353730909N12153599WA0062800629005010011253265
B2007363730908N12153600WA0062700631005010011248257
B2007373730908N12153602WA0062600633005010014240253
B2007383730906N12153604WA0062600634005010020231245
B2007393730904N12153607WA0062600635005010019213230
B2007403730901N12153608WA0062500636005010019189224
B2007413730898N12153608WA0062300637005010022167201
B2007423730894N12153606WA0062000637005010030159207
B2007433730888N12153606WA0061900635005010040191215
B2007443730881N12153607WA0061800631005010047191219
B2007453730874N12153609WA0062100629005010045192226
B2007463730869N12153612WA0062300628005010035210237
B2007473730865N12153615WA0062400627005010028217253
B2007483730863N12153618WA0062300627005010019241258
B2007493730862N12153621WA0062300626005010018258271
B2007503730863N12153624WA0062300625005010017290280
B2007513730864N12153627WA0062200625005010017310294
B2007523730866N12153628WA0062100624005010018334304
B2007533730870N12153629WA0062000623005010025351316
B2007543730874N12153630WA0062000622005010025358333
B2007553730879N12153630WA0061900622005010025359337
B2007563730883N12153629WA0061900621005010025004340
B2007573730887N12153629WA0061800621005010030000337
B2007583730892N12153629WA0061800620005010032000339
B2007593730898N12153629WA0062000620005010034004332
B2008003730902N12153628WA0062100620005010025009337
B2008013730906N12153627WA0062200621005010022010329
B2008023730909N12153627WA0062300622005010022001338
B2008033730913N12153627WA0062300623005010026357352
B2008043730917N12153627WA0062400623005010030010009
B2008053730922N12153625WA0062500624005010038030023
B2008063730926N12153620WA0062700625005010044049037
B2008073730930N12153612WA0062900626005010045070058
B2008083730931N12153604WA0063200627005010042082078
B2008093730931N12153597WA0063400629005010037097090
B2008103730929N12153590WA0063500630005010034119107
B2008113730926N12153585WA0063500631005010036132137
B2008123730922N12153580WA0063500632005010037140157
B2008133730917N12153576WA0063600633005010038149171
B2008143730912N12153573WA0063600634005010036162186
B2008153730907N12153573WA0063500635005010033181204
B2008163730902N12153574WA0063600635005010030204222
B2008173730899N12153577WA0063600636005010028228242
B2008183730897N12153581WA0063700636005010024269259
B2008193730898N12153585WA0063700637005010023304283
B2008203730901N12153588WA0063800637005010023331303
B2008213730904N12153589WA0063900638005010020341312
B2008223730906N12153590WA0063900638005010016338314
B2008233730909N12153591WA0063900639005010016333311
B2008243730911N12153593WA0063900639005010021333321
B2008253730915N12153595WA0063900640005010030340339
B2008263730920N12153596WA0064100641005010036357357
B2008273730925N12153595WA0064200641005010040012016
B2008283730932N12153592WA0064300642005010045026030
B2008293730937N12153588WA0064500643005010041048041
B2008303730939N12153580WA0064400643010019048080060
B2008313730940N12153571WA0064600644010019045089090
B2008323730940N12153563WA0064700645010019040082102
B2008333730938N12153557WA0064800645010019031155092
B2008343730933N12153555WA0064900645010019029173187
B2008353730929N12153555WA0064900646010019023199204
B2008363730926N12153557WA0065000646010019015225233
B2008373730925N12153560WA0064900647010019018273257
B2008383730923N12153563WA0065000647005010019298279
B2008393730923N12153566WA0065000647010019018302291
B2008403730923N12153569WA0065200648005010019303295
B2008413730925N12153572WA0065300648010019023311308
B2008423730927N12153576WA0065400649010019026324327
B2008433730931N12153578WA0065300649005010033347343
B2008443730936N12153578WA0065400650005010043013359
B2008453730942N12153574WA0065400650005010050032022
B2008463730948N12153568WA0065500650005010051051041
B2008473730951N12153559WA0065700650010019053073060
B2008483730952N12153550WA0065900651010019046094082
B2008493730950N12153543WA0066100651010019037125104
B2008503730947N12153538WA0066200651010019031141144
B2008513730943N12153534WA0066400651010019029146166
B2008523730939N12153531WA0066500651010019024148177
B2008533730936N12153529WA0066600651010019016148187
B2008543730934N12153527WA0066500652010019015158211
B2008553730931N12153527WA0066500652010019018175212
B2008563730928N12153527WA0066600653010019023189223
B2008573730925N12153527WA0066800653010019021197239
B2008583730922N12153529WA0067000654005010016206242
B2008593730920N12153530WA0067100654005010014214246
B2009003730917N12153532WA0067200655005010011218242
B2009013730916N12153534WA0067200656005010011222252
B2009023730914N12153535WA0067300656005010014226262
B2009033730912N12153538WA0067300657005010017247281
B2009043730912N12153541WA0067400658005010019276283
B2009053730913N12153545WA0067500658005010023305305
B2009063730915N12153548WA0067700659005010026322293
B2009073730919N12153551WA0067800659005010024328306
B2009083730922N12153553WA0068000660005010022326318
B2009093730925N12153556WA0068000661005010027329342
B2009103730929N12153558WA0068100662005010031346352
B2009113730934N12153558WA0068400663005010039012004
B2009123730940N12153555WA0068500664005010043029023
B2009133730945N12153550WA0068600665005010046045037
B2009143730950N12153544WA0068900666005010047053054
B2009153730953N12153536WA0069100668005010044076062
B2009163730954N12153528WA0069100670005010043087086
B2009173730953N12153520WA0069200671005010041102097
B2009183730952N12153513WA0069400672005010038111116
B2009193730949N12153507WA0069300673005010033130129
B2009203730945N12153503WA0069400674005010032141156
B2009213730941N12153499WA0069400675005010027151170
B2009223730938N12153498WA0069500676005010021190185
B2009233730935N12153500WA0069600677005010018223225
B2009243730934N12153502WA0069800678005010019248251
B2009253730933N12153506WA0069900679005010019269269
B2009263730933N12153509WA0070000679005010019288285
B2009273730935N12153512WA0070100680005010021300295
B2009283730936N12153516WA0070400681005010021297307
B2009293730938N12153519WA0070600682005010018308312
B2009303730939N12153522WA0070600684005010018343317
B2009313730943N12153522WA0070600685005010027009334
B2009323730947N12153521WA0070900686005010038019353
B2009333730953N12153518WA0071300688005010044031010
B2009343730958N12153513WA0071400690005010040047025
B2009353730961N12153506WA0071500692005010043071042
B2009363730963N12153498WA0071600694005010042080072
B2009373730963N12153490WA0071700696010019042097084
B2009383730962N12153483WA0071900698010019035100108
B2009393730959N12153478WA0072000700005010028150113
B2009403730956N12153476WA0072000701005010024174185
B2009413730952N12153475WA0072100703010019023195212
B2009423730948N12153476WA0072200705010019021215231
B2009433730946N12153478WA0072400707010019022230248
B2009443730944N12153481WA0072500708010019022235252
B2009453730941N12153484WA0072600710005010019226258
B2009463730939N12153486WA0072900711005010015222253
B2009473730938N12153488WA0073000713005010013238263
B2009483730937N12153491WA0073200715005010016252270
B2009493730936N12153494WA0073400716005010020255274
B2009503730935N12153498WA0073600718005010020247262
B2009513730934N12153501WA0073700720005010018241279
B2009523730932N12153503WA0073800722005010014240276
B2009533730932N12153506WA0073700723005010013261286
B2009543730932N12153508WA0073800725005010016288289
B2009553730933N12153512WA0073800726005010023303303
B2009563730935N12153516WA0073900728005010026317312
B2009573730939N12153518WA0074000730005010027338324
B2009583730943N12153519WA0074200731005010030357338
B2009593730947N12153519WA0074400733005010028020352
B2010003730951N12153516WA0074500735005010030049007
B2010013730953N12153511WA0074400737005010034064040
B2010023730955N12153504WA0074600738005010041079058
B2010033730956N12153496WA0074700739005010043085088
B2010043730956N12153488WA0074500741005010044095101
B2010053730954N12153479WA0074400741005010045108115
B2010063730952N12153471WA0074600742005010047117137
B2010073730949N12153464WA0074900743005010043118139
B2010083730945N12153458WA0075100743005010039132148
B2010093730941N12153454WA0075200745005010030141163
B2010103730937N12153450WA0075300746005010031137166
B2010113730934N12153447WA0075500747005010032137163
B2010123730930N12153443WA0075600748005010031143187
B2010133730926N12153440WA0075600749005010027155200
B2010143730923N12153439WA0075700751005010023170204
B2010153730919N12153439WA0075800752005010023183211
B2010163730915N12153439WA0076000752005010027188218
B2010173730911N12153440WA0076300754005010031180226
B2010183730906N12153440WA0076700756005010031180197
B2010193730902N12153439WA0076900758005010028164219
B2010203730898N12153438WA0077200760005010024163203
B2010213730895N12153437WA0077200763005010020163216
B2010223730892N12153435WA0077300765005010020166210
B2010233730889N12153435WA0077300767005010023177233
B2010243730885N12153435WA0077300769005010025191241
B2010253730882N12153437WA0077400771005010022217251
B2010263730880N12153440WA0077500773005010019250268
B2010273730880N12153444WA0077500775005010022281286
B2010283730881N12153447WA0077700777005010021305299
B2010293730884N12153450WA0077800779005010023340312
B2010303730888N12153450WA0077800780005010033008334
B2010313730894N12153446WA0078000782005010043036000
B2010323730898N12153440WA0078100783005010044052032
B2010333730901N12153432WA0078100785005010052083050
B2010343730901N12153422WA0078100786010019054098090
B2010353730899N12153412WA0078300786010019052110109
B2010363730895N12153404WA0078500787005010047132123
B2010373730890N12153398WA0078600788005010039147150
B2010383730885N12153395WA0078700789005010032161169
B2010393730880N12153394WA0078800790010019030177189
B2010403730875N12153394WA0078900791010019026186205
B2010413730871N12153395WA0079100792010019025198213
B2010423730868N12153397WA0079200793010019021215224
B2010433730866N12153400WA0079200794010019019236237
B2010443730865N12153403WA0079300795010019017271249
B2010453730866N12153406WA0079300797010019021301269
B2010463730868N12153409WA0079300798010019027323288
B2010473730872N12153411WA0079400799005010030343305
B2010483730877N12153412WA0079400800005010035005322
B2010493730882N12153410WA0079600801005010041030343
B2010503730887N12153404WA0079600801005010046049013
B2010513730891N12153397WA0079900802010019044074038
B2010523730892N12153388WA0079900803010019049079072
B2010533730892N12153379WA0080100804010019041094079
B2010543730890N12153371WA0080200805010019039115102
B2010553730886N12153365WA0080300805005010044149131
B2010563730879N12153360WA0080400806010019041158167
B2010573730874N12153358WA0080500807010019032171178
B2010583730868N12153357WA0080500807010019032181195
B2010593730863N12153357WA0080500808010019030192203
B2011003730859N12153359WA0080500809005010020220213
B2011013730858N12153362WA0080500809005010020277237
B2011023730859N12153366WA0080500809010019019316271
B2011033730861N12153368WA0080600810005010026350294
B2011043730866N12153368WA0080500810005010032005322
B2011053730871N12153367WA0080500811005010039025339
B2011063730877N12153362WA0080700811005010044045004
B2011073730881N12153355WA0080900811005010047066031
B2011083730882N12153347WA0081000812005010047086061
B2011093730882N12153337WA0081100812005010049094090
B2011103730882N12153328WA0081100813005010049096100
B2011113730880N12153319WA0081100813005010046110102
B2011123730877N12153311WA0081100814005010047118122
B2011133730873N12153303WA0081100814005010047129132
B2011143730868N12153297WA0081100814005010042146146
B2011153730863N12153294WA0081100814005010037160166
B2011163730858N12153292WA0081200814005010027183183
B2011173730854N12153293WA0081200815005010022196209
B2011183730851N12153295WA0081100815005010018210222
B2011193730849N12153297WA0081100815005010017235235
B2011203730848N12153300WA0081000815005010019255248
B2011213730847N12153304WA0080900815005010020271259
B2011223730848N12153308WA0080800816005010019292268
B2011233730849N12153310WA0080700816005010019310284
B2011243730852N12153313WA0080600816005010018321290
B2011253730854N12153315WA0080400815005010021320293
B2011263730857N12153317WA0080400815005010026314299
B2011273730860N12153321WA0080600815005010027306294
B2011283730862N12153325WA0080800815005010024300286
B2011293730863N12153329WA0080900816005010020293289
B2011303730864N12153332WA0080900816005010019286283
B2011313730865N12153336WA0081000816005010019283288
B2011323730866N12153339WA0081000817005010021285284
B2011333730867N12153343WA0081200817005010020290285
B2011343730868N12153346WA0081100817005010019296279
B2011353730869N12153349WA0081200818005010020298287
B2011363730870N12153353WA0081300818005010020292272
B2011373730871N12153356WA0081400819005010019284282
B2011383730872N12153360WA0081500819005010017275269
B2011393730872N12153363WA0081600820005010015270266
B2011403730871N12153366WA0081600820005010015260283
B2011413730871N12153368WA0081600821005010017255264
B2011423730870N12153372WA0081800821005010019257265
B2011433730870N12153376WA0082000822005010022263282
B2011443730869N12153379WA0082100822005010019262278
B2011453730869N12153382WA0082200823005010014270284
B2011463730869N12153385WA0082100824005010014286286
B2011473730870N12153388WA0081900824005010019291290
B2011483730871N12153392WA0081800825005010025295277
B2011493730873N12153396WA0081900825005010026296283
B2011503730875N12153400WA0081800825005010022292258
B2011513730875N12153404WA0081600825005010020275235
B2011523730875N12153408WA0081500825005010023250238
B2011533730873N12153411WA0081500825005010027221219
B2011543730869N12153414WA0081300825005010029191200
B2011553730865N12153413WA0081200824005010032162186
B2011563730860N12153410WA0081100823005010038137166
B2011573730857N12153404WA0080900822005010040119143
B2011583730854N12153397WA0080900821005010039108127
B2011593730853N12153390WA0080700820005010038097111
B2012003730853N12153382WA0080500818005010041092097
B2012013730853N12153374WA0080400816005010046090085
B2012023730853N12153365WA0080500815005010048083081
B2012033730854N12153356WA0080500814005010047077062
B2012043730856N12153348WA0080700812005010045075053
B2012053730858N12153341WA0080900811005010040062047
B2012063730862N12153334WA0080900811005010040053028
B2012073730866N12153329WA0081000811005010041040014
B2012083730871N12153325WA0081100811005010042023005
B2012093730877N12153323WA0081300812005010041007345
B2012103730883N12153323WA0081400813005010037352332
B2012113730888N12153325WA0081500814005010031333319
B2012123730891N12153328WA0081600815005010026311301
B2012133730893N12153333WA0081600816005010025289288
B2012143730894N12153337WA0081700817005010025263273
B2012153730892N12153341WA0081600818005010021238258
B2012163730890N12153344WA0081600819005010020201244
B2012173730887N12153344WA0081300820005010023175223
B2012183730883N12153344WA0081100821005010028163204
B2012193730879N12153342WA0081000821005010029152190
B2012203730875N12153338WA0080900821005010033135179
B2012213730872N12153333WA0080900821005010038121158
B2012223730870N12153326WA0080900820005010042106137
B2012233730868N12153317WA0080800820005010044092113
B2012243730869N12153309WA0080800819005010047080092
B2012253730871N12153300WA0080900819005010051071075
B2012263730874N12153291WA0081300819005010051063063
B2012273730878N12153284WA0081400818005010040033052
B2012283730884N12153282WA0081600818005010037003012
B2012293730889N12153283WA0081900819005010031337340
B2012303730893N12153286WA0082000820005010028331314
B2012313730896N12153288WA0082200822005010023333308
B2012323730899N12153290WA0082400823005010022340305
B2012333730903N12153292WA0082400825005010028338300
B2012343730907N12153294WA0082500826005010031333308
B2012353730911N12153297WA0082500828005010032326286
B2012363730915N12153301WA0082600829005010029314289
B2012373730917N12153305WA0082600830005010021294278
B2012383730917N12153308WA0082500831005010020266262
B2012393730917N12153312WA0082400832005010018254256
B2012403730916N12153315WA0082300833005010017258236
B2012413730915N12153318WA0082000834005010016240226
B2012423730913N12153320WA0081800835005010019210219
B2012433730910N12153321WA0081700835005010026182210
B2012443730906N12153320WA0081700836005010033162193
B2012453730901N12153318WA0081700836005010031147171
B2012463730898N12153314WA0081700836005010027134165
B2012473730896N12153310WA0081500837005010024120150
B2012483730894N12153306WA0081300837005010026119134
B2012493730892N12153301WA0081300837005010035114126
B2012503730890N12153294WA0081400837005010043104111
B2012513730889N12153286WA0081500837005010044094105
B2012523730888N12153278WA0081600838005010039090099
B2012533730888N12153271WA0081800838005010033090088
B2012543730888N12153265WA0081800838005010032085093
B2012553730889N12153258WA0081800838005010036075090
B2012563730891N12153251WA0081800838005010043074106
B2012573730892N12153243WA0082000839005010044087115
B2012583730892N12153235WA0082000839005010042090137
B2012593730891N12153227WA0082200839005010037101136
B2013003730889N12153223WA0082500839005010032153152
B2013013730885N12153221WA0082700839010019022181197
B2013023730882N12153223WA0082900839010019016230223
B2013033730881N12153226WA0082900840010019019279250
B2013043730882N12153230WA0083000840010019023301272
B2013053730884N12153234WA0083200840010019025309284
B2013063730886N12153239WA0083300841005010026306277
B2013073730888N12153243WA0083500841005010025299282
B2013083730889N12153248WA0083600842005010025294259
B2013103730890N12153252WA0083800843005010021294268
B2013113730891N12153255WA0083800843005010014286248
B2013123730891N12153257WA0083800844005010012254247
B2013133730890N12153260WA0083900844005010017219242
B2013143730887N12153262WA0083900844005010019210217
B2013153730885N12153263WA0083800845005010020189206
B2013163730882N12153263WA0083800845005010021166197
B2013173730878N12153261WA0083700845005010030150180
B2013183730874N12153257WA0083900845005010036140167
B2013193730870N12153252WA0084000846005010036128146
B2013203730867N12153246WA0084100847005010033112136
B2013213730866N12153240WA0084100848005010033093120
B2013223730867N12153234WA0084000849005010039079094
B2013233730868N12153226WA0084000850005010045068073
B2013243730872N12153219WA0084100850005010047046058
B2013253730878N12153214WA0084100851005010047025030
B2013263730884N12153211WA0084100851005010046009005
B2013273730891N12153211WA0084100851005010039353349
B2013283730896N12153212WA0084100851005010033349330
B2013293730901N12153214WA0084100851005010030330323
B2013303730904N12153218WA0084000851005010029310307
B2013313730906N12153223WA0084000851005010030287291
B2013323730907N12153228WA0083900851005010029267275
B2013333730906N12153233WA0083900851005010026248261
B2013343730904N12153237WA0083800851005010019228244
B2013353730902N12153239WA0083800851005010016204228
B2013363730900N12153240WA0083600851005010020180212
B2013373730896N12153239WA0083700851005010027175199
B2013383730892N12153238WA0083800851005010030164186
B2013393730888N12153236WA0084000850005010029146174
B2013403730884N12153233WA0084000851005010028131164
B2013413730882N12153228WA0083800851005010028122150
B2013423730879N12153224WA0083700850005010031120144
B2013433730877N12153218WA0083700849005010036122144
B2013443730874N12153212WA0083700849005010040122134
B2013453730870N12153206WA0083700848005010039119139
B2013463730868N12153200WA0083700847005010037122143
B2013473730865N12153194WA0083600847005010034128157
B2013483730861N12153189WA0083500846005010037137155
B2013493730856N12153184WA0083500846005010044138155
B2013503730851N12153179WA0083600845005010046133156
B2013513730847N12153172WA0083500844005010044132157
B2013523730843N12153167WA0083600844005010036135169
B2013533730839N12153163WA0083600844005010031146169
B2013543730835N12153160WA0083500843005010029148167
B2013553730831N12153157WA0083500843005010031146165
B2013563730827N12153154WA0083600842005010036144171
B2013573730823N12153150WA0083800842005010039148157
B2013583730818N12153146WA0084100842005010035150175
B2013593730814N12153144WA0084200842005010027149169
B2014003730811N12153141WA0084200843005010022143161
B2014013730805N12153136WA0084000844005010029148171
B2014023730801N12153133WA0083700844005010036154174
B2014033730796N12153130WA0083500845005010039158176
B2014043730791N12153127WA0083400845005010037156168
B2014053730786N12153124WA0083300844005010037148163
B2014063730781N12153120WA0083200844005010039139141
B2014073730777N12153115WA0083100844005010040134153
B2014083730773N12153110WA0082900843005010041136149
B2014093730768N12153104WA0082700842005010044139157
B2014103730763N12153099WA0082600841005010048139160
B2014113730757N12153092WA0082500840005010049135154
B2014123730752N12153086WA0082400839005010047136160
B2014133730747N12153080WA0082300838005010044141162
B2014143730742N12153075WA0082300837005010044144163
B2014153730736N12153071WA0082200836005010043143156
B2014163730732N12153065WA0082100835005010041139154
B2014173730727N12153060WA0082000834005010039139161
B2014183730722N12153056WA0081800833005010038141159
B2014193730718N12153051WA0081700832005010039141157
B2014203730713N12153046WA0081600830005010041139158
B2014213730709N12153041WA0081500829005010041139161
B2014223730704N12153036WA0081400827005010040143164
B2014233730699N12153032WA0081300826005010040148161
B2014243730694N12153029WA0081300825005010039150164
B2014253730689N12153025WA0081300824005010041147166
B2014263730683N12153020WA0081200822005010042146163
B2014273730678N12153016WA0081100821005010042147161
B2014283730673N12153012WA0081100820005010042150165
B2014293730667N12153008WA0081000818005010043152173
B2014303730661N12153004WA0080800817005010044153173
B2014313730655N12153001WA0080800815005010043154172
B2014323730650N12152997WA0080700814005010043154161
B2014333730644N12152994WA0080700813005010041155173
B2014343730638N12152991WA0080600812005010038156173
B2014353730633N12152988WA0080400811005010037155170
B2014363730628N12152985WA0080200810005010039153166
B2014373730623N12152981WA0080000808005010043153174
B2014383730617N12152978WA0080000807005010045153170
B2014393730611N12152974WA0079900806005010044153170
B2014403730605N12152970WA0080000805005010041152169
B2014413730600N12152967WA0080000805005010037149166
B2014423730595N12152963WA0079900805005010036147155
B2014433730591N12152959WA0079600804005010038143174
B2014443730586N12152955WA0079500804005010042145168
B2014453730581N12152951WA0079400803005010040155172
B2014463730575N12152948WA0079300802005010036164188
B2014473730570N12152946WA0079200801005010032160181
B2014483730566N12152944WA0079000800005010031153170
B2014493730562N12152941WA0078600798005010037153175
B2014503730556N12152938WA0078400796005010045162181
B2014513730549N12152936WA0078200794005010047170180
B2014523730542N12152935WA0078100792005010042170178
B2014533730537N12152933WA0078000790005010037160181
B2014543730532N12152930WA0077800787005010037152174
B2014553730527N12152927WA0077400785005010039154181
B2014563730521N12152924WA0077200782005010041162194
B2014573730515N12152922WA0077200780005010041162184
B2014583730509N12152919WA0077000777005010039159188
B2014593730504N12152916WA0076900775005010038154178
B2015003730499N12152913WA0076700772005010038155184
B2015013730494N12152911WA0076400770005010039159184
B2015023730488N12152908WA0076200767005010039162187
B2015033730482N12152906WA0075900765005010040160179
B2015043730477N12152903WA0075700762005010042157175
B2015053730471N12152900WA0075600760005010041155173
B2015063730466N12152897WA0075400758005010038155181
B2015073730460N12152894WA0075200756005010038158185
B2015083730455N12152892WA0075000753005010039161180
B2015093730449N12152890WA0074900751005010041164180
B2015103730444N12152888WA0074800749005010040164185
B2015113730438N12152886WA0074700748005010038162180
B2015123730433N12152883WA0074700746005010035161182
B2015133730428N12152881WA0074400745005010033163187
B2015143730423N12152880WA0074200744005010034167190
B2015153730418N12152879WA0074000742005010038179192
B2015163730412N12152879WA0073900740005010042177187
B2015173730406N12152879WA0073800738005010042176188
B2015183730399N12152878WA0073700737005010039172195
B2015193730394N12152877WA0073600735005010036174193
B2015203730388N12152877WA0073300734005010036179195
B2015213730383N12152877WA0073100732005010039181197
B2015223730377N12152877WA0073000730005010043178188
B2015233730370N12152876WA0072900729005010044177198
B2015243730364N12152876WA0072800727005010045180205
B2015253730357N12152877WA0072900725005010044187192
B2015263730351N12152877WA0073100724005010042176182
B2015273730345N12152876WA0073400723005010034163184
B2015283730341N12152874WA0073600723005010026156178
B2015293730337N12152872WA0073600724005010023156189
B2015303730334N12152870WA0073600724005010028162188
B2015313730329N12152868WA0073500723005010035163179
B2015323730324N12152866WA0073600723005010039158175
B2015333730319N12152862WA0073800724005010039150161
B2015343730314N12152858WA0073900725005010036145162
B2015353730310N12152855WA0074000726005010035144172
B2015363730305N12152851WA0074100727005010038146171
B2015373730301N12152847WA0074200728005010039146170
B2015383730296N12152843WA0074400729005010040147176
B2015393730291N12152839WA0074600730005010038152179
B2015403730286N12152836WA0074800732005010037161205
B2015413730281N12152834WA0074800733005010034167197
B2015423730276N12152833WA0075000735005010032170203
B2015433730271N12152832WA0075100736005010035171193
B2015443730265N12152831WA0075100738005010038169192
B2015453730260N12152830WA0075300739005010038164187
B2015463730255N12152827WA0075500741005010036155189
B2015473730250N12152824WA0075600743005010032150189
B2015483730246N12152822WA0075600744005010027151193
B2015493730243N12152820WA0075500746005010025163191
B2015503730239N12152819WA0075300747005010031172199
B2015513730234N12152818WA0075200748005010038171202
B2015523730228N12152816WA0075300750005010038165194
B2015533730223N12152814WA0075300751005010035161189
B2015543730218N12152812WA0075400752005010034160195
B2015553730213N12152810WA0075400754005010036163193
B2015563730208N12152808WA0075500755005010038166178
B2015573730202N12152807WA0075400756005010036165199
B2015583730197N12152805WA0075600757005010034162187
B2015593730193N12152803WA0075600758005010032162201
B2016003730188N12152801WA0075600759005010028160207
B2016013730184N12152799WA0075600760005010026165207
B2016023730181N12152799WA0075500761005010027172209
B2016033730177N12152798WA0075400762005010028176218
B2016043730172N12152798WA0075300763005010028175204
B2016053730168N12152797WA0075400763005010030177220
B2016063730164N12152797WA0075500763005010030178211
B2016073730159N12152797WA0075600763005010029170218
B2016083730155N12152795WA0075900764005010026161205
B2016093730152N12152794WA0076000765005010023166225
B2016103730149N12152793WA0076300766005010023164211
B2016113730145N12152792WA0076300767005010025158198
B2016123730142N12152790WA0076400768005010027155207
B2016133730138N12152787WA0076400769005010030152198
B2016143730134N12152785WA0076600770005010030154202
B2016153730130N12152782WA0076700771005010029153193
B2016163730126N12152779WA0076800772005010031149197
B2016173730122N12152777WA0076800773005010031153195
B2016183730118N12152774WA0076600774005010029150197
B2016193730114N12152772WA0076300774005010021162207
B2016203730111N12152771WA0076000773005010021166212
B2016213730108N12152771WA0075500772005010023178216
B2016223730104N12152772WA0075100771005010027191230
B2016233730100N12152774WA0075100770005010027204233
B2016243730097N12152776WA0075000769005010025220241
B2016253730095N12152780WA0074900769005010021235253
B2016263730093N12152783WA0074900768005010020244258
B2016273730092N12152787WA0074900767005010019258259
B2016283730092N12152791WA0075000766005010017266262
B2016293730092N12152794WA0074900766005010018286263
B2016303730093N12152797WA0075000765005010018303278
B2016313730095N12152799WA0075100764005010013308284
B2016323730096N12152800WA0075100763005010010300276
B2016333730097N12152802WA0075100763005010013289290
B2016343730098N12152805WA0075200762005010021284278
B2016353730098N12152809WA0075400761005010021281278
B2016363730099N12152813WA0075700761005010018276280
B2016373730099N12152815WA0075900761005010009274279
B2016383730099N12152817WA0075800761005010011264278
B2016393730099N12152819WA0075700760005010014259273
B2016403730099N12152822WA0075700760005010016263281
B2016413730098N12152826WA0075600760005010018265271
B2016423730098N12152829WA0075700759005010020265278
B2016433730098N12152833WA0075700759005010021268277
B2016443730098N12152837WA0075800759005010018273278
B2016453730099N12152840WA0075600759005010017278278
B2016463730099N12152843WA0075500759005010018284277
B2016473730100N12152847WA0075300758005010022286278
B2016483730101N12152851WA0075000758005010025286287
B2016493730102N12152855WA0075000757005010024291283
B2016503730104N12152859WA0074900757005010024299288
B2016513730106N12152863WA0074800756005010024300292
B2016523730107N12152866WA0074700755005010024295293
B2016533730109N12152870WA0074700754005010027297293
B2016543730111N12152875WA0074600754005010027302304
B2016553730113N12152879WA0074700753005010026309300
B2016563730116N12152883WA0074700753005010027312302
B2016573730119N12152886WA0074500753005010028314310
B2016583730122N12152890WA0074500753005010031314304
B2016593730126N12152895WA0074400752005010036314314
B2017003730130N12152899WA0074300752005010039321328
B2017013730135N12152904WA0074300751005010037329326
B2017023730139N12152907WA0074300751005010029327311
B2017033730142N12152910WA0074300751005010022312309
B2017043730143N12152913WA0074200751005010021295306
B2017053730145N12152917WA0074100750005010025297297
B2017063730147N12152921WA0074100750005010028310305
B2017073730150N12152925WA0074100749005010028316311
B2017083730153N12152928WA0074200749005010022321304
B2017093730155N12152930WA0074300749005010019315305
B2017103730157N12152933WA0074200749005010019313306
B2017113730160N12152935WA0074100748005010019318307
B2017123730162N12152937WA0073800748005010020327328
B2017133730165N12152940WA0073800748005010022324299
B2017143730167N12152942WA0073600747005010019308304
B2017153730168N12152945WA0073300746005010017289302
B2017163730169N12152948WA0073000745005010014286285
B2017173730170N12152951WA0072700745005010017297296
B2017183730172N12152954WA0072400744005010024298296
B2017193730174N12152959WA0072200743005010032292295
B2017203730175N12152964WA0072200741005010033289291
B2017213730177N12152970WA0072400740005010026293282
B2017223730179N12152973WA0072500739005010018302289
B2017233730180N12152976WA0072500739005010014300292
B2017243730181N12152978WA0072500738005010015290283
B2017253730181N12152981WA0072300737005010017286276
B2017263730182N12152984WA0072400736005010018287291
B2017273730183N12152987WA0072500735005010015287293
B2017283730184N12152990WA0072500735005010014292288
B2017293730185N12152992WA0072400734005010014297286
B2017303730186N12152995WA0072200733005010015296287
B2017313730187N12152997WA0072100732005010019293285
B2017323730188N12153000WA0072100732005010019294279
B2017333730189N12153004WA0072000731005010019294282
B2017343730190N12153007WA0072000730005010020281275
B2017353730191N12153011WA0072000729005010026274293
B2017363730191N12153016WA0071900729005010028276278
B2017373730192N12153021WA0072000728005010025284286
B2017383730193N12153025WA0072100728005010018290288
B2017393730193N12153029WA0072100728005010017275256
B2017403730193N12153032WA0072200729005010022250255
B2017413730191N12153036WA0072400729005010027240264
B2017423730189N12153041WA0072600729005010031236246
B2017433730187N12153045WA0072600729005010021229256
B2017443730185N12153048WA0072500730005010018235258
B2017453730183N12153051WA0072500730005010017242278
B2017463730182N12153054WA0072600730005010028251240
B2017473730181N12153060WA0072900731005010032248277
B2017483730179N12153065WA0073200732005010028238254
B2017493730176N12153069WA0073400734005010021221257
B2017503730174N12153071WA0073400736005010017220255
B2017513730173N12153074WA0073400737005010020247269
B2017523730172N12153077WA0073500739005010023265280
B2017533730172N12153081WA0073700740005010020272290
B2017543730172N12153085WA0073900742005010022284302
B2017553730174N12153089WA0074000743005010023290309
B2017563730176N12153092WA0073900745005010018331311
B2017573730179N12153091WA0074000746005010020047323
B2017583730184N12153084WA0074200747005010041053043
B2017593730188N12153076WA0074500748005010038060066
B2018003730192N12153068WA0074600750005010037070085
B2018013730194N12153061WA0074700751005010037091090
B2018023730194N12153052WA0074900752005010040107118
B2018033730191N12153046WA0075000754005010038119136
B2018043730189N12153040WA0075100755005010034135148
B2018053730184N12153036WA0075300756005010037169164
B2018063730179N12153037WA0075500757005010037195194
B2018073730174N12153040WA0075800759010019036219215
B2018083730172N12153044WA0076000760010019026253234
B2018093730171N12153049WA0076200761010019025265264
B2018103730172N12153053WA0076300762010019022277277
B2018113730173N12153057WA0076400763005010020303287
B2018123730175N12153059WA0076400765005010021325304
B2018133730179N12153061WA0076200766005010026344324
B2018143730184N12153061WA0076000767005010033002339
B2018153730189N12153060WA0075900768005010038016001
B2018163730194N12153057WA0075900769005010039033014
B2018173730199N12153051WA0076100770005010046056031
B2018183730202N12153044WA0076200771005010044064055
B2018193730204N12153036WA0076400771005010040077064
B2018203730205N12153029WA0076600772005010031093078
B2018213730203N12153023WA0076700773005010025104094
B2018223730202N12153018WA0076900774005010023109110
B2018233730201N12153015WA0076900774005010018116117
B2018243730199N12153012WA0077100775005010019144132
B2018253730193N12153011WA0077300776005010034179169
B2018263730187N12153011WA0077500777005010031185196
B2018273730182N12153012WA0077600778005010024201202
B2018283730178N12153015WA0077700779005010024213218
B2018293730175N12153017WA0077700780005010022226228
B2018303730173N12153021WA0077700781005010019251239
B2018313730172N12153024WA0077700782005010019287258
B2018323730173N12153027WA0077500783005010017311283
B2018333730175N12153029WA0077300784005010019333300
B2018343730178N12153030WA0077100785005010025352317
B2018353730182N12153030WA0076900785005010029006337
B2018363730186N12153026WA0076900785005010041053353
B2018373730190N12153019WA0076800784005010041063048
B2018383730192N12153011WA0076900783005010042064059
B2018393730194N12153004WA0076900782005010038072061
B2018403730194N12152997WA0077000782005010037107069
B2018413730192N12152990WA0077100781005010037122113
B2018423730188N12152984WA0077200780005010038134134
B2018433730184N12152979WA0077200780005010038142153
B2018443730179N12152975WA0077300779005010038147158
B2018453730174N12152971WA0077500779005010036152167
B2018463730169N12152968WA0077700779005010035154174
B2018473730164N12152965WA0077900779005010033159188
B2018483730159N12152963WA0078100779005010030166195
B2018493730155N12152962WA0078200780005010027186209
B2018503730151N12152963WA0078300781005010025199232
B2018513730148N12152966WA0078500782005010021230243
B2018523730146N12152969WA0078800782005010023242265
B2018533730145N12152973WA0078900783005010024254274
B2018543730144N12152978WA0078900784005010023264282
B2018553730144N12152982WA0078900785005010021259289
B2018563730144N12152986WA0078900785005010017248246
B2018573730143N12152989WA0079000786010019014236245
B2018583730142N12152991WA0079200787010019013226243
B2018593730141N12152993WA0079400786010019013220240
B2019003730139N12152995WA0079600786010019013217238
B2019013730138N12152996WA0080000786010019017217235
B2019023730133N12152995WA0080200785010019020200230
B2019033730128N12152994WA0080400785010019025183225
B2019043730123N12152992WA0080600784010019025185218
B2019053730119N12152989WA0080700784005010019190224
B2019063730117N12152987WA0080900783005010018207233
B2019073730116N12152987WA0081100783010019017211246
B2019083730115N12152988WA0081200783010019014218251
B2019093730114N12152989WA0081300783010019015233258
B2019103730113N12152992WA0081400783005010014232230
B2019113730112N12152995WA0081400783005010013220235
B2019123730111N12152996WA0081500782010019012208234
B2019133730110N12152997WA0081800782010019012179232
B2019143730108N12152996WA0082100782010019011172216
B2019153730107N12152996WA0082400782010019010165215
B2019163730106N12152990WA0082700781010019009187223
B2019173730105N12152985WA0083000780010019009201227
B2019183730105N12152981WA0083300780010019010208226
B2019233730117N12152936WA0084500859004003017337280
B2019243730123N12152935WA0084600859004003017004338
B2019253730128N12152932WA0084800862004003037032352
B2019263730131N12152926WA0084900863004003043061036
B2019273730132N12152917WA0085200864004003052085070
B2019283730132N12152909WA0085500869004003052107100
B2019293730130N12152903WA0085700872004003047121124
B2019303730127N12152897WA0085900875004003039127147
B2019313730124N12152892WA0086300878004003035135155
B2019323730119N12152888WA0086400880004003036149168
B2019333730114N12152886WA0086600881004003037168194
B2019343730110N12152886WA0086700883004003036185212
B2019353730116N12152882WA0087000862005010036180225
B2019363730110N12152883WA0087200864005010035194233
B2019373730105N12152885WA0087400865005010027214244
B2019383730102N12152888WA0087600867005010025223254
B2019393730100N12152892WA0087700869005010018249261
B2019403730100N12152895WA0087900871005010014282276
B2019413730101N12152898WA0088000873005010017317291
B2019423730103N12152899WA0088300875005010023349310
B2019433730107N12152899WA0088500877005010031015335
B2019443730112N12152897WA0088700879005010036029000
B2019453730117N12152892WA0088800882005010042050018
B2019463730121N12152886WA0089200884005010044059041
B2019473730124N12152878WA0089300886005010044069054
B2019483730126N12152871WA0089500888005010041083066
B2019493730125N12152863WA0089700890010019042107083
B2019503730122N12152856WA0090000892010019040124117
B2019513730118N12152850WA0090200893010019039139140
B2019523730113N12152846WA0090300895005010038153159
B2019533730108N12152843WA0090400897005010037163176
B2019543730102N12152841WA0090500899005010031179189
B2019553730098N12152842WA0090600900005010028199206
B2019563730095N12152844WA0090700902005010020234223
B2019573730093N12152847WA0090800903005010021268251
B2019583730093N12152851WA0091000904005010023290272
B2019593730095N12152854WA0091200906005010021323286
B2020003730098N12152856WA0091300907005010024358306
B2020013730102N12152855WA0091500908005010032018333
B2020023730106N12152852WA0091700910005010038034356
B2020033730111N12152847WA0091800911005010040044016
B2020043730115N12152841WA0091900914005010040060029
B2020053730118N12152834WA0092100916005010042075048
B2020063730118N12152826WA0092300917005010048091068
B2020073730117N12152816WA0092400919005010052103093
B2020083730115N12152807WA0092600920005010049116109
B2020093730111N12152800WA0092800922005010037131125
B2020103730107N12152796WA0093000924005010037158147
B2020113730101N12152794WA0093300926010019035170182
B2020123730096N12152793WA0093400927010019030176200
B2020133730091N12152793WA0093500929010019026189206
B2020143730088N12152795WA0093600931010019022207226
B2020153730085N12152797WA0093500932010019021226240
B2020163730083N12152800WA0093700934010019020232251
B2020173730081N12152803WA0093900935010019020245255
B2020183730080N12152807WA0094000936010019018258267
B2020193730080N12152810WA0094000938005010015280273
B2020203730080N12152812WA0094200939005010014297283
B2020213730081N12152814WA0094200941005010014305294
B2020223730083N12152817WA0094100942005010014311299
B2020233730084N12152819WA0094100944005010015321314
B2020243730086N12152820WA0094100945005010019341315
B2020253730090N12152821WA0094100946005010030354334
B2020273730095N12152821WA0094200947005010040007353
B2020283730101N12152819WA0094300948005010041019006
B2020293730107N12152815WA0094400949005010040031016
B2020303730112N12152811WA0094600951005010042045029
B2020313730115N12152804WA0094700952005010047063042
B2020323730118N12152786WA0095300954005010047096086
B2020343730116N12152777WA0095500956005010044116105
B2020353730112N12152772WA0095700957005010037140131
B2020363730107N12152768WA0095700958005010031156165
B2020373730103N12152767WA0095800959010019031168190
B2020383730098N12152766WA0095900960010019031178206
B2020393730094N12152767WA0096100961010019024189208
B2020403730091N12152767WA0096200962010019015199225
B2020413730089N12152768WA0096100964005010011206231
B2020423730087N12152770WA0096200965005010014205230
B2020433730084N12152772WA0096200966005010024206222
B2020443730081N12152774WA0096400967005010028185214
B2020453730076N12152774WA0096500969005010034168195
B2020463730071N12152772WA0096600970005010036155180
B2020473730066N12152769WA0096600971005010035148173
B2020483730061N12152766WA0096600973005010034147173
B2020493730057N12152763WA0096600974005010035152173
B2020503730052N12152760WA0096400975005010039155174
B2020513730046N12152757WA0096400976005010043160178
B2020523730040N12152755WA0096500977005010046162177
B2020533730033N12152752WA0096600977005010049160168
B2020543730026N12152749WA0096700978005010052159163
B2020553730019N12152745WA0096800979005010050156163
B2020563730012N12152742WA0096900980005010043156164
B2020573730007N12152739WA0096700981005010040155175
B2020583730001N12152735WA0096500982005010042153175
B2020593729995N12152732WA0096400983005010046157167
B2021003729989N12152730WA0096300983005010046170173
B2021013729982N12152729WA0096200983005010043172177
B2021023729976N12152729WA0096100983005010039175175
B2021033729970N12152728WA0096000982005010037172178
B2021043729965N12152727WA0095900981005010037168171
B2021053729959N12152726WA0095700979005010040166170
B2021063729953N12152724WA0095600978005010041166159
B2021073729947N12152722WA0095500977005010041163160
B2021083729941N12152720WA0095500975005010040158161
B2021093729936N12152717WA0095300974005010039155159
B2021103729931N12152714WA0095100973005010039155158
B2021113729925N12152711WA0094900971005010039156160
B2021123729920N12152708WA0094800970005010040157156
B2021133729914N12152705WA0094800968005010041154158
B2021143729909N12152701WA0094700966005010041152161
B2021153729903N12152698WA0094600965005010040153159
B2021163729898N12152695WA0094400963005010039154156
B2021173729892N12152692WA0094200962005010040153157
B2021183729887N12152688WA0094100961005010042151153
B2021193729881N12152684WA0093900959005010044149150
B2021203729876N12152679WA0093800957005010045147149
B2021213729870N12152675WA0093800956005010045144149
B2021223729865N12152670WA0093600955005010044142150
B2021233729860N12152665WA0093500954005010044142148
B2021243729855N12152660WA0093400952005010044142149
B2021253729849N12152655WA0093200951005010043142154
B2021263729844N12152650WA0093100949005010042143152
B2021273729839N12152645WA0092900948005010042143146
B2021283729834N12152640WA0092800946005010043143145
B2021293729829N12152635WA0092700945005010044141149
B2021303729824N12152630WA0092600943005010043140154
B2021313729819N12152625WA0092500942005010041141155
B2021323729814N12152620WA0092300940005010040144152
B2021333729809N12152616WA0092100939005010042146156
B2021343729804N12152611WA0092000937005010043146151
B2021353729798N12152607WA0091800936005010044145153
B2021363729793N12152602WA0091700934005010044145155
B2021373729787N12152598WA0091600932005010043145155
B2021383729782N12152593WA0091500931005010042145156
B2021393729777N12152588WA0091300930005010042145157
B2021403729772N12152584WA0091100928005010044145158
B2021413729766N12152579WA0091000926005010044147159
B2021423729760N12152575WA0090800925005010044150163
B2021433729755N12152571WA0090700923005010044152162
B2021443729749N12152567WA0090500922005010044152159
B2021453729743N12152563WA0090400920005010044151163
B2021463729737N12152560WA0090200918005010043152165
B2021473729732N12152556WA0090000917005010042154166
B2021483729726N12152553WA0089800915005010042157165
B2021493729720N12152550WA0089600913005010045158166
B2021503729713N12152547WA0089500911005010046157162
B2021513729707N12152544WA0089400909005010046156171
B2021523729695N12152537WA0089200906005010043156168
B2021533729689N12152534WA0089000904005010044157168
B2021543729683N12152531WA0088900902005010045157173
B2021553729677N12152527WA0088700901005010045156168
B2021563729671N12152524WA0088600899005010044155167
B2021573729665N12152520WA0088500897005010043154166
B2021583729659N12152517WA0088400896005010042154168
B2021593729653N12152514WA0088200894005010042155169
B2022003729647N12152510WA0088000892005010044157166
B2022013729641N12152507WA0087900890005010046157171
B2022023729635N12152504WA0087800888005010046157170
B2022033729629N12152501WA0087700887005010044158172
B2022043729623N12152498WA0087500885005010043160171
B2022053729617N12152495WA0087400883005010044162167
B2022063729610N12152493WA0087300882005010045159168
B2022073729604N12152489WA0087100880005010047157169
B2022083729597N12152486WA0087100878005010046157173
B2022093729591N12152483WA0086900877005010044159170
B2022103729585N12152480WA0086800876005010042160170
B2022113729579N12152477WA0086600875005010041158169
B2022123729573N12152475WA0086400873005010043158177
B2022133729567N12152472WA0086300872005010044160173
B2022143729561N12152469WA0086100870005010045161168
B2022153729554N12152466WA0086000869005010046161172
B2022163729548N12152463WA0085900868005010045159167
B2022173729541N12152460WA0085800866005010042158171
B2022183729536N12152457WA0085700865005010041160171
B2022193729530N12152455WA0085600864005010041163167
B2022203729524N12152453WA0085400863005010044162167
B2022213729517N12152450WA0085300862005010047159174
B2022223729510N12152447WA0085300860005010047159174
B2022233729504N12152444WA0085100859005010045162177
B2022243729498N12152442WA0085000858005010044165174
B2022253729491N12152439WA0084900856005010046164170
B2022263729484N12152437WA0084700855005010051161165
B2022273729477N12152433WA0084700854005010052159165
B2022283729470N12152430WA0084700853005010050160182
B2022293729463N12152427WA0084600852005010046164175
B2022303729456N12152425WA0084400851005010042166171
B2022313729450N12152423WA0084300850005010042163165
B2022323729444N12152421WA0084200849005010046159174
B2022333729438N12152417WA0084000848005010048158175
B2022343729431N12152414WA0084000847005010049160167
B2022353729424N12152411WA0083900846005010047159165
B2022363729418N12152408WA0083900845005010044153161
B2022373729412N12152404WA0083800844005010044152176
B2022383729406N12152400WA0083500843005010047154177
B2022393729399N12152397WA0083300842005010048163175
B2022403729392N12152394WA0083300841005010049163172
B2022413729385N12152391WA0083300840005010048160176
B2022423729379N12152388WA0083200839005010046158182
B2022433729372N12152386WA0083000838005010044161180
B2022443729366N12152383WA0082700837005010045163184
B2022453729359N12152381WA0082600836005010047168170
B2022463729352N12152379WA0082500835005010048165170
B2022473729346N12152377WA0082400834005010048162172
B2022483729339N12152374WA0082300832005010048159175
B2022493729332N12152371WA0082200831005010047159177
B2022503729325N12152368WA0082000830005010047161175
B2022513729319N12152365WA0081900829005010047163173
B2022523729312N12152363WA0081800827005010047162171
B2022533729305N12152360WA0081600826005010047160169
B2022543729299N12152357WA0081500824005010047158175
B2022553729292N12152354WA0081400823005010047159174
B2022563729286N12152351WA0081300821005010048162174
B2022573729279N12152348WA0081100820005010049163171
B2022583729272N12152345WA0081100818005010050161169
B2022593729264N12152342WA0081100817005010051160174
B2023003729257N12152339WA0081100816005010049161178
B2023013729251N12152336WA0081000815005010046162175
B2023023729244N12152334WA0080900813005010045162173
B2023033729238N12152331WA0080800812005010045162169
B2023043729231N12152328WA0080700811005010047161171
B2023053729225N12152325WA0080600810005010047159173
B2023073729218N12152322WA0080600809005010045160180
B2023083729212N12152320WA0080400808005010043162181
B2023093729206N12152317WA0080200807005010044164184
B2023103729199N12152316WA0080100806005010045171184
B2023113729193N12152315WA0080000805005010047172183
B2023123729186N12152314WA0079900803005010047171195
B2023133729179N12152312WA0079700802005010045173198
B2023143729172N12152312WA0079600801005010044178196
B2023153729166N12152312WA0079400800005010043181190
B2023163729159N12152312WA0079300798005010044179190
B2023173729152N12152312WA0079200797005010047176190
B2023183729145N12152311WA0079100795005010047174188
B2023193729138N12152310WA0079100794005010045173193
B2023203729132N12152309WA0079000794005010042172187
B2023213729126N12152308WA0078800793005010042171185
B2023223729120N12152307WA0078600792005010044172187
B2023233729113N12152306WA0078400790005010048170190
B2023243729105N12152305WA0078300789005010049172188
B2023253729098N12152304WA0078200788005010048173194
B2023263729091N12152303WA0078200787005010046174194
B2023273729084N12152302WA0078000786005010044175197
B2023283729078N12152301WA0077800784005010044177201
B2023293729071N12152301WA0077700783005010044179203
B2023303729065N12152301WA0077600782005010044182211
B2023313729058N12152302WA0077500780005010044184207
B2023323729051N12152302WA0077400779005010045183208
B2023333729044N12152303WA0077400777005010045182191
B2023343729038N12152303WA0077400776005010042184208
B2023353729032N12152304WA0077200775005010038186207
B2023363729026N12152305WA0077000774005010039187203
B2023373729020N12152306WA0076700773005010042185200
B2023383729014N12152306WA0076500771005010046183205
B2023393729007N12152307WA0076300769005010047182203
B2023403728993N12152307WA0076100766005010046180197
B2023413728986N12152307WA0075900764005010045178200
B2023423728979N12152307WA0075600762005010047178199
B2023433728972N12152307WA0075300759005010050179200
B2023443728964N12152306WA0075100757005010052177194
B2023453728956N12152306WA0075000755005010052175197
B2023463728949N12152305WA0074800753005010048175206
B2023473728942N12152304WA0074500750005010042175219
B2023483728936N12152304WA0074100748005010040180210
B2023493728930N12152305WA0073600746005010043189207
B2023503728922N12152306WA0073300742005010053185197
B2023513728914N12152307WA0073200739005010058180199
B2023523728906N12152307WA0073300736005010055187202
B2023533728898N12152308WA0073200734005010047181205
B2023543728892N12152308WA0073100732005010038175198
B2023553728886N12152307WA0072800730005010037172186
B2023563728880N12152306WA0072400728005010046172182
B2023573728872N12152305WA0072100726005010057173217
B2023583728864N12152304WA0072300724005010062176195
B2023593728855N12152303WA0072400722005010057170223
B2024003728848N12152302WA0072500721005010034167225
B2024013728844N12152300WA0072400720005010029164206
B2024023728839N12152299WA0072100719005010031167214
B2024033728834N12152298WA0071700717005010040179205
B2024043728828N12152298WA0071500714005010048182207
B2024053728821N12152299WA0071600713005010049178210
B2024063728814N12152298WA0071700712005010046173197
B2024073728807N12152297WA0071800712005010039172206
B2024083728802N12152296WA0071700711005010036175194
B2024093728797N12152296WA0071500711005010037174198
B2024103728791N12152296WA0071300710005010041182191
B2024113728785N12152296WA0071200709005010045179201
B2024123728778N12152296WA0071200709005010043177194
B2024133728772N12152295WA0071100708005010040171194
B2024143728766N12152294WA0071000707005010039174196
B2024153728760N12152294WA0070900706005010041177190
B2024163728754N12152293WA0070600705005010041175199
B2024173728748N12152293WA0070500704005010041172185
B2024183728742N12152292WA0070300703005010043174199
B2024193728735N12152291WA0070200702005010044177194
B2024203728729N12152291WA0070200702005010045178195
B2024213728722N12152290WA0070100701005010042178187
B2024223728716N12152290WA0070000700005010039177184
B2024233728711N12152290WA0069900699005010039174189
B2024243728705N12152289WA0069800698005010041171187
B2024253728698N12152287WA0069600697005010043169180
B2024263728692N12152286WA0069400696005010044168178
B2024273728686N12152284WA0069300695005010044165179
B2024283728679N12152282WA0069200693005010045162174
B2024293728673N12152279WA0069000692005010046160175
B2024303728667N12152276WA0068900691005010045158168
B2024313728660N12152273WA0068700690005010046157168
B2024323728654N12152269WA0068700689005010048158168
B2024333728647N12152266WA0068600687005010048162186
B2024343728640N12152264WA0068500686005010048167175
B2024353728633N12152262WA0068300685005010049166166
B2024363728626N12152260WA0068100683005010050161173
B2024373728619N12152256WA0068000682005010051158175
B2024383728612N12152253WA0067800681005010050160187
B2024393728605N12152250WA0067600679005010051168186
B2024403728597N12152249WA0067400677005010052173190
B2024413728590N12152248WA0067300676005010051174192
B2024423728582N12152247WA0067200674005010049174195
B2024433728575N12152246WA0067100672005010045176200
B2024443728569N12152246WA0066900671005010044179200
B2024453728562N12152246WA0066700669005010046177203
B2024463728555N12152246WA0066400668005010049181205
B2024473728548N12152246WA0066300666005010050182205
B2024483728540N12152247WA0066200664005010049183202
B2024493728533N12152247WA0066300663005010052182198
B2024503728525N12152248WA0066500662005010054182202
B2024513728517N12152248WA0066800662005010049180212
B2024523728510N12152248WA0067000663005010046181220
B2024533728503N12152248WA0067200664005010040184222
B2024543728498N12152249WA0067300665005010040185240
B2024553728492N12152250WA0067300666005010040188251
B2024563728486N12152252WA0067300667005010039200252
B2024573728481N12152255WA0067200668005010034214273
B2024583728477N12152259WA0067000669005010033221286
B2024593728475N12152262WA0066900670005010017263291
B2025003728475N12152265WA0066700671005010010272312
B2025013728476N12152266WA0066700672005010006310317
B2025023728477N12152266WA0066700672005010011003324
B2025033728480N12152263WA0066700673005010018056339
B2025043728482N12152259WA0066700673005010025073004
B2025053728484N12152252WA0066800674005010036087026
B2025063728483N12152244WA0067000674005010045107057
B2025073728479N12152236WA0067100675005010044119092
B2025083728475N12152230WA0067100675005010045142108
B2025093728468N12152224WA0067100676005010048145147
B2025103728462N12152219WA0067100676005010052145146
B2025113728455N12152213WA0067000676005010056146150
B2025123728447N12152208WA0067000676005010057149163
B2025133728440N12152203WA0067000675005010053157173
B2025143728433N12152200WA0066900675005010042168191
B2025153728427N12152199WA0066600675005010041168204
B2025163728421N12152198WA0066200675005010045173200
B2025173728413N12152198WA0066000674005010053190193
B2025183728405N12152201WA0066000672005010061186210
B2025193728396N12152203WA0066000671005010058192212
B2025203728388N12152205WA0065900668005010053189208
B2025213728381N12152207WA0066000667005010043193208
B2025223728375N12152209WA0065800665005010042192212
B2025233728368N12152211WA0065500664005010043189192
B2025243728362N12152212WA0065200662005010043185200
B2025253728355N12152213WA0065000660005010044183208
B2025263728349N12152213WA0064900657005010045186206
B2025273728342N12152215WA0064800655005010044188199
B2025283728336N12152216WA0064600653005010043185193
B2025293728329N12152216WA0064400650005010043181199
B2025303728323N12152216WA0064100648005010044179202
B2025313728316N12152216WA0063900646005010045180197
B2025323728309N12152216WA0063700643005010045181195
B2025333728303N12152216WA0063500640005010045180198
B2025343728296N12152216WA0063400638005010045180197
B2025353728289N12152216WA0063200635005010043180199
B2025363728283N12152216WA0062900633005010042180195
B2025373728276N12152216WA0062800631005010042179199
B2025383728270N12152216WA0062600628005010044177192
B2025393728263N12152216WA0062500626005010045176195
B2025403728256N12152215WA0062400624005010046177200
B2025413728250N12152215WA0062300622005010044178194
B2025423728243N12152214WA0062200620005010042177192
B2025433728237N12152214WA0062100619005010042176192
B2025443728231N12152214WA0061900617005010042175190
B2025453728225N12152213WA0061700615005010042177232
B2025463728218N12152213WA0061500614005010043180207
B2025473728212N12152213WA0061300612005010043182202
B2025483728206N12152214WA0061100611005010042185200
B2025493728199N12152214WA0060900609005010043184202
B2025503728192N12152216WA0060700608005010047189200
B2025513728185N12152217WA0060400606005010051187203
B2025523728178N12152218WA0060300604005010052186203
B2025533728170N12152219WA0060200602005010049184199
B2025543728163N12152220WA0060100601005010046180201
B2025553728156N12152220WA0059900599005010042179208
B2025563728150N12152219WA0059500598005010040175213
B2025573728144N12152219WA0059300596005010042177207
B2025583728138N12152219WA0059000594005010048185209
B2025593728130N12152220WA0059000592005010053185210
B2026003728122N12152222WA0059000590005010051187204
B2026013728115N12152223WA0059000589005010046183207
B2026023728108N12152223WA0058900588005010044180203
B2026033728101N12152223WA0058800587005010045179210
B2026043728094N12152223WA0058700587005010049179207
B2026053728087N12152224WA0058700586005010051185216
B2026063728079N12152225WA0058900586005010053184206
B2026073728072N12152225WA0059000585005010050179207
B2026083728064N12152225WA0058900586005010045175202
B2026093728058N12152224WA0058700586005010042174199
B2026103728051N12152224WA0058500586005010046181201
B2026113728044N12152225WA0058200585005010053187200
B2026123728036N12152226WA0058200585005010053185196
B2026133728029N12152226WA0058100584005010049176189
B2026143728022N12152225WA0057900583005010044171190
B2026153728015N12152224WA0057700582005010043166200
B2026163728009N12152222WA0057400581005010045171200
B2026173728002N12152222WA0057200580005010049182197
B2026183727995N12152222WA0057100579005010050179194
B2026193727987N12152222WA0057100578005010049175198
B2026203727980N12152222WA0056900577005010046175200
B2026213727973N12152221WA0056800576005010046178211
B2026223727967N12152222WA0056700575005010045188204
B2026233727960N12152224WA0056500573005010045187203
B2026243727953N12152225WA0056400571005010047181197
B2026253727946N12152225WA0056300570005010049175201
B2026263727939N12152224WA0056200568005010049174204
B2026273727931N12152223WA0056100567005010047176198
B2026283727925N12152223WA0056000565005010045176195
B2026293727918N12152222WA0055900564005010045174192
B2026303727911N12152221WA0055700563005010047171196
B2026313727904N12152220WA0055500561005010049172198
B2026323727897N12152219WA0055400559005010048174196
B2026333727890N12152218WA0055300558005010046176198
B2026343727883N12152218WA0055100556005010045174201
B2026353727876N12152217WA0055000554005010046172201
B2026363727869N12152215WA0054900552005010046171195
B2026373727862N12152214WA0054800550005010045173200
B2026383727856N12152213WA0054700549005010044175201
B2026393727849N12152213WA0054700547005010045175206
B2026403727842N12152212WA0054500546005010045177195
B2026413727836N12152212WA0054600544005010044177189
B2026423727829N12152211WA0054600543005010046174193
B2026433727822N12152210WA0054700542005010046167192
B2026443727816N12152208WA0054800541005010045157198
B2026453727810N12152205WA0054800541005010039156190
B2026463727805N12152202WA0054900541005010033160195
B2026473727800N12152200WA0054900541005010033165192
B2026483727795N12152198WA0055000541005010037158191
B2026503727790N12152195WA0055100542005010037153199
B2026513727781N12152190WA0055000542005010028160205
B2026523727777N12152189WA0055000543005010031164207
B2026533727772N12152187WA0054900543005010036165215
B2026553727767N12152185WA0054900544005010038166202
B2026563727761N12152184WA0054900544005010035171218
B2026573727757N12152184WA0054900544005010030181219
B2026583727752N12152184WA0054900544005010028186225
B2027003727743N12152184WA0055000545005010032176244
B2027013727739N12152184WA0054800545005010031175246
B2027023727734N12152184WA0054700545005010028184252
B2027033727730N12152185WA0054700545005010030197244
B2027043727726N12152187WA0054700546005010034204237
B2027053727721N12152189WA0054700546005010033199246
B2027063727717N12152191WA0054800546005010031194260
B2027073727712N12152193WA0054800546005010029194255
B2027083727708N12152194WA0054700547005010028194252
B2027093727704N12152196WA0054500547005010026203252
B2027103727701N12152198WA0054400547005010027205258
B2027113727697N12152200WA0054400547005010030204250
B2027123727693N12152203WA0054400547005010033208248
B2027133727689N12152206WA0054400548005010032216255
B2027143727685N12152209WA0054400548005010029218248
B2027153727682N12152212WA0054300548005010026212231
B2027163727678N12152215WA0054100548005010026208245
B2027173727674N12152217WA0054000548005010032200241
B2027183727670N12152219WA0054000547005010038211252
B2027193727665N12152223WA0054200547005010036213258
B2027203727660N12152226WA0054200547005010031206246
B2027213727657N12152228WA0054100547005010026196248
B2027223727653N12152229WA0054000548005010026189241
B2027233727649N12152230WA0053700548005010029192239
B2027243727644N12152231WA0053400547005010034194231
B2027253727639N12152234WA0053300547005010037206239
B2027263727634N12152237WA0053100546005010037202233
B2027273727629N12152239WA0053000545005010036198230
B2027283727624N12152241WA0052800544005010035196235
B2027293727619N12152243WA0052700542005010035195214
B2027303727614N12152245WA0052600541005010036194233
B2027313727609N12152246WA0052300539005010035189228
B2027323727604N12152247WA0052200538005010033186240
B2027333727599N12152248WA0052000536005010034185226
B2027343727594N12152249WA0051800535005010035193220
B2027353727588N12152250WA0051900534005010039199210
B2027363727583N12152252WA0051800532005010039193210
B2027373727577N12152253WA0051700531005010039184203
B2027383727571N12152253WA0051600530005010038180212
B2027393727565N12152253WA0051400529005010038180213
B2027403727559N12152253WA0051200527005010038182186
B2027413727554N12152254WA0051000526005010041182201
B2027423727547N12152255WA0050900525005010046187195
B2027433727540N12152256WA0050800523005010049184197
B2027443727532N12152257WA0050800522005010051182197
B2027453727525N12152258WA0050900521005010051181195
B2027463727517N12152258WA0051000520005010047180203
B2027473727510N12152259WA0050900518005010045177197
B2027483727504N12152258WA0050800518005010046172186
B2027493727496N12152256WA0050800517005010051167183
B2027503727489N12152254WA0050800517005010053166209
B2027513727481N12152253WA0050700516005010053170185
B2027523727473N12152251WA0050600515005010051170207
B2027533727466N12152250WA0050600514005010051174191
B2027543727458N12152249WA0050700513005010050173207
B2027553727451N12152248WA0050800513005010048172200
B2027563727444N12152247WA0050800512005010045172209
B2027573727438N12152246WA0050700511005010043174213
B2027583727432N12152246WA0050700511005010041178223
B2027593727426N12152246WA0050700510005010040183214
B2028003727420N12152247WA0050600509005010039188213
B2028013727414N12152248WA0050600509005010037187217
B2028023727409N12152249WA0050500508005010036187216
B2028033727403N12152250WA0050300508005010037188209
B2028043727398N12152251WA0050200507005010040189200
B2028053727392N12152253WA0050100506005010044189193
B2028063727385N12152253WA0050100505005010046181193
B2028073727378N12152253WA0050000504005010045175190
B2028083727372N12152252WA0049900503005010041173192
B2028093727366N12152251WA0049700502005010040173185
B2028103727359N12152251WA0049600501005010044175177
B2028113727352N12152250WA0049400500005010051171170
B2028123727345N12152248WA0049300498005010053166177
B2028133727337N12152245WA0049200496005010050162167
B2028143727331N12152242WA0049000495005010048160162
B2028153727324N12152239WA0048800493005010048160160
B2028163727317N12152236WA0048600491005010049158162
B2028173727310N12152232WA0048400489005010049153168
B2028183727304N12152227WA0048200487005010051148158
B2028193727298N12152222WA0048100485005010051146155
B2028203727291N12152217WA0048000483005010049145148
B2028213727286N12152212WA0047900481005010046147143
B2028223727280N12152207WA0047700479005010043145141
B2028233727275N12152202WA0047400477005010043138145
B2028243727270N12152196WA0047200474005010049131142
B2028253727265N12152189WA0047200472005010052128129
B2028263727261N12152181WA0047200470005010051128125
B2028273727256N12152174WA0047100468005010047128121
B2028283727252N12152167WA0047000466005010045127118
B2028293727248N12152160WA0046700465005010045127119
B2028303727244N12152153WA0046500463005010047125116
B2028313727240N12152146WA0046300461005010050122100
B2028323727236N12152138WA0046200459005010051119099
B2028333727233N12152129WA0046100457005010048116100
B2028343727230N12152122WA0045900455005010042115102
B2028353727227N12152115WA0045700454005010041114094
B2028363727225N12152107WA0045500452005010044114092
B2028373727222N12152100WA0045300450005010046112075
B2028383727220N12152092WA0045100448005010046105056
B2028393727219N12152084WA0044900446005010042094057
B2028403727219N12152076WA0044700444005010037083043
B2028413727220N12152070WA0044400442005010033074028
B2028423727221N12152064WA0044200440005010032066019
B2028433727224N12152059WA0044100438005010031055008
B2028443727227N12152055WA0043900435005010029043010
B2028453727230N12152052WA0043800433005010023031001
B2028463727233N12152051WA0043700431005010018017354
B2028473727235N12152050WA0043600429005010016014346
B2028483727238N12152049WA0043400427005010014020348
B2028493727240N12152049WA0043100425005010013013338
B2028503727242N12152049WA0042800423005010013001341
B2028513727244N12152049WA0042500421005010019346341
B2028523727247N12152050WA0042400418005010018343353
B2028533727249N12152051WA0042300417005010018345345
B2028543727252N12152051WA0042100415005010014353348
B2028553727254N12152052WA0041900413005010015359349
B2028563727256N12152052WA0041700411005010015001351
B2028573727258N12152052WA0041400409005010015003346
B2028583727261N12152052WA0041200406005010016002352
B2028593727263N12152051WA0041100404005010018003347
B2029003727266N12152051WA0041000402005010018004353
B2029013727269N12152051WA0040900400005010015007358
B2029023727271N12152050WA0040700398005010014014335
B2029033727273N12152050WA0040500396005010016011347
B2029043727276N12152049WA0040500394005010017009344
B2029053727278N12152049WA0040400392005010014005338
B2029063727280N12152049WA0040300390005010013004344
B2029073727282N12152049WA0040100389005010015003340
B2029083727285N12152048WA0040000387005010019001333
B2029093727288N12152049WA0040000385005010019356341
B2029103727290N12152049WA0040000384005010019352325
B2029113727293N12152049WA0039900382005010014359330
B2029123727295N12152049WA0039800381005010011020328
B2029133727296N12152048WA0039700379005010010024327
B2029143727298N12152048WA0039500378005010010013326
B2029153727300N12152048WA0039400377005010014354324
B2029163727302N12152048WA0039400375005010015353327
B2029173727304N12152049WA0039300374005010013000324
B2029183727306N12152048WA0039200373005010011012333
B2029193727307N12152048WA0039000372005010011014320
B2029203727309N12152048WA0038800371005010014007333
B2029213727311N12152047WA0038800370005010016003325
B2029223727314N12152047WA0038600368005010017006332
B2029233727316N12152046WA0038500367005010018017323
B2029243727319N12152045WA0038400366005010018024342
B2029253727321N12152043WA0038200365005010020026335
B2029263727324N12152042WA0038000364005010022025339
B2029273727327N12152040WA0037900362005010024020343
B2029283727331N12152039WA0037600361005010025019336
B2029293727335N12152037WA0037500360005010026020336
B2029303727338N12152035WA0037400358005010024019330
B2029313727342N12152034WA0037100357005010023016336
B2029323727345N12152033WA0036900356005010020011335
B2029333727348N12152032WA0036600354005010021011339
B2029343727351N12152031WA0036500353005010023013331
B2029353727355N12152030WA0036300351005010023013332
B2029363727358N12152029WA0036100350005010022012329
B2029373727361N12152028WA0035800348005010021011330
B2029383727364N12152028WA0035600347005010021010331
B2029393727367N12152027WA0035300345005010022010327
B2029403727371N12152026WA0035200343005010022010326
B2029413727374N12152025WA0035000342005010020007316
B2029423727377N12152025WA0034800340005010018359319
B2029433727379N12152025WA0034600338005010016348324
B2029443727381N12152026WA0034400337005010013341332
B2029453727383N12152027WA0034100335005010013342321
B2029463727385N12152027WA0033900333005010014347329
B2029473727387N12152028WA0033700331005010016350329
B2029483727389N12152028WA0033600329005010017353327
B2029493727392N12152029WA0033400327005010015351327
B2029503727394N12152029WA0033200325005010013354326
B2029513727395N12152029WA0032800324005010012356329
B2029523727397N12152029WA0032400322005010011001329
B2029533727399N12152029WA0032200320005010013007327
B2029543727401N12152029WA0032100318005010017351324
B2029553727404N12152030WA0032300315005010019340338
B2029563727407N12152031WA0032500313005010018327316
B2029573727408N12152033WA0032600312005010012314339
B2029583727409N12152034WA0032500310005010005317316
B2029593727410N12152035WA0032400309005010005320323
B2030003727410N12152035WA0032300307005010005345323
B2030013727411N12152035WA0032200306005010006351320
B2030023727412N12152036WA0032000304005010006352314
B2030033727413N12152036WA0032000303005010007333331
B2030043727414N12152037WA0031600301005010006340307
B2030053727414N12152037WA0031200300005010006339314
B2030063727415N12152037WA0030900298005010007357321
B2030073727417N12152038WA0030600297005010012341336
B2030083727419N12152038WA0030400295005010014343323
B2030093727421N12152039WA0030100293005010014354332
B2030103727423N12152039WA0030000291005010013007334
B2030113727425N12152038WA0029700289005010013011313
B2030123727427N12152038WA0029500287005010014009284
B2030133727429N12152038WA0029500285005010018358313
B2030143727432N12152038WA0029600283005010018354328
B2030153727434N12152038WA0029600282005010014001323
B2030163727436N12152038WA0029700280005010009023325
B2030173727437N12152037WA0029600279005010009031342
B2030183727439N12152037WA0029600277005010010018341
B2030193727440N12152036WA0029600276005010012011328
B2030203727442N12152036WA0029800275005010014018318
B2030213727444N12152035WA0029900274005010013029309
B2030223727446N12152034WA0029800273005010011024320
B2030233727447N12152033WA0029600272005010004005325
B2030243727448N12152033WA0029600271005010003273314
B2030253727448N12152033WA0029400271005010006310327
B2030263727448N12152035WA0029300270005010010318318
B2030273727450N12152036WA0029300269005010011319330
B2030283727451N12152037WA0029200268005010007336331
B2030293727452N12152038WA0029100267005010006000336
B2030303727453N12152037WA0029000265005010009013333
B2030313727454N12152037WA0029000264005010012010351
B2030323727457N12152037WA0029000263005010016006352
B2030333727459N12152036WA0029100263005010019018335
B2030343727462N12152035WA0028900262005010018032340
B2030353727464N12152034WA0028700261005010015042343
B2030363727466N12152032WA0028300260005010015035356
B2030373727468N12152030WA0028100259005010019029020
B2030383727471N12152028WA0027900258005010027027018
B2030393727475N12152025WA0027800257005010033037027
B2030403727479N12152021WA0027600256005010031044002
B2030413727482N12152017WA0027500255005010026058354
B2030423727484N12152013WA0027300254005010025057339
B2030433727486N12152010WA0027200253005010026040347
B2030443727490N12152007WA0027300251005010027036332
B2030453727493N12152004WA0027300250005010024023341
B2030463727496N12152003WA0027300249005010020027342
B2030473727499N12152001WA0027200248005010016029340
B2030483727501N12152000WA0027000247005010014029334
B2030493727503N12151999WA0026900246005010017013341
B2030503727506N12151998WA0026900245005010018011340
B2030513727509N12151997WA0026900244005010020017344
B2030523727511N12151996WA0026700243005010021037330
B2030533727514N12151993WA0026500242005010021041327
B2030543727516N12151991WA0026300241005010017028338
B2030553727518N12151990WA0026200240005010014356338
B2030563727520N12151991WA0026200239005010016334334
B2030573727522N12151992WA0026400238005010016350321
B2030583727525N12151992WA0026600237005010016015308
B2030593727527N12151991WA0026500236005010014031304
B2031003727528N12151989WA0026500235005010001196314
B2031013727528N12151989WA0026300235005010009220314
B2031023727527N12151991WA0026200234005010015218277
B2031033727525N12151992WA0026300233005010017199260
B2031043727522N12151993WA0026400233005010019176252
B2031053727519N12151992WA0026400232005010018166242
B2031063727517N12151991WA0026300232005010017170260
B2031073727514N12151991WA0026100231005010015191282
B2031083727512N12151992WA0026100230005010014217293
B2031093727511N12151994WA0026100230005010011265305
B2031103727512N12151996WA0026200229005010012341318
B2031113727515N12151996WA0026300228005010023018333
B2031123727518N12151994WA0026300228005010024026340
B2031133727521N12151992WA0026300228005010016029333
B2031143727524N12151991WA0026100227005010014027320
B2031153727525N12151990WA0025900227005010013009313
B2031163727527N12151991WA0025800226005010012337301
B2031173727529N12151992WA0025700226005010009286285
B2031183727529N12151994WA0025700225005010011230271
B2031193727527N12151995WA0025600224005010018196258
B2031203727524N12151996WA0025500224005010025180242
B2031213727520N12151995WA0025400223005010032169215
B2031223727515N12151994WA0025200223005010041161196
B2031233727509N12151990WA0025000222005010047149168
B2031243727503N12151985WA0025000221005010051136151
B2031253727498N12151977WA0024800221005010053120126
B2031263727496N12151967WA0024700220005010054097099
B2031273727496N12151957WA0024600219005010053077070
B2031283727499N12151948WA0024500218005010045060042
B2031293727503N12151942WA0024500218010019034045020
B2031303727506N12151940WA0024500217010019020357359
B2031313727508N12151941WA0024400216010019011325313
B2031323727510N12151943WA0024400216005010009327297
B2031333727511N12151944WA0024400215005010009339293
B2031343727512N12151945WA0024400215005010009309286
B2031353727513N12151947WA0024400214005010012272278
B2031363727513N12151950WA0024500214005010013258270
B2031373727512N12151952WA0024700213005010009242302
B2031383727512N12151953WA0024700213005010005236272
B2031393727511N12151954WA0024600212005010006162286
B2031403727511N12151953WA0024300212005010007136280
B2031413727510N12151954WA0024100211005010010251257
B2031423727510N12151956WA0023900210005010016266312
B2031433727510N12151959WA0024100209005010020280284
B2031443727511N12151963WA0024200209005010015291269
B2031453727511N12151965WA0024300208005010006256296
B2031463727511N12151966WA0024400208005010008244294
B2031473727510N12151968WA0024300208005010009246295
B2031483727510N12151969WA0024200208005010002234302
B2031493727511N12151969WA0024100207005010003001296
B2031503727511N12151969WA0024000207005010001162286
B2031513727511N12151969WA0023900207005010008210286
B2031523727510N12151970WA0023700206005010010203278
B2031533727509N12151971WA0023500206005010009242281
B2031543727509N12151972WA0023300205005010009259284
B2031553727508N12151974WA0023200204005010012263283
B2031563727507N12151977WA0023100204005010016236280
B2031573727506N12151979WA0023200204005010019218279
B2031583727504N12151981WA0023200203005010017221272
B2031593727502N12151983WA0023200203005010011218274
B2032003727501N12151984WA0023100202005010008209277
B2032013727500N12151985WA0023000202005010011209275
B2032023727498N12151987WA0022800202005010021239272
B2032033727497N12151990WA0022800201005010017247276
B2032043727496N12151992WA0023100201005010011246275
B2032053727496N12151994WA0023300201005010007232273
B2032063727495N12151995WA0023200201005010005242271
B2032073727495N12151996WA0023100201005010006272281
B2032083727495N12151997WA0023000201005010010283272
B2032093727496N12152000WA0022900200005010014287283
B2032103727496N12152002WA0023000200005010011289275
B2032113727497N12152003WA0023000200005010006272264
B2032123727496N12152004WA0023000200005010006240251
B2032133727496N12152005WA0023000200005010008228245
B2032143727495N12152006WA0022900200005010009210239
B2032153727493N12152007WA0022800200005010011197241
B2032163727491N12152007WA0022600200005010014190244
B2032173727489N12152008WA0022500200005010015197242
B2032183727487N12152009WA0022500200005010016194237
B2032193727484N12152009WA0022400199005010017181229
B2032203727481N12152009WA0022400199005010015177234
B2032213727479N12152009WA0022400199005010012192242
B2032223727478N12152010WA0022300199005010011207245
B2032233727476N12152011WA0022100198005010010208254
B2032243727475N12152012WA0022000198005010010213252
B2032253727474N12152013WA0021800198005010011226269
B2032263727473N12152015WA0021700197005010013247286
B2032273727472N12152017WA0021700197005010009272295
B2032283727472N12152018WA0021800196005010004340300
B2032293727473N12152018WA0021600196005010007345293
B2032303727474N12152018WA0021200195005010004041287
B2032313727474N12152018WA0021000195005010002295293
B2032323727474N12152020WA0021000194005010010269292
B2032333727474N12152022WA0021000193005010014297306
B2032343727475N12152024WA0021000193005010007303302
B2032353727475N12152026WA0021000192005010008298295
B2032363727476N12152027WA0020800192010019003276284
B2032373727475N12152027WA0020600192010019007256284
B2032383727475N12152030WA0020600190010019012257287
B2032393727475N12152032WA0020600189010019009276281
B2032403727475N12152033WA0020600189010019004287277
B2032413727475N12152034WA0020600188010019003294277
B2032423727475N12152035WA0020500188010019003235274
B2032433727474N12152035WA0020300188010019005211277
B2032443727474N12152036WA0020100187010019012253268
B2032453727473N12152039WA0020200187010019012246272
B2032463727472N12152041WA0020200186010019010232271
B2032473727472N12152042WA0020200186010019007222277
B2032483727471N12152043WA0020100185010019006226287
B2032493727471N12152044WA0020000185010019008290282
B2032503727471N12152046WA0019800184010019013295283
B2032513727472N12152048WA0019900184010019013283274
B2032523727472N12152051WA0019700183010019013249280
B2032533727472N12152053WA0019700183010019010234256
B2032543727471N12152054WA0019400182010019006235287
B2032553727471N12152055WA0019400182010019007272295
B2032563727471N12152056WA0019500181010019005270003
B2032573727471N12152057WA0019400181010019001035311
B2032583727471N12152056WA0019500180010019003025335
B2032593727472N12152055WA0019400180010019006023339
B2033003727473N12152054WA0019400179010019009033293
B2033013727474N12152053WA0019400179010019009044300
B2033023727475N12152052WA0019400178010019006058299
B2033033727475N12152051WA0019400177010019005110290
B2033043727475N12152050WA0019400177010019006142281
B2033053727474N12152049WA0019400176010019010137274
B2033063727473N12152047WA0019400177010019008106268
B2033073727474N12152046WA0019500176010019003042280
B2033083727474N12152046WA0019500176010019002020280
B2033093727474N12152046WA0019400176010019000000280
B2033103727474N12152046WA0019400176010019001097280
B2033113727474N12152046WA0019400176010019000000280
B2033123727474N12152046WA0019500176010019000000280
B2033133727474N12152046WA0019400176010019000000280
B2033143727474N12152046WA0019400176010019000000280
B2033153727474N12152046WA0019400176010019001288280
B2033163727474N12152046WA0019400176010019000276280
B2033173727474N12152046WA0019400176010019001280280
B2033183727474N12152046WA0019400176010019001304280
B2033193727474N12152046WA0019400176010019001314280
B2033203727474N12152046WA0019400176010019000000280
B2033213727474N12152046WA0019400176010019000000280
B2033223727474N12152046WA0019400176010019000000280
B2033233727474N12152046WA0019400176010019000000280
B2033243727474N12152046WA0019400176010019000000280
B2033253727474N12152046WA0019400176010019000000280
B2033263727474N12152046WA0019400176010019001158280
B2033273727474N12152046WA0019400176010019000000280
B2033283727474N12152046WA0019400176010019000000280
B2033293727474N12152046WA0019400176010019000000280
B2033303727474N12152046WA0019400176010019000000280
B2033313727474N12152046WA0019400176010019000000280
B2033323727474N12152046WA0019400176010019000000280
Gyn/TtMKEaQDRIbnhYAExHSElSi046rTWamhxN9OzTeEzO+P8lXpvK2X9Yes2gfa+
GZ8ljgUwpyNaJM7q0rpAyCsolfWtS1rr5cBtA53AM/bIMhCfrEMvTPnNsnvjm3LlA
GJQw9z6fDe5+GpM9Xm9RsePVn0xpUb4L1HWNFHF8K5eQ=

