AXFH000
HFDTE030526
HFPLTPILOT:Scott O’Brien
HFGTYGLIDERTYPE:Ozone Swift 6
HFDTM100GPSDATUM:WGS84
HFRFWFIRMWAREVERSION:9.5.2
HFRHWHARDWAREVERSION:iPhone 15
HFFTYFRTYPE:Flyskyhy,9.5.2
HFGPS:Internal
HFPRSVARIO:Internal Vario
HFCCLCOMPETITIONCLASS:Paraglider
HFTZNTIMEZONE:-7
HFSITSITE:Ed Levin,US
I053638FXA3941VXA4244GSP4547CCO4850HDT
C030526165525030526000102TASK
C0000000N00000000ETAKEOFF
C3645907N11905878W00000000000400000000360000STARTAREA DNLNCH
C3647347N11907139W00000000000400000000360000TURNAREA DELILA
C3645957N11912202W00000000000400000000360000TURNAREA BALDMT
C3644326N11915091W00000000000400000000360000FINISHAREA SQVAL
C0000000N00000000ELANDING
B1655543728539N12151689WA0069700697001010000339031
B1655553728539N12151689WA0069700697001010000339356
B1655563728539N12151689WA0069700697001010001339006
B1655573728539N12151689WA0069700697001010001339316
B1655583728539N12151689WA0069700697001010001339029
B1655593728539N12151689WA0069700697001010001339107
B1656003728539N12151689WA0069700697001010002100136
B1656013728539N12151688WA0069800697001010003072094
B1656023728539N12151688WA0069800698001010004065246
B1656033728540N12151687WA0069900698001010003073230
B1656043728539N12151686WA0069900698001010003090220
B1656053728539N12151686WA0069900698001010002114248
B1656063728539N12151686WA0069800698001010001138242
B1656073728539N12151686WA0069800698001010000138227
B1656083728539N12151687WA0069800698001010006291234
B1656093728540N12151689WA0069800699001010008272256
B1656103728540N12151690WA0069700699001010009267266
B1656113728540N12151692WA0069900699001010012281256
B1656123728541N12151695WA0069800699001010013289237
B1656133728541N12151697WA0069800699001010011275224
B1656153728539N12151687WA0070400704094003000000237
B1656163728535N12151682WA0070400704112011002166232
B1656183728536N12151708WA0070800703005008010191220
B1656193728533N12151708WA0070700707004004014193230
B1656203728532N12151709WA0070600707004003013211230
B1656223728531N12151710WA0070600707004003013219218
B1656233728529N12151711WA0070600708004003013197244
B1656243728527N12151711WA0070700708004003013187021
B1656253728524N12151711WA0070800707004003017177011
B1656263728522N12151712WA0070800708004003017188047
B1656273728520N12151713WA0070900709004003016221083
B1656283728519N12151714WA0070900709004003015209115
B1656293728517N12151715WA0070900711004003011219127
B1656303728516N12151717WA0071000712004003012210141
B1656313728514N12151718WA0071100712004003012205150
B1656323728512N12151719WA0071100712004003012207154
B1656333728511N12151720WA0071200711004003013213162
B1656343728509N12151721WA0071300711004003014202170
B1656353728506N12151719WA0071400710004003020154215
B1656363728504N12151718WA0071400711004003020152140
B1656373728501N12151717WA0071500711004003018166142
B1656383728499N12151717WA0071500712004003017178155
B1656393728496N12151716WA0071500712004003017163186
B1656403728493N12151714WA0071500713004003023145174
B1656413728491N12151712WA0071600714004003023133158
B1656423728489N12151710WA0071600714004003020143148
B1656433728487N12151709WA0071700713004003018177146
B1656443728485N12151710WA0071700713004003014189179
B1656453728482N12151710WA0071700713004003015182185
B1656463728480N12151710WA0071700714004003015177180
B1656473728479N12151709WA0071800715004003014172172
B1656483728477N12151709WA0071800715004003010181170
B1656493728476N12151709WA0071800715004003010177175
B1656503728474N12151709WA0071800715004003012176173
B1656513728472N12151709WA0071800714004003013177173
B1656523728470N12151709WA0071900714004003012186174
B1656533728467N12151711WA0071900713004003012214192
B1656543728465N12151712WA0071800713004003013203196
B1656553728463N12151712WA0071800712004003017190191
B1656563728461N12151712WA0071800711004003017180184
B1656573728458N12151711WA0071700711004003017172177
B1656583728455N12151711WA0071700710004003017183171
B1656593728453N12151710WA0071600709004003018168178
B1657003728450N12151710WA0071600709004003022165168
B1657013728447N12151709WA0071500709004003021169166
B1657023728444N12151709WA0071500709004003021178169
B1657033728441N12151708WA0071400709004003017177176
B1657043728439N12151708WA0071400708004003018168174
B1657053728436N12151707WA0071400707004003020170168
B1657063728432N12151707WA0071300707004003020168170
B1657073728430N12151706WA0071300707004003020174168
B1657083728427N12151706WA0071200707004003020184172
B1657093728424N12151706WA0071200707004003020172180
B1657103728421N12151705WA0071200707004003021162171
B1657113728417N12151704WA0071100706004003021159164
B1657123728415N12151703WA0071100706004003021161162
B1657133728412N12151701WA0071100705004003022163163
B1657143728408N12151701WA0071100704004003023167165
B1657153728405N12151699WA0071000704004003024162167
B1657163728402N12151698WA0071000703004003023159164
B1657173728399N12151697WA0070900703004003023156161
B1657183728396N12151696WA0070900703004003020168159
B1657193728392N12151695WA0070900702004003026171168
B1657203728389N12151694WA0070800701004003026163171
B1657213728386N12151693WA0070800702004003023167164
B1657223728383N12151692WA0070700702004003023165168
B1657233728379N12151691WA0070700702004003021166166
B1657243728377N12151691WA0070700702004003018188167
B1657253728374N12151691WA0070700702004003021180182
B1657263728371N12151691WA0070700702004003021168177
B1657273728368N12151689WA0070700704004003021162168
B1657283728365N12151689WA0070700704004003021168164
B1657293728363N12151688WA0070700704004003017180169
B1657303728360N12151688WA0070700703004003020177176
B1657313728356N12151687WA0070800703004003020171175
B1657323728353N12151687WA0070800703004003021173170
B1657333728350N12151687WA0070800704004003021177172
B1657343728347N12151687WA0070800704004003018185175
B1657353728344N12151687WA0070800705004003020173180
B1657363728341N12151686WA0070800705004003020163172
B1657373728337N12151684WA0070800705004003024162165
B1657383728334N12151684WA0070900707004003024168164
B1657393728331N12151683WA0070900708004003020169168
B1657403728328N12151682WA0071000708004003020168169
B1657413728325N12151681WA0071000709004003020158168
B1657423728322N12151680WA0071100708004003022162161
B1657433728319N12151679WA0071200708004003022172164
B1657443728316N12151679WA0071300709004003017181171
B1657453728313N12151679WA0071300708004003019176177
B1657463728310N12151678WA0071300707004003019170174
B1657473728307N12151677WA0071300708004003023175170
B1657483728304N12151677WA0071300708004003023182174
B1657493728300N12151677WA0071300708004003021180179
B1657503728297N12151677WA0071200707004003021176177
B1657513728294N12151676WA0071200706004003021175174
B1657523728290N12151676WA0071200706004003021179173
B1657533728287N12151677WA0071200705004003023187176
B1657543728284N12151677WA0071200705004003023183182
B1657553728280N12151677WA0071100705004003025176179
B1657563728276N12151676WA0071000704004003025169175
B1657573728271N12151675WA0071000704004003029172169
B1657583728267N12151675WA0070900704004003029176172
B1657593728263N12151675WA0070800704004003027177175
B1658003728259N12151674WA0070800703004003027166175
B1658013728255N12151672WA0070700703004003027156167
B1658023728251N12151670WA0070700702004003029155159
B1658033728247N12151669WA0070700701004003029171158
B1658043728245N12151670WA0070700700004003017214171
B1658053728244N12151673WA0070700698004003019258200
B1658063728243N12151676WA0070600699004003018264234
B1658073728242N12151677WA0070500700004003018217239
B1658083728240N12151678WA0070400701004003016177203
B1658093728237N12151678WA0070300700004003015175175
B1658103728235N12151679WA0070300700004003015197174
B1658113728233N12151680WA0070300699004003015204188
B1658123728231N12151680WA0070400697004003017193192
B1658133728227N12151680WA0070400695004003017170186
B1658143728222N12151677WA0070400697004003034150170
B1658153728219N12151675WA0070300697004003034153154
B1658163728216N12151674WA0070200696004003026165156
B1658173728212N12151673WA0070100695004003023169167
B1658183728208N12151672WA0070100693004003023168169
B1658193728204N12151670WA0070000693004003028164169
B1658203728200N12151669WA0069900693004003030162166
B1658213728196N12151667WA0069900694004003028158164
B1658223728193N12151666WA0069800696004003026164161
B1658233728189N12151664WA0069800695004003026159165
B1658243728185N12151662WA0069800695004003030162162
B1658253728180N12151660WA0069800695004003034162164
B1658263728176N12151659WA0069900696004003032163164
B1658283728172N12151658WA0069900698004003032167164
B1658293728168N12151658WA0069900698004003021179168
B1658303728165N12151658WA0069800698004003021184177
B1658313728163N12151659WA0069800697004003019205180
B1658323728161N12151661WA0069900697004003016227195
B1658333728160N12151664WA0069900696004003016246209
B1658343728161N12151667WA0069900695004003024303222
B1658353728164N12151670WA0069900695004003025329283
B1658363728166N12151672WA0069900696004003024331318
B1658373728167N12151673WA0069800696004003020310319
B1658383728168N12151676WA0069800695004003013271287
B1658393728168N12151679WA0069800695004003019270235
B1658403728168N12151682WA0069800696004003019260243
B1658413728167N12151684WA0069800696004003015228235
B1658423728163N12151684WA0069900694004003015179208
B1658433728159N12151683WA0069900693004003027167177
B1658443728154N12151682WA0069900694004003034158169
B1658453728150N12151678WA0069900695004003034144162
B1658463728147N12151675WA0069900695004003034135151
B1658473728143N12151671WA0069800694004003032136143
B1658483728139N12151667WA0069800693004003031143144
B1658493728135N12151664WA0069800692004003032149150
B1658503728131N12151660WA0069700691004003037142154
B1658513728127N12151656WA0069700690004003035141148
B1658523728124N12151651WA0069600691004003037135148
B1658533728120N12151647WA0069500691004003035139142
B1658543728113N12151640WA0069400689004003030137151
B1658553728108N12151636WA0069300689004003030140146
B1658563728104N12151633WA0069300688004003034143148
B1658573728100N12151629WA0069200687004003034151149
B1658583728096N12151626WA0069100686004003030149156
B1658593728092N12151623WA0069000685004003030145155
B1659003728089N12151619WA0068900685004003030143152
B1659013728085N12151616WA0068800683004003030148150
B1659023728080N12151615WA0068800682004003031168154
B1659033728076N12151613WA0068700681004003031163169
B1659043728072N12151611WA0068600681004003031157166
B1659053728068N12151608WA0068500681004003031151161
B1659063728064N12151605WA0068500680004003030155156
B1659073728059N12151603WA0068400679004003031158159
B1659083728055N12151602WA0068300678004003028165162
B1659093728051N12151601WA0068300679004003031165167
B1659103728047N12151599WA0068300680004003028159167
B1659113728043N12151597WA0068300679004003030156163
B1659123728039N12151595WA0068300680004003029164160
B1659133728035N12151594WA0068300679004003028169167
B1659143728030N12151593WA0068300680004003028174170
B1659153728026N12151593WA0068300681004003028166174
B1659163728022N12151590WA0068300682004003028146168
B1659173728018N12151586WA0068400681004003031137153
B1659183728015N12151583WA0068500680004003033136146
B1659193728011N12151579WA0068500680004003033140144
B1659203728007N12151575WA0068500680004003033143147
B1659213728003N12151571WA0068500679004003033142150
B1659223727999N12151567WA0068500679004003033140148
B1659233727996N12151563WA0068400679004003034136147
B1659243727992N12151559WA0068400679004003034135144
B1659253727988N12151555WA0068300678004003033140143
B1659263727983N12151553WA0068300678004003033155148
B1659273727978N12151551WA0068200677004003035163159
B1659283727974N12151551WA0068200678004003027172166
B1659293727970N12151550WA0068100679004003027165173
B1659303727966N12151549WA0068100679004003025173167
B1659313727963N12151549WA0068100677004003024179174
B1659323727959N12151549WA0068000678004003025189178
B1659333727956N12151552WA0068000677004003022217185
B1659343727954N12151553WA0067900677004003022215205
B1659353727952N12151555WA0067800677004003018221204
B1659363727950N12151557WA0067700676004003016217206
B1659373727948N12151559WA0067700674004003016221202
B1659383727947N12151563WA0067700673004003021243204
B1659393727946N12151566WA0067600672004003021264224
B1659403727947N12151569WA0067500671004003019286240
B1659413727947N12151572WA0067500671004003016287257
B1659423727948N12151574WA0067400670004003015290253
B1659433727948N12151577WA0067300671004003016285253
B1659443727948N12151581WA0067200669004003020258251
B1659453727948N12151584WA0067200669004003018285235
B1659463727949N12151587WA0067100668004003018291254
B1659473727950N12151590WA0067000669004003016295259
B1659483727950N12151592WA0067000669004003016275259
B1659493727951N12151595WA0066900668004003016279242
B1659503727952N12151598WA0066900667004003016286245
B1659513727953N12151601WA0066900668004003017297250
B1659523727955N12151604WA0067000669004003018313262
B1659533727956N12151607WA0067000669004003018300279
B1659543727957N12151610WA0067000669004003019277266
B1659553727957N12151613WA0067000669004003018272248
B1659563727957N12151616WA0067100670004003018275243
B1659573727957N12151619WA0067100671004003015271245
B1659583727957N12151621WA0067200671004003012274238
B1659593727957N12151624WA0067200671004003015272232
B1700003727957N12151627WA0067300671004003015258238
B1700013727955N12151630WA0067300672004003017231229
B1700023727953N12151632WA0067400673004003020210214
B1700033727950N12151634WA0067400674004003021204201
B1700043727948N12151636WA0067500674004003021207197
B1700053727945N12151638WA0067500672004003021207199
B1700063727942N12151639WA0067500672004003022201200
B1700073727938N12151640WA0067500672004003023191195
B1700083727935N12151640WA0067500672004003026176189
B1700093727930N12151639WA0067500672004003030164178
B1700103727926N12151637WA0067500671004003030164169
B1700113727921N12151636WA0067400670004003033167169
B1700123727916N12151635WA0067400670004003035171171
B1700133727911N12151633WA0067400671004003034167174
B1700143727907N12151632WA0067300670004003034157171
B1700153727904N12151630WA0067200669004003025151163
B1700163727900N12151628WA0067200667004003025152160
B1700173727895N12151625WA0067200664004003029158161
B1700183727889N12151623WA0067100661004003038165164
B1700193727884N12151622WA0067000660004003038169169
B1700203727880N12151621WA0066800659004003032166172
B1700213727876N12151619WA0066600658004003029165170
B1700223727871N12151618WA0066400656004003029164170
B1700233727867N12151617WA0066200655004003027169169
B1700243727863N12151617WA0066100654004003027186173
B1700253727860N12151619WA0065900653004003025207185
B1700263727858N12151621WA0065800652004003021214200
B1700273727857N12151624WA0065700651004003019249204
B1700283727856N12151626WA0065700649004003015258227
B1700293727856N12151630WA0065600648004003017285230
B1700303727856N12151632WA0065500647004003015280250
B1700313727857N12151635WA0065400646004003015271244
B1700323727856N12151638WA0065300645004003015252238
B1700343727855N12151640WA0065100644004003014255225
B1700353727855N12151643WA0065000643004003014275225
B1700363727856N12151645WA0064900642004003012293238
B1700373727856N12151647WA0064800641004003011286243
B1700383727856N12151649WA0064700639004003014270236
B1700393727856N12151652WA0064500638004003015258234
B1700403727856N12151654WA0064400637004003014266229
B1700413727856N12151657WA0064300636004003014268232
B1700423727856N12151659WA0064100635004003014286233
B1700433727857N12151662WA0064000635004003014293244
B1700443727858N12151664WA0063900634004003014293249
B1700453727859N12151667WA0063800633004003014273250
B1700463727858N12151670WA0063700632004003016262237
B1700473727858N12151673WA0063700632004003014259233
B1700483727858N12151675WA0063600633004003014270228
B1700493727858N12151678WA0063500634004003014280235
B1700503727858N12151680WA0063400635004003013277241
B1700513727858N12151682WA0063400635004003012267236
B1700523727858N12151685WA0063400634004003015261230
B1700533727858N12151688WA0063400634004003020283231
B1700543727859N12151690WA0063400635004003018298252
B1700553727860N12151693WA0063400637004003018297259
B1700563727861N12151695WA0063400637004003013278259
B1700573727863N12151700WA0063500637004003016305251
B1700583727864N12151702WA0063600637004003016301261
B1700593727865N12151705WA0063700638004003016297258
B1701003727865N12151708WA0063800639004003016270256
B1701013727865N12151710WA0063800639004003014266238
B1701023727866N12151713WA0063900640004003015283233
B1701033727867N12151716WA0063900640004003015302245
B1701043727868N12151718WA0063900640004003016301256
B1701053727869N12151721WA0064000641004003016299257
B1701063727870N12151723WA0064100641004003014293256
B1701073727871N12151726WA0064100641004003014291247
B1701083727871N12151728WA0064200641004003014294246
B1701093727872N12151730WA0064200640004003014297247
B1701103727873N12151733WA0064300638004003015292250
B1701113727874N12151736WA0064300637004003017284248
B1701123727874N12151739WA0064200636004003017283247
B1701133727875N12151742WA0064100634004003016288246
B1701143727876N12151745WA0064000634004003016301250
B1701153727878N12151747WA0063900632004003016309257
B1701163727879N12151749WA0063700631004003015312262
B1701173727881N12151751WA0063600630004003016306260
B1701183727882N12151754WA0063500628004004016301259
B1701193727883N12151756WA0063400626004003016307256
B1701203727885N12151759WA0063300625004003017308261
B1701213727886N12151763WA0063300624004003025294264
B1701223727887N12151765WA0063100622004003025290265
B1701233727889N12151768WA0063000621004003017305262
B1701243727890N12151771WA0062800619004003017310261
B1701253727891N12151774WA0062600617004003017294264
B1701263727892N12151777WA0062500616004003019286254
B1701273727893N12151781WA0062300615004003019274252
B1701283727894N12151783WA0062100615004003019294244
B1701293727895N12151785WA0061900613004003015322257
B1701303727897N12151787WA0061800611004003015323266
B1701313727899N12151790WA0061600608004003020311267
B1701323727901N12151793WA0061500607004003020304271
B1701333727903N12151796WA0061300607004003020309266
B1701343727905N12151799WA0061200606004003020317270
B1701353727907N12151801WA0061100605004003020309275
B1701363727908N12151804WA0061000605004003014305269
B1701373727909N12151806WA0060900604004003015300254
B1701383727911N12151808WA0060900603004003015304253
B1701393727913N12151809WA0060800603004003015334255
B1701403727915N12151811WA0060800602004003015328272
B1701413727917N12151813WA0060800602004003018319268
B1701423727918N12151816WA0060700602004003018303271
B1701433727919N12151820WA0060600603004003018287262
B1701443727920N12151823WA0060500605004003020286251
B1701453727921N12151825WA0060500607004003020283252
B1701463727922N12151827WA0060500609004003009293251
B1701473727922N12151830WA0060500609004003012266235
B1701483727922N12151832WA0060600609004003012269231
B1701493727922N12151836WA0060800608004003014259232
B1701503727922N12151839WA0060900608004003021264230
B1701513727921N12151843WA0060900612004003017262239
B1701523727921N12151844WA0060900612004003017260235
B1701533727921N12151846WA0060900613004003010268234
B1701543727921N12151849WA0061000615004003010278229
B1701553727922N12151852WA0061000615004003012274233
B1701563727923N12151856WA0061000616004003021293234
B1701573727924N12151858WA0061200617004003021312259
B1701583727925N12151860WA0061300617004003015305272
B1701593727925N12151862WA0061400616004003015273264
B1702003727924N12151867WA0061400615004003015260254
B1702013727925N12151870WA0061500615004003019275246
B1702023727926N12151873WA0061500616004003019290256
B1702033727927N12151875WA0061600615004003018307264
B1702043727926N12151877WA0061600615004003015251265
B1702053727926N12151881WA0061700613004003015255228
B1702063727924N12151886WA0061700615004003029245231
B1702073727923N12151890WA0061700617004003029258232
B1702083727923N12151892WA0061700618004003023258241
B1702093727922N12151895WA0061700618004003012236238
B1702103727921N12151897WA0061700618004003012225218
B1702113727919N12151900WA0061800618004003020236213
B1702123727918N12151904WA0061800617004003021248223
B1702133727917N12151907WA0061800619004003020261231
B1702143727916N12151910WA0061900620004003018244238
B1702153727914N12151911WA0061900619004003015225227
B1702163727913N12151914WA0061900618004003016222215
B1702173727911N12151916WA0062000618004003020225214
B1702183727909N12151920WA0062000617004003020237216
B1702193727907N12151923WA0061900617004003020239223
B1702203727906N12151925WA0061900616004003019232224
B1702213727904N12151928WA0061800614004003018233220
B1702223727903N12151931WA0061600612004003018240221
B1702233727901N12151934WA0061500610004003018248224
B1702243727900N12151938WA0061400609004003019247229
B1702253727899N12151942WA0061300608004003021246229
B1702263727898N12151945WA0061200607004003018242230
B1702273727897N12151948WA0061000607004003018243225
B1702283727896N12151950WA0060900608004003016243226
B1702293727895N12151953WA0060800607004003016250225
B1702303727894N12151956WA0060800606004003016241228
B1702313727892N12151959WA0060800605004003020237224
B1702323727891N12151962WA0060700605004003020237223
B1702333727890N12151964WA0060700605004003018238223
B1702343727889N12151966WA0060700604004003015243223
B1702353727888N12151969WA0060600604004003015248224
B1702363727887N12151973WA0060600603004003021246226
B1702373727885N12151976WA0060500602004003021241229
B1702383727884N12151979WA0060400602004003019240226
B1702403727883N12151982WA0060400602004003016242225
B1702413727883N12151984WA0060300601004003014255224
B1702423727882N12151987WA0060200600004003015251229
B1702433727881N12151990WA0060200600004003015244229
B1702443727880N12151992WA0060100600004003016243225
B1702453727880N12151995WA0060100599004003016253225
B1702463727879N12151997WA0060000598004003013255230
B1702473727879N12152000WA0060000596004003018262228
B1702483727879N12152003WA0060000596004003018264236
B1702493727877N12152006WA0059900596004003018243237
B1702503727877N12152009WA0059900596004003018249226
B1702513727876N12152011WA0059800596004003013250229
B1702523727876N12152014WA0059800596004003017261226
B1702533727875N12152017WA0059800596004003017243236
B1702543727874N12152020WA0059800596004003017251226
B1702553727873N12152023WA0059900596004003017253230
B1702563727873N12152027WA0059900596004003019264231
B1702573727872N12152030WA0059900596004003021264238
B1702583727872N12152036WA0059900595004003016257240
B1702593727871N12152040WA0059900596004003016263232
B1703003727871N12152043WA0059800595004003018251236
B1703013727870N12152047WA0059800594004003019256230
B1703023727869N12152050WA0059800595004003019247234
B1703033727868N12152053WA0059700595004003019240229
B1703043727867N12152056WA0059700595004003017243225
B1703053727865N12152058WA0059700595004003015234225
B1703063727864N12152060WA0059700595004003017227220
B1703073727862N12152062WA0059700594004003017231217
B1703083727861N12152065WA0059700593004003017246219
B1703093727860N12152068WA0059700592004003017249227
B1703103727859N12152071WA0059700593004003017251229
B1703113727858N12152074WA0059600593004003018240230
B1703123727856N12152077WA0059600591004003018230225
B1703133727857N12152079WA0059500590004003018264219
B1703143727857N12152082WA0059500589004003016268238
B1703153727857N12152085WA0059400588004003017271238
B1703163727857N12152088WA0059300588004003017271242
B1703173727857N12152091WA0059300588004003016266242
B1703183727857N12152094WA0059200587004003016268237
B1703193727857N12152097WA0059100585004003016284238
B1703203727858N12152100WA0059100584004003020289247
B1703213727859N12152104WA0059000583004003022288256
B1703223727860N12152107WA0059000584004003020280257
B1703233727860N12152110WA0058900581004003019280249
B1703243727860N12152112WA0058800580004003015284249
B1703253727862N12152115WA0058700580004003017302245
B1703263727863N12152118WA0058600580004003017297259
B1703273727864N12152121WA0058500580004003017299257
B1703283727865N12152123WA0058400579004003017288258
B1703293727865N12152126WA0058400578004003013299251
B1703303727867N12152129WA0058300577004003017298250
B1703313727868N12152131WA0058200575004003017302257
B1703323727869N12152134WA0058200575004003017280260
B1703333727869N12152138WA0058100575004003017266246
B1703343727869N12152141WA0058100575004003017262239
B1703353727869N12152143WA0058000576004003015273236
B1703363727869N12152146WA0057900575004003015279239
B1703373727869N12152149WA0057900574004003015269243
B1703383727869N12152152WA0057800573004003015264237
B1703393727868N12152155WA0057800572004003015246235
B1703403727867N12152157WA0057800571004003015253226
B1703413727867N12152160WA0057700570004003016251229
B1703423727866N12152163WA0057600570004003015260229
B1703433727866N12152166WA0057500569004003015265234
B1703443727866N12152169WA0057400568004003015263236
B1703453727865N12152172WA0057300568004003018256235
B1703463727865N12152175WA0057300567004003018255233
B1703473727865N12152179WA0057200567004003018265232
B1703483727865N12152182WA0057100565004003017266238
B1703493727864N12152185WA0057000564004003017259238
B1703503727864N12152187WA0057000563004003015261234
B1703513727864N12152190WA0056900562004003015265233
B1703523727863N12152193WA0056800561004003015261236
B1703533727863N12152197WA0056800560004003017267234
B1703543727863N12152200WA0056700560004003017261239
B1703553727862N12152203WA0056600560004003016260236
B1703563727862N12152206WA0056600559004003016259234
B1703573727862N12152209WA0056500558004003016261233
B1703583727861N12152212WA0056400557004003016262235
B1703593727861N12152215WA0056300556004003016264235
B1704003727861N12152218WA0056200555004003016261236
B1704013727861N12152221WA0056200554004003017266235
B1704023727860N12152224WA0056100553004003016257238
B1704033727860N12152227WA0055900551004003016261233
B1704043727858N12152230WA0055800549004003016243235
B1704053727856N12152233WA0055700547004003022229225
B1704063727853N12152235WA0055600547004003027206219
B1704073727850N12152237WA0055500547004003025192205
B1704083727846N12152237WA0055300547004003027178196
B1704093727843N12152237WA0055200546004003027174187
B1704103727838N12152235WA0055100546004003031161184
B1704113727834N12152233WA0055000546004003032153174
B1704123727830N12152229WA0055000544004003032139168
B1704133727826N12152224WA0055000543004003033131158
B1704143727823N12152219WA0055000541004003037130151
B1704153727819N12152213WA0054900541004003040126148
B1704163727815N12152206WA0054800539004003042125143
B1704173727811N12152200WA0054700540004003040131142
B1704183727808N12152195WA0054600540004003040127147
B1704193727805N12152188WA0054500538004003037115145
B1704203727803N12152182WA0054400536004003038116135
B1704213727800N12152176WA0054300535004003041119136
B1704223727796N12152169WA0054200535004003040129137
B1704233727793N12152164WA0054200534004003040131146
B1704243727789N12152158WA0054200534004003040127147
B1704253727785N12152151WA0054100532004003043123144
B1704263727783N12152143WA0054000530004003047116140
B1704273727779N12152136WA0054000531004003043124132
B1704283727776N12152131WA0053900532004003041126141
B1704293727773N12152125WA0053800531004003035117143
B1704303727771N12152118WA0053700530004003038116138
B1704313727769N12152111WA0053700529004003042114135
B1704323727766N12152104WA0053700528004003042114132
B1704333727763N12152097WA0053600529004003042118133
B1704343727760N12152091WA0053500530004003040117136
B1704353727758N12152085WA0053500529004003037115136
B1704363727756N12152078WA0053500525004003039110135
B1704373727754N12152070WA0053400524004003039116130
B1704383727751N12152063WA0053200524004003044122136
B1704393727747N12152056WA0053100524004003044119139
B1704403727745N12152050WA0053000523004003038115136
B1704413727743N12152043WA0052900523004003038108135
B1704423727740N12152037WA0052800522004003038113129
B1704433727738N12152030WA0052700519004003038117134
B1704443727734N12152024WA0052700520004003039122136
B1704463727731N12152017WA0052700520004003041119141
B1704473727729N12152010WA0052600520004003041115137
B1704483727727N12152003WA0052600518004003040113134
B1704493727724N12151997WA0052500518004003040117133
B1704503727721N12151990WA0052500517004003039119136
B1704513727718N12151984WA0052400515004003039117138
B1704523727716N12151977WA0052300514004003040114136
B1704533727714N12151970WA0052200512004003039116134
B1704543727707N12151958WA0052100510004003039123142
B1704563727704N12151952WA0051900508004003038122142
B1704573727699N12151938WA0051800505004003041116133
B1704583727696N12151932WA0051600504004003042126134
B1704593727692N12151925WA0051400502004003042126143
B1705003727689N12151918WA0051200501004003040116143
B1705013727687N12151912WA0051000500004003040109135
B1705023727684N12151905WA0051000500004003039116129
B1705033727681N12151898WA0050800498004003039123135
B1705043727676N12151894WA0050700498004003039148141
B1705053727671N12151889WA0050500498004003041143161
B1705063727667N12151888WA0050400497004003041151157
B1705073727663N12151886WA0050300497004003029161164
B1705083727659N12151885WA0050200497004003027172174
B1705093727656N12151886WA0050100496004003026192182
B1705103727653N12151888WA0050000492004003025208196
B1705113727650N12151891WA0049900492004003025219206
B1705123727649N12151893WA0049800492004003022261213
B1705133727649N12151896WA0049700490004003016273239
B1705143727649N12151899WA0049600490004003016279241
B1705153727650N12151902WA0049600489004003014293244
B1705163727651N12151904WA0049500488004003016312249
B1705173727654N12151906WA0049400486004003016341263
B1705183727658N12151906WA0049300486004003024359284
B1705193727662N12151906WA0049300485004003024007327
B1705203727666N12151903WA0049200485004003036036337
B1705213727670N12151899WA0049100484004003036043030
B1705223727674N12151894WA0049000483004003036050038
B1705233727678N12151888WA0048900481004003039051045
B1705243727681N12151881WA0048900481004003039061044
B1705253727683N12151874WA0048800479004003042068057
B1705263727682N12151865WA0048700478004003049099066
B1705273727681N12151857WA0048600478004003043106108
B1705283727679N12151849WA0048500476004003043110118
B1705293727677N12151843WA0048300476004003041116122
B1705303727675N12151836WA0048200474004003039112131
B1705313727672N12151828WA0048100473004003043116125
B1705323727669N12151822WA0048000472004003043117128
B1705333727664N12151816WA0047900472004003043140129
B1705343727660N12151812WA0047800471004003039144158
B1705353727656N12151807WA0047700471004003037140165
B1705363727652N12151802WA0047700472004003038137162
B1705373727648N12151797WA0047600472004003037138157
B1705383727644N12151793WA0047600471004003035143159
B1705393727640N12151792WA0047500469004003035161165
B1705403727635N12151793WA0047400466004003027178186
B1705413727632N12151793WA0047300465004003027193208
B1705423727629N12151795WA0047200465004003024213219
B1705433727627N12151797WA0047000464004003017216236
B1705443727624N12151799WA0046900464004003017213244
B1705453727622N12151800WA0046900461004003018215242
B1705463727620N12151803WA0046800460004003022224243
B1705473727618N12151807WA0046700459004003022241245
B1705483727617N12151811WA0046600459004003022266256
B1705493727617N12151814WA0046500457004003021267271
B1705503727618N12151817WA0046300457004003017288272
B1705513727618N12151820WA0046200456004003017293285
B1705523727620N12151822WA0046100454004003016300288
B1705533727621N12151825WA0046000453004003016303291
B1705543727622N12151829WA0046000452004003019293293
B1705553727624N12151832WA0045900451004003021305288
B1705563727626N12151835WA0045800451004003021310295
B1705573727628N12151838WA0045700450004003019309299
B1705583727630N12151840WA0045600449004003018312297
B1705593727631N12151843WA0045500448004003019298299
B1706003727633N12151846WA0045400447004003021307291
B1706013727635N12151849WA0045400446004003021304297
B1706023727636N12151852WA0045300446004003020297296
B1706033727637N12151856WA0045200446004003018293291
B1706043727638N12151858WA0045100444004003018288288
B1706053727639N12151862WA0045000443004003019286286
B1706063727639N12151865WA0044900443004003019281285
B1706073727641N12151868WA0044800442004003019298282
B1706083727642N12151872WA0044700442004003019285291
B1706093727642N12151875WA0044700441004003018276284
B1706103727643N12151878WA0044600441004003019280279
B1706113727643N12151881WA0044600440004003019279281
B1706123727645N12151885WA0044500439004003019297281
B1706133727645N12151888WA0044500440004003020286291
B1706143727646N12151891WA0044400439004003020292285
B1706153727647N12151894WA0044300438004003017289289
B1706163727648N12151897WA0044300438004003019287286
B1706173727650N12151900WA0044200438004003018312285
B1706183727652N12151901WA0044200436004003018308299
B1706193727652N12151905WA0044100436004003016283297
B1706203727653N12151908WA0044100434004003018277283
B1706213727654N12151910WA0044000433004003019293280
B1706223727656N12151913WA0043900433004003018308289
B1706233727657N12151916WA0043800432004003018303297
B1706243727658N12151919WA0043700431004003018284294
B1706253727658N12151922WA0043600430004003019279283
B1706263727660N12151925WA0043500429004003019299280
B1706273727661N12151929WA0043500428004003019301292
B1706283727663N12151931WA0043500427004003019313293
B1706293727664N12151934WA0043400427004003018278300
B1706303727664N12151938WA0043300426004003021260283
B1706313727664N12151942WA0043200425004003021275272
B1706323727665N12151945WA0043100425004003021289280
B1706333727666N12151948WA0043000425004003020303283
B1706343727666N12151950WA0043000425004003016254293
B1706353727665N12151953WA0042900423004003018241268
B1706363727662N12151956WA0042900422004003028220264
B1706373727660N12151959WA0042800422004003021222245
B1706383727658N12151962WA0042800423004003021223249
B1706393727656N12151963WA0042700423004003019207247
B1706403727653N12151965WA0042600420004003022200244
B1706413727649N12151966WA0042500418004003026198243
B1706423727644N12151966WA0042400418004003026184242
B1706433727640N12151965WA0042300416004003032168231
B1706443727636N12151963WA0042100416004003032163208
B1706453727632N12151960WA0042100414004003027154197
B1706463727628N12151958WA0041900412004003032146190
B1706473727624N12151953WA0041800410004003032142173
B1706483727620N12151948WA0041700408004003038137165
B1706493727616N12151942WA0041600405004003039127154
B1706503727614N12151933WA0041500404004003046112139
B1706513727612N12151926WA0041300403004003046105116
B1706523727612N12151918WA0041100401004003043098107
B1706533727613N12151909WA0041000400004003043087097
B1706543727614N12151901WA0040800398004003044071080
B1706553727617N12151893WA0040700398004003046059059
B1706563727621N12151887WA0040500395004003044054045
B1706573727625N12151883WA0040300393004003040043038
B1706583727630N12151880WA0040200392004003035030024
B1706593727634N12151880WA0040000390004003035356006
B1707003727638N12151880WA0040000386004003025346336
B1707013727641N12151882WA0039800385004003024329323
B1707023727644N12151884WA0039600385004003023310310
B1707033727645N12151888WA0039400384004003019285297
B1707043727646N12151891WA0039400383004003019283280
B1707053727645N12151894WA0039200384004003018253278
B1707063727645N12151898WA0039000382004003018275261
B1707073727646N12151900WA0038800380004003018294273
B1707083727646N12151903WA0038600378004003018283284
B1707093727647N12151907WA0038600375004003019268277
B1707103727646N12151910WA0038400374004003018263268
B1707113727646N12151913WA0038200374004003018249265
B1707123727646N12151916WA0038000372004003016276257
B1707133727646N12151918WA0038000371004003013293272
B1707143727646N12151920WA0037900370004003014270280
B1707153727646N12151924WA0037700368004003014258268
B1707163727646N12151927WA0037500367004003017262262
B1707173727646N12151929WA0037500366004003017278264
B1707183727647N12151931WA0037400365004003014308273
B1707193727648N12151934WA0037300363004003015293287
B1707203727648N12151937WA0037100361004003015272281
B1707213727650N12151941WA0037100361004003019290269
B1707223727649N12151944WA0036900361004003019262280
B1707233727650N12151947WA0036700361004003013289264
B1707243727650N12151949WA0036600359004003013294277
B1707253727650N12151951WA0036400358004003010266280
B1707263727650N12151954WA0036300356004003010259266
B1707273727650N12151958WA0036200353004003016270263
B1707283727650N12151961WA0036100351004003020289268
B1707293727651N12151964WA0035900350004003020290280
B1707303727652N12151967WA0035700349004003017286280
B1707313727652N12151970WA0035500347004003017275277
B1707323727653N12151973WA0035300346004003017278271
B1707333727654N12151977WA0035100344004003020295273
B1707343727655N12151981WA0035000345004003024293283
B1707353727656N12151984WA0034900343004003020285283
B1707363727656N12151987WA0034800341004003020258277
B1707373727655N12151991WA0034800340004003020252261
B1707383727654N12151995WA0034700339004003019254257
B1707393727654N12151998WA0034500339004003019259258
B1707403727654N12152001WA0034400337004003018259261
B1707413727653N12152004WA0034300336004003017253262
B1707423727652N12152008WA0034200334004003017247258
B1707433727651N12152012WA0034000334004003021253255
B1707443727650N12152014WA0033900333004003021255257
B1707453727650N12152017WA0033800332004003015252259
B1707463727649N12152020WA0033700332004003015249258
B1707473727647N12152023WA0033600331004003017228256
B1707483727645N12152026WA0033500331004003023229244
B1707493727642N12152028WA0033400330004003023208242
B1707503727638N12152029WA0033300329004003023188228
B1707513727635N12152029WA0033300327004003025180214
B1707523727630N12152028WA0033200324004003027173206
B1707533727625N12152025WA0033100322004003035163199
B1707543727620N12152022WA0033100319004003041143185
B1707553727616N12152017WA0033000316004003038139161
B1707563727613N12152011WA0032900314004003041125158
B1707573727609N12152004WA0032700312004003042121141
B1707583727606N12151997WA0032500310004003044119135
B1707593727603N12151989WA0032200310004003044119132
B1708003727601N12151982WA0032000307004003043107131
B1708013727599N12151975WA0031800305004003040106117
B1708023727597N12151967WA0031600303004003040106116
B1708033727595N12151960WA0031400301004003045111115
B1708043727592N12151951WA0031200299004003047112121
B1708053727590N12151944WA0031000298004003045110121
B1708063727588N12151935WA0030800297004003044106119
B1708073727588N12151928WA0030600296004003044098115
B1708083727586N12151920WA0030400293004003044104104
B1708093727585N12151911WA0030200293004003047108111
B1708103727583N12151903WA0030100293004003044102116
B1708113727583N12151896WA0030000293004003043093109
B1708123727583N12151888WA0030000293004003040089097
B1708133727581N12151881WA0029900292004003039104091
B1708143727579N12151873WA0029900290004003047109114
B1708153727576N12151865WA0029900291004003047117118
B1708163727574N12151857WA0029800291004003047111128
B1708173727573N12151850WA0029700293004003044094121
B1708183727571N12151843WA0029600293004003035109099
B1708193727568N12151837WA0029600291004003038129122
B1708203727564N12151831WA0029600290004003038127147
B1708213727560N12151825WA0029600290004003041136145
B1708223727555N12151821WA0029600291004003041141153
B1708233727551N12151817WA0029500291004003032145159
B1708243727547N12151816WA0029500289004003032172169
B1708253727543N12151816WA0029400288004003026189195
B1708263727540N12151817WA0029300285004003024205212
B1708273727537N12151818WA0029300285004003021196224
B1708283727538N12151823WA0029200283004003020280221
B1708293727540N12151825WA0029200285004003020330273
B1708303727541N12151826WA0029000285004003020319305
B1708313727541N12151828WA0028900283004003010259298
B1708323727541N12151830WA0028800282004003010256261
B1708333727541N12151833WA0028700281004003014285260
B1708343727543N12151835WA0028600280004003018324275
B1708353727545N12151837WA0028500279004003015337299
B1708363727546N12151839WA0028500278004003015286303
B1708373727546N12151841WA0028400277004003011256275
B1708383727546N12151843WA0028300276004003014276260
B1708393727548N12151845WA0028200273004003016322270
B1708403727550N12151847WA0028100272004003016332297
B1708413727552N12151849WA0027900271004003016310302
B1708423727553N12151851WA0027800269004003012305290
B1708433727553N12151853WA0027600267004003010296284
B1708443727555N12151854WA0027400264004003014317278
B1708453727557N12151856WA0027300263004003014329292
B1708463727558N12151858WA0027100261004003014317299
B1708473727559N12151861WA0027100259004003015286293
B1708483727560N12151863WA0026900258004003015298276
B1708493727562N12151865WA0026700257004003015314283
B1708503727563N12151867WA0026500256004003014316291
B1708513727564N12151868WA0026300255004003014315291
B1708523727566N12151871WA0026200253004003014308291
B1708533727567N12151873WA0026000252004003016309288
B1708543727569N12151875WA0025900251004003017315289
B1708553727570N12151877WA0025700249004003016310294
B1708563727571N12151880WA0025600247004003016298290
B1708573727573N12151882WA0025400246004003016299283
B1708583727574N12151885WA0025200245004003017301285
B1708593727575N12151887WA0025100243004003016303286
B1709003727576N12151890WA0024900241004003015301286
B1709013727577N12151894WA0024800239004003019277285
B1709023727578N12151897WA0024600240004003021286273
B1709033727579N12151900WA0024500239004003019294279
B1709043727580N12151902WA0024500237004003016298283
B1709053727580N12151904WA0024300235004003012275282
B1709063727580N12151907WA0024200234004003017246286
B1709073727578N12151910WA0024100233004003017238276
B1709083727577N12151912WA0024000234004003017224230
B1709093727573N12151913WA0023900234004003026185229
B1709103727569N12151912WA0023800231004003035158199
B1709113727564N12151909WA0023700230004003035155193
B1709123727561N12151903WA0023700228004003035137184
B1709133727557N12151896WA0023600231004003041116164
B1709143727555N12151890WA0023500232004003037114134
B1709153727552N12151884WA0023500232004003037116131
B1709163727549N12151878WA0023500231004003036126133
B1709173727545N12151873WA0023400229004003036136146
B1709183727541N12151868WA0023400229004003039137158
B1709193727537N12151864WA0023300229004003034144157
B1709203727533N12151862WA0023200229004003034151167
B1709213727530N12151861WA0023200228004003025162175
B1709223727525N12151859WA0023100226004003025158193
B1709233727521N12151857WA0023100225004003029163189
B1709243727518N12151857WA0023000223004003024191190
B1709253727515N12151860WA0022900221004003024233217
B1709263727514N12151863WA0022800219004003023269245
B1709273727514N12151866WA0022600217004003022284269
B1709283727516N12151868WA0022400216004003016318278
B1709293727517N12151870WA0022200215004003011325293
B1709303727517N12151871WA0022100213004003011288292
B1709313727518N12151874WA0022000211004003011274277
B1709323727519N12151877WA0021900210004003016287270
B1709333727519N12151880WA0021800209004003016299279
B1709343727520N12151882WA0021600208004003014290286
B1709353727520N12151884WA0021500207004003014248279
B1709363727520N12151887WA0021300206004003014265263
B1709373727520N12151891WA0021100204004003015260273
B1709383727519N12151893WA0020900202004003015271274
B1709393727519N12151895WA0020900201004003015268265
B1709403727519N12151898WA0020700201004003015245262
B1709413727517N12151901WA0020600200004003015223267
B1709423727516N12151904WA0020400200004003017238259
B1709433727515N12151907WA0020300199004003017253258
B1709443727514N12151909WA0020200198004003019236260
B1709453727513N12151913WA0020100200004003020247244
B1709463727511N12151916WA0020000198004003019231276
B1709473727510N12151918WA0019900198004003018240278
B1709483727510N12151921WA0019800196004003017256278
B1709493727510N12151923WA0019700195004003013276267
B1709503727509N12151925WA0019600194004003013258261
B1709513727509N12151927WA0019500191004003013271276
B1709523727509N12151930WA0019400191004003013239289
B1709533727508N12151932WA0019300190004003014267276
B1709543727509N12151935WA0019200189004003014282267
B1709553727508N12151937WA0019000187004003014274262
B1709563727508N12151939WA0019000186004003014251263
B1709573727507N12151942WA0018900185004003014241279
B1709583727506N12151944WA0018800184004003014252272
B1709593727506N12151946WA0018700183004003010256266
B1710003727506N12151948WA0018700183004003010272255
B1710013727507N12151950WA0018600182004003010274261
B1710023727507N12151951WA0018500182004003010276259
B1710033727506N12151951WA0018500182004003000276257
B1710043727506N12151952WA0018400182004003003247250
B1710053727506N12151953WA0018400182004003005247250
B1710063727505N12151953WA0018300181004003003247257
B1710073727505N12151954WA0018300182004003004247263
B1710083727505N12151955WA0018300182004003004210264
B1710093727504N12151956WA0018300182004003005211257
B1710103727504N12151956WA0018300182004003005211255
B1710113727504N12151956WA0018300182004003002211255
B1710123727504N12151956WA0018300182004003000211255
B1710133727504N12151956WA0018300181004003002211255
B1710143727504N12151956WA0018400181004003001211255
B1710153727504N12151955WA0018400182004003000211255
B1710163727504N12151955WA0018400182004003000211255
B1710173727504N12151956WA0018400181004003000211255
B1710183727504N12151956WA0018400181004003001211255
B1710193727504N12151956WA0018300181004003000211255
B1710203727504N12151956WA0018300181004003000211255
B1710213727504N12151956WA0018400182004003000241254
B1710223727504N12151956WA0018400182004003000241245
B1710233727504N12151956WA0018400181004003000242231
B1710243727504N12151956WA0018400181004003000244235
B1710253727504N12151956WA0018400180004003000244240
GaCxh5D6n9h/Mn4Vr/2rHJs7Cxb193704uNQvv73NbdsCWx9gI+Hfg0JmyjUhYt7O
GVgemCC9Nn6cf+kMlG1gKDZW/9tAt0cHlUtJT8utNNEkPmQduVakfky8Ri2OZj0KX
GpkKkBSu9df4TU9L2xRfP6d3dZGtEmpnurI3eSLPanvM=

