AXFH000
HFDTE270824
HFPLTPILOT:Scott O’Brien
HFGTYGLIDERTYPE:BGD Epic M
HFDTM100GPSDATUM:WGS84
HFRFWFIRMWAREVERSION:8.2.4
HFRHWHARDWAREVERSION:Unknown device (iPhone15,4)
HFFTYFRTYPE:Flyskyhy,8.2.4
HFGPS:Internal
HFPRSVARIO:Internal Vario
HFCCLCOMPETITIONCLASS:Paraglider
HFTZNTIMEZONE:-7
HFSITSITE:Ed Levin 300ft,US
I053638FXA3941VXA4244GSP4547CCO4850HDT
C270824183045270824000108TASK
C0000000N00000000ETAKEOFF
C3920440N12241116W00015009999999000000360000STARTAREA POTLAU
C3922249N12241405W00000000001000000000360000TURNAREA SNOWVL
C3920978N12239724W00000000000400000000360000TURNAREA POTLZ
C3920095N12241882W00000000000400000000360000TURNAREA TOP
C3922264N12241989W00000000001000000000360000TURNAREA SNOWLO
C3920983N12238798W00000000001000000000360000TURNAREA TROUGH
C3920095N12241882W00000000000400000000360000TURNAREA TOP
C3925826N12241497W00000000005000000000360000TURNAREA STJOHN
C3920440N12241116W00000000001500000000360000TURNAREA POTLAU
C3920978N12239724W00000000000400000000360000FINISHAREA POTLZ
C0000000N00000000ELANDING
E183115PEVBackground
B1831153727667N12151877WA0028000281022003000245120
B1831163727667N12151877WA0028000281022003000245104
B1831173727667N12151877WA0028000280022003000245088
B1831183727667N12151877WA0028000280022003000245104
B1831193727667N12151878WA0028000280022003000245116
B1831203727667N12151878WA0028000280022003000245117
B1831213727667N12151878WA0028000281022003000245115
B1831223727667N12151878WA0028000280022003001245102
B1831233727667N12151877WA0028000280022003001174103
B1831243727667N12151877WA0028000280022003001245103
B1831253727667N12151877WA0028000281022003001245098
B1831263727667N12151877WA0028000281022003001245065
B1831273727667N12151877WA0028000281022003002277070
B1831283727667N12151878WA0028000281022003000277084
B1831293727667N12151878WA0028000280022003002222099
B1831303727666N12151879WA0028000280022003003236082
B1831313727666N12151880WA0028000280022003006229334
B1831323727665N12151880WA0028000280022003006228230
B1831333727665N12151882WA0028000280022003006240314
B1831343727664N12151884WA0028000279022003012243026
B1831353727663N12151887WA0027900278022003015243354
B1831363727661N12151890WA0027800276022003018239315
B1831373727658N12151893WA0027700276022003027227260
B1831383727656N12151896WA0027600277022003023232253
B1831393727655N12151898WA0027500279022003023227242
B1831403727653N12151901WA0027400280022003017236266
B1831413727651N12151904WA0027500282022003021223263
B1831423727648N12151907WA0027600283022003023215290
B1831433727645N12151909WA0027800284022003023207262
B1831443727642N12151911WA0028100287022003023200269
B1831453727641N12151913WA0028300286022003016223294
B1831463727639N12151916WA0028400287022003016229308
B1831473727639N12151919WA0028500285022003016265325
B1831483727638N12151922WA0028600284022003016265335
B1831493727640N12151924WA0028600282022003015303341
B1831503727641N12151927WA0028500281022003018299348
B1831513727643N12151929WA0028400280022003017309349
B1831523727644N12151932WA0028300280022003017295352
B1831533727644N12151933WA0028200279022003010309352
B1831543727645N12151934WA0028000278022003010309354
B1831553727646N12151937WA0027900276022003010304356
B1831563727649N12151941WA0027800274022003016305355
B1831573727650N12151945WA0027700275022003027287356
B1831583727651N12151949WA0027600276022003027287355
B1831593727652N12151951WA0027400277022003021291356
B1832003727653N12151954WA0027400279022003016287356
B1832013727654N12151955WA0027400274022003011286357
B1832023727654N12151958WA0027500271022003015275357
B1832033727654N12151964WA0027600269022003015263357
B1832043727653N12151967WA0027400268022003025265358
B1832053727653N12151970WA0027300267022003018262358
B1832063727654N12151974WA0027100266022003019274358
B1832073727653N12151977WA0027000264022003019263359
B1832083727652N12151982WA0026800263022003021256359
B1832093727651N12151986WA0026600262022003024254359
B1832103727651N12151990WA0026500262022003024261359
B1832113727651N12151992WA0026400262022003019270359
B1832123727650N12151995WA0026300262022003017252359
B1832133727650N12151998WA0026200261022003015268359
B1832143727650N12152001WA0026100260022003017260359
B1832153727649N12152006WA0026000258022003017263359
B1832163727649N12152009WA0025900257022003021258359
B1832173727649N12152012WA0025800256022003021268359
B1832183727649N12152015WA0025700257022003015260359
B1832193727648N12152019WA0025600256022003020265359
B1832203727648N12152023WA0025500255022003020259359
B1832213727647N12152027WA0025500255022003023255359
B1832223727647N12152031WA0025500255022003023260359
B1832233727647N12152034WA0025500255022003018264359
B1832243727647N12152037WA0025400256022003018276359
B1832253727648N12152040WA0025400255022003016292359
B1832263727649N12152043WA0025400255022003015291359
B1832273727649N12152046WA0025400255022003016280359
B1832283727650N12152049WA0025500253022003017293359
B1832293727652N12152052WA0025400252022003020290359
B1832303727652N12152055WA0025400251022003018270359
B1832313727652N12152059WA0025400250022003018263359
B1832323727652N12152062WA0025300249022003018260359
B1832333727650N12152066WA0025200247022003019239359
B1832343727648N12152069WA0025200246022003023227359
B1832353727646N12152073WA0025100243022006023225359
B1832363727639N12152070WA0025000242022006028174000
B1832373727636N12152066WA0024900235023006032149000
B1832383727630N12152061WA0024700237023008040149000
B1832393727629N12152048WA0024600233022006050117000
B1832403727632N12152041WA0024600239023004040059000
B1832413727631N12152035WA0024500236022003036095000
B1832423727630N12152028WA0024500232022003036104000
B1832433727629N12152020WA0024500230022003047098000
B1832443727628N12152012WA0024400230022003047098000
B1832453727628N12152005WA0024200231022003043096000
B1832463727627N12151997WA0024100231022003040099000
B1832473727625N12151992WA0024000230022003038124000
B1832483727622N12151986WA0023900229022003035132000
B1832493727618N12151982WA0023800229022003035139000
B1832503727615N12151979WA0023800229022003034147000
B1832513727611N12151976WA0023700229022003031153000
B1832523727606N12151974WA0023700229022003031162359
B1832533727602N12151972WA0023600230022003033163359
B1832543727598N12151970WA0023600231022003033156000
B1832553727596N12151967WA0023600233022003026135000
B1832563727593N12151964WA0023700232022003026130000
B1832573727590N12151960WA0023700232022003027130000
B1832583727587N12151956WA0023800231022003033125000
B1832593727584N12151951WA0023800231022003033123000
B1833003727581N12151946WA0023800231022003032122000
B1833013727579N12151942WA0023800230022003032129000
B1833023727575N12151937WA0023800230022003031127000
B1833033727572N12151931WA0023800228022003037126000
B1833043727569N12151926WA0023800228022003039127000
B1833053727565N12151921WA0023700228022003037129000
B1833063727562N12151917WA0023600229022003036140000
B1833073727559N12151914WA0023600228022003029146000
B1833083727555N12151912WA0023600228022003026152359
B1833093727552N12151908WA0023600228022003030143359
B1833103727547N12151907WA0023600225022003030166359
B1833113727542N12151907WA0023500225022003032189359
B1833123727538N12151908WA0023400224022003032196359
B1833133727536N12151911WA0023100224022003023217359
B1833143727532N12151913WA0023000225022003028208359
B1833153727529N12151915WA0022900223022003025197359
B1833163727526N12151917WA0022800220022003025200359
B1833173727523N12151919WA0022600219022003023219359
B1833183727519N12151921WA0022500218022003029213359
B1833193727516N12151926WA0022400216022003031225359
B1833203727513N12151930WA0022200214022003031225359
B1833213727512N12151932WA0022000216022003031228359
B1833223727510N12151934WA0021800216022003014221359
B1833233727509N12151936WA0021800215022003014232359
B1833243727508N12151939WA0021800212022003017242359
B1833253727507N12151942WA0021800212022003017247359
B1833263727506N12151946WA0021800211022004019249359
B1833273727505N12151949WA0021600210022003019228359
B1833283727503N12151951WA0021500209022003019229359
B1833293727501N12151954WA0021400207022003019232359
B1833303727500N12151957WA0021400206022003019239359
B1833313727498N12151959WA0021300206022004018220359
B1833323727495N12151962WA0021100199022004019215359
B1833333727492N12151965WA0020900196022006024230359
B1833343727490N12151968WA0020700193022006026229359
B1833353727488N12151971WA0020500194022006024235359
B1833363727486N12151973WA0020300193023006022237359
B1833373727485N12151977WA0019900190022004021247359
B1833383727484N12151981WA0019700187022004021241359
B1833393727482N12151984WA0019600187022004022241359
B1833403727481N12151988WA0019500185022004021240359
B1833413727480N12151990WA0019300185022004020240359
B1833423727477N12151994WA0019100187022004020229359
B1833433727476N12151993WA0019100185022006010197000
B1833443727474N12151995WA0019000185023006013204001
B1833453727474N12151995WA0019000183023006010223001
B1833463727473N12151999WA0019000177023006013215001
B1833473727474N12151998WA0019100176023006006230001
B1833483727475N12151998WA0019100179023004003283000
B1833493727475N12151999WA0019100178022004006326000
B1833503727476N12151999WA0019100176022004003351000
B1833513727475N12152000WA0019100177023004006218000
B1833523727478N12151999WA0019100179022004001039000
B1833533727477N12151999WA0019100178022004002101000
B1833543727477N12151998WA0019100178022003001097006
B1833553727477N12151998WA0019100180022003000093005
B1833563727477N12151998WA0019100180022003001058002
B1833573727478N12151997WA0019100180022003000058001
B1833583727478N12151997WA0019100180022003000058001
B1833593727478N12151997WA0019100181022003000353001
B1834003727478N12151997WA0019100180022003000353002
B1834013727478N12151997WA0019100180022003001047000
B1834023727479N12151996WA0019100180022003001076000
B1834033727479N12151996WA0019100180022003002076000
B1834043727479N12151995WA0019100180022003003076000
B1834053727479N12151995WA0019100181022003003076000
B1834063727479N12151994WA0019100182022003000076000
B1834073727479N12151994WA0019100181022003000076000
B1834083727479N12151994WA0019100181022003000076000
B1834093727479N12151994WA0019100181022003000076000
B1834103727478N12151994WA0019100181022003000076000
B1834113727478N12151994WA0019100181022003000100000
B1834123727478N12151993WA0019100181022003000100000
B1834133727478N12151993WA0019100181022003000100000
B1834143727478N12151993WA0019100181022003000100000
B1834153727478N12151993WA0019100181022003000099000
B1834163727478N12151993WA0019100181022003000091000
B1834173727478N12151993WA0019100181022003000091000
B1834183727478N12151992WA0019100181022003000089000
B1834193727478N12151992WA0019100182022003000089000
B1834203727478N12151992WA0019100182022003000089000
B1834213727478N12151992WA0019100182022003000089000
B1834223727479N12151991WA0019100182022003000089359
GTILTX64jltr3j7EQGTbzlagDcuMXN332DVS3kz+K0kXZHInEx3Vsjzkb7WwMti3d
GpaGCSrjac/UJsCXVCNhAmYyrO44r8a9CqzFsHiKBPbHNoQIfc8SgruQFMAn05vbP
GalAxNFL1wl7Of4IlNj4s3tfqM7+XzAa74ChK6R+yEf4=

