AXFH000
HFDTE040924
HFPLTPILOT:Scott O’Brien
HFGTYGLIDERTYPE:BGD Epic M
HFDTM100GPSDATUM:WGS84
HFRFWFIRMWAREVERSION:8.2.4
HFRHWHARDWAREVERSION:Unknown device (iPhone15,4)
HFFTYFRTYPE:Flyskyhy,8.2.4
HFGPS:Internal
HFPRSVARIO:Internal Vario
HFCCLCOMPETITIONCLASS:Paraglider
HFTZNTIMEZONE:-7
HFSITSITE:Mission Ridge (Fremont- San Jose),US
I053638FXA3941VXA4244GSP4547CCO4850HDT
C040924201051040924000108TASK
C0000000N00000000ETAKEOFF
C3920440N12241116W00015009999999000000360000STARTAREA POTLAU
C3922249N12241405W00000000001000000000360000TURNAREA SNOWVL
C3920978N12239724W00000000000400000000360000TURNAREA POTLZ
C3920095N12241882W00000000000400000000360000TURNAREA TOP
C3922264N12241989W00000000001000000000360000TURNAREA SNOWLO
C3920983N12238798W00000000001000000000360000TURNAREA TROUGH
C3920095N12241882W00000000000400000000360000TURNAREA TOP
C3925826N12241497W00000000005000000000360000TURNAREA STJOHN
C3920440N12241116W00000000001500000000360000TURNAREA POTLAU
C3920978N12239724W00000000000400000000360000FINISHAREA POTLZ
C0000000N00000000ELANDING
E201122PEVBackground
B2011223731054N12153511WA0057900579005010001120075
B2011233731054N12153511WA0057900579005010003220017
B2011243731053N12153511WA0057900579005010005203001
B2011253731052N12153512WA0057900579005010003223018
B2011263731052N12153512WA0057900579005010002231039
B2011273731052N12153512WA0057900579005010001212034
B2011283731052N12153511WA0057900579005010001219031
B2011293731052N12153511WA0057800579005010001211044
B2011303731052N12153511WA0057900579005010002231026
B2011313731052N12153511WA0057900579005010002250020
B2011323731052N12153511WA0057900579005010004239039
B2011333731052N12153512WA0057900579005010005236041
B2011343731051N12153513WA0057900579005010005242039
B2011353731050N12153514WA0057900580005010006239041
B2011363731050N12153515WA0057900580005010007236041
B2011373731049N12153516WA0057900579005010007232251
B2011383731049N12153517WA0057900579005010009232042
B2011393731048N12153518WA0057900579005010010230231
B2011403731046N12153520WA0057800579005010011233024
B2011413731045N12153522WA0057800579005010011237322
B2011423731044N12153524WA0057800579005010013230200
B2011433731042N12153526WA0057700579005010014222209
B2011443731041N12153528WA0057700579005010015220222
B2011453731039N12153530WA0057600578005010018216193
B2011463731036N12153532WA0057500578005010021214225
B2011473731033N12153534WA0057400578005010022211223
B2011483731030N12153536WA0057300577005010021210223
B2011493731027N12153538WA0057300577005010023208220
B2011503731024N12153540WA0057300576005010026206219
B2011513731020N12153542WA0057200576005010026203234
B2011523731016N12153544WA0057200575005010025204257
B2011533731013N12153546WA0057100574005010020215295
B2011543731011N12153548WA0056900574005010018236315
B2011553731010N12153551WA0056900573005010019259324
B2011563731010N12153555WA0056800572005010020274343
B2011573731011N12153558WA0056700572005010021286343
B2011583731012N12153562WA0056600571005010023295345
B2011593731014N12153566WA0056600571005010023303349
B2012003731016N12153569WA0056500570005010022307351
B2012013731018N12153573WA0056500570005010023309349
B2012023731020N12153576WA0056600570005010023307352
B2012033731023N12153580WA0056600569005010024301354
B2012043731025N12153584WA0056600569005010024300354
B2012053731027N12153587WA0056500569005010024303356
B2012063731029N12153591WA0056500568005010024304356
B2012073731031N12153595WA0056400568005010025304357
B2012083731033N12153599WA0056300567005010026307358
B2012093731039N12153605WA0056200566005010026331358
B2012103731043N12153608WA0056100566005010026331359
B2012113731046N12153610WA0056000566005010028331359
B2012123731050N12153612WA0055900565005010029329359
B2012133731054N12153615WA0055800565005010031327359
B2012143731058N12153619WA0055800564005010033325359
B2012153731062N12153622WA0055600564005010034324359
B2012163731066N12153626WA0055400563005010033324359
B2012173731070N12153630WA0055300563005010031322359
B2012183731074N12153633WA0055300563005010031321359
B2012193731077N12153637WA0055200562005010032318359
B2012203731081N12153641WA0055200562005010031316359
B2012213731084N12153645WA0055100561005010030315359
B2012223731087N12153649WA0055100561005010027316359
B2012233731090N12153652WA0055100561005010025317359
B2012243731093N12153655WA0055100561005010025317359
B2012253731095N12153658WA0055100560005010024315359
B2012263731098N12153662WA0055200560005010025315359
B2012273731100N12153665WA0055300560005010028316359
B2012283731104N12153669WA0055400560005010031325359
B2012293731108N12153672WA0055400560005010031333359
B2012303731112N12153674WA0055500560005010030333359
B2012313731116N12153677WA0055600561005010027332359
B2012323731119N12153679WA0055600561005010027330359
B2012333731123N12153682WA0055700561005010029330357
B2012343731127N12153684WA0055700561005010033345359
B2012353731132N12153685WA0055700562005010033000352
B2012363731136N12153684WA0055700562005010032010350
B2012373731141N12153683WA0055700562005010031010346
B2012383731146N12153682WA0055600563005010030005344
B2012393731150N12153682WA0055600563005010029357339
B2012403731154N12153683WA0055500563005010029354339
B2012413731158N12153683WA0055500564005010029352336
B2012423731163N12153684WA0055300564005010029351338
B2012433731167N12153685WA0055200564005010028346342
B2012443731171N12153687WA0055100564005010029343345
B2012453731175N12153689WA0055000564005010030339349
B2012463731180N12153692WA0054800564005010031338348
B2012473731184N12153694WA0054800564005010032339346
B2012483731188N12153697WA0054700565005010034337346
B2012493731193N12153700WA0054700565005010032337341
B2012503731197N12153703WA0054700566005010031339345
B2012513731201N12153705WA0054800566005010030342340
B2012523731206N12153707WA0054900567005010034340346
B2012533731210N12153709WA0054900567005010035341344
B2012543731215N12153712WA0054900568005010036342340
B2012553731221N12153714WA0055000568005010036346341
B2012563731226N12153715WA0055100569005010035350344
B2012573731231N12153716WA0055200569005010035350342
B2012583731236N12153718WA0055400569005010036348347
B2012593731242N12153719WA0055500570005010037346335
B2013003731247N12153721WA0055500570005010036346342
B2013013731252N12153723WA0055500571005010033348349
B2013023731256N12153724WA0055500571005010029350341
B2013033731260N12153725WA0055400571005010029347342
B2013043731265N12153726WA0055300571005010032339331
B2013053731269N12153729WA0055100571005010035335338
B2013063731274N12153732WA0054900571005010036337335
B2013073731279N12153734WA0054700572005010036340337
B2013083731284N12153737WA0054600572005010034339339
B2013093731288N12153739WA0054400571005010033338341
B2013103731293N12153742WA0054400571005010032337346
B2013113731297N12153744WA0054300571005010032332349
B2013123731301N12153747WA0054300571005010035324351
B2013133731305N12153752WA0054200570005010035323352
B2013143731309N12153756WA0054100570005010031323352
B2013153731312N12153759WA0054000570005010028324354
B2013163731316N12153762WA0053900569005010028324355
B2013173731319N12153765WA0053800569005010033321356
B2013183731323N12153769WA0053800568005010034329357
B2013193731327N12153772WA0053800568005010032335357
B2013213731331N12153775WA0053800568005010031335358
B2013223731335N12153777WA0053800568005010028334358
B2013233731339N12153779WA0053800568005010028333358
B2013243731343N12153782WA0053700567005010029330358
B2013253731346N12153785WA0053700567005010032326359
B2013273731354N12153792WA0053700567005010034327359
B2013283731359N12153795WA0053700567005010034326359
B2013293731363N12153799WA0053700567005010034327359
B2013303731367N12153802WA0053800567005010027339359
B2013313731370N12153804WA0054000567005010026340359
B2013323731374N12153805WA0054100568005010026341359
B2013333731377N12153807WA0054100568005010027342359
B2013343731381N12153808WA0054300568005010027342359
B2013353731385N12153810WA0054500568005010026342359
B2013363731388N12153811WA0054600568005010025339359
B2013373731392N12153813WA0054600568005010025337359
B2013383731395N12153815WA0054600568005010025334359
B2013393731398N12153818WA0054600569005010025327359
B2013403731401N12153820WA0054600569005010023323359
B2013413731404N12153823WA0054500569005010022316359
B2013423731406N12153826WA0054500569005010022315359
B2013433731408N12153829WA0054400569010019021313000
B2013443731410N12153831WA0054400570010019016313000
B2013453731411N12153833WA0054400570010019011290000
B2013463731410N12153835WA0054400571010019008272000
B2013473731409N12153835WA0054400571010019006203359
B2013483731407N12153833WA0054300571010019006174359
B2013493731405N12153832WA0054200571010019009202359
B2013503731404N12153831WA0054100571010019014197359
B2013513731399N12153830WA0054100571010019022176359
B2013523731395N12153828WA0054000571010019023168359
B2013533731392N12153826WA0054000571010019022165359
B2013543731387N12153823WA0054000571010019019161000
B2013553731382N12153821WA0054100571010019018157000
B2013563731372N12153816WA0054100571010019026151000
B2013573731368N12153813WA0054100572010019030146000
B2013583731364N12153809WA0054100572010019026138000
B2013593731360N12153804WA0054100573010019023138359
B2014003731357N12153800WA0054100573010019020137359
B2014013731354N12153797WA0054200573010019019140000
B2014023731351N12153793WA0054300573010019020141359
B2014033731347N12153788WA0054400572005010022167359
B2014043731343N12153787WA0054500572005010021192359
B2014053731340N12153787WA0054500572010019021232359
B2014063731338N12153790WA0054500572010019027270359
B2014073731338N12153795WA0054500572010019032291359
B2014083731340N12153800WA0054500572010019034313359
B2014093731344N12153804WA0054500572010019034329358
B2014103731348N12153806WA0054500573010019031343354
B2014113731353N12153808WA0054400572010019031349352
B2014123731357N12153808WA0054400572010019030353346
B2014133731361N12153809WA0054400571010019029354349
B2014143731365N12153810WA0054400570010019030352349
B2014153731369N12153810WA0054400569005010030353347
B2014163731373N12153811WA0054400568005010030354339
B2014173731378N12153812WA0054300567005010030354341
B2014183731382N12153812WA0054300567005010029353333
B2014193731386N12153813WA0054200567005010030351334
B2014203731391N12153814WA0054100566005010030348334
B2014213731395N12153815WA0054000566005010028343337
B2014223731398N12153817WA0053900566005010024313340
B2014233731400N12153821WA0053800565005010023310342
B2014243731402N12153824WA0053800565005010021310345
B2014253731404N12153828WA0053700565005010022312347
B2014263731406N12153831WA0053700564005010023311350
B2014273731408N12153834WA0053600564005010021304348
B2014283731410N12153838WA0053600564005010023299349
B2014293731411N12153841WA0053600564005010022294349
B2014303731412N12153845WA0053600563005010017285351
B2014313731412N12153848WA0053600563005010016276353
B2014323731412N12153850WA0053600563005010018281354
B2014333731412N12153854WA0053700563005010019273356
B2014343731411N12153857WA0053900563005010022262355
B2014353731410N12153861WA0053900563005010021256356
B2014363731408N12153865WA0053900562005010019231356
B2014373731406N12153867WA0053700562005010017217003
B2014383731404N12153869WA0053600562005010019210002
B2014393731401N12153870WA0053400562005010020191001
B2014403731398N12153870WA0053200561010019017166001
B2014413731395N12153867WA0053100561010019027130000
B2014423731391N12153863WA0053100561010019027128000
B2014433731388N12153857WA0053100560010019031115000
B2014443731384N12153850WA0053100560010019034112000
B2014453731381N12153842WA0053200559010019034114000
B2014463731377N12153834WA0053200559010019034119000
B2014473731373N12153827WA0053300558010019033122000
B2014483731370N12153822WA0053300558010019032128000
B2014493731366N12153817WA0053400558010019031136359
B2014503731362N12153813WA0053400557010019029147359
B2014513731358N12153810WA0053500557010019027153359
B2014523731353N12153808WA0053600556010019026174359
B2014533731349N12153806WA0053700555010019027186359
B2014543731344N12153807WA0053800555010019025207359
B2014553731341N12153810WA0053800554010019024245359
B2014563731341N12153815WA0053900554010019029280359
B2014573731342N12153820WA0053900554005010033298359
B2014583731345N12153825WA0054000554005010026307359
B2014593731347N12153829WA0054000555005010026308359
B2015003731349N12153832WA0054100555005010019298359
B2015013731350N12153835WA0054200555005010020297359
B2015023731351N12153839WA0054300556005010023298359
B2015033731353N12153842WA0054400556005010023298359
B2015043731354N12153845WA0054500557005010021304359
B2015053731356N12153848WA0054500557005010022316359
B2015063731359N12153851WA0054600558005010026325359
B2015073731363N12153854WA0054700558005010033332357
B2015083731368N12153856WA0054800558005010041349001
B2015093731374N12153856WA0054800559005010041008004
B2015103731380N12153854WA0054800560005010039021009
B2015113731385N12153851WA0054800560005010038023010
B2015123731390N12153848WA0054800561005010037022355
B2015133731395N12153846WA0054800561005010036021340
B2015143731401N12153844WA0054800562005010036019329
B2015153731406N12153841WA0054900563005010034016325
B2015163731410N12153842WA0054900563005010029324317
B2015173731413N12153846WA0054800564005010027321315
B2015183731416N12153849WA0054700564005010025316314
B2015193731419N12153853WA0054700565010019023320316
B2015203731421N12153856WA0054600566005010019323032
B2015213731421N12153858WA0054500566005010010309025
B2015223731420N12153860WA0054500566005010003251021
B2015233731416N12153859WA0054500566005010012178018
B2015243731412N12153858WA0054500566010019019153014
B2015253731407N12153855WA0054500566010019023142011
B2015263731402N12153850WA0054500565010019026134010
B2015273731398N12153845WA0054500565010019026134008
B2015283731394N12153841WA0054500565010019026136353
B2015293731390N12153836WA0054500565010019024140354
B2015303731387N12153832WA0054500565010019024139004
B2015313731383N12153827WA0054500564010019025135003
B2015323731380N12153823WA0054500564010019026133356
B2015333731377N12153820WA0054600565010019024138357
B2015343731373N12153816WA0054600565010019022145358
B2015353731370N12153813WA0054600564010019021149358
B2015363731367N12153810WA0054700565010019020148358
B2015373731364N12153808WA0054700564010019020144358
B2015383731361N12153805WA0054700564010019020140359
B2015393731359N12153802WA0054700564010019022138359
B2015403731356N12153799WA0054700564010019025132000
B2015413731353N12153794WA0054600564010019028131000
B2015423731350N12153790WA0054500564010019027129359
B2015433731347N12153786WA0054400563010019026138359
B2015443731344N12153783WA0054300563010019025147359
B2015453731341N12153780WA0054200563010019024151359
B2015463731337N12153778WA0054100562010019025154359
B2015473731334N12153776WA0054000562010019026155359
B2015483731330N12153774WA0053900562010019027157359
B2015493731326N12153772WA0053900561010019026161359
B2015503731322N12153770WA0053800561010019021159359
B2015513731319N12153769WA0053800561010019018163359
B2015523731317N12153768WA0053900561010019017171359
B2015533731314N12153768WA0053900561010019018166359
B2015543731311N12153767WA0053900560010019026168359
B2015553731307N12153765WA0053900560010019027163359
B2015563731303N12153763WA0053900560010019027158359
B2015573731299N12153762WA0053800560010019024163359
B2015583731296N12153761WA0053800560010019022173359
B2015593731292N12153760WA0053800560010019022177359
B2016003731289N12153760WA0053800559010019024171359
B2016013731285N12153759WA0053800559010019026169359
B2016023731281N12153758WA0053800559010019024172359
B2016033731277N12153758WA0053800559010019022181359
B2016043731274N12153758WA0053700559010019025179359
B2016053731269N12153758WA0053700559010019026177359
B2016063731265N12153758WA0053700558010019027172359
B2016073731261N12153757WA0053700558010019028170359
B2016083731258N12153757WA0053800558010019021172359
B2016093731255N12153757WA0054000558010019024167359
B2016103731251N12153758WA0054100558010019025177359
B2016113731247N12153760WA0054300558010019023210359
B2016123731245N12153765WA0054400558010019026241359
B2016133731243N12153770WA0054500558010019027268359
B2016143731244N12153775WA0054500558005010026302359
B2016153731247N12153778WA0054600558005010026334359
B2016163731251N12153779WA0054600558005010027000001
B2016173731256N12153779WA0054700558005010029014012
B2016183731260N12153778WA0054700557005010031022011
B2016193731264N12153775WA0054800557005010031029009
B2016203731269N12153772WA0054900557005010034034011
B2016213731274N12153769WA0054900557005010037031013
B2016223731279N12153765WA0054900556005010038025006
B2016233731284N12153763WA0054900555005010038022006
B2016243731290N12153761WA0054900555005010038017007
B2016253731295N12153759WA0054900554005010037015000
B2016263731301N12153757WA0054900554005010035014354
B2016273731306N12153755WA0055000553005010034013355
B2016283731310N12153754WA0055000553005010032012351
B2016293731315N12153754WA0055000552005010032350342
B2016303731320N12153756WA0055100552005010033349333
B2016313731324N12153757WA0055100551005010033348331
B2016323731329N12153758WA0055100551005010030347330
B2016333731333N12153760WA0055100551005010028346334
B2016343731337N12153762WA0055100550005010028332343
B2016353731340N12153765WA0055100550005010030334344
B2016363731344N12153767WA0055200549005010029338345
B2016373731347N12153769WA0055200549005010027338347
B2016383731351N12153771WA0055300549005010027336349
B2016393731355N12153774WA0055300548005010030326352
B2016403731358N12153777WA0055300548005010029325354
B2016413731362N12153781WA0055300548005010029326354
B2016423731365N12153784WA0055500548005010025327354
B2016433731368N12153786WA0055600548005010023327354
B2016443731370N12153789WA0055700548005010023318354
B2016453731372N12153792WA0055900548005010021310354
B2016463731374N12153795WA0056000548005010019297354
B2016473731375N12153798WA0056000548005010020293354
B2016483731376N12153802WA0056000548010019020288004
B2016493731376N12153806WA0056000548010019019280003
B2016503731375N12153810WA0056100548005010011283003
B2016513731374N12153811WA0056100548010019005258002
B2016523731371N12153811WA0056300548010019009173001
B2016533731367N12153810WA0056500548010019015151001
B2016543731362N12153806WA0056600548010019020127001
B2016553731359N12153802WA0056800547010019027121001
B2016563731354N12153795WA0056900546010019030129358
B2016573731350N12153789WA0056900546010019028138359
B2016583731346N12153784WA0056900545010019024145359
B2016593731342N12153781WA0056900545010019018159359
B2017003731338N12153778WA0056900545010019014194359
B2017013731335N12153778WA0057000544010019015217359
B2017023731333N12153778WA0057000544010019015229359
B2017033731331N12153779WA0057000544010019012232359
B2017043731329N12153780WA0057000544010019013261359
B2017053731329N12153782WA0057000543010019021282359
B2017063731330N12153786WA0056900544005010025280359
B2017073731330N12153790WA0056900544005010026282359
B2017083731332N12153794WA0056900544005010026303359
B2017093731334N12153798WA0056900544005010025330358
B2017103731338N12153799WA0056900543005010025342358
B2017113731341N12153798WA0056900545005010026343348
B2017123731346N12153798WA0056900546005010031336349
B2017133731351N12153800WA0056900547005010036342354
B2017143731356N12153802WA0056800547005010038348345
B2017153731362N12153802WA0056700548005010038348341
B2017163731368N12153804WA0056700549005010037347340
B2017173731373N12153805WA0056700549005010036346336
B2017183731378N12153807WA0056700549005010033342336
B2017193731382N12153809WA0056600550005010031334336
B2017203731386N12153812WA0056600550005010030329338
B2017213731389N12153815WA0056500551005010026330340
B2017223731392N12153818WA0056300551005010019326342
B2017233731394N12153820WA0056200552005010017315014
B2017243731395N12153822WA0056200553005010014313011
B2017253731396N12153824WA0056200554005010012316008
B2017263731397N12153826WA0056100555005010010318007
B2017273731397N12153827WA0056100556010019009313353
B2017283731397N12153828WA0056000557010019009294005
B2017293731396N12153830WA0056000558010019008256355
B2017303731389N12153830WA0056000557010019015198356
B2017313731382N12153829WA0056100557010019018186357
B2017323731375N12153828WA0056200557010019020174357
B2017333731368N12153825WA0056300557010019024163358
B2017343731361N12153821WA0056300556010019024157358
B2017353731356N12153817WA0056400556010019028159358
B2017363731352N12153814WA0056500556010019024161358
B2017373731346N12153810WA0056600556010019019162359
B2017383731342N12153807WA0056800556010019013166359
B2017393731339N12153805WA0056900556010019018165359
B2017403731334N12153802WA0057000556010019021159359
B2017413731331N12153800WA0057000556010019022153359
B2017423731324N12153797WA0057000555010019021151359
B2017433731319N12153795WA0057100555010019021153000
B2017443731314N12153793WA0057100555010019025151000
B2017453731309N12153789WA0057100555010019028144000
B2017463731303N12153784WA0057100554010019030134000
B2017473731298N12153778WA0057000554010019031138359
B2017483731292N12153773WA0057000554010019031145000
B2017493731288N12153769WA0056800554010019030146359
B2017503731283N12153765WA0056800554010019028143359
B2017513731279N12153762WA0056700554010019027141000
B2017523731276N12153759WA0056600554010019028145000
B2017533731272N12153756WA0056600554010019030148359
B2017543731267N12153752WA0056600554010019031150359
B2017553731263N12153750WA0056500553010019028153359
B2017563731259N12153748WA0056400553010019025157359
B2017573731255N12153746WA0056300553010019024167359
B2017583731252N12153745WA0056300553010019019166359
B2017593731249N12153744WA0056200552010019019169359
B2018003731246N12153744WA0056100552010019018183359
B2018013731243N12153744WA0056000551010019023186359
B2018023731239N12153744WA0055800551010019026177359
B2018033731235N12153743WA0055700550010019026171359
B2018043731231N12153743WA0055500550010019021179359
B2018053731228N12153743WA0055400550010019017184359
B2018063731225N12153743WA0055300549010019019182359
B2018073731221N12153743WA0055200549010019024185359
B2018083731218N12153743WA0055100548010019026171359
B2018093731213N12153742WA0055100548010019030163359
B2018103731209N12153740WA0054900547010019030153359
B2018113731205N12153737WA0054900547010019030152000
B2018123731202N12153735WA0054800547010019025147000
B2018133731199N12153732WA0054800546010019024150359
B2018143731195N12153730WA0054700546010019023155359
B2018153731192N12153729WA0054700545010019024156359
B2018163731189N12153727WA0054700545005010025153359
B2018173731186N12153724WA0054600544005010024147359
B2018183731183N12153722WA0054500544005010024144359
B2018193731180N12153719WA0054500544005010024146359
B2018203731177N12153717WA0054500544005010023151359
B2018213731174N12153715WA0054600544005010024153000
B2018223731170N12153713WA0054800544005010025152000
B2018233731167N12153711WA0054900544005010026152000
B2018243731163N12153709WA0055000544005010026150359
B2018253731160N12153706WA0055100543005010025150359
B2018263731156N12153704WA0055200543005010025155000
B2018273731153N12153702WA0055200543005010025153359
B2018283731149N12153700WA0055200543005010028152359
B2018293731145N12153698WA0055200543005010028157359
B2018303731142N12153696WA0055200543005010024158359
B2018313731139N12153694WA0055100543005010021163359
B2018323731136N12153692WA0055100543005010021167359
B2018333731133N12153691WA0055100543005010023165359
B2018343731129N12153690WA0055000543005010026162359
B2018353731125N12153688WA0054900543005010027155000
B2018363731122N12153686WA0054900543005010027147000
B2018373731119N12153683WA0054800543005010027149000
B2018383731115N12153681WA0054700542010019026153000
B2018393731111N12153678WA0054700542010019028154359
B2018403731107N12153676WA0054700542010019031151359
B2018413731103N12153673WA0054600541010019030146359
B2018423731099N12153670WA0054600541010019031150359
B2018433731096N12153667WA0054600541010019024146359
B2018443731092N12153665WA0054600540010019024151359
B2018453731089N12153663WA0054600540010019026154359
B2018463731085N12153661WA0054600540010019026149000
B2018473731082N12153658WA0054700540010019025148359
B2018483731079N12153656WA0054800539010019022145359
B2018493731076N12153654WA0054800539010019022149359
B2018503731073N12153652WA0054800539010019025150000
B2018513731069N12153649WA0054900539010019025142000
B2018523731067N12153646WA0054900539010019024138000
B2018533731064N12153644WA0054900539010019024142359
B2018543731061N12153641WA0054900539010019022146359
B2018553731058N12153639WA0054800539005010024158359
B2018563731054N12153638WA0054700538010019026167359
B2018573731050N12153637WA0054600538005010027170359
B2018583731046N12153637WA0054500537010019025180359
B2018593731042N12153638WA0054400537010019024185359
B2019003731038N12153639WA0054300537010019026193359
B2019013731034N12153640WA0054200536010019028199359
B2019023731030N12153643WA0054100536010019031200359
B2019033731026N12153645WA0054000535010019031198359
B2019043731021N12153647WA0053900535005010030195359
B2019053731017N12153648WA0053800534005010029190359
B2019063731013N12153649WA0053800534005010027188359
B2019073731009N12153650WA0053800533010019025189359
B2019083731005N12153651WA0053700533010019025188359
B2019093731001N12153651WA0053700532010019028187359
B2019103730996N12153651WA0053700532010019031179359
B2019113730992N12153651WA0053600531010019030177359
B2019123730987N12153650WA0053500530010019029175359
B2019133730983N12153649WA0053400530010019025171359
B2019143730979N12153649WA0053300529010019025173359
B2019153730975N12153648WA0053300529010019027177359
B2019163730970N12153647WA0053200528010019030177359
B2019173730966N12153647WA0053100527010019030174359
B2019183730961N12153646WA0053000527010019029173359
B2019193730957N12153645WA0053000526010019024171359
B2019203730953N12153644WA0052900526010019026173359
B2019213730949N12153643WA0052900525010019030172359
B2019223730944N12153642WA0052800525010019031169359
B2019233730940N12153640WA0052700524010019028167359
B2019243730936N12153639WA0052700524010019024170359
B2019253730932N12153639WA0052700524010019021183359
B2019263730929N12153639WA0052700524010019018189359
B2019273730926N12153639WA0052700524010019030179359
B2019283730921N12153638WA0052700523010019035162359
B2019293730916N12153636WA0052600523010019034158359
B2019303730911N12153634WA0052500523010019030157359
B2019313730907N12153632WA0052500523010019028156000
B2019323730904N12153630WA0052400523010019030157359
B2019333730900N12153628WA0052400523005010030158359
B2019343730896N12153626WA0052500523005010028162359
B2019353730892N12153625WA0052500523005010024167359
B2019363730889N12153624WA0052600523005010023167359
B2019373730886N12153623WA0052600524005010020164359
B2019383730884N12153623WA0052600523005010017171359
B2019393730881N12153623WA0052600523005010021183359
B2019403730878N12153624WA0052600523005010021179359
B2019413730875N12153624WA0052400522005010021174359
B2019423730872N12153623WA0052400522010019021172000
B2019433730869N12153623WA0052200521010019021169000
B2019443730865N12153622WA0052100521010019022165000
B2019453730862N12153621WA0052000521010019021160000
B2019463730859N12153619WA0051900521010019021156000
B2019473730857N12153617WA0051900520010019022153359
B2019483730854N12153615WA0051900521010019025151359
B2019493730850N12153612WA0051900521010019026151359
B2019503730847N12153609WA0051800520010019024153359
B2019513730843N12153607WA0051800520010019026161359
B2019523730839N12153605WA0051700520010019027163359
B2019533730836N12153604WA0051600520010019027164359
B2019543730831N12153603WA0051500520010019030167359
B2019553730827N12153602WA0051500520010019027180359
B2019563730823N12153602WA0051400520010019026185359
B2019573730819N12153603WA0051400520010019026187359
B2019583730815N12153603WA0051500521010019026189359
B2019593730811N12153604WA0051500521010019026188359
B2020003730807N12153605WA0051500521010019027187359
B2020013730803N12153606WA0051600521010019026198359
B2020023730800N12153608WA0051700522010019022225359
B2020033730799N12153612WA0051700521005010024265359
B2020043730800N12153616WA0051800522005010024282358
B2020053730801N12153620WA0051800522005010020293005
B2020063730803N12153624WA0051800522005010019309017
B2020073730805N12153626WA0051800521005010012324019
B2020083730807N12153626WA0051800522005010009348024
B2020093730808N12153626WA0051800522005010005045022
B2020103730809N12153624WA0051800523005010005066021
B2020113730809N12153623WA0051900524005010006078020
B2020123730809N12153622WA0051900524010019007079342
B2020133730811N12153617WA0051900525010019006214345
B2020143730812N12153615WA0052000526010019010221349
B2020153730812N12153614WA0052000526010019011233352
B2020163730812N12153614WA0052000527010019017246355
B2020173730808N12153616WA0052000528010019024242357
B2020183730804N12153618WA0051900529010019024263357
B2020193730803N12153623WA0051900529005010025263358
B2020203730800N12153627WA0051800529005010021266358
B2020213730798N12153630WA0051800529005010019269359
B2020223730798N12153633WA0051800530005010017277359
B2020233730799N12153637WA0051800530005010019299357
B2020243730800N12153639WA0051700530005010025310354
B2020253730802N12153642WA0051700531005010024317359
B2020263730805N12153643WA0051600531005010023326359
B2020273730809N12153644WA0051500532005010021339012
B2020283730812N12153643WA0051500532005010020352022
B2020293730815N12153642WA0051500532005010019013023
B2020303730818N12153640WA0051500533005010018028028
B2020313730820N12153638WA0051400533005010017049028
B2020323730822N12153635WA0051400533005010017062027
B2020333730826N12153624WA0051400532005010025068027
B2020343730829N12153613WA0051400531005010029072025
B2020353730830N12153603WA0051300531010019035120022
B2020363730827N12153597WA0051300531010019034120021
B2020373730824N12153592WA0051200531010019033121018
B2020383730822N12153587WA0051200531010019031125345
B2020393730819N12153582WA0051200531010019031127350
B2020413730816N12153574WA0051200531010019026141352
B2020423730804N12153566WA0051100530010019028225356
B2020433730798N12153569WA0051000531010019026243357
B2020443730797N12153572WA0050900531010019023258358
B2020453730794N12153576WA0050800531010019021271358
B2020463730793N12153580WA0050700531010019021277358
B2020473730793N12153584WA0050600531010019021280358
B2020483730793N12153588WA0050500531010019022275359
B2020493730792N12153593WA0050300531010019023271359
B2020513730792N12153597WA0050200531010019024269359
B2020533730791N12153607WA0050000531010019025263359
B2020553730790N12153616WA0049800531010019024258359
B2020563730789N12153619WA0049700530010019022250359
B2020573730786N12153622WA0049500530010019025229359
B2020583730783N12153626WA0049400530010019028221359
B2020593730779N12153629WA0049300529010019027211359
B2021003730775N12153632WA0049100529010019031216359
B2021013730771N12153635WA0048900528010019033216359
B2021023730766N12153638WA0048800527010019033215359
B2021033730762N12153642WA0048600526010019031215359
B2021043730758N12153644WA0048500525010019029214359
B2021053730754N12153646WA0048300524010019029213359
B2021063730750N12153648WA0048200523010019031210359
B2021073730746N12153651WA0048000522010019034212359
B2021083730741N12153654WA0047900521010019036213359
B2021093730736N12153658WA0047900519010019036214359
B2021103730732N12153661WA0047700519010019033214359
B2021113730728N12153665WA0047500518010019030214359
B2021123730724N12153668WA0047500517010019028214359
B2021133730720N12153671WA0047400516010019028212359
B2021143730716N12153673WA0047400515010019027209359
B2021153730712N12153675WA0047300514010019027203359
B2021163730708N12153676WA0047300512010019028200359
B2021173730704N12153677WA0047200511010019029193359
B2021183730699N12153678WA0047100510010019028194359
B2021193730695N12153679WA0047000509010019027196359
B2021203730691N12153680WA0047000508010019025198359
B2021213730687N12153681WA0046900507010019026198359
B2021223730683N12153682WA0046800506010019027200359
B2021233730679N12153684WA0046700505010019028204359
B2021243730675N12153687WA0046600503010019028213359
B2021253730672N12153690WA0046500502010019028212359
B2021263730668N12153692WA0046500501010019028212359
B2021273730665N12153695WA0046400500010019028212359
B2021283730661N12153698WA0046300499010019028216359
B2021293730658N12153701WA0046200498010019029214359
B2021303730654N12153704WA0046100497010019030209359
B2021313730650N12153707WA0046000496010019030203359
B2021323730646N12153708WA0046000495010019029202359
B2021333730642N12153710WA0045900494010019024205359
B2021343730639N12153712WA0045900493010019024209359
B2021353730636N12153714WA0045900492010019025210359
B2021363730632N12153716WA0045800491010019026209359
B2021373730629N12153718WA0045800490010019026211359
B2021383730626N12153721WA0045800489010019026218359
B2021393730624N12153725WA0045800488010019022234359
B2021403730623N12153729WA0045800488010019023245359
B2021413730623N12153735WA0045800486010019028258359
B2021423730623N12153740WA0045700484010019029278359
B2021433730624N12153746WA0045700483010019030292358
B2021443730627N12153752WA0045600482010019030300000
B2021453730631N12153756WA0045500479005010027355006
B2021463730635N12153757WA0045400476005010025007014
B2021473730639N12153756WA0045300474005010025024019
B2021483730643N12153754WA0045300472005010025040022
B2021493730646N12153750WA0045200472005010029054021
B2021503730649N12153745WA0045200470005010029079021
B2021513730650N12153739WA0045100469005010028095019
B2021523730649N12153734WA0045000468005010029112016
B2021533730648N12153728WA0044900467005010031128014
B2021543730645N12153723WA0044800467005010030138014
B2021553730641N12153720WA0044700466005010030158351
B2021563730636N12153718WA0044600465005010031171353
B2021573730631N12153717WA0044600465005010028179354
B2021583730626N12153719WA0044400464005010036214356
B2021593730622N12153722WA0044400464005010030209356
B2022003730618N12153725WA0044300464010019028208357
B2022013730614N12153727WA0044300463010019029208357
B2022023730610N12153730WA0044300463010019031207357
B2022033730605N12153732WA0044300462010019036196358
B2022043730599N12153734WA0044300462010019039192358
B2022053730593N12153735WA0044300461010019039180358
B2022063730588N12153734WA0044400461010019032166358
B2022073730583N12153732WA0044500461010019030165000
B2022083730579N12153730WA0044600460010019030162000
B2022093730575N12153728WA0044700460010019031162000
B2022103730570N12153726WA0044800460010019028155000
B2022113730567N12153723WA0044800460010019031146000
B2022123730563N12153720WA0044900460010019032144000
B2022133730559N12153715WA0044900460010019034130001
B2022143730556N12153709WA0044900460010019033124357
B2022153730555N12153704WA0045000460010019019076356
B2022163730555N12153700WA0045100459010019019074351
B2022173730556N12153696WA0045200459010019018069343
B2022183730558N12153693WA0045300458010019017071342
B2022193730559N12153689WA0045300458010019016071340
B2022203730560N12153686WA0045300457050095016066340
B2022303730576N12153679WA0046600465021024045116003
B2022313730569N12153674WA0046600451034032047079002
B2022323730581N12153673WA0046500469034032047056001
B2022333730591N12153671WA0046500491026024047057001
B2022343730587N12153671WA0046500485014016026042001
B2022353730590N12153675WA0046600483022016000359002
B2022373730590N12153676WA0046700477004006026350353
B2022383730593N12153679WA0046800482004006025340351
B2022393730561N12153661WA0047000451010019017049337
B2022403730570N12153654WA0047100452010019018047342
B2022413730578N12153648WA0047100453010019017044341
B2022513730579N12153671WA0048400485008012031116005
B2022523730579N12153663WA0048500487009012036100002
B2022533730579N12153657WA0048500487009012036093001
B2022543730577N12153653WA0048600485010012023095001
B2022553730588N12153654WA0048600488007008040024001
B2022563730591N12153652WA0048700492008008024018354
B2022573730595N12153653WA0048800495007008024354345
B2022583730599N12153657WA0048900496006008024327348
B2022593730603N12153659WA0049000497006008025343346
B2023003730601N12153665WA0049200505005006030253345
B2023013730601N12153670WA0049400509004006026242343
B2023023730600N12153674WA0049500512005006026247343
B2023033730595N12153675WA0049700512005006026202342
B2023043730592N12153677WA0049800512005008019207343
B2023053730585N12153677WA0050000513005012042187344
B2023063730595N12153679WA0050100495010019025175007
B2023073730592N12153678WA0050100495010019026165004
B2023153730595N12153638WA0049900500007008027000002
B2023163730600N12153640WA0050000505006006028342353
B2023173730604N12153643WA0050000509007006028339356
B2023183730607N12153641WA0050000509006006028358358
B2023193730610N12153636WA0050100505005006029011356
B2023203730614N12153635WA0050100505004004028009351
B2023213730619N12153635WA0050200506004004028001337
B2023223730622N12153636WA0050200506005004025349341
B2023233730624N12153637WA0050200505004004021311333
B2023243730626N12153638WA0050200506004004018313323
B2023253730628N12153641WA0050200507004004021314333
B2023263730631N12153644WA0050200507004004021320343
B2023273730633N12153647WA0050200509004004021316339
B2023283730635N12153648WA0050200509004003020317346
B2023293730638N12153649WA0050200509004003019328349
B2023303730641N12153651WA0050300509004003023337348
B2023313730645N12153653WA0050400508004003023338358
B2023323730649N12153653WA0050400510004003027346358
B2023333730657N12153652WA0050500511004003027008008
B2023343730662N12153651WA0050500510004003032018004
B2023353730667N12153649WA0050400510004003032007000
B2023363730672N12153649WA0050400510004003033357350
B2023373730677N12153649WA0050400511004003033359336
B2023383730672N12153648WA0050400496010019034355332
B2023393730677N12153649WA0050400497010019031348332
B2023403730681N12153650WA0050400497010019025328335
B2023413730687N12153656WA0050400497010019026311327
B2023433730689N12153663WA0050500497010019024271326
B2023453730689N12153668WA0050400497010019026270332
B2023463730685N12153679WA0050400500010019020222337
B2023473730682N12153681WA0050400501010019016234340
B2023483730681N12153684WA0050400501010019016242343
B2023493730678N12153687WA0050400501010019020230347
B2023503730675N12153690WA0050400502010019025204348
B2023513730671N12153691WA0050400501010019027183349
B2023523730666N12153691WA0050300501010019031169351
B2023533730662N12153689WA0050300501010019035159007
B2023543730657N12153686WA0050200501010019035150005
B2023553730652N12153682WA0050100501010019038139003
B2023563730647N12153677WA0050000500010019039139002
B2023583730635N12153664WA0050000501010019033134001
B2023593730630N12153657WA0050000501010019029122000
B2024003730628N12153652WA0050000501010019028106000
B2024013730626N12153646WA0050100501010019024101002
B2024023730628N12153638WA0050200502010019023085000
B2024033730631N12153632WA0050200502010019022074350
B2024043730636N12153626WA0050300503010019020071341
B2024053730639N12153622WA0050400503010019018070339
B2024063730646N12153620WA0050600503010019012053343
B2024073730650N12153619WA0050700502010019013016338
B2024083730655N12153620WA0050800501010019010357343
B2024093730658N12153621WA0050900500010019008331344
B2024103730661N12153623WA0051000499010019006314347
B2024113730662N12153624WA0051100499010019004289348
B2024123730660N12153635WA0051200500010019016227349
B2024133730656N12153644WA0051200500010019017220009
B2024143730653N12153650WA0051300500010019014193006
B2024153730648N12153652WA0051300500010019017191004
B2024163730643N12153655WA0051300500010019014187002
B2024173730640N12153655WA0051200500010019013179001
B2024183730637N12153655WA0051100499010019013155000
B2024193730631N12153647WA0051100499010019015145001
B2024203730628N12153643WA0051000498010019015136000
B2024213730624N12153637WA0051000498010019011131000
B2024223730621N12153633WA0051100497010019010126357
B2024233730618N12153629WA0051200497010019011120359
B2024243730617N12153626WA0051200497010019011115350
B2024253730616N12153623WA0051400496010019010106337
B2024263730630N12153612WA0051600498010019012056332
B2024273730639N12153606WA0051800500010019010044331
B2024373730655N12153643WA0053100521012032033116006
B2024383730653N12153637WA0053300528012032030116004
B2024393730655N12153630WA0053500535008016042094002
B2024403730658N12153623WA0053600538006012042069002
B2024413730662N12153619WA0053800541006008039054001
B2024423730666N12153616WA0053900544006006034031001
B2024433730671N12153615WA0054000542006006028016003
B2024443730677N12153620WA0054000547004006033004000
B2024453730681N12153620WA0054100550004004033344353
B2024463730685N12153622WA0054200553004004033324345
B2024473730689N12153624WA0054200554004004023325340
B2024483730691N12153629WA0054200557004004029290336
B2024493730692N12153633WA0054400560004004026283341
B2024503730693N12153638WA0054500564004004028272340
B2024513730691N12153642WA0054700565004003028246338
B2024523730690N12153647WA0055000568004004029238340
B2024533730687N12153652WA0055200572004004029236337
B2024553730699N12153647WA0055500539010019031222339
B2024563730694N12153652WA0055600541010019035191342
B2024573730683N12153653WA0055900543010019033169008
B2024583730678N12153651WA0056000543010019033164006
B2024593730673N12153649WA0056000543010019031156005
B2025003730669N12153647WA0056000543010019030146003
B2025013730666N12153643WA0056100543010019029137002
B2025023730662N12153637WA0056200543010019029106001
B2025033730661N12153630WA0056200543010019028095001
B2025043730661N12153625WA0056300543010019029087001
B2025053730661N12153619WA0056400542010019029087003
B2025063730662N12153614WA0056600541010019025041000
B2025073730665N12153610WA0056800541010019026036001
B2025083730668N12153607WA0057000540010019025034355
B2025093730671N12153604WA0057200539010019025033343
B2025103730675N12153601WA0057500538010019026030342
B2025113730679N12153598WA0057800538010019026024340
B2025123730687N12153594WA0058100541010019023016339
B2025133730696N12153591WA0058400544010019020014341
B2025143730704N12153593WA0058600542010019027007341
B2025153730711N12153594WA0058700541010019030005343
B2025163730718N12153595WA0058700541010019026007344
B2025173730724N12153595WA0058700541010019014339342
B2025183730726N12153597WA0058700540010019012290343
B2025193730727N12153600WA0058700540030057012283344
B2025203730726N12153604WA0058700540030057016264346
B2025213730722N12153620WA0058600544010019011255010
B2025223730714N12153630WA0058500544010019018215007
B2025233730707N12153637WA0058400544010019016220005
B2025243730701N12153642WA0058300544010019014221003
B2025253730698N12153646WA0058200545010019012221002
B2025383730743N12153580WA0059700611011012029338343
B2025393730747N12153581WA0059900610011012029325343
B2025403730752N12153584WA0060000610012012037329343
B2025413730752N12153591WA0060100612010012037307341
B2025423730752N12153600WA0060300618008008037291344
B2025433730749N12153603WA0060400619007008031243345
B2025443730747N12153607WA0060500622007008024242347
B2025453730742N12153607WA0060600620005008024180350
B2025463730739N12153608WA0060700618005008020196350
B2025473730735N12153610WA0060700618004006020188351
B2025483730731N12153611WA0060600617004006036184352
B2025493730727N12153611WA0060500617005008036177352
B2025503730721N12153610WA0060400617006008033168005
B2025513730718N12153609WA0060300614007012031166004
B2025523730713N12153604WA0060200612009012033147002
B2025533730709N12153596WA0060200613010012034143001
B2025543730734N12153597WA0060200552010019037134001
B2025553730729N12153593WA0060200553005010039127000
B2025563730726N12153587WA0060300554010019041125000
B2025573730722N12153581WA0060400554010019038110004
B2025583730720N12153574WA0060600554010019035101001
B2025593730722N12153565WA0060700556010019035091355
B2026003730725N12153555WA0060900559010019030089344
B2026013730730N12153550WA0061100562010019032343336
B2026023730738N12153553WA0061300565010019031330338
B2026033730744N12153556WA0061500567010019026321337
B2026043730748N12153559WA0061800568010019022314337
B2026053730752N12153561WA0062000569010019019307341
B2026063730754N12153564WA0062200569010019020300343
B2026073730753N12153572WA0062200575010019020279345
B2026083730752N12153579WA0062400580010019020261346
B2026093730749N12153585WA0062500584010019019257347
B2026103730747N12153589WA0062600584010019018250349
B2026113730740N12153599WA0062600592010019015213351
B2026123730735N12153604WA0062600597010019021189352
B2026133730730N12153607WA0062500600010019027177006
B2026143730725N12153606WA0062400600010019029170004
B2026153730720N12153605WA0062300600010019029166002
B2026163730715N12153603WA0062200600010019029151001
B2026183730711N12153601WA0062200600010019029146001
B2026193730706N12153596WA0062300600010019027145001
B2026203730701N12153591WA0062400599010019025141000
B2026213730697N12153587WA0062500600010019024141000
B2026223730692N12153581WA0062600598010019019144002
B2026233730690N12153576WA0062700596010019014140356
B2026253730697N12153569WA0062900601010019007104348
B2026263730707N12153562WA0063000608010019009068339
B2026273730714N12153556WA0063100614010019006071333
B2026283730719N12153553WA0063200617010019004087334
B2026293730724N12153553WA0063200617010019005312334
B2026303730728N12153555WA0063400616010019011307335
B2026313730733N12153558WA0063600616010019012294335
B2026323730736N12153561WA0063800615010019010273337
B2026333730736N12153569WA0064000617010019015257341
B2026343730734N12153578WA0064100621010019014252015
B2026353730734N12153582WA0064300621010019014251011
B2026363730732N12153587WA0064400622010019014239009
B2026373730730N12153591WA0064400622010019008207006
B2026383730729N12153594WA0064500622010019008138005
B2026393730728N12153593WA0064500621010019012123003
B2026403730727N12153592WA0064600621010019014117002
B2026413730726N12153589WA0064600621010019019101001
B2026423730725N12153580WA0064500621010019032082001
B2026433730725N12153571WA0064500621010019037062000
B2026443730729N12153564WA0064500621005010043042000
B2026453730735N12153556WA0064500622005010040041000
B2026463730739N12153549WA0064600622005010041031000
B2026473730745N12153539WA0064600623005010038032000
B2026483730762N12153529WA0064700626005010037014001
B2026493730770N12153525WA0064700627010019038013005
B2026503730777N12153523WA0064700627010019039008005
B2026513730784N12153523WA0064600627010019039001356
B2026523730791N12153523WA0064500627010019038351346
B2026533730798N12153525WA0064500627010019040338338
B2026543730803N12153528WA0064400626010019039331338
B2026553730808N12153532WA0064400625010019036324339
B2026563730813N12153535WA0064400625010019029326346
B2026573730816N12153538WA0064400625010019025327350
B2026583730820N12153540WA0064500624010019026328347
B2026593730823N12153543WA0064500624010019029324351
B2027003730826N12153547WA0064500623010019031311353
B2027013730829N12153551WA0064500623010019029313353
B2027023730832N12153555WA0064400623010019026319354
B2027033730835N12153558WA0064200622010019023326355
B2027043730838N12153560WA0064100621010019022324354
B2027053730841N12153563WA0063900621010019027328354
B2027063730843N12153568WA0063700620010019034279354
B2027073730843N12153574WA0063500619005010032268354
B2027083730843N12153580WA0063300618005010031269355
B2027093730843N12153585WA0063100617005010025270355
B2027103730841N12153589WA0063000618010019009250355
B2027113730840N12153591WA0063000617010019009244356
B2027123730839N12153593WA0062900617010019010268357
B2027133730836N12153595WA0062900617010019020222357
B2027143730833N12153597WA0062800615010019021208358
B2027153730829N12153598WA0062600614010019017216358
B2027163730827N12153600WA0062300612010019014242359
B2027173730825N12153602WA0062000610010019016249359
B2027183730824N12153605WA0061600609010019019252359
B2027193730822N12153608WA0061300607010019022237359
B2027203730820N12153611WA0061100605010019024235359
B2027213730818N12153615WA0060800604010019024245359
B2027223730817N12153619WA0060500602010019024251359
B2027233730816N12153624WA0060300600010019025256359
B2027243730814N12153628WA0060000599010019025252359
B2027253730813N12153633WA0059900598010019026245359
B2027263730811N12153637WA0059700596010019027247359
B2027273730809N12153642WA0059600595010019027250359
B2027283730808N12153646WA0059500594010019025257359
B2027293730807N12153650WA0059500592010019023265359
B2027303730807N12153655WA0059500591010019023267359
B2027313730807N12153659WA0059500590010019025264359
B2027323730806N12153664WA0059500589010019026255359
B2027333730804N12153669WA0059500588010019028247359
B2027343730803N12153674WA0059400587010019028240359
B2027353730801N12153678WA0059400587010019026242359
B2027363730799N12153682WA0059300586010019024249359
B2027373730798N12153686WA0059300586010019025250359
B2027383730796N12153691WA0059200585005010027242359
B2027393730794N12153695WA0059200584005010027242359
B2027403730793N12153700WA0059100584010019027263359
B2027413730793N12153705WA0059000583010019025277359
B2027423730793N12153710WA0059000583010019025277359
B2027433730793N12153715WA0058900582005010027266359
B2027443730792N12153720WA0058800582005010028247359
B2027453730791N12153724WA0058700581005010027247359
B2027463730789N12153729WA0058600581005010026234359
B2027473730786N12153733WA0058600581005010025232359
B2027483730784N12153736WA0058600580005010022229359
B2027493730781N12153739WA0058500580005010020222359
B2027503730779N12153741WA0058500579005010020212359
B2027513730776N12153742WA0058500579010019021203359
B2027523730773N12153744WA0058400578010019022196359
B2027533730770N12153744WA0058400578010019021195359
B2027543730767N12153745WA0058400577010019020198359
B2027553730764N12153747WA0058300577010019021203359
B2027563730760N12153748WA0058300576010019022202359
B2027573730757N12153750WA0058300576010019023201359
B2027583730754N12153751WA0058200575010019024199359
B2027593730750N12153752WA0058200575010019025198359
B2028003730746N12153754WA0058200574010019024196359
B2028013730743N12153754WA0058200574010019022188359
B2028023730740N12153755WA0058100573010019021180359
B2028033730737N12153755WA0058000573010019019177359
B2028043730734N12153754WA0058000572010019020177359
B2028053730731N12153754WA0057800571010019021178359
B2028063730727N12153754WA0057700571010019023183359
B2028083730724N12153754WA0057500570010019026188359
B2028093730720N12153754WA0057300569010019027188359
B2028103730716N12153755WA0057000568010019026187359
B2028113730712N12153756WA0057000568010019027186359
B2028123730707N12153756WA0056800567010019030180359
B2028133730703N12153756WA0056600566010019029178359
B2028143730699N12153756WA0056400566010019025179000
B2028153730695N12153756WA0056300565010019024177000
B2028163730692N12153756WA0056200564010019023177000
B2028173730688N12153755WA0056200564010019024176000
B2028193730681N12153754WA0056100563010019025169000
B2028203730678N12153753WA0056000563010019024164000
B2028213730675N12153751WA0056000563010019022156000
B2028223730672N12153749WA0055900563010019020148000
B2028233730669N12153747WA0055900563010019021146000
B2028243730666N12153744WA0055800563010019024151000
B2028253730663N12153741WA0055700563010019028150000
B2028263730659N12153738WA0055600563010019032144000
B2028273730655N12153733WA0055400563010019032143000
B2028283730651N12153730WA0055300562010019031141000
B2028293730648N12153726WA0055300562010019030151000
B2028303730644N12153723WA0055100562010019029163359
B2028313730639N12153722WA0055000561010019030163000
B2028323730635N12153720WA0054800561010019029161000
B2028333730631N12153718WA0054700560010019029160000
B2028343730627N12153716WA0054500560010019029161000
B2028353730622N12153714WA0054200559010019031163000
B2028363730618N12153713WA0054000559010019031164000
B2028373730613N12153711WA0053700559010019032159000
B2028383730609N12153708WA0053500558010019033148000
B2028393730604N12153705WA0053300558010019032152000
B2028403730600N12153703WA0053100557010019033164000
B2028413730595N12153701WA0052900557010019031168359
B2028423730590N12153699WA0052800556010019028166000
B2028433730587N12153697WA0052600556010019026162359
B2028443730583N12153696WA0052500555010019024160000
B2028453730580N12153694WA0052300554010019027164000
B2028463730576N12153692WA0052300554010019031165359
B2028473730571N12153690WA0052200553010019031161000
B2028483730566N12153688WA0052000552010019033158359
B2028493730562N12153686WA0051800551010019029159359
B2028503730558N12153684WA0051600550010019028165359
B2028513730554N12153683WA0051400550010019027168359
B2028523730550N12153682WA0051300549010019028169359
B2028533730546N12153680WA0051200549010019031169359
B2028543730541N12153679WA0051000548010019032168359
B2028553730536N12153677WA0050900548010019034164359
B2028563730531N12153675WA0050800547010019036165359
B2028573730526N12153674WA0050700547010019032170359
B2028583730521N12153673WA0050600547010019029177000
B2028593730517N12153673WA0050600546010019030178359
B2029003730512N12153673WA0050500546010019032178359
B2029013730507N12153672WA0050400546010019033176000
B2029023730502N12153672WA0050300545010019035174359
B2029033730496N12153670WA0050100545010019037170359
B2029043730491N12153669WA0050100544005010037171000
B2029053730485N12153668WA0049800543005010037171000
B2029063730480N12153667WA0049600542005010036169000
B2029073730475N12153666WA0049300540005010037168359
B2029083730469N12153665WA0049000539005010036167000
B2029093730464N12153664WA0048800539005010038163359
B2029103730458N12153661WA0048600537005010036163000
B2029113730453N12153659WA0048400536005010034161359
B2029123730448N12153657WA0048200536010019034161359
B2029133730443N12153654WA0048100534010019034161359
B2029143730438N12153652WA0048000533010019034160359
B2029153730433N12153649WA0047900532010019032159359
B2029163730428N12153647WA0047800530010019030159359
B2029173730424N12153645WA0047700529010019031161359
B2029183730419N12153642WA0047500528010019033163359
B2029193730414N12153641WA0047200527010019032161359
B2029203730410N12153639WA0047000526010019034160359
B2029213730405N12153636WA0047000525010019036157359
B2029223730400N12153633WA0046700524010019033162359
B2029233730395N12153631WA0046400522010019030167359
B2029243730391N12153630WA0046200521010019028165359
B2029253730387N12153628WA0046100519010019027167359
B2029263730383N12153627WA0045900518010019027164359
B2029273730379N12153626WA0045800516010019032161359
B2029283730374N12153624WA0045600514010019034164359
B2029293730369N12153623WA0045500512010019031164359
B2029303730365N12153621WA0045400511010019030168000
B2029313730360N12153620WA0045300510010019029170000
B2029323730356N12153619WA0045300509010019028170359
B2029333730352N12153618WA0045300509010019027171359
B2029343730348N12153618WA0045400507010019023174359
B2029353730345N12153617WA0045400505010019025180359
B2029363730341N12153617WA0045300503010019029178359
B2029373730337N12153617WA0045100502010019029173359
B2029383730333N12153615WA0044900500010019031163359
B2029393730328N12153613WA0044900499010019032161359
B2029403730323N12153610WA0044600498010019033169359
B2029413730318N12153610WA0044400496010019032177359
B2029423730314N12153609WA0044200495010019029176359
B2029433730310N12153609WA0044000493010019029175359
B2029443730305N12153608WA0043900491010019028178359
B2029453730301N12153608WA0043800490010019028181359
B2029463730297N12153608WA0043700490010019028188359
B2029473730293N12153609WA0043500487010019029191359
B2029483730288N12153610WA0043400485010019028193359
B2029493730285N12153611WA0043300484010019024198359
B2029503730282N12153613WA0043200482010019022203359
B2029513730279N12153615WA0043200481010019021216359
B2029523730277N12153618WA0043100478010019025239359
B2029533730276N12153623WA0043000475010019032260359
B2029543730275N12153630WA0042900472010019033265359
B2029553730275N12153636WA0042800470010019031283359
B2029563730278N12153642WA0042800468010019027304355
B2029573730280N12153646WA0042700464010019023322354
B2029583730282N12153652WA0042600458005010023326352
B2029593730284N12153656WA0042500454005010022323349
B2030003730286N12153660WA0042300451005010028326349
B2030013730290N12153664WA0042100448005010030325343
B2030023730294N12153667WA0041800445005010028325342
B2030033730297N12153671WA0041600442005010027324343
B2030043730301N12153675WA0041300440005010028324339
B2030053730305N12153678WA0041100437005010029333338
B2030063730309N12153680WA0041000435005010029339343
B2030073730313N12153683WA0040800433005010027338330
B2030083730317N12153685WA0040700431005010024336342
B2030093730321N12153686WA0040700429005010024336333
B2030103730324N12153689WA0040600427005010027334346
B2030113730328N12153691WA0040600426005010031330339
B2030123730332N12153693WA0040600425005010028338351
B2030133730336N12153695WA0040500424005010025343341
B2030143730340N12153696WA0040500423005010024347355
B2030153730344N12153697WA0040500422005010027348339
B2030163730349N12153698WA0040500420005010029346333
B2030173730354N12153700WA0040500419005010028342330
B2030183730358N12153701WA0040600419005010026338338
B2030193730361N12153704WA0040700418005010023325341
B2030203730364N12153706WA0040800417005010023319345
B2030213730366N12153709WA0040900417005010019318348
B2030223730368N12153711WA0041000416005010016319350
B2030233730370N12153713WA0041100416005010017322349
B2030243730372N12153714WA0041100415005010017319348
B2030253730374N12153717WA0041100414005010024307348
B2030263730376N12153721WA0041000413005010024280347
B2030273730376N12153726WA0040900413005010024258348
B2030283730374N12153730WA0040700412005010025233348
B2030293730371N12153733WA0040600412005010027209350
B2030303730368N12153734WA0040600412005010028198350
B2030313730363N12153735WA0040500411010019033175007
B2030323730358N12153734WA0040500410010019037166005
B2030333730353N12153731WA0040400410010019037154004
B2030343730348N12153728WA0040300409010019037142002
B2030353730344N12153723WA0040300408010019037140001
B2030363730339N12153719WA0040200408010019037138001
B2030373730336N12153713WA0040100408010019037113000
B2030383730334N12153706WA0040100408010019036113000
B2030393730333N12153700WA0040100408010019035107000
B2030403730331N12153693WA0040100408010019033105002
B2030413730329N12153680WA0040100407010019028100358
B2030423730330N12153674WA0040100407010019025095354
B2030433730330N12153669WA0040100408010019023094349
B2030443730331N12153664WA0040000408010019021093344
B2030453730333N12153659WA0040000408010019017066341
B2030463730338N12153655WA0039900409010019015042338
B2030473730343N12153653WA0039900409010019016025338
B2030523730396N12153711WA0039500389010019027318346
B2030533730399N12153714WA0039500388010019025316345
B2030553730404N12153719WA0039400387010019024319350
B2030563730407N12153722WA0039400386010019023320353
B2030573730409N12153725WA0039400385010019025317354
B2030583730412N12153728WA0039300384010019028313355
B2030593730415N12153732WA0039200383010019027310353
B2031003730418N12153736WA0039100381010019026311353
B2031013730420N12153740WA0039000380010019027313354
B2031023730423N12153744WA0038900379010019029312355
B2031033730426N12153749WA0038800378010019030304356
B2031043730428N12153753WA0038600377010019028300356
B2031053730430N12153758WA0038600376010019026303357
B2031063730432N12153762WA0038500375010019024302357
B2031073730434N12153765WA0038400374010019022291357
B2031083730435N12153770WA0038300373010019024279357
B2031093730435N12153774WA0038200372010019024270357
B2031103730434N12153779WA0038100371010019024260358
B2031113730433N12153783WA0037900370010019025251358
B2031123730431N12153788WA0037700370005010027247358
B2031133730430N12153792WA0037500369005010027252358
B2031143730428N12153797WA0037300368005010028251359
B2031153730427N12153803WA0037000366005010032261359
B2031163730425N12153809WA0036800364005010032256359
B2031173730424N12153815WA0036500362005010031252359
B2031183730422N12153821WA0036200360005010029253359
B2031193730421N12153826WA0036000358005010029258359
B2031203730421N12153832WA0035800356005010030268359
B2031213730420N12153837WA0035600354010019029268359
B2031223730420N12153842WA0035600352010019027264359
B2031243730419N12153853WA0035300347010019031257359
B2031253730418N12153859WA0035100346010019028252359
B2031263730417N12153865WA0035000344010019030263359
B2031273730417N12153870WA0034800343010019024287359
B2031283730418N12153874WA0034800342005010022287359
B2031293730419N12153878WA0034800342005010024288359
B2031303730421N12153882WA0034900341005010026291359
B2031313730423N12153887WA0034900340005010028306359
B2031323730426N12153890WA0035000340005010029338358
B2031333730430N12153890WA0035100339005010030009003
B2031343730434N12153887WA0035100338005010033041012
B2031353730438N12153882WA0035100338005010036056014
B2031363730441N12153876WA0035100337005010034060013
B2031373730444N12153871WA0035100336005010033059012
B2031383730446N12153866WA0035000335005010031058006
B2031393730449N12153861WA0035000335005010029050004
B2031403730453N12153857WA0034900334005010031032001
B2031413730457N12153854WA0034800334005010029027359
B2031423730461N12153852WA0034600333005010030017346
B2031433730464N12153852WA0034400331005010020299338
B2031443730466N12153856WA0034100330005010024294337
B2031453730467N12153861WA0033800328005010028274336
B2031463730467N12153866WA0033500327010019028251339
B2031473730465N12153872WA0033200325005010025254342
B2031483730464N12153878WA0032900323005010026264345
B2031493730463N12153883WA0032600321005010027260347
B2031503730462N12153889WA0032400319005010028255348
B2031513730461N12153894WA0032200318005010027265350
B2031523730461N12153900WA0032100316005010028262353
B2031533730460N12153905WA0032000315005010028256353
B2031543730459N12153910WA0031900314005010026254355
B2031553730457N12153915WA0031900313005010021247355
B2031563730456N12153918WA0031900312005010019252356
B2031573730456N12153922WA0031800310005010024259357
B2031583730455N12153927WA0031700309005010031258357
B2031593730454N12153933WA0031600307010019031250358
B2032003730452N12153938WA0031600306010019026244358
B2032013730451N12153942WA0031400305010019021255358
B2032023730450N12153945WA0031300304010019018253358
B2032033730450N12153948WA0031200303010019019264359
B2032043730450N12153952WA0031200301010019023256359
B2032053730449N12153957WA0031100300010019029250359
B2032063730447N12153962WA0030900299010019030242359
B2032073730445N12153967WA0030700297010019028242359
B2032083730443N12153971WA0030500296010019024250359
B2032093730442N12153976WA0030300295010019021258359
B2032103730442N12153979WA0030200294010019021256359
B2032113730441N12153983WA0030100293010019023254359
B2032123730440N12153988WA0030000291010019025248359
B2032133730438N12153993WA0029900290010019025248359
B2032143730437N12153997WA0029700289010019024244359
B2032153730435N12154001WA0029600288010019025237359
B2032163730433N12154005WA0029400287010019023238359
B2032173730431N12154008WA0029400286010019021243359
B2032183730430N12154012WA0029300285010019023242359
B2032193730428N12154016WA0029300284010019027238359
B2032203730426N12154020WA0029300283010019023231359
B2032213730424N12154024WA0029200282010019023233359
B2032223730422N12154027WA0029200281010019021245359
B2032233730421N12154031WA0029300280005010018245359
B2032243730420N12154033WA0029300280005010017235359
B2032253730419N12154036WA0029400279005010019242359
B2032263730417N12154039WA0029400278005010020236359
B2032273730416N12154042WA0029400277005010021231359
B2032283730414N12154046WA0029300276005010021229359
B2032293730412N12154049WA0029100275005010020231359
B2032303730410N12154052WA0029000273005010017237359
B2032313730409N12154054WA0028800272005010016232359
B2032323730407N12154057WA0028700271010019018226359
B2032333730405N12154059WA0028500270010019023227359
B2032343730403N12154063WA0028300269010019023230359
B2032353730401N12154066WA0028100268010019021235359
B2032363730399N12154069WA0028100266010019020237359
B2032373730397N12154072WA0027900265010019021235359
B2032383730395N12154076WA0027700264010019022233359
B2032393730394N12154079WA0027500262010019022231359
B2032403730392N12154082WA0027400261010019022238359
B2032413730390N12154086WA0027200260010019021239359
B2032423730388N12154090WA0027100258010019020244359
B2032433730387N12154093WA0026900257010019019241359
B2032443730386N12154097WA0026800256010019020248359
B2032453730385N12154100WA0026800255010019021245359
B2032463730383N12154104WA0026800254010019023247359
B2032473730382N12154109WA0026900254010019023251359
B2032483730382N12154113WA0026900253010019019256359
B2032493730381N12154116WA0027000252010019015252359
B2032503730380N12154118WA0027100252010019012241359
B2032513730380N12154120WA0027200251010019016247359
B2032523730379N12154123WA0027300251010019023271359
B2032533730380N12154128WA0027300251010019026291359
B2032543730382N12154132WA0027300250010019024308358
B2032553730385N12154135WA0027400250010019021331357
B2032563730388N12154136WA0027400249010019022001004
B2032573730392N12154135WA0027500248005010026019013
B2032583730398N12154129WA0027700251005010032032019
B2032593730402N12154125WA0027800251005010035053023
B2033003730404N12154118WA0027800251005010039072026
B2033013730405N12154111WA0027800251005010040092026
B2033023730405N12154103WA0027800251005010041100026
B2033033730402N12154096WA0027800252010019040126026
B2033043730397N12154091WA0027800252010019040153338
B2033053730391N12154090WA0027800252010019035180345
B2033063730386N12154091WA0027800253010019029205350
B2033073730383N12154094WA0027800253010019024226353
B2033083730381N12154098WA0027900254010019021230355
B2033093730379N12154101WA0027900254010019017248356
B2033103730378N12154105WA0028000255010019017264357
B2033113730379N12154108WA0028000256010019018273358
B2033123730379N12154111WA0028100256010019021293359
B2033133730381N12154115WA0028200256010019019301357
B2033143730383N12154117WA0028200258010019018319352
B2033153730386N12154118WA0028200259005010017325349
B2033163730388N12154120WA0028200261005010019324344
B2033173730391N12154122WA0028200261005010021315346
B2033183730393N12154125WA0028100261005010024306347
B2033193730395N12154129WA0028000261005010025299348
B2033203730397N12154133WA0027800261005010023295349
B2033213730399N12154136WA0027700261005010022292350
B2033223730400N12154140WA0027600261005010022288351
B2033233730401N12154144WA0027500261005010022282352
B2033243730401N12154148WA0027400261005010021273353
B2033253730401N12154152WA0027300260005010022267355
B2033263730401N12154157WA0027200260005010023272354
B2033273730401N12154161WA0027100260005010022272356
B2033283730401N12154165WA0027100260005010022265356
B2033293730401N12154169WA0027100260005010024260357
B2033303730400N12154173WA0027000260005010025251357
B2033313730399N12154177WA0026900260005010022256358
B2033323730398N12154181WA0026900260005010017269358
B2033333730398N12154183WA0026900260005010014271359
B2033343730398N12154186WA0026900259005010014270358
B2033353730398N12154189WA0026900259005010016273359
B2033363730398N12154192WA0026800258005010019268359
B2033373730398N12154196WA0026700258005010021269359
B2033383730398N12154200WA0026600257005010021269359
B2033393730397N12154204WA0026400256005010021268359
B2033403730397N12154208WA0026200256005010021269359
B2033413730397N12154212WA0026100255005010020272359
B2033423730397N12154215WA0026000254005010017279359
B2033433730398N12154218WA0026000254005010015290359
B2033443730399N12154221WA0025900253005010015296359
B2033453730400N12154224WA0025900252005010016290359
B2033463730401N12154227WA0025800251005010019283359
B2033473730401N12154231WA0025700251005010022270359
B2033483730401N12154235WA0025600250005010022265359
B2033493730400N12154239WA0025400249005010021253359
B2033503730399N12154243WA0025300248005010020241359
B2033513730397N12154246WA0025200248005010021224359
B2033523730395N12154249WA0025100247005010022219359
B2033533730392N12154251WA0025000247005010024219359
B2033543730389N12154254WA0024900246005010026216359
B2033553730386N12154256WA0024800245005010026213359
B2033563730383N12154259WA0024600245005010026215359
B2033573730380N12154262WA0024500244005010025220359
B2033583730377N12154265WA0024400243005010024221359
B2033593730375N12154267WA0024300242005010021225359
B2034003730372N12154270WA0024200241005010022225359
B2034013730370N12154273WA0024100240005010026222359
B2034023730367N12154276WA0024100239005010026220359
B2034033730364N12154280WA0024000239005010023227359
B2034043730362N12154283WA0023900238005010018221359
B2034053730360N12154286WA0023900238005010018200359
B2034063730357N12154286WA0024000237005010024188359
B2034073730353N12154286WA0024000236005010027175359
B2034083730350N12154285WA0024000235005010024165359
B2034093730347N12154283WA0024000235005010021152000
B2034103730344N12154281WA0024000234010019020145000
B2034113730342N12154278WA0024000233010019023133000
B2034123730340N12154275WA0023900233010019024126000
B2034133730339N12154270WA0023900232010019026123000
B2034143730337N12154266WA0023800231010019027118000
B2034153730336N12154261WA0023800231010019028112000
B2034163730334N12154252WA0023700230010019037094000
B2034173730333N12154243WA0023600230010019036091000
B2034183730333N12154235WA0023500229010019036090000
B2034203730334N12154226WA0023400228010019033050002
B2034213730338N12154219WA0023200226010019033035004
B2034223730344N12154214WA0023200225005010032029354
B2034233730350N12154210WA0023100225005010032022354
B2034243730358N12154207WA0023000225005010034008334
B2034253730363N12154207WA0023000223005010033355328
B2034263730370N12154207WA0022900222005010031339333
B2034273730375N12154209WA0022900220005010029335348
B2034283730379N12154212WA0022800219005010025331344
B2034293730383N12154214WA0022800218005010023334347
B2034303730386N12154216WA0022700217005010024330346
B2034313730390N12154219WA0022600215005010025319345
B2034323730392N12154223WA0022500214005010026309346
B2034333730395N12154227WA0022400213005010025297345
B2034343730396N12154231WA0022200212005010026285345
B2034353730397N12154237WA0022000211005010026278347
B2034363730397N12154242WA0021800210010019017250348
B2034373730394N12154244WA0021700209010019021197008
B2034383730390N12154245WA0021600208010019026178007
B2034393730385N12154245WA0021600207010019024172006
B2034403730381N12154244WA0021500206010019024166004
B2034413730376N12154242WA0021400205010019027165004
B2034423730371N12154240WA0021200204010019031162003
B2034433730366N12154237WA0021100202010019032159002
B2034443730361N12154234WA0021100201010019031157357
B2034453730357N12154232WA0021000200010019031160358
B2034463730352N12154230WA0021000199010019031167358
B2034473730347N12154227WA0020900197010019030177359
B2034483730343N12154227WA0020900195010019029190359
B2034493730339N12154228WA0020900194010019024206359
B2034503730337N12154230WA0020900193010019018229359
B2034513730336N12154233WA0020800192010019018254359
B2034523730336N12154236WA0020800191010019021280356
B2034533730337N12154240WA0020900191010019020291357
B2034543730338N12154243WA0020900190005010017302000
B2034553730340N12154245WA0020900189005010017318005
B2034563730343N12154246WA0020800190005010019331010
B2034573730348N12154245WA0020800192005010021348011
B2034583730353N12154243WA0020700193005010025008357
B2034593730358N12154242WA0020500193005010024013353
B2035003730362N12154240WA0020400193005010022017342
B2035013730366N12154239WA0020300193005010023016340
B2035023730370N12154238WA0020200192005010026359333
B2035033730374N12154238WA0020100192005010025342335
B2035043730378N12154238WA0019900191005010023335331
B2035053730382N12154238WA0019800190005010022332329
B2035063730385N12154239WA0019600188005010019329329
B2035073730387N12154241WA0019400188005010017316331
B2035083730390N12154242WA0019200186005010020297334
B2035093730391N12154245WA0018900185005010019283337
B2035103730391N12154248WA0018700185005010017265340
B2035113730391N12154251WA0018500184005010016241344
B2035123730388N12154252WA0018400183005010019217347
B2035133730384N12154254WA0018200182005010019221349
B2035143730381N12154255WA0018100181005010023221352
B2035153730378N12154258WA0018100180005010028229353
B2035163730374N12154262WA0017900179005010026231354
B2035173730372N12154265WA0017700178005010019233355
B2035183730370N12154267WA0017600177005010013230356
B2035193730369N12154268WA0017500176005010013249357
B2035203730368N12154270WA0017400175005010014238000
B2035213730366N12154272WA0017300173005010019214000
B2035223730364N12154274WA0017200172005010015208000
B2035233730363N12154275WA0017000169005010003166000
B2035243730363N12154275WA0016900167005010006114000
B2035253730363N12154274WA0016800165005010004110000
B2035263730362N12154273WA0016800163005010002125000
B2035273730362N12154273WA0016800162005010001040000
B2035283730362N12154273WA0016800162005010001136000
B2035293730362N12154273WA0016800162005010001119000
B2035303730362N12154273WA0016800162005010001120000
B2035313730362N12154273WA0016800162010019001133000
B2035323730362N12154273WA0016800162010019000000000
B2035333730362N12154273WA0016800162010019000000000
B2035343730362N12154273WA0016800162010019000000000
B2035353730362N12154273WA0016800162010019000000000
B2035363730362N12154273WA0016800162010019000000000
B2035373730362N12154273WA0016800162010019000000000
B2035383730362N12154273WA0016800162010019000168000
B2035393730362N12154273WA0016800162010019000000000
B2035403730362N12154273WA0016800162010019000000000
B2035413730362N12154273WA0016800162010019000000000
B2035423730362N12154273WA0016800162010019001179000
B2035433730362N12154273WA0016800162010019002051000
B2035443730362N12154273WA0016800162010019002138000
B2035453730362N12154273WA0016800162010019001083000
B2035463730362N12154273WA0016800162010019001094000
B2035473730362N12154273WA0016800162010019001106000
B2035483730362N12154273WA0016800162010019001120000
B2035493730361N12154274WA0016800160010019001094001
B2035503730361N12154273WA0016800159010019001156007
B2035513730361N12154273WA0016800159010019001332007
B2035523730361N12154273WA0016800159010019001342008
B2035533730361N12154273WA0016800158010019001357007
B2035543730361N12154273WA0016800158010019002358007
B2035553730361N12154273WA0016800158010019001021006
B2035563730361N12154274WA0016800157010019001055007
GlTTR0RZFCks0TTMR9Mx2rzdVaYFPtkFnq8GEJS0SIeuV2628GX3MJ7F1uhrtMXBh
Gk2ngjX1w0i29Gvy17OeGo3a4qiyQkqwLxuNGPcKK2UW5Vg+0c2jQ6SmiXcdQHnl6
GN0SEISqKtNvjwe7hXwGgMTJRycg8B58Y/S3gxqrPvKA=

