AXFH000
HFDTE101124
HFPLTPILOT:Scott O’Brien
HFGTYGLIDERTYPE:Ozone Swift 6
HFDTM100GPSDATUM:WGS84
HFRFWFIRMWAREVERSION:8.2.5
HFRHWHARDWAREVERSION:iPhone 15
HFFTYFRTYPE:Flyskyhy,8.2.5
HFGPS:Internal
HFPRSVARIO:Internal Vario
HFCCLCOMPETITIONCLASS:Paraglider
HFTZNTIMEZONE:-3
HFSITSITE:Alto Hospicio,CL
I053638FXA3941VXA4244GSP4547CCO4850HDT
C101124140439101124000105TASK
C0000000N00000000ETAKEOFF
C3832449N11204411W00000000001000000000360000STARTAREA T04
C3832449N11204411W00030009999999000000360000TURNAREA T04
C3833533N11148217W00000000002000000000360000TURNAREA P30
C3845304N11125100W00000000006000000000360000TURNAREA S08
C3913309N11109083W00000000002000000000360000TURNAREA F04
C3935774N11050460W00000000003000000000360000TURNAREA G14
C3935774N11050460W00000000000400000000360000FINISHAREA G14
C0000000N00000000ELANDING
B1405102016421S07006618WA0054600546010019000000010
B1405112016421S07006618WA0054600546010019000004013
B1405122016421S07006618WA0054600546010019000000052
B1405132016421S07006618WA0054600546010019001304103
B1405142016421S07006618WA0054600546005010001301056
B1405152016421S07006618WA0054600546005010002343067
B1405162016421S07006618WA0054600546005010001329096
B1405172016421S07006618WA0054600546005010002278065
B1405182016421S07006618WA0054600546005010002247099
B1405192016421S07006618WA0054600546005010001186047
B1405202016421S07006618WA0054600546005010001219053
B1405212016421S07006618WA0054600546005010001234064
B1405222016421S07006618WA0054600546005010001194072
B1405232016421S07006618WA0054600546005010001096353
B1405242016420S07006619WA0054600546005010001226240
B1405252016420S07006619WA0054600546005010003216272
B1405262016421S07006620WA0054600546005010005232257
B1405272016422S07006622WA0054600546005010009223257
B1405282016424S07006624WA0054500546005010010221272
B1405292016425S07006625WA0054500545005010011224280
B1405302016427S07006627WA0054400545005010013230283
B1405312016428S07006629WA0054400545005010014245296
B1405322016429S07006632WA0054300545005010016258299
B1405332016428S07006636WA0054300542005010020271306
B1405342016427S07006640WA0054300541005010021279303
B1405352016426S07006644WA0054200540005010024291310
B1405362016424S07006647WA0054100540005010021301325
B1405372016422S07006650WA0054100540005010016325337
B1405382016419S07006651WA0054100540005010018344337
B1405392016416S07006652WA0054100539005010020355339
B1405402016412S07006653WA0054100539005010024348334
B1405412016408S07006654WA0054100539005010024348329
B1405422016404S07006655WA0054100538005010024344327
B1405432016401S07006656WA0054100539005010021342337
B1405442016398S07006657WA0054100539005010020346342
B1405452016395S07006658WA0054100539005010020350346
B1405462016392S07006658WA0054100539005010020358338
B1405472016388S07006658WA0054100539005010024353330
B1405482016384S07006659WA0054100539005010028343323
B1405492016380S07006661WA0054000539005010028336323
B1405502016377S07006663WA0054000540005010027330330
B1405512016373S07006665WA0054000540005010024329341
B1405522016370S07006666WA0054100540005010019343339
B1405532016368S07006667WA0054200541005010018359340
B1405542016365S07006667WA0054300541005010020356329
B1405552016362S07006667WA0054400541005010020342321
B1405562016359S07006669WA0054400541005010024328317
B1405572016356S07006671WA0054400541005010025316316
B1405582016354S07006674WA0054300542005010023310313
B1405592016352S07006677WA0054200542005010018314312
B1406002016350S07006678WA0054100542005010017322322
B1406012016348S07006681WA0054000542005010021315305
B1406022016345S07006683WA0054000542005010026306291
B1406032016343S07006687WA0053900542005010027296292
B1406042016341S07006691WA0053700543005010028277287
B1406052016341S07006696WA0053600543005010028276290
B1406062016340S07006700WA0053500543005010027283298
B1406072016339S07006704WA0053400543005010030283288
B1406082016338S07006709WA0053300543005010033285273
B1406092016336S07006715WA0053200543005010034275267
B1406102016336S07006720WA0053100543005010033266263
B1406112016337S07006725WA0053100542005010031259261
B1406122016338S07006730WA0053000542005010031256264
B1406132016339S07006735WA0053000542005010031255267
B1406142016340S07006739WA0052900542005010031257277
B1406152016341S07006744WA0052900542005010031261274
B1406162016341S07006749WA0052800541005010031264273
B1406172016341S07006754WA0052700541005010027263274
B1406182016342S07006758WA0052600541005010026263269
B1406202016342S07006762WA0052600541005010025262280
B1406212016342S07006766WA0052600541005010025264276
B1406222016342S07006770WA0052600541005010028266282
B1406232016342S07006774WA0052500541005010032269267
B1406242016342S07006779WA0052500541005010029271266
B1406252016342S07006783WA0052500542005010022268263
B1406262016342S07006786WA0052600543005010019259254
B1406272016343S07006789WA0052700544005010016232244
B1406282016345S07006791WA0052900545005010019229261
B1406292016347S07006793WA0053100547005010020235261
B1406302016349S07006796WA0053200547005010022236262
B1406312016350S07006799WA0053200548005010024241254
B1406322016352S07006802WA0053200549005010025242262
B1406332016354S07006806WA0053200550005010025243267
B1406342016356S07006809WA0053300551005010024245274
B1406352016357S07006812WA0053400552005010023249270
B1406362016358S07006815WA0053500553005010023252271
B1406372016359S07006819WA0053700554005010024253270
B1406382016360S07006822WA0053800555005010024251260
B1406392016362S07006826WA0054000557005010024249256
B1406402016363S07006829WA0054100558005010024242237
B1406412016365S07006833WA0054300558005010026230240
B1406422016369S07006836WA0054400559005010032215214
B1406432016373S07006839WA0054500561005010035202197
B1406442016378S07006840WA0054600562005010034188177
B1406452016384S07006841WA0054600563005010037174153
B1406462016390S07006840WA0054700563005010044155143
B1406472016396S07006836WA0054800564005010049137122
B1406482016402S07006830WA0054900564005010052127104
B1406492016404S07006823WA0055000565005010041082092
B1406502016398S07006814WA0055100567010019029031058
B1406512016394S07006813WA0055200569010019026011004
B1406522016390S07006812WA0055400570010019025358344
B1406532016386S07006813WA0055400571005010024350331
B1406542016382S07006814WA0055500572005010024341326
B1406552016378S07006816WA0055700573010019024335319
B1406562016375S07006818WA0055800574010019023325303
B1406572016373S07006820WA0056000575010019022315294
B1406582016371S07006824WA0056200577010019022284292
B1406592016371S07006828WA0056300578010019025264269
B1407002016372S07006832WA0056400579010019028252260
B1407012016375S07006836WA0056400580010019032223248
B1407022016380S07006839WA0056500581010019032213229
B1407032016384S07006842WA0056500582005010033200215
B1407042016390S07006843WA0056600583005010036189200
B1407052016396S07006844WA0056600583005010041178186
B1407062016403S07006843WA0056500583005010045167160
B1407072016410S07006841WA0056500583005010046149154
B1407082016415S07006836WA0056500583005010045132127
B1407092016419S07006830WA0056500583005010042113113
B1407102016420S07006824WA0056500583005010039079087
B1407112016418S07006818WA0056600583005010037059055
B1407122016415S07006814WA0056600583005010033041035
B1407132016411S07006811WA0056600584005010031027013
B1407142016407S07006809WA0056700584005010028014356
B1407152016403S07006808WA0056800584005010026004345
B1407162016399S07006808WA0056900585010019026354333
B1407172016395S07006809WA0057000585010019025345328
B1407182016392S07006810WA0057200586010019025335324
B1407192016388S07006812WA0057300586010019025334315
B1407202016385S07006814WA0057400587010019022331303
B1407212016381S07006816WA0057400587010019019315297
B1407222016379S07006819WA0057500587010019024291278
B1407232016378S07006823WA0057500587010019029277280
B1407242016378S07006827WA0057500588005010031256270
B1407252016379S07006832WA0057500588010019028252272
B1407262016381S07006836WA0057500589010019026253276
B1407272016382S07006840WA0057500590010019026255276
B1407282016383S07006844WA0057600591010019027259275
B1407292016383S07006849WA0057700591010019029262279
B1407302016384S07006853WA0057800592010019030264275
B1407312016384S07006858WA0057900593010019028263284
B1407322016385S07006862WA0057900594010019026262272
B1407332016385S07006866WA0058000594010019024263270
B1407342016386S07006870WA0058100595010019025259265
B1407352016387S07006874WA0058200595010019030246242
B1407362016390S07006879WA0058300596010019038229233
B1407372016395S07006883WA0058300595010019040210218
B1407382016401S07006885WA0058300595010019040190200
B1407402016407S07006886WA0058200594010019041173181
B1407412016414S07006884WA0058200594010019043159168
B1407422016419S07006881WA0058100593010019043152154
B1407432016425S07006878WA0058000592010019039139142
B1407442016429S07006874WA0057800591005010036122127
B1407452016432S07006868WA0057700591005010034101105
B1407462016432S07006863WA0057500590005010035081077
B1407472016431S07006858WA0057300589005010033059054
B1407482016428S07006853WA0057100588005010033053047
B1407492016425S07006848WA0057000587005010031057050
B1407502016422S07006844WA0056900586005010031060052
B1407512016419S07006840WA0056800586005010030059053
B1407522016414S07006832WA0056800584005010029056053
B1407532016412S07006828WA0056800584005010030056059
B1407542016410S07006824WA0056800583005010030062057
B1407552016408S07006819WA0056900583005010030068061
B1407562016406S07006815WA0056900583005010026079068
B1407572016406S07006811WA0057000582005010029082067
B1407582016405S07006806WA0057100582005010029079063
B1407592016404S07006802WA0057200582005010028069050
B1408002016402S07006798WA0057200582005010028052037
B1408012016399S07006795WA0057300581005010025034020
B1408022016396S07006794WA0057300581005010022017359
B1408032016393S07006793WA0057300581005010021001347
B1408042016390S07006793WA0057400580005010021355341
B1408052016387S07006794WA0057400580005010021356338
B1408062016383S07006794WA0057500580005010022355344
B1408072016380S07006795WA0057500579005010022348337
B1408082016377S07006796WA0057500579005010024338321
B1408092016373S07006798WA0057400578005010027330323
B1408102016369S07006800WA0057200577005010027326323
B1408112016366S07006803WA0057100577005010027329327
B1408122016362S07006805WA0056900577005010028336332
B1408132016359S07006806WA0056600576005010030342331
B1408142016354S07006808WA0056500576005010029341333
B1408152016350S07006809WA0056400575005010022339332
B1408162016346S07006810WA0056400575005010020344337
B1408172016343S07006811WA0056400575005010021345334
B1408182016339S07006812WA0056400574005010024350333
B1408192016334S07006813WA0056400574005010032334323
B1408202016330S07006816WA0056200573005010034331327
B1408212016324S07006818WA0056000573005010038332332
B1408222016320S07006821WA0055800574005010030331334
B1408232016316S07006823WA0055700574005010024327327
B1408242016313S07006825WA0055700575005010024323325
B1408252016309S07006828WA0055800576005010025323323
B1408262016307S07006830WA0055900577005010027318325
B1408272016303S07006833WA0055900578005010029320323
B1408282016300S07006836WA0056000579005010031322320
B1408292016296S07006839WA0056000580005010027318318
B1408302016293S07006842WA0056000581005010025321331
B1408312016290S07006844WA0056100582005010023327331
B1408322016287S07006846WA0056200583005010023330326
B1408332016284S07006848WA0056300584005010024328317
B1408342016280S07006850WA0056500585005010024328317
B1408352016277S07006852WA0056600586005010023327316
B1408372016274S07006853WA0056700587005010022326315
B1408382016271S07006855WA0056800588005010021326304
B1408392016267S07006857WA0056900589005010022325313
B1408402016264S07006859WA0057000590005010022324318
B1408412016262S07006861WA0057100591005010024318317
B1408422016259S07006864WA0057100592005010024316318
B1408432016256S07006867WA0057000592005010024313311
B1408442016254S07006870WA0056900593005010025310318
B1408452016249S07006877WA0056700594005010026309309
B1408472016245S07006884WA0056300595005010025308312
B1408482016242S07006887WA0056100595005010025309313
B1408492016239S07006890WA0055900596005010026311317
B1408502016237S07006893WA0055800596005010025308318
B1408512016235S07006897WA0055600597005010025308325
B1408522016232S07006900WA0055600597005010029310315
B1408532016230S07006903WA0055400597005010028314327
B1408542016227S07006906WA0055300598005010028314330
B1408552016223S07006909WA0055200598005010027312327
B1408562016220S07006912WA0055100598005010026318323
B1408572016217S07006915WA0055000598005010028319318
B1408582016213S07006918WA0055000599005010035322325
B1408592016208S07006922WA0054900599005010038315315
B1409002016205S07006926WA0054800599005010036307309
B1409012016202S07006931WA0054800600005010032308293
B1409022016199S07006934WA0054800601005010027312334
B1409032016196S07006937WA0054900602005010024307319
B1409042016194S07006940WA0055100603005010025308312
B1409052016192S07006943WA0055200603005010024312315
B1409062016189S07006945WA0055400604005010024322319
B1409072016186S07006947WA0055500605005010022320317
B1409082016184S07006949WA0055500606005010022320317
B1409092016182S07006951WA0055600607005010022322315
B1409102016179S07006953WA0055700608005010023322312
B1409112016176S07006955WA0055800608005010025324318
B1409122016173S07006957WA0055800608005010028321309
B1409132016170S07006960WA0055800609005010030318314
B1409142016167S07006963WA0055800609005010029317314
B1409152016164S07006967WA0055900609005010028315309
B1409162016162S07006970WA0055900609005010028313310
B1409172016159S07006973WA0055900608005010026308304
B1409182016157S07006977WA0056000608005010027306282
B1409192016154S07006980WA0056000609005010025306273
B1409202016152S07006983WA0055900609005010024304276
B1409212016150S07006987WA0055800609005010023291279
B1409222016149S07006991WA0055700609005010027272280
B1409232016150S07006996WA0055500610005010036256271
B1409242016152S07007002WA0055300609005010039250260
B1409252016155S07007009WA0055000608005010041248255
B1409262016158S07007016WA0054800606005010043242247
B1409272016162S07007022WA0054400604005010043232237
B1409282016166S07007027WA0054100602005010042222234
B1409292016173S07007032WA0053800600005010041220230
B1409302016178S07007035WA0053600598005010037222232
B1409312016182S07007040WA0053400596010019036220235
B1409322016187S07007043WA0053300595010019035222229
B1409332016191S07007047WA0053200593010019039213236
B1409342016196S07007051WA0053200591010019039205227
B1409352016202S07007054WA0053100590010019039205228
B1409362016207S07007057WA0053100588010019031208241
B1409372016211S07007059WA0053100587010019026209235
B1409382016214S07007061WA0053200585010019024210224
B1409392016218S07007063WA0053400583010019024210225
B1409402016221S07007066WA0053600581010019028206224
B1409412016225S07007068WA0053800580010019031198213
B1409422016230S07007070WA0054000580010019029199235
B1409432016234S07007071WA0054200579010019028199234
B1409452016238S07007073WA0054400579010019028198264
B1409462016242S07007075WA0054600579010019025205267
B1409472016244S07007077WA0054800579010019018223276
B1409482016245S07007078WA0054900578010019012248299
B1409492016245S07007080WA0054900578010019011301320
B1409502016243S07007081WA0054900577010019014340341
B1409512016240S07007082WA0054800577005010015014357
B1409522016237S07007081WA0054600576010019021032013
B1409532016235S07007078WA0054500576010019022041025
B1409542016232S07007075WA0054500575010019028057032
B1409552016230S07007071WA0054400575010019034061044
B1409562016228S07007064WA0054400574010019032070050
B1409572016226S07007058WA0054400574010019027078058
B1409582016226S07007053WA0054500574010019030122061
B1409592016229S07007048WA0054700574010019030127108
B1410002016233S07007044WA0054800573005010030133114
B1410012016238S07007041WA0054800573005010029140122
B1410022016243S07007039WA0054900571010019034180129
B1410032016250S07007039WA0055000570010019035187189
B1410042016256S07007040WA0055100569010019035189196
B1410052016262S07007042WA0055300569010019033194201
B1410062016268S07007044WA0055500569010019032197210
B1410072016274S07007046WA0055600569010019031208211
B1410082016279S07007049WA0055600568010019034209224
B1410092016285S07007052WA0055600568010019037204215
B1410102016291S07007055WA0055600569010019036200214
B1410112016297S07007057WA0055600568010019034199220
B1410122016301S07007058WA0055600568010019029199226
B1410132016306S07007060WA0055600568010019029205222
B1410142016310S07007063WA0055600568010019031209232
B1410152016314S07007065WA0055600567010019030214234
B1410162016318S07007068WA0055500567010019031219238
B1410172016321S07007072WA0055300566010019026231236
B1410182016324S07007075WA0055200566010019025237244
B1410192016328S07007082WA0055000565010019026227242
B1410202016332S07007085WA0054900565010019031217230
B1410212016336S07007089WA0054800564010019033210220
B1410222016342S07007092WA0054700564010019035202210
B1410232016347S07007094WA0054600563010019036190203
B1410242016353S07007095WA0054500563010019037185197
B1410252016359S07007096WA0054400563010019041187196
B1410262016366S07007097WA0054300562010019043187193
B1410272016373S07007097WA0054100560010019045183189
B1410282016380S07007097WA0053900559005010044177186
B1410292016386S07007097WA0053700558005010044172176
B1410302016394S07007095WA0053500557005010042170176
B1410312016400S07007093WA0053400555005010041170179
B1410322016407S07007092WA0053200554005010041173191
B1410332016414S07007091WA0053000553005010043174204
B1410342016421S07007090WA0052800552005010044175203
B1410352016427S07007090WA0052600551005010043183211
B1410362016433S07007091WA0052600550010019040196217
B1410372016438S07007094WA0052400550010019035224226
B1410382016441S07007099WA0052200549010019032239251
B1410392016443S07007103WA0052100548010019027254263
B1410402016443S07007107WA0051900547010019025273280
B1410412016443S07007111WA0051800546005010025275299
B1410422016443S07007115WA0051700545005010024277305
B1410432016442S07007119WA0051600544005010024280311
B1410442016439S07007120WA0051500543005010020311313
B1410452016434S07007121WA0051400542005010020332341
B1410462016431S07007121WA0051300541005010019345349
B1410472016427S07007121WA0051200539005010019003359
B1410482016423S07007120WA0051000538005010021015007
B1410492016420S07007118WA0050900537005010023027013
B1410502016417S07007116WA0050700536005010024038022
B1410512016414S07007112WA0050500534005010024054023
B1410522016412S07007106WA0050300532005010022054023
B1410532016410S07007102WA0050200531005010019035011
B1410542016408S07007099WA0050100529005010018030008
B1410552016405S07007097WA0050000527005010021020358
B1410562016402S07007096WA0049800525005010025013346
B1410572016398S07007095WA0049600523005010023003334
B1410582016395S07007095WA0049600522005010021348336
B1410592016392S07007096WA0049400521005010019334334
B1411002016390S07007098WA0049300520005010019320327
B1411012016387S07007100WA0049200518005010018323327
B1411022016385S07007102WA0049200517005010016331339
B1411032016382S07007103WA0049200516005010018331330
B1411042016380S07007104WA0049200515005010018340331
B1411052016377S07007105WA0049100514005010019339326
B1411062016374S07007107WA0049000512005010019332323
B1411072016372S07007108WA0048900511005010019325325
B1411082016369S07007111WA0048800509005010020325329
B1411092016367S07007113WA0048600507005010020328331
B1411102016364S07007115WA0048500505005010023330329
B1411112016361S07007117WA0048300503005010026331329
B1411122016357S07007119WA0048000501005010027330325
B1411132016354S07007122WA0047800499005010028322322
B1411142016351S07007125WA0047700497005010027320321
B1411152016348S07007128WA0047600495005010026320321
B1411162016345S07007131WA0047600493005010026323324
B1411172016342S07007134WA0047500491005010027323324
B1411182016339S07007137WA0047400490005010028319317
B1411192016336S07007140WA0047300488005010029316317
B1411202016333S07007143WA0047200486005010029314315
B1411212016330S07007147WA0047000484005010027313319
B1411222016328S07007150WA0046800482005010026314319
B1411232016325S07007153WA0046700480005010025316323
B1411242016322S07007156WA0046600479005010025320326
B1411252016319S07007158WA0046400477005010026323323
B1411262016316S07007161WA0046300475005010028321319
B1411272016312S07007164WA0046200474005010030318317
B1411282016309S07007167WA0046000472005010029313317
B1411292016306S07007170WA0045900471005010024310318
B1411302016304S07007173WA0045800471005010023311306
B1411312016302S07007175WA0045800470005010020314308
B1411322016300S07007178WA0045800469005010020317323
B1411332016298S07007180WA0045900469005010019313309
B1411342016296S07007182WA0045900468005010020307312
B1411352016295S07007185WA0045900467005010018306313
B1411362016293S07007187WA0045800466005010020308310
B1411372016291S07007190WA0045800466005010021312319
B1411382016290S07007192WA0045700465005010022315313
B1411392016287S07007194WA0045600464005010020316313
B1411402016285S07007197WA0045600464005010020317318
B1411412016283S07007199WA0045500463005010021315318
B1411422016281S07007201WA0045500462005010022313311
B1411432016279S07007204WA0045400461005010022310306
B1411442016277S07007206WA0045300460005010022308304
B1411452016275S07007209WA0045200459005010021307304
B1411462016273S07007212WA0045100459005010022304301
B1411472016271S07007215WA0045000458005010023298304
B1411482016270S07007218WA0044900457005010024293295
B1411492016269S07007222WA0044800456005010026289296
B1411512016267S07007226WA0044600456005010026287299
B1411522016266S07007230WA0044500455005010026289304
B1411532016265S07007234WA0044500454005010025287296
B1411542016264S07007237WA0044500454005010024287304
B1411552016263S07007241WA0044500453005010021290308
B1411562016262S07007244WA0044600453005010020296313
B1411572016260S07007247WA0044600452005010022299302
B1411582016258S07007250WA0044600451005010022306307
B1411592016256S07007252WA0044600451005010020311314
B1412002016254S07007255WA0044600450005010020311328
B1412012016251S07007257WA0044700450005010020317333
B1412022016248S07007259WA0044800450005010022330000
B1412032016245S07007261WA0044900449005010025343007
B1412042016241S07007262WA0045100449005010025354021
B1412052016235S07007259WA0045200448010019021037039
B1412062016232S07007257WA0045400448010019020042061
B1412072016230S07007255WA0045500447010019019057062
B1412082016228S07007248WA0045500448005010026081070
B1412092016229S07007243WA0045500447005010030095090
B1412102016232S07007238WA0045500447005010039158103
B1412112016238S07007236WA0045400446005010039164164
B1412122016245S07007234WA0045300445005010040178172
B1412132016251S07007234WA0045300444010019037190184
B1412142016257S07007235WA0045300443010019038194201
B1412152016263S07007236WA0045400443010019034204206
B1412162016268S07007239WA0045500442010019034206219
B1412172016273S07007241WA0045700441010019034212229
B1412182016277S07007245WA0045800441010019033223233
B1412192016281S07007249WA0045800440010019033230250
B1412202016284S07007253WA0046000440010019034236266
B1412212016287S07007258WA0046100440010019032242277
B1412222016289S07007262WA0046200440010019032247288
B1412232016291S07007267WA0046200439010019030261296
B1412242016289S07007271WA0046300439010019026315307
B1412252016286S07007273WA0046400438010019024323340
B1412262016283S07007275WA0046500438010019023329346
B1412272016280S07007278WA0046600437005010021347355
B1412282016276S07007281WA0046600437005010021015006
B1412292016272S07007280WA0046700437005010020026023
B1412302016268S07007279WA0046700437005010018057031
B1412312016266S07007274WA0046700436005010023080048
B1412322016264S07007267WA0046700437005010027090069
B1412332016265S07007261WA0046700437005010034124080
B1412342016268S07007256WA0046700436010019035124116
B1412352016271S07007252WA0046700435010019035124116
B1412362016274S07007247WA0046800434010019034126116
B1412372016277S07007243WA0046800434010019031132117
B1412382016280S07007238WA0046900434010019025137122
B1412392016284S07007236WA0047000434010019021147123
B1412402016288S07007234WA0047200433010019020159131
B1412412016291S07007233WA0047300433010019019169147
B1412422016298S07007234WA0047400434010019018170162
B1412432016304S07007234WA0047400434010019015170163
B1412442016309S07007234WA0047400434010019010167158
B1412452016312S07007235WA0047500435010019006158129
B1412462016313S07007237WA0047500434010019003107061
B1412472016313S07007237WA0047500434005010004022025
B1412482016309S07007248WA0047500436005010009014029
B1412492016304S07007256WA0047500437005010015024025
B1412502016296S07007260WA0047500437005010020033031
B1412512016290S07007261WA0047500436005010021051039
B1412522016286S07007260WA0047400436005010024068051
B1412532016283S07007258WA0047300436005010028081064
B1412542016281S07007254WA0047300436005010032092075
B1412552016280S07007247WA0047300437005010031099087
B1412562016281S07007241WA0047200438005010035130093
B1412572016285S07007236WA0047200438005010040146123
B1412582016290S07007234WA0047200438005010039159142
B1412592016295S07007232WA0047300438005010036170158
B1413002016301S07007232WA0047300438005010035179171
B1413012016306S07007232WA0047300438005010034189182
B1413022016311S07007234WA0047400437005010034194195
B1413032016315S07007236WA0047500437005010033205202
B1413042016319S07007239WA0047500437005010032223214
B1413052016323S07007243WA0047600437005010033245235
B1413062016325S07007248WA0047600437005010033247264
B1413072016327S07007253WA0047600436005010033251269
B1413082016328S07007259WA0047600436005010028281273
B1413092016328S07007265WA0047600436005010025298304
B1413102016326S07007269WA0047600436005010026308324
B1413122016323S07007273WA0047600436005010026320336
B1413132016320S07007275WA0047500435005010024335345
B1413142016316S07007276WA0047400435010019024000356
B1413152016311S07007276WA0047300434010019023023012
B1413162016308S07007274WA0047200434010019026032029
B1413172016305S07007272WA0047100433010019026037039
B1413182016303S07007269WA0047000433010019028050043
B1413192016300S07007266WA0047000433005010026075052
B1413202016298S07007261WA0046900433005010031100070
B1413212016299S07007253WA0046900433005010036118093
B1413222016302S07007247WA0046800432005010035130110
B1413232016305S07007241WA0046800432010019035136126
B1413242016308S07007237WA0046700432010019034138134
B1413252016312S07007233WA0046700432010019034143142
B1413262016316S07007229WA0046700431010019034151154
B1413272016321S07007227WA0046700430010019034160158
B1413282016326S07007226WA0046600430010019033173169
B1413292016331S07007225WA0046600429010019036182186
B1413302016336S07007226WA0046500429005010035191196
B1413312016341S07007228WA0046500428005010035200206
B1413322016346S07007230WA0046400428005010036209219
B1413332016351S07007233WA0046300427005010035216234
B1413342016355S07007237WA0046200426005010034223240
B1413352016359S07007241WA0046200425005010034227246
B1413362016362S07007245WA0046100425005010029243252
B1413372016363S07007249WA0046100424005010024267267
B1413382016362S07007253WA0045900423005010024294289
B1413392016361S07007256WA0045800422005010023304312
B1413402016357S07007260WA0045600421005010025321324
B1413412016353S07007264WA0045600421005010024325335
B1413422016348S07007267WA0045500420005010024328337
B1413432016344S07007271WA0045400420005010026330341
B1413442016338S07007273WA0045200420005010030336343
B1413452016333S07007274WA0045200419005010035352348
B1413462016327S07007275WA0045000418005010034351354
B1413472016317S07007275WA0044800417005010029359354
B1413482016312S07007274WA0044600418005010028355352
B1413492016308S07007274WA0044500418005010027357347
B1413502016303S07007274WA0044500418005010028004349
B1413512016299S07007273WA0044300419005010028007358
B1413522016295S07007272WA0044300418005010027007003
B1413532016291S07007272WA0044300418005010023008357
B1413542016287S07007271WA0044300418005010024014010
B1413552016284S07007270WA0044300417005010026020010
B1413562016280S07007268WA0044200417005010027018003
B1413572016276S07007267WA0044200417005010026007355
B1413582016272S07007266WA0044200417005010025355347
B1413592016269S07007267WA0044100417005010025351347
B1414002016265S07007267WA0044000416005010025353351
B1414012016261S07007268WA0043800416005010025352351
B1414022016257S07007268WA0043700415005010026351351
B1414032016253S07007269WA0043700415005010027350339
B1414042016249S07007269WA0043600414005010028350346
B1414052016246S07007270WA0043400414005010024352348
B1414062016242S07007270WA0043300413005010023353351
B1414072016239S07007270WA0043300413005010023355000
B1414082016236S07007270WA0043200412005010022356007
B1414092016232S07007270WA0043100412005010023001359
B1414102016229S07007270WA0043000411005010023004004
B1414112016226S07007270WA0043000411005010022359359
B1414122016223S07007270WA0043000411005010021351354
B1414132016220S07007271WA0043000410005010021346003
B1414142016217S07007271WA0042900410005010023350357
B1414152016213S07007272WA0042900410005010025354003
B1414162016210S07007272WA0042900410005010026349342
B1414172016206S07007273WA0042800409005010025345344
B1414182016202S07007274WA0042700409005010025349357
B1414192016199S07007274WA0042700408005010024354001
B1414202016195S07007274WA0042600408005010025356354
B1414212016191S07007274WA0042500407005010027352334
B1414222016187S07007275WA0042300407005010031339310
B1414232016182S07007278WA0042300407005010032319300
B1414242016180S07007282WA0042100407005010029281292
B1414252016180S07007286WA0041800407005010027267269
B1414262016182S07007290WA0041600407005010030238264
B1414272016184S07007294WA0041400407005010029235238
B1414292016187S07007298WA0041400407005010030231245
B1414302016191S07007302WA0041200407005010038229233
B1414312016195S07007307WA0041100407005010039227228
B1414322016199S07007311WA0040900407005010040224219
B1414332016203S07007316WA0040900407005010039218211
B1414342016208S07007319WA0040700407010019031210204
B1414352016212S07007322WA0040500407010019031206201
B1414362016218S07007324WA0040400407010019035195202
B1414372016223S07007325WA0040400407010019039194199
B1414382016230S07007327WA0040200407010019041193186
B1414392016236S07007328WA0040000406010019041191191
B1414402016242S07007329WA0039700406010019038188185
B1414412016248S07007329WA0039700405010019039187181
B1414422016254S07007330WA0039500405010019038186186
B1414432016260S07007331WA0039200405010019038186191
B1414442016266S07007331WA0039000405010019036187181
B1414452016277S07007332WA0038800404010019036182170
B1414472016289S07007331WA0038700404005010037173181
B1414492016300S07007329WA0038300404005010036184207
B1414512016312S07007331WA0038000404010019039199212
B1414522016318S07007333WA0037700404010019038199218
B1414532016323S07007335WA0037300404010019036216217
B1414542016328S07007338WA0037300404010019045222221
B1414562016338S07007347WA0036300404010019043222235
B1414572016342S07007350WA0035900403010019041222237
B1414582016346S07007354WA0035900403010019040223230
B1414592016351S07007358WA0035500402010019040226232
B1415002016355S07007363WA0035100402010019041227231
B1415012016359S07007367WA0034800402010019041224227
B1415022016364S07007371WA0034800401010019041220227
B1415032016368S07007375WA0034600400010019039220218
B1415042016372S07007379WA0034400400010019037223231
B1415052016376S07007383WA0034200400010019036228241
B1415062016380S07007387WA0034200399010019038230241
B1415072016384S07007392WA0034100398010019041229243
B1415082016388S07007397WA0033900398010019042227243
B1415092016392S07007401WA0033700397010019042227244
B1415102016396S07007406WA0033700396010019040229243
B1415112016400S07007411WA0033600395010019034234250
B1415122016403S07007415WA0033400394010019035236250
B1415132016405S07007419WA0033200392010019038238247
B1415142016408S07007424WA0033200391010019040242243
B1415152016410S07007429WA0033000389005010040242257
B1415162016413S07007434WA0032800388005010039238252
B1415172016416S07007439WA0032700387005010039236245
B1415182016419S07007444WA0032700386005010038235248
B1415192016422S07007449WA0032400384005010038237249
B1415202016425S07007454WA0032200382005010039239250
B1415212016428S07007460WA0032000381005010040242254
B1415222016431S07007465WA0031800379005010039242252
B1415232016434S07007470WA0031800377005010036241255
B1415242016436S07007475WA0031600375005010034240257
B1415252016438S07007479WA0031400373005010032239258
B1415262016441S07007483WA0031300371005010031240255
B1415272016443S07007488WA0031300370005010032241255
B1415282016445S07007492WA0031100368005010033241252
B1415292016447S07007496WA0031000365005010033238249
B1415302016450S07007500WA0030900363005010033233247
B1415312016453S07007505WA0030900361005010033232243
B1415322016456S07007509WA0030700359005010033233249
B1415332016459S07007513WA0030500357005010034235247
B1415342016462S07007517WA0030300356005010034235246
B1415352016466S07007521WA0030300354005010035235245
B1415362016469S07007526WA0030200352005010035235247
B1415372016472S07007530WA0030000350005010035235247
B1415382016475S07007534WA0029700349005010036237252
B1415392016478S07007539WA0029700347005010036237250
B1415402016481S07007544WA0029500345005010034236245
B1415412016484S07007548WA0029300344005010033235245
B1415422016487S07007551WA0029200342005010032232237
B1415432016490S07007555WA0029200340005010031230237
B1415442016493S07007559WA0029000338005010033227233
B1415452016497S07007563WA0028900336005010035224228
B1415462016501S07007566WA0028800334005010036220228
B1415472016505S07007569WA0028800332005010034215223
B1415482016509S07007572WA0028700330005010031213224
B1415492016513S07007574WA0028700328005010030213226
B1415502016517S07007577WA0028600327005010031213219
B1415512016521S07007580WA0028600325005010032213215
B1415522016525S07007582WA0028500323005010033210215
B1415532016530S07007585WA0028500322005010034207220
B1415542016534S07007588WA0028300320005010033206217
B1415552016539S07007591WA0028300315005010034209226
B1415562016543S07007594WA0028100311005010035213225
B1415572016548S07007597WA0027900307005010035213225
B1415582016552S07007600WA0027600303005010034211220
B1415592016557S07007602WA0027600299005010035208219
B1416002016562S07007605WA0027300296005010036206219
B1416012016566S07007608WA0027000293010019036206224
B1416022016571S07007610WA0026800290005010036205221
B1416032016576S07007612WA0026800287005010035206225
B1416042016580S07007615WA0026500285005010034207218
B1416052016585S07007617WA0026400282005010034207224
B1416062016589S07007620WA0026200280005010034205220
B1416072016594S07007622WA0026000278005010036202211
B1416082016599S07007624WA0026000275005010036201210
B1416092016604S07007626WA0025900273010019035200210
B1416102016609S07007628WA0025800271010019034197212
B1416112016614S07007630WA0025700269010019034194209
B1416122016619S07007631WA0025700267005010036196207
B1416132016625S07007633WA0025600265005010040198208
B1416142016631S07007635WA0025500264005010041197212
B1416152016636S07007637WA0025400262005010037195205
B1416162016641S07007638WA0025400261005010034192207
B1416172016646S07007639WA0025300260005010031191210
B1416182016650S07007640WA0025200259005010031193204
B1416192016655S07007642WA0025100258005010034195208
B1416202016660S07007643WA0025000256005010037193203
B1416212016666S07007645WA0024900255005010038188202
B1416222016671S07007646WA0024800253005010036188207
B1416232016677S07007647WA0024600252005010034190209
B1416242016681S07007648WA0024500251005010032190213
B1416252016686S07007649WA0024500250005010032188206
B1416262016691S07007650WA0024300248005010033189207
B1416272016696S07007650WA0024200247005010032190211
B1416282016701S07007651WA0024100246010019031190208
B1416292016705S07007652WA0024000245005010030191205
B1416302016709S07007654WA0023800243005010030193202
B1416312016714S07007655WA0023600242005010034195194
B1416322016719S07007656WA0023400240010019037191201
B1416332016725S07007657WA0023200239005010036186191
B1416342016730S07007658WA0023200237005010034182195
B1416352016735S07007658WA0023000236005010033182196
B1416362016740S07007659WA0022900234010019033186197
B1416372016745S07007659WA0022700233010019034186190
B1416382016751S07007660WA0022600232005010036176180
B1416402016756S07007659WA0022500231005010034165168
B1416412016761S07007657WA0022400230005010034159163
B1416422016766S07007655WA0022400229005010033156165
B1416432016771S07007653WA0022300229005010033156169
B1416442016775S07007651WA0022300228005010034156173
B1416452016780S07007648WA0022300227005010034151158
B1416462016784S07007646WA0022300227005010031144159
B1416472016788S07007643WA0022300226005010030145168
B1416482016792S07007641WA0022300226005010033150165
B1416492016797S07007638WA0022300225005010036152169
B1416502016802S07007635WA0022200225005010037155173
B1416512016807S07007633WA0022200224005010035157177
B1416522016811S07007631WA0022200224005010032158179
B1416532016821S07007628WA0022200223005010031163172
B1416542016825S07007627WA0022200223005010031166179
B1416552016830S07007626WA0022200222005010031173183
B1416562016834S07007626WA0022100222005010034179192
B1416572016839S07007625WA0022100221005010031178196
B1416582016844S07007625WA0022100221005010028174198
B1416592016848S07007625WA0022000221005010028174195
B1417002016852S07007624WA0022000221005010028175196
B1417012016856S07007624WA0022000221005010029179197
B1417022016861S07007624WA0022000221005010030181191
B1417032016865S07007624WA0022000220005010032183197
B1417042016870S07007625WA0022000220005010032184192
B1417052016875S07007625WA0021900220005010032188196
B1417062016880S07007626WA0021800219005010031190202
B1417072016884S07007627WA0021700219005010032186199
B1417082016889S07007627WA0021600219005010031182187
B1417092016894S07007628WA0021500219005010030180187
B1417102016898S07007628WA0021500218005010029179194
B1417112016903S07007628WA0021400218005010029179188
B1417122016907S07007628WA0021400218005010030181187
B1417132016912S07007628WA0021400218005010028179189
B1417142016916S07007628WA0021300218005010025175190
B1417152016919S07007628WA0021300217005010025171190
B1417162016923S07007627WA0021300217005010026171194
B1417172016927S07007627WA0021300217005010027178195
B1417182016931S07007627WA0021200217005010029186203
B1417192016936S07007627WA0021200217005010033184208
B1417202016940S07007628WA0021100217005010028184203
B1417212016944S07007628WA0021100218005010023187205
B1417222016947S07007628WA0021100218005010023187206
B1417232016951S07007629WA0021100219005010026187198
B1417242016955S07007630WA0021100219005010028188188
B1417252016959S07007630WA0021200219005010029181192
B1417262016963S07007630WA0021300220005010027180189
B1417272016967S07007630WA0021400220005010025181197
B1417282016971S07007631WA0021400221005010025183197
B1417292016975S07007631WA0021500221005010026192193
B1417302016979S07007632WA0021500222005010027191190
B1417312016983S07007633WA0021500222005010025186185
B1417322016987S07007633WA0021500222005010025174172
B1417332016991S07007633WA0021400223005010026171181
B1417342016995S07007632WA0021400223005010028180193
B1417352016999S07007633WA0021200224005010028186215
B1417362017004S07007634WA0021100224005010036202229
B1417372017008S07007637WA0021100224005010029221249
B1417382017010S07007640WA0021000224010019027241265
B1417392017012S07007644WA0020900225010019025242281
B1417402017014S07007647WA0020800225010019025243285
B1417412017015S07007650WA0020700225010019023243287
B1417422017016S07007653WA0020700225010019021243289
B1417432017018S07007657WA0020600224010019021246289
B1417442017019S07007660WA0020500224010019018246288
B1417452017018S07007664WA0020300224010019015261286
B1417462017017S07007667WA0020200224010019013273296
B1417472017012S07007670WA0020000224010019013288303
B1417482017006S07007672WA0019800223010019015299309
B1417492016965S07007655WA0019500179010019035008314
B1417502016960S07007654WA0019300177010019035005000
B1417512016954S07007653WA0019000176010019033004357
B1417522016949S07007653WA0018800175005010031004355
B1417532016945S07007653WA0018600174005010028002352
B1417542016941S07007652WA0018400172005010029358348
B1417552016937S07007653WA0018200171005010031358345
B1417562016932S07007653WA0018100170005010033359350
B1417572016927S07007653WA0017900168005010034000351
B1417582016922S07007652WA0017900166005010034359344
B1417592016917S07007652WA0017700164005010031000347
B1418002016913S07007653WA0017500163005010030357336
B1418012016908S07007653WA0017300161005010031354332
B1418022016903S07007653WA0017200160005010030354333
B1418032016899S07007654WA0017200158005010029356330
B1418042016895S07007654WA0017100156005010028359339
B1418052016891S07007654WA0017000155005010025353335
B1418062016887S07007655WA0017000155005010025352321
B1418072016884S07007655WA0017000154005010025352323
B1418082016880S07007656WA0017000154005010024349321
B1418092016877S07007656WA0017000153005010023347321
B1418102016873S07007657WA0017000152005010021343319
B1418112016870S07007658WA0017000152005010021341321
B1418122016867S07007659WA0017000151005010022347332
B1418132016864S07007660WA0017000151005010023347346
B1418142016861S07007661WA0016900150005010023345318
B1418152016858S07007661WA0016900149005010023354352
B1418162016854S07007662WA0016800149005010024355329
B1418172016851S07007663WA0016700148005010025343327
B1418182016847S07007664WA0016500147005010026345322
B1418192016843S07007665WA0016400146005010026343323
B1418202016840S07007666WA0016400145005010026343324
B1418222016836S07007667WA0016200144005010026343327
B1418232016832S07007669WA0016000143005010027344334
B1418242016828S07007670WA0015900142005010028345345
B1418252016824S07007671WA0015700141005010029351338
B1418262016820S07007671WA0015600141005010027359343
B1418272016816S07007671WA0015500139005010025358329
B1418282016812S07007672WA0015300138005010025356320
B1418292016808S07007673WA0015200137005010025337314
B1418302016805S07007674WA0015100136005010025330313
B1418312016802S07007676WA0014900135005010024326312
B1418322016799S07007679WA0014800134005010022325315
B1418332016796S07007681WA0014800133005010022326314
B1418342016794S07007683WA0014700132005010023326318
B1418352016791S07007685WA0014700132005010023324318
B1418362016788S07007687WA0014600131005010024321304
B1418372016786S07007689WA0014600130005010024320314
B1418382016783S07007692WA0014400129005010027323320
B1418392016778S07007695WA0014300128005010041329325
B1418402016773S07007699WA0014300126005010041331315
B1418412016767S07007702WA0014100125005010038332312
B1418422016763S07007704WA0013900124005010036331307
B1418432016759S07007707WA0013800123005010030325314
B1418442016755S07007710WA0013700122005010032325310
B1418452016751S07007713WA0013700121005010033323307
B1418462016747S07007717WA0013600120005010035321308
B1418472016743S07007720WA0013500118005010036321315
B1418482016738S07007724WA0013400117005010038329324
B1418492016733S07007727WA0013300116005010037333320
B1418502016728S07007729WA0013200116005010036335320
B1418512016723S07007732WA0013100115005010036334318
B1418522016718S07007734WA0013100115005010037331311
B1418532016713S07007737WA0013000114005010039334318
B1418542016708S07007740WA0012900113005010039335314
B1418552016702S07007743WA0012800112005010039337312
B1418562016697S07007745WA0012600111005010038335315
B1418572016692S07007747WA0012600110005010038335317
B1418582016686S07007750WA0012500109005010040338313
B1418592016681S07007752WA0012300108005010040339317
B1419002016675S07007754WA0012200107005010037340307
B1419012016671S07007756WA0012200106005010028336307
B1419022016667S07007758WA0012200106005010024338307
B1419032016663S07007759WA0012200106005010025338311
B1419042016659S07007761WA0012300106005010026336310
B1419052016656S07007762WA0012300106005010028334311
B1419062016652S07007764WA0012400106005010028336316
B1419072016648S07007766WA0012400106005010026337317
B1419082016644S07007767WA0012300106005010026336320
B1419092016640S07007769WA0012300106005010026335322
B1419102016636S07007770WA0012300106005010027336322
B1419112016632S07007772WA0012200105005010029339318
B1419122016624S07007775WA0012200105005010030337318
B1419132016620S07007777WA0012200105005010027333319
B1419142016616S07007779WA0012100104005010026334319
B1419152016612S07007781WA0012000104005010027332312
B1419162016609S07007783WA0012000103005010028335308
B1419172016605S07007785WA0011800102005010028327310
B1419182016602S07007789WA0011700101005010030290305
B1419192016602S07007793WA0011400100005010028256285
B1419202016604S07007797WA0011100099005010022247259
B1419212016605S07007800WA0010900098005010019248255
B1419222016606S07007803WA0010600098005010016259256
B1419232016607S07007805WA0010500097005010017258260
B1419242016608S07007808WA0010500096005010019244259
B1419252016610S07007811WA0010400095005010022231252
B1419262016612S07007813WA0010300095005010019211241
B1419272016614S07007814WA0010200094005010014195227
B1419282016616S07007814WA0010100093005010009185225
B1419292016618S07007815WA0010100093005010008202232
B1419302016619S07007815WA0010100092005010014208225
B1419312016622S07007817WA0010100091005010023202217
B1419322016625S07007818WA0010100091005010022190208
B1419332016628S07007818WA0010100090005010017170204
B1419342016630S07007817WA0010000090005010015156205
B1419352016632S07007816WA0010000090005010015162202
B1419362016635S07007815WA0010100089005010019173198
B1419372016638S07007815WA0010100089005010021175195
B1419382016641S07007814WA0010100088005010022159189
B1419392016644S07007812WA0010100088005010022147178
B1419402016647S07007811WA0010100088005010021139175
B1419422016649S07007808WA0010100087005010021140202
B1419432016651S07007806WA0010100087005010020146213
B1419442016654S07007805WA0010100087005010020161232
B1419452016656S07007804WA0010100086005010016178254
B1419462016658S07007805WA0010000086005010009228256
B1419472016659S07007808WA0009800086005010012264256
B1419482016658S07007811WA0009700085005010017296242
B1419492016656S07007814WA0009700085005010015275240
B1419502016656S07007816WA0009700084005010014240227
B1419512016657S07007817WA0009500083005010018162225
B1419522016660S07007816WA0009400083005010019154198
B1419532016662S07007813WA0009300082005010021135190
B1419542016664S07007811WA0009300082005010022130178
B1419552016665S07007807WA0009300082005010027132173
B1419562016669S07007804WA0009300082005010034141179
B1419572016676S07007799WA0009300080005010024152195
B1419582016679S07007797WA0009300080005010022155217
B1419592016681S07007796WA0009300079005010016172227
B1420002016683S07007796WA0009300079005010016172237
B1420012016685S07007796WA0009300078005010009178234
B1420022016686S07007796WA0009300077010019008213247
B1420032016687S07007799WA0009300076005010011276259
B1420042016685S07007801WA0009300075010019011341275
B1420052016682S07007802WA0009200074005010029005295
B1420062016677S07007803WA0009100074005010035352327
B1420072016670S07007806WA0009000073005010033337314
B1420082016664S07007810WA0008900073005010031316301
B1420092016660S07007814WA0008800072005010025300284
B1420102016658S07007817WA0008800072005010012263271
B1420112016657S07007819WA0008800071005010011179245
B1420122016659S07007819WA0008700071005010017149204
B1420132016661S07007817WA0008700071005010024134184
B1420142016663S07007814WA0008600070005010026136174
B1420152016666S07007811WA0008600070005010025146179
B1420162016669S07007809WA0008600070005010025151189
B1420172016672S07007807WA0008600069005010024152192
B1420182016674S07007806WA0008600069005010022151191
B1420192016677S07007804WA0008500069005010021150193
B1420202016679S07007802WA0008500069005010021147190
B1420212016681S07007800WA0008600069005010022147187
B1420222016684S07007799WA0008600069005010023142193
B1420232016686S07007796WA0008600069005010021139188
B1420242016688S07007794WA0008700068005010019136194
B1420252016690S07007792WA0008800068005010019132203
B1420262016692S07007790WA0008800068005010017144193
B1420272016694S07007789WA0008800068005010017163197
B1420282016697S07007789WA0008700068005010022164194
B1420292016700S07007787WA0008600068005010022150193
B1420302016703S07007785WA0008500067005010021145192
B1420312016704S07007784WA0008300067005010017145199
B1420322016707S07007782WA0008300067005010014156206
B1420332016709S07007782WA0008300067005010017167201
B1420342016712S07007781WA0008200066005010021166198
B1420352016714S07007780WA0008100066005010020157195
B1420362016717S07007779WA0008000066005010016157202
B1420372016719S07007779WA0007900065005010018160205
B1420382016722S07007778WA0007800065005010019170201
B1420392016725S07007778WA0007700064005010022174197
B1420402016728S07007777WA0007500064005010022158200
B1420412016731S07007776WA0007400064005010020150200
B1420422016733S07007774WA0007400064005010017151206
B1420432016735S07007773WA0007300063005010016160205
B1420442016738S07007773WA0007300063005010017166201
B1420452016740S07007772WA0007200063005010019155194
B1420462016743S07007771WA0007200062005010018143193
B1420472016745S07007769WA0007200062005010015133201
B1420482016746S07007767WA0007200062005010015136203
B1420492016748S07007766WA0007100061005010017147195
B1420502016751S07007765WA0007100061005010018157191
B1420512016753S07007764WA0007100061005010017165201
B1420522016755S07007763WA0007000061005010013163207
B1420532016756S07007762WA0007000060005010012158206
B1420542016758S07007761WA0007000060005010013156202
B1420552016760S07007760WA0007000060005010015160204
B1420562016762S07007760WA0007000060005010015167200
B1420572016764S07007759WA0007100060005010014174220
B1420582016766S07007759WA0007100060005010014180224
B1420592016768S07007759WA0007100059005010012185221
B1421002016770S07007760WA0007100059005010006237226
B1421012016770S07007761WA0007100059005010007281237
B1421022016770S07007763WA0007100059005010010295248
B1421032016769S07007765WA0007100058005010014296261
B1421042016768S07007768WA0007100058005010016299265
B1421052016767S07007771WA0007100058005010018308274
B1421072016764S07007775WA0007100057005010019317276
B1421082016762S07007777WA0007000057005010020318281
B1421092016760S07007780WA0007000056005010018315277
B1421102016758S07007782WA0006900056005010018315275
B1421112016755S07007784WA0006900055005010020319282
B1421122016752S07007786WA0006800055005010021322282
B1421132016750S07007788WA0006800054005010022322278
B1421142016747S07007791WA0006700054005010022319276
B1421152016744S07007793WA0006600054005010021317272
B1421162016742S07007796WA0006600053005010020315272
B1421172016740S07007798WA0006500053005010019315266
B1421182016738S07007800WA0006500052005010017311251
B1421192016737S07007801WA0006500052005010014300239
B1421202016736S07007803WA0006400051005010011272238
B1421212016739S07007806WA0006400050005010012218223
B1421222016741S07007807WA0006300049005010011200213
B1421232016743S07007807WA0006300049005010014164207
B1421242016745S07007806WA0006200049005010019150195
B1421252016748S07007805WA0006200048005010019158202
B1421262016751S07007803WA0006200048005010018168207
B1421272016754S07007803WA0006200047005010018170211
B1421282016756S07007802WA0006200047005010019161206
B1421292016759S07007801WA0006200047005010021156197
B1421302016762S07007799WA0006100046005010021154197
B1421312016765S07007797WA0006100046005010021153199
B1421322016768S07007796WA0006000045005010021148197
B1421332016771S07007793WA0005900045005010021143190
B1421342016774S07007791WA0005900044005010023137189
B1421352016777S07007789WA0005900044005010025134187
B1421362016780S07007786WA0005900044005010028135181
B1421372016783S07007783WA0005800043005010027137190
B1421382016786S07007780WA0005800043005010024139187
B1421392016789S07007778WA0005800042005010022143188
B1421402016792S07007776WA0005700042005010023150183
B1421412016795S07007774WA0005700042005010022155184
B1421422016798S07007773WA0005700042005010019157195
B1421432016801S07007772WA0005700042005010018154196
B1421442016803S07007770WA0005700042005010020154188
B1421452016806S07007769WA0005700042005010025153189
B1421462016810S07007767WA0005700042005010027147188
B1421472016813S07007765WA0005600042005010028138180
B1421482016817S07007762WA0005600042005010026137184
B1421492016819S07007760WA0005600042005010025142187
B1421502016823S07007758WA0005600043005010027148187
B1421512016826S07007756WA0005600043005010028152187
B1421522016830S07007754WA0005600043005010027154187
B1421532016833S07007752WA0005500043005010026152190
B1421542016836S07007750WA0005500044005010023150191
B1421552016839S07007748WA0005500044005010023144191
B1421562016842S07007746WA0005600045005010023144184
B1421572016845S07007744WA0005600045005010023151192
B1421582016848S07007742WA0005600046005010022158193
B1421592016851S07007741WA0005700046005010024158190
B1422002016854S07007739WA0005700047005010025148179
B1422012016857S07007737WA0005700047005010026136170
B1422022016860S07007734WA0005800048005010025133178
B1422032016862S07007732WA0005800048005010024140192
B1422042016865S07007730WA0005900048005010021156196
B1422052016868S07007729WA0005900049005010021166203
B1422062016872S07007728WA0006000049005010018172205
B1422072016874S07007728WA0006000050005010014175206
B1422082016876S07007728WA0006000050005010013167207
B1422092016878S07007727WA0006100051005010014162204
B1422102016880S07007727WA0006100051005010016161197
B1422112016882S07007726WA0006200052005010020160188
B1422122016885S07007725WA0006200052005010023156193
B1422132016889S07007723WA0006200053005010023150188
B1422142016892S07007721WA0006200053005010022146196
B1422152016894S07007720WA0006200053005010019153202
B1422162016897S07007719WA0006200053005010017170201
B1422172016900S07007719WA0006100053005010019176203
B1422182016903S07007718WA0006100054005010022163193
B1422192016906S07007717WA0006100054005010023160189
B1422202016909S07007716WA0006100054005010021158201
B1422212016912S07007715WA0006100054005010020161201
B1422222016915S07007713WA0006100055005010021160197
B1422232016918S07007712WA0006200055005010022156196
B1422242016921S07007711WA0006200055005010022154191
B1422262016924S07007709WA0006200055005010022157202
B1422272016927S07007708WA0006300056005010020169213
B1422282016930S07007708WA0006300056005010019176223
B1422292016933S07007708WA0006300056005010018195230
B1422302016935S07007709WA0006300056005010012219234
B1422312016936S07007711WA0006200056005010017270240
B1422322016935S07007714WA0006200056005010020285263
B1422332016934S07007717WA0006200056005010019287256
B1422342016933S07007720WA0006200056005010018283258
B1422352016932S07007724WA0006200056005010020274248
B1422362016932S07007727WA0006100056005010020261242
B1422372016933S07007730WA0006100056005010019248236
B1422382016934S07007733WA0006000056005010018226222
B1422392016936S07007735WA0005900056005010017210220
B1422402016939S07007736WA0005900056005010018209236
B1422412016941S07007738WA0005800056005010016218255
B1422422016942S07007739WA0005800056005010015238259
B1422432016943S07007742WA0005700055005010017280266
B1422442016942S07007744WA0005600055005010022305276
B1422452016939S07007748WA0005600055005010026310289
B1422462016936S07007751WA0005500055005010026315297
B1422472016933S07007754WA0005400055005010024327311
B1422482016930S07007756WA0005400054005010025329315
B1422492016926S07007758WA0005300054005010031328321
B1422502016921S07007760WA0005200054005010040356322
B1422512016914S07007759WA0005000053005010043004345
B1422522016907S07007758WA0004800053005010043006354
B1422532016901S07007757WA0004600052005010040011357
B1422542016895S07007756WA0004400051005010038012352
B1422552016888S07007755WA0004300050005010040010356
B1422562016882S07007754WA0004200048005010046009347
B1422572016874S07007753WA0004100047005010048007346
B1422582016867S07007752WA0004000046005010045008349
B1422592016861S07007751WA0003900045005010039001344
B1423002016850S07007751WA0003900043005010034359334
B1423012016845S07007751WA0003900041005010038000345
B1423022016839S07007751WA0003900040005010042358335
B1423032016833S07007752WA0003900039005010041349323
B1423042016827S07007753WA0003900039005010034343310
B1423052016822S07007755WA0003900039005010029343304
B1423062016818S07007756WA0003900039005010030341299
B1423072016814S07007758WA0004000039005010031338297
B1423082016810S07007760WA0004000039005010031338296
B1423092016805S07007762WA0004100040005010029338291
B1423102016802S07007763WA0004200040005010025328288
B1423112016799S07007766WA0004300040005010024323292
B1423122016796S07007768WA0004400041005010025323291
B1423132016793S07007770WA0004500041005010024325275
B1423142016790S07007772WA0004600041005010022321258
B1423152016788S07007775WA0004700042005010015298244
B1423162016789S07007776WA0004800042005010016206228
B1423172016792S07007776WA0004800042005010022173194
B1423182016795S07007775WA0004900043005010023171184
B1423192016799S07007774WA0004900043005010024153177
B1423202016802S07007772WA0004900044005010024153185
B1423222016805S07007770WA0005000044005010022152204
B1423232016811S07007769WA0005000045005010017200224
B1423242016813S07007771WA0005000045005010017220243
B1423252016815S07007773WA0004900046005010017232252
B1423262016816S07007775WA0004700046005010016253255
B1423272016816S07007777WA0004600046010019008278263
B1423282016815S07007778WA0004400046010019014316257
B1423292016812S07007780WA0004400047010019017348274
B1423302016807S07007781WA0004400047010019025330282
B1423312016803S07007783WA0004500048010019023318280
B1423322016799S07007787WA0004500048010019020297270
B1423332016797S07007790WA0004500048010019012261257
B1423352016797S07007792WA0004600048005010018190235
B1423362016799S07007792WA0004600049005010020176198
B1423372016801S07007792WA0004600049005010018165196
B1423382016803S07007791WA0004600049005010015165197
B1423392016805S07007791WA0004700050005010016163190
B1423402016808S07007790WA0004800050005010019168185
B1423412016810S07007790WA0004800050005010020171184
B1423422016813S07007789WA0004800050005010021166180
B1423432016816S07007788WA0004800050005010022157174
B1423442016819S07007787WA0004700050005010023149175
B1423452016822S07007785WA0004700050005010023147176
B1423462016824S07007783WA0004600050005010023150184
B1423472016827S07007781WA0004500050005010023157184
B1423482016831S07007780WA0004500049005010023162186
B1423492016834S07007779WA0004400049005010023159184
B1423502016837S07007778WA0004400049005010023154177
B1423512016841S07007776WA0004300049005010023152175
B1423522016847S07007773WA0004300049005010023155173
B1423532016850S07007771WA0004300049005010024146157
B1423542016853S07007769WA0004300049005010027135151
B1423552016856S07007765WA0004300048005010030133154
B1423562016859S07007762WA0004200048005010028143178
B1423572016862S07007760WA0004200048005010022167217
B1423582016865S07007760WA0004200048005010020190233
B1423592016868S07007760WA0004100047005010018195253
B1424002016870S07007762WA0003900047010019018208261
B1424012016872S07007763WA0003800047010019015221269
B1424022016874S07007764WA0003700046010019007204274
B1424032016874S07007765WA0003600046010019007185174
B1424042016872S07007767WA0003400046010019009116178
B1424052016867S07007766WA0003400045005010023042163
B1424062016862S07007762WA0003300044005010032034029
B1424072016855S07007758WA0003300044005010038016012
B1424082016843S07007755WA0003300042005010039007351
B1424092016830S07007755WA0003200040005010040359334
B1424102016821S07007755WA0003200040005010037343316
B1424112016816S07007757WA0003200039005010037335296
B1424122016810S07007760WA0003100038005010037320291
B1424132016805S07007763WA0003100038005010034314280
B1424142016801S07007766WA0003100037005010023298276
B1424152016800S07007769WA0003100037005010015266259
B1424162016800S07007770WA0003100036005010013231234
B1424172016801S07007772WA0003100036005010015198213
B1424182016803S07007771WA0003100035005010021159197
B1424192016807S07007770WA0003100035005010026152177
B1424202016810S07007768WA0003000034005010024147175
B1424212016813S07007766WA0002900034005010021144179
B1424222016816S07007764WA0002800034005010021144191
B1424232016819S07007762WA0002800033005010020162191
B1424242016822S07007761WA0002700033005010021170195
B1424252016825S07007761WA0002600032005010023169201
B1424262016829S07007760WA0002400032005010022168203
B1424272016832S07007760WA0002300031005010017176220
B1424282016834S07007760WA0002200031005010014211233
B1424292016834S07007762WA0002100030005010019251239
B1424302016834S07007765WA0002000030005010024275259
B1424312016834S07007769WA0001900029005010025277254
B1424322016833S07007772WA0001800029005010015291255
B1424332016831S07007773WA0001700028005010011302274
B1424342016830S07007775WA0001600028005010013305290
B1424352016828S07007776WA0001600027005010009306329
B1424372016828S07007776WA0001600026005010006312299
B1424382016827S07007777WA0001600025005010003331286
B1424392016827S07007776WA0001500023005010000000267
B1424402016827S07007776WA0001500023005010000000258
B1424412016827S07007776WA0001500023005010002015253
B1424422016827S07007776WA0001500023005010002039255
B1424432016827S07007775WA0001500022005010003054248
B1424442016827S07007775WA0001500021005010002040235
B1424452016827S07007774WA0001500021005010001088236
B1424462016827S07007774WA0001500021005010001073231
B1424472016827S07007774WA0001500021005010001000229
B1424482016826S07007774WA0001500020005010001012228
B1424492016826S07007774WA0001500020005010000000232
B1424502016826S07007774WA0001500020005010000074232
B1424512016826S07007774WA0001500020005010001115221
B1424522016826S07007774WA0001500020005010001074229
B1424532016826S07007774WA0001500019005010003071229
B1424542016826S07007773WA0001500019005010003087224
B1424552016826S07007773WA0001500018005010001116222
B1424562016826S07007772WA0001500018005010002086224
B1424572016826S07007772WA0001500018005010003046225
B1424582016826S07007772WA0001500017005010004011225
B1424592016825S07007771WA0001500017005010003017232
B1425002016825S07007771WA0001500017005010001065230
B1425012016825S07007771WA0001500017005010000000226
B1425022016825S07007771WA0001500017005010000000226
B1425032016825S07007771WA0001500017005010000000225
B1425042016825S07007771WA0001500017005010000000225
B1425052016825S07007771WA0001500017005010000000225
B1425062016825S07007771WA0001500017005010000000225
B1425072016825S07007771WA0001500017005010000000225
B1425082016825S07007771WA0001500017005010000000225
B1425092016825S07007771WA0001500017005010000000225
B1425102016825S07007771WA0001500017005010000000225
B1425112016825S07007771WA0001500017005010000000225
B1425122016825S07007771WA0001500017005010000179225
B1425132016825S07007771WA0001500017005010000000225
B1425142016825S07007771WA0001500017005010001291225
B1425162016825S07007771WA0001500017005010000000225
B1425172016825S07007771WA0001500017005010000000225
B1425182016825S07007771WA0001500017005010000000225
B1425192016825S07007771WA0001500017005010000000225
B1425202016825S07007771WA0001500017005010000000225
B1425212016825S07007771WA0001500017005010000000225
B1425222016825S07007771WA0001500017005010000000225
B1425232016825S07007771WA0001500017005010000000225
B1425242016825S07007771WA0001500017005010001285225
B1425252016825S07007771WA0001500017005010001259225
B1425262016825S07007771WA0001500017005010000000225
B1425272016825S07007771WA0001500017005010000000225
B1425292016825S07007771WA0001500017005010002025225
B1425302016824S07007771WA0001500016005010003010225
GdztjEMoPt44JtYDVJrcg9/DO4kn0F/3kvfNHCA/fOt7aDX42+mwNpxb6xwHrmJ42
GQwTDNAaTQmstjE+gQBL9bIx1y/TN8HowP1F61QC7cW7P0aTbMSnFKLZNn+32gJtz
G7bpXtm1LGKaznJYm8fzQSCYrS/2kU8RY2sxyBA1bJDc=

