AXFH000
HFDTE040726
HFPLTPILOT:Scott O’Brien
HFGTYGLIDERTYPE:Ozone Swift 6
HFDTM100GPSDATUM:WGS84
HFRFWFIRMWAREVERSION:9.6.1
HFRHWHARDWAREVERSION:iPhone 15
HFFTYFRTYPE:Flyskyhy,9.6.1
HFGPS:Bluetooth vario
HFPRSVARIO:Bluetooth vario
HFCCLCOMPETITIONCLASS:Paraglider
HFTZNTIMEZONE:-7
HFSITSITE:Ed Levin,US
I053638FXA3941VXA4244GSP4547CCO4850HDT
B1940083728538N12151677WA0069700697001010001088038
B1940093728538N12151677WA0069700697001010001088034
B1940103728538N12151677WA0069800697001010001088039
B1940113728538N12151677WA0069700697001010000088056
B1940123728538N12151677WA0069700697001010000088045
B1940133728538N12151677WA0069700697001010001022050
B1940143728538N12151677WA0069700697001010001022026
B1940153728538N12151677WA0069700697001010001022027
B1940163728538N12151677WA0069700697001010000022025
B1940173728538N12151677WA0069800697001010000022033
B1940183728538N12151677WA0069800697001010000022062
B1940193728538N12151676WA0069700697001010001130119
B1940203728537N12151676WA0069800697001010002159118
B1940213728537N12151676WA0069800697001010002146122
B1940223728537N12151676WA0069800697001010001152123
B1940233728537N12151676WA0069800697001010001152099
B1940243728537N12151676WA0069700697001010001155117
B1940253728536N12151675WA0069800697001010003128126
B1940263728536N12151675WA0069800697001010002127066
B1940273728536N12151675WA0069700697001010002153230
B1940283728536N12151675WA0069600697001010001153256
B1940293728536N12151675WA0069600697001010000153257
B1940303728536N12151675WA0069700697001010001257188
B1940313728537N12151676WA0069600697001010002282266
B1940323728537N12151677WA0069600697001010003274044
B1940333728536N12151677WA0069600697001010003262099
B1940343728536N12151678WA0069400697001010004260228
B1940353728536N12151679WA0069400697001010008258325
B1940363728535N12151681WA0069500697001010011240102
B1940373728533N12151684WA0069700697001010014217281
B1940383728531N12151686WA0069600697001010017207168
B1940393728528N12151688WA0069500697001010021217336
B1940403728525N12151691WA0069500696001010024218294
B1940413728522N12151694WA0069600696001010023208266
B1940423728518N12151695WA0069600696001010023194235
B1940433728515N12151695WA0069600696001010025179229
B1940443728511N12151693WA0069500696001010026163184
B1940453728506N12151691WA0069400695001010030156170
B1940463728502N12151688WA0069300694001010033157163
B1940473728497N12151685WA0069200692001010037154163
B1940483728491N12151682WA0069200691001010037155160
B1940493728486N12151679WA0069100692001010035154161
B1940503728482N12151676WA0069100692001010033150160
B1940513728477N12151673WA0069000690001010035145157
B1940523728473N12151669WA0068900689001010039143152
B1940533728468N12151664WA0068700688001010044144153
B1940543728462N12151659WA0068500687001010043148149
B1940553728456N12151655WA0068600687001010043151148
B1940563728451N12151652WA0068800686001010039148139
B1940573728446N12151648WA0068700686001010036142143
B1940583728442N12151643WA0068600685001010035137148
B1940593728438N12151639WA0068200683001010037138146
B1941003728434N12151634WA0068100681001010040145147
B1941013728429N12151630WA0068000680001010040145137
B1941023728423N12151625WA0068000678001010041146140
B1941033728419N12151621WA0068000678001010038142155
B1941043728414N12151617WA0067900677001010033145157
B1941053728410N12151614WA0067700675001010033150147
B1941063728406N12151610WA0067600673001010037152137
B1941073728401N12151606WA0067400671001010039147139
B1941083728396N12151602WA0067200670001010039143139
B1941093728391N12151597WA0067100670001010039139135
B1941103728386N12151592WA0067000668001010040139140
B1941113728382N12151587WA0067000667001010041141134
B1941123728377N12151582WA0066900666001010042140138
B1941133728372N12151577WA0066900666001010041140141
B1941143728367N12151572WA0067000667001010040139164
B1941153728362N12151568WA0067100668001010037142174
B1941163728358N12151564WA0067100667001010035149196
B1941173728353N12151561WA0067000666001010034158208
B1941183728348N12151560WA0066800666001010033163206
B1941193728344N12151561WA0066500665001010031184206
B1941203728340N12151564WA0066700664001010030199207
B1941213728336N12151567WA0066700663001010030202217
B1941223728333N12151570WA0066700662001010026207217
B1941233728330N12151573WA0066600661001010025212218
B1941243728327N12151577WA0066200659001010025218219
B1941253728325N12151581WA0066100658001010027228222
B1941263728322N12151586WA0066100657001010027227227
B1941273728320N12151589WA0066100656001010025220238
B1941283728317N12151592WA0066000655001010024210231
B1941293728314N12151595WA0065900654001010025216223
B1941303728311N12151598WA0065700652001010028225229
B1941313728308N12151603WA0065600651001010029234231
B1941323728306N12151607WA0065600650001010026239236
B1941333728305N12151611WA0065400649001010021245243
B1941343728303N12151615WA0065100647001010020240236
B1941353728302N12151618WA0064700644001010024236238
B1941363728300N12151623WA0064400641001010028232229
B1941373728297N12151627WA0064300639001010029230222
B1941383728293N12151632WA0064200638001010030223208
B1941393728289N12151635WA0064100637001010029216206
B1941403728284N12151638WA0064100635001010029205211
B1941413728279N12151639WA0064100634001010032194196
B1941423728273N12151640WA0063900634001010034186188
B1941433728267N12151641WA0063800633001010033182183
B1941443728262N12151641WA0063600632001010034178199
B1941453728257N12151640WA0063400629001010037177179
B1941463728251N12151640WA0063200627001010041176177
B1941473728244N12151639WA0062900625001010042174113
B1941483728238N12151638WA0062900623001010044169164
B1941493728231N12151636WA0062800622001010044164160
B1941503728225N12151634WA0062800621001010044163170
B1941513728218N12151632WA0062600620001010046167177
B1941523728211N12151630WA0062500618001010046172173
B1941533728205N12151629WA0062400617001010045172146
B1941543728198N12151628WA0062400617001010045171167
B1941553728191N12151626WA0062300616001010046167125
B1941563728184N12151624WA0062500616001010044165149
B1941573728178N12151623WA0062600616001010039166146
B1941583728173N12151621WA0062600616001010033162152
B1941593728169N12151618WA0062600616001010030153160
B1942003728165N12151615WA0062500615001010032149143
B1942013728160N12151612WA0062400614001010035152155
B1942023728156N12151609WA0062300613001010036154148
B1942033728151N12151607WA0062300613001010034156149
B1942043728147N12151604WA0062100612001010033153156
B1942053728142N12151601WA0061800610001010035149147
B1942063728137N12151597WA0061500608001010041148162
B1942073728132N12151593WA0061300606001010042148152
B1942083728127N12151588WA0061400604001010042148160
B1942093728121N12151585WA0061500604001010040152152
B1942103728116N12151582WA0061500604001010035156153
B1942113728112N12151580WA0061400604001010029157155
B1942123728108N12151578WA0061200603001010029156159
B1942133728104N12151576WA0061000601001010035153157
B1942143728099N12151573WA0060900599001010037155171
B1942153728094N12151570WA0060900598001010039157163
B1942163728089N12151567WA0060800597001010037156166
B1942173728084N12151565WA0060700597001010035157158
B1942183728079N12151562WA0060600596001010037158164
B1942193728073N12151560WA0060600595001010039159172
B1942203728068N12151557WA0060400593001010041160145
B1942213728062N12151555WA0060300593001010040162155
B1942223728057N12151553WA0060300592001010037162163
B1942233728051N12151550WA0060200592001010037159164
B1942243728046N12151547WA0060200591001010040153152
B1942253728040N12151544WA0060000590001010044151172
B1942263728035N12151540WA0060000590001010042153149
B1942273728029N12151537WA0060000590001010041156172
B1942283728023N12151534WA0060000590001010039154150
B1942293728018N12151530WA0060000590001010037150142
B1942303728014N12151527WA0060000589001010036147156
B1942313728009N12151523WA0059800589001010037145140
B1942323728005N12151519WA0059800588001010040141133
B1942333728000N12151514WA0059800588001010040138123
B1942343727995N12151509WA0059700587001010040139133
B1942353727991N12151504WA0059600586001010039140142
B1942363727986N12151499WA0059400585001010038142153
B1942373727982N12151495WA0059400584001010040141162
B1942383727977N12151490WA0059500584001010041141147
B1942393727972N12151485WA0059500584001010042142164
B1942403727967N12151480WA0059500585001010037142177
B1942413727963N12151476WA0059600585001010034145177
B1942423727958N12151473WA0059400585001010033152189
B1942433727954N12151471WA0059200584001010033157180
B1942443727949N12151469WA0059200583001010038162179
B1942453727943N12151467WA0059200582001010038160174
B1942463727937N12151465WA0059200582001010038161195
B1942473727933N12151463WA0059300582001010032164186
B1942483727928N12151462WA0059200582001010028166191
B1942493727924N12151461WA0059100581001010032168188
B1942503727919N12151460WA0059000579001010036170200
B1942513727913N12151459WA0058900578001010037173198
B1942523727908N12151459WA0058800577001010037176198
B1942533727902N12151459WA0058900577001010036181199
B1942543727897N12151459WA0058800577001010033189202
B1942553727892N12151461WA0058800577001010031197205
B1942563727888N12151463WA0058700577001010030203210
B1942573727884N12151466WA0058600576001010030210213
B1942583727881N12151469WA0058500575001010030218218
B1942593727878N12151473WA0058400574001010028229224
B1943003727875N12151477WA0058400573001010026240230
B1943013727874N12151482WA0058300573001010024245237
B1943023727872N12151486WA0058200572001010025245240
B1943033727871N12151491WA0057900570001010028244245
B1943043727869N12151496WA0057800569001010031245249
B1943053727867N12151501WA0057700567001010030244233
B1943063727865N12151506WA0057600567001010028240247
B1943073727863N12151511WA0057500565001010026237240
B1943083727860N12151515WA0057300563001010028233235
B1943093727858N12151519WA0057000561001010030232239
B1943103727855N12151524WA0056800559001010032228227
B1943113727851N12151528WA0056700557001010033225231
B1943123727848N12151532WA0056500555001010033221210
B1943133727844N12151536WA0056400554001010034214212
B1943143727839N12151540WA0056300553001010035204209
B1943153727834N12151542WA0056200552001010037196205
B1943163727828N12151544WA0056100550001010039194223
B1943173727822N12151546WA0056100550001010037196219
B1943183727817N12151548WA0056100549001010036198230
B1943193727812N12151550WA0056000548001010035200225
B1943203727808N12151553WA0055800547001010035204224
B1943213727803N12151556WA0055700545001010036209218
B1943223727798N12151559WA0055400543001010039213210
B1943233727793N12151563WA0055300541001010040212215
B1943243727788N12151567WA0055300540001010039212221
B1943253727783N12151572WA0055200539001010036220228
B1943263727780N12151576WA0055100538001010034231229
B1943273727778N12151582WA0054900537001010033238236
B1943283727775N12151587WA0054700535001010033237241
B1943293727772N12151592WA0054500534001010033235249
B1943303727770N12151597WA0054300532001010033241251
B1943313727768N12151603WA0054100530001010031252250
B1943323727767N12151609WA0053900528001010031260253
B1943333727766N12151615WA0053800526001010031259253
B1943343727765N12151620WA0053500525001010032253260
B1943353727764N12151626WA0053400523001010031255266
B1943363727763N12151632WA0053300521001010031262268
B1943373727763N12151638WA0053100520001010031270262
B1943383727763N12151644WA0053000518001010031274268
B1943393727764N12151649WA0053000518001010029275277
B1943403727764N12151655WA0052900517001010028275273
B1943413727765N12151660WA0052700515001010027276272
B1943423727765N12151665WA0052600514001010028275270
B1943433727765N12151671WA0052400513001010030274265
B1943443727766N12151677WA0052400511001010031275273
B1943453727766N12151682WA0052200511001010029275274
B1943463727767N12151688WA0052200510001010026275276
B1943473727767N12151692WA0052100509001010026273274
B1943483727768N12151697WA0051900507001010027275280
B1943493727768N12151703WA0051700506001010029278274
B1943503727769N12151709WA0051600505001010030279268
B1943513727770N12151714WA0051500504001010030276267
B1943523727770N12151720WA0051500503001010030271272
B1943533727770N12151726WA0051300502001010029269269
B1943543727770N12151731WA0051200501001010029268266
B1943553727770N12151737WA0051000499001010031264261
B1943563727769N12151743WA0050900497001010032259259
B1943573727768N12151749WA0050700495001010034255256
B1943583727767N12151756WA0050500493001010035251263
B1943593727765N12151762WA0050400491001010034251263
B1944003727764N12151768WA0050200489001010033254273
B1944013727762N12151774WA0050000487001010033255271
B1944023727761N12151780WA0049800485001010033257273
B1944033727761N12151787WA0049800484001010034262275
B1944043727760N12151793WA0049600483001010033263274
B1944053727759N12151799WA0049600481001010034261268
B1944063727758N12151805WA0049700481001010033258272
B1944073727758N12151810WA0049700480001010030259280
B1944083727758N12151815WA0049600479001010026260276
B1944093727757N12151819WA0049500478001010026260270
B1944103727757N12151824WA0049300477001010026262265
B1944113727756N12151829WA0049200476001010026264267
B1944123727756N12151834WA0049100475001010027261269
B1944133727755N12151839WA0049100475001010026260267
B1944143727755N12151843WA0049100475001010024260277
B1944153727755N12151847WA0049100475001010021267267
B1944163727755N12151851WA0049100475001010020274271
B1944173727755N12151855WA0049000474001010020277272
B1944183727755N12151859WA0049000474001010019275267
B1944193727756N12151863WA0048900474001010020275269
B1944203727756N12151866WA0048900474001010020278279
B1944213727757N12151870WA0048800474001010020279271
B1944223727757N12151874WA0048800473001010020275279
B1944233727757N12151878WA0048700472001010022275272
B1944243727758N12151882WA0048600471001010022279272
B1944253727758N12151886WA0048600471001010022281266
B1944263727759N12151890WA0048500470001010022274270
B1944273727759N12151894WA0048500470001010023263268
B1944283727758N12151899WA0048400469001010023259279
B1944293727757N12151903WA0048400469001010024263277
B1944303727757N12151908WA0048200468001010025268276
B1944313727757N12151912WA0048200467001010024270274
B1944323727757N12151917WA0048100467001010024269269
B1944333727757N12151921WA0048100466001010024270284
B1944343727757N12151926WA0048000465001010023272274
B1944353727757N12151930WA0047900465001010023272279
B1944363727757N12151935WA0047900464001010023270276
B1944373727758N12151939WA0047800463001010023274283
B1944383727758N12151943WA0047700462001010023282282
B1944393727759N12151948WA0047600462001010024285278
B1944403727760N12151952WA0047500461001010025284287
B1944413727761N12151956WA0047400460001010024280286
B1944423727761N12151961WA0047200459001010023279283
B1944433727762N12151965WA0047100457001010025286277
B1944443727764N12151970WA0046900456001010026289266
B1944453727765N12151974WA0046900455001010026286267
B1944463727766N12151979WA0046700454001010024281274
B1944473727766N12151983WA0046700453001010022274283
B1944483727766N12151987WA0046600452001100022277280
B1944493727767N12151992WA0046500451001100023281286
B1944503727768N12151996WA0046300450001100024281280
B1944513727768N12152000WA0046200448001100024278290
B1944523727769N12152005WA0046100447001100022280302
B1944533727770N12152008WA0045900445001100022284289
B1944543727771N12152012WA0045700443001100022285289
B1944553727771N12152016WA0045600442001100023285282
B1944563727772N12152020WA0045600441001100023288278
B1944573727774N12152024WA0045600440001100022295280
B1944583727775N12152028WA0045500439001100021299278
B1944593727777N12152031WA0045500438001100021297277
B1945003727778N12152035WA0045300437001100021291268
B1945013727779N12152039WA0045200436001100023288276
B1945023727780N12152043WA0045100435001100023286266
B1945033727781N12152047WA0045100434001100022278267
B1945043727781N12152051WA0045000434001100021267254
B1945053727781N12152055WA0044900433001100020259258
B1945063727780N12152058WA0044700432001100019251254
B1945073727779N12152061WA0044600430001100021243240
B1945083727777N12152065WA0044400429001100024231210
B1945093727774N12152068WA0044300428001100027218194
B1945103727770N12152071WA0044100427001100031206188
B1945113727764N12152072WA0044000425001100034193175
B1945123727758N12152072WA0043800424001100039180166
B1945133727751N12152070WA0043700422001100044168160
B1945143727744N12152066WA0043600421001100046160148
B1945153727737N12152062WA0043500419001100047154144
B1945163727731N12152058WA0043300417001100046149142
B1945173727725N12152053WA0043000415001100047145142
B1945183727719N12152047WA0042700413001100051140134
B1945193727713N12152041WA0042500411001100053137133
B1945203727707N12152034WA0042400409001100050135130
B1945213727702N12152027WA0042400408001100052133132
B1945223727697N12152020WA0042300408001100047134127
B1945233727692N12152014WA0042200407001100044137130
B1945243727687N12152009WA0042000406001100042139126
B1945253727682N12152003WA0041800404001100043139129
B1945263727677N12151998WA0041600402001100043139141
B1945273727672N12151993WA0041500401001100041140153
B1945283727667N12151988WA0041300399001100039141157
B1945293727663N12151984WA0041100398001100037141143
B1945303727658N12151979WA0041000396001100040140142
B1945313727653N12151974WA0040800394001100044138127
B1945323727648N12151968WA0040700393001100046135126
B1945333727644N12151961WA0040700393001100044131120
B1945343727640N12151955WA0040700392001100040127128
B1945353727636N12151949WA0040600391001100038126132
B1945363727633N12151943WA0040500390001100043128146
B1945373727628N12151937WA0040400388001100048132136
B1945383727623N12151930WA0040400387001100046132171
B1945393727618N12151924WA0040400386001100045138178
B1945403727613N12151919WA0040400386001100039144181
B1945413727608N12151916WA0040400386001100037151178
B1945433727597N12151911WA0040400385001100040165176
B1945443727591N12151910WA0040400385001100040172192
B1945453727585N12151909WA0040500386001100036179197
B1945463727580N12151911WA0040600386001100031193201
B1945473727577N12151913WA0040500386001100025205211
B1945483727577N12151917WA0040400385001100018231215
B1945493727577N12151920WA0040400385001100016249230
B1945503727579N12151923WA0040400386001100013293242
B1945513727581N12151925WA0040600386001100013323271
B1945523727583N12151925WA0040600386001100013350297
B1945533727586N12151925WA0040500385001100016015321
B1945543727590N12151922WA0040400385001100023028357
B1945553727594N12151918WA0040400385001100033033025
B1945563727599N12151914WA0040500384001100034041035
B1945573727603N12151908WA0040500384001100036054045
B1945583727605N12151900WA0040400384001100041072059
B1945593727606N12151891WA0040300383001100045084081
B1946003727604N12151881WA0040400383001100048100093
B1946013727601N12151873WA0040500384001100043109111
B1946023727598N12151869WA0040600383001100032123121
B1946033727591N12151868WA0040700384001100027164143
B1946043727586N12151869WA0040800385001100027179195
B1946053727582N12151870WA0040900388001100027193209
B1946063727578N12151872WA0041000389001100024203223
B1946073727575N12151874WA0041100390001100023212234
B1946083727573N12151877WA0041000390001100019232241
B1946093727573N12151881WA0041000390001100018266256
B1946103727573N12151884WA0041100391001100017291276
B1946113727575N12151887WA0041200390001100018310290
B1946123727579N12151888WA0041300391001100020334301
B1946133727584N12151886WA0041300391001100030018316
B1946143727589N12151883WA0041300392001100036033353
B1946153727592N12151875WA0041300391001100042061011
B1946163727595N12151867WA0041200392001100044069044
B1946173727596N12151859WA0041200392001100044076055
B1946183727595N12151849WA0041000392001100047089065
B1946193727594N12151840WA0041000393001100045098084
B1946203727591N12151832WA0041100392001100043108096
B1946213727586N12151828WA0041000390001100034134112
B1946223727579N12151826WA0041100391001100034159153
B1946233727574N12151825WA0041200392001100033171184
B1946243727569N12151825WA0041300393001100029177197
B1946253727565N12151826WA0041400393001100027188205
B1946263727561N12151828WA0041400393001100026201217
B1946273727558N12151831WA0041500394001100024215227
B1946283727556N12151835WA0041700394001100021234238
B1946293727557N12151840WA0041700395001100020266252
B1946303727558N12151843WA0041700396001100017284271
B1946313727561N12151845WA0041700396001100017316282
B1946323727564N12151846WA0041700397001100019341299
B1946333727570N12151843WA0041900398001100030023315
B1946343727575N12151838WA0041800398001100036039356
B1946353727578N12151831WA0041700398001100043062016
B1946363727581N12151822WA0041600399001100045072047
B1946373727581N12151813WA0041500398001100046080061
B1946383727579N12151804WA0041500398001100045101072
B1946393727577N12151796WA0041400397001100039110102
B1946403727573N12151791WA0041300397001100034122116
B1946413727567N12151789WA0041400398001100027155136
B1946423727560N12151791WA0041500399001100030187187
B1946433727555N12151792WA0041700401001100026189212
B1946443727551N12151793WA0041700402001100022192218
B1946453727548N12151794WA0041800402001100020198224
B1946463727545N12151796WA0041800402001100020209230
B1946473727542N12151799WA0041700403001100019229237
B1946483727541N12151802WA0041700402001100017252250
B1946493727541N12151805WA0041600402001100018290264
B1946503727543N12151808WA0041500402001100018306285
B1946513727546N12151808WA0041600403001100021001294
B1946523727551N12151806WA0041700403001100032028329
B1946533727555N12151802WA0041700403001100037039001
B1946543727559N12151796WA0041600403001100039051017
B1946553727559N12151787WA0041600403001100039078032
B1946563727557N12151778WA0041600403001100041103068
B1946573727554N12151771WA0041600402001100042114106
B1946583727549N12151764WA0041600402001100037125122
B1946593727543N12151762WA0041600403001100031154140
B1947003727538N12151763WA0041600403001100028181180
B1947013727534N12151764WA0041600403001100026194208
B1947023727530N12151766WA0041500402001100025204220
B1947033727527N12151769WA0041300400001100022215230
B1947043727525N12151772WA0041300399001100020226239
B1947053727523N12151775WA0041300398001100019245247
B1947063727522N12151778WA0041400398001100017265259
B1947073727522N12151781WA0041500398001100014282271
B1947083727523N12151783WA0041500399001100012299280
B1947093727525N12151784WA0041500399001100013330288
B1947103727528N12151784WA0041500398001100015002303
B1947113727532N12151780WA0041300398001100028039322
B1947123727535N12151775WA0041300397001100031052010
B1947133727538N12151769WA0041200397001100035069028
B1947143727538N12151760WA0041200396001100039084053
B1947153727536N12151751WA0041200396001100043107078
B1947163727534N12151744WA0041200396001100043117112
B1947173727529N12151737WA0041300395001100040127126
B1947183727524N12151733WA0041300395001100036141141
B1947193727519N12151732WA0041300395001100033161161
B1947203727513N12151733WA0041300396001100030187185
B1947213727509N12151735WA0041100396001100030202211
B1947223727506N12151738WA0041100395001100026216224
B1947233727504N12151742WA0041100395001100021234237
B1947243727503N12151746WA0041200394001100019256252
B1947253727503N12151749WA0041200394001100018275266
B1947263727504N12151753WA0041200394001100017287277
B1947273727505N12151755WA0041200394001100015301284
B1947283727506N12151758WA0041200395001100015314291
B1947293727508N12151760WA0041200394001100016324301
B1947303727510N12151761WA0041000393001100014329313
B1947313727511N12151763WA0040900393001100014321305
B1947323727513N12151765WA0040600391001100017313315
B1947333727515N12151768WA0040300388001100021314312
B1947343727517N12151770WA0040100386001100022319309
B1947353727520N12151773WA0039900385001100020320294
B1947363727522N12151775WA0039800383001100017312295
B1947373727523N12151778WA0039700382001100017303290
B1947383727525N12151781WA0039500382001100020304303
B1947393727527N12151784WA0039300378001100021312301
B1947403727529N12151786WA0039100377001100021322314
B1947413727531N12151789WA0039000375001100021325297
B1947423727534N12151791WA0038900374001100019322292
B1947433727536N12151793WA0038800373001100017312297
B1947443727537N12151796WA0038700372001100016303295
B1947453727538N12151798WA0038600370001100016299295
B1947463727539N12151801WA0038400368001100019294286
B1947473727540N12151805WA0038400367001100021284280
B1947483727541N12151808WA0038300366001100020277285
B1947493727541N12151812WA0038300366001100019275284
B1947503727542N12151815WA0038200365001100017275280
B1947513727542N12151819WA0037900363001100019274271
B1947523727542N12151822WA0037800360001100021269266
B1947533727542N12151826WA0037800359001100021266287
B1947543727541N12151830WA0037800359001100019265292
B1947553727541N12151833WA0037700357001100018268273
B1947563727541N12151837WA0037500356001100018265276
B1947573727541N12151840WA0037300355001100018271276
B1947583727541N12151844WA0037000353001100022276286
B1947593727542N12151850WA0036800351001100027283287
B1948003727543N12151856WA0036600350001100031287292
B1948013727545N12151862WA0036600349001100031286299
B1948023727546N12151867WA0036600348001100026287304
B1948033727548N12151871WA0036500347001100023294297
B1948043727549N12151875WA0036400345001100025297293
B1948053727552N12151880WA0036300344001100029298285
B1948063727554N12151885WA0036200343001100032297294
B1948073727556N12151891WA0036400341001100032296292
B1948083727558N12151896WA0036800340001100031299294
B1948093727561N12151901WA0037000339001100029303292
B1948103727562N12151905WA0037100339001100022301291
B1948113727563N12151908WA0037200340001100018293286
B1948123727564N12151911WA0037300340001100020286274
B1948133727565N12151915WA0037200340001100022282265
B1948143727565N12151919WA0037300341001100020273258
B1948153727564N12151922WA0037500342001100020257245
B1948163727563N12151926WA0037400342001100019244231
B1948173727560N12151929WA0037300342001100023218221
B1948183727555N12151930WA0037300342001100029192203
B1948193727549N12151928WA0037200341001100033165180
B1948203727544N12151925WA0037200341001100033148159
B1948213727540N12151916WA0037200341001100041126144
B1948223727539N12151907WA0037200341001100038097116
B1948233727540N12151898WA0037300344001100038074081
B1948243727542N12151891WA0037200345001100033066052
B1948253727545N12151888WA0037300345001100023035042
B1948263727547N12151886WA0037300346001100018031001
B1948273727549N12151886WA0037300346001100015017351
B1948283727552N12151887WA0037300347001100015352336
B1948293727554N12151889WA0037300347001100018329322
B1948303727557N12151891WA0037400349001100017322311
B1948313727558N12151893WA0037400350001100014319306
B1948323727560N12151895WA0037400350001100014311302
B1948333727561N12151898WA0037500350001100017307304
B1948343727563N12151900WA0037400349001100019313304
B1948353727566N12151903WA0037400350001100020323298
B1948363727568N12151905WA0037400350001100019330299
B1948373727570N12151907WA0037400351001100016323289
B1948383727572N12151909WA0037300350001100015305289
B1948393727573N12151912WA0037200350001100017288278
B1948403727573N12151915WA0037000348001100021271267
B1948413727572N12151920WA0036900348001100024258260
B1948423727571N12151924WA0036900348001100025242250
B1948433727568N12151928WA0036900349001100027229244
B1948443727564N12151931WA0036800349001100029215238
B1948453727559N12151933WA0036800349001100032201221
B1948463727554N12151935WA0036700348001100035191206
B1948473727548N12151935WA0036500347001100037184192
B1948483727542N12151935WA0036300346001100037177186
B1948493727536N12151932WA0036000345001100044158178
B1948503727530N12151927WA0035900344001100046149157
B1948513727525N12151920WA0035800342001100043130145
B1948523727522N12151912WA0035700341001100041109126
B1948533727521N12151905WA0035500340001100040097101
B1948543727522N12151897WA0035300339001100040083085
B1948553727524N12151889WA0035200337001100041074067
B1948563727526N12151881WA0035000336001100040064056
B1948573727529N12151875WA0035000334001100038055045
B1948583727533N12151870WA0034900332001100034045035
B1948593727537N12151867WA0034800330001100027035023
B1949003727541N12151866WA0034700329001100020018009
B1949013727544N12151867WA0034600327001100016354350
B1949023727546N12151869WA0034600326001100017332331
B1949033727548N12151872WA0034500325001100018313318
B1949043727549N12151876WA0034400325001100018288307
B1949053727548N12151880WA0034300325001100018267290
B1949063727547N12151883WA0034300326001100017251279
B1949073727547N12151886WA0034200326001100017255275
B1949083727546N12151890WA0034200326001100017268278
B1949093727547N12151893WA0034000325001100016283283
B1949103727547N12151895WA0034000325001100014287275
B1949113727548N12151897WA0033900324001100011294289
B1949123727549N12151899WA0033800322001100012299275
B1949133727550N12151901WA0033600321001100014298283
B1949143727551N12151904WA0033400320001100015289276
B1949153727551N12151907WA0033300319001100015280291
B1949163727551N12151910WA0033300318001100015269292
B1949173727551N12151913WA0033100317001100015273308
B1949183727552N12151916WA0033100315001100017291306
B1949193727554N12151919WA0033000314001100019309317
B1949203727556N12151921WA0033000314001100020322322
B1949213727558N12151923WA0033000313001100020335336
B1949223727562N12151924WA0033200312001100023345353
B1949233727565N12151923WA0033300311001100023004000
B1949243727568N12151920WA0033300311001100025023015
B1949253727571N12151915WA0033200311001100026046019
B1949263727572N12151909WA0033000310001100031061034
B1949273727574N12151901WA0032900310001100039072064
B1949283727574N12151890WA0032900309001100049085079
B1949293727574N12151881WA0033000308001100050091098
B1949303727571N12151871WA0033100308001100048106110
B1949313727568N12151863WA0033100308001100043114125
B1949323727564N12151859WA0033000307001100035135133
B1949333727559N12151856WA0032900307001100031151158
B1949343727555N12151855WA0032700307001100027169180
B1949353727551N12151857WA0032600306001100024187205
B1949363727548N12151858WA0032600305001100018196226
B1949373727546N12151861WA0032400305001100016214239
B1949383727546N12151863WA0032400304001100010241255
B1949393727547N12151865WA0032400304001100008286276
B1949403727548N12151867WA0032500304001100007307297
B1949413727549N12151868WA0032400303001100006317309
B1949423727550N12151869WA0032300302001100009327301
B1949433727552N12151871WA0032300302001100014327304
B1949443727554N12151873WA0032200301001100016318307
B1949453727556N12151875WA0032300300001100015318313
B1949463727557N12151877WA0032500300001100014327307
B1949473727559N12151877WA0032600300001100010336311
B1949483727560N12151878WA0032700301001100008359294
B1949493727560N12151878WA0032700301001100000359282
B1949503727560N12151878WA0032600301001100001359282
B1949513727559N12151879WA0032600301001100010216288
B1949523727558N12151881WA0032400301001100011229269
B1949533727557N12151882WA0032300300001100007263274
B1949543727558N12151884WA0032300300001100008307265
B1949553727559N12151885WA0032400300001100008311271
B1949563727559N12151886WA0032400300001100006264276
B1949573727558N12151887WA0032300300001100009220279
B1949583727557N12151888WA0032300300001100008217273
B1949593727556N12151889WA0032200300001100008240277
B1950003727557N12151891WA0032100299001100008285281
B1950013727558N12151892WA0031900299001100011317272
B1950023727559N12151894WA0031800298001100013307291
B1950033727560N12151896WA0031800297001100014287283
B1950043727560N12151899WA0031700296001100016266294
B1950053727559N12151902WA0031800297001100015253291
B1950063727558N12151905WA0031900297001100012247294
B1950073727557N12151907WA0031800297001100011256276
B1950083727557N12151909WA0031800296001100012265267
B1950093727557N12151912WA0031700295001100015278269
B1950103727557N12151915WA0031700295001100017277263
B1950113727557N12151919WA0031700295001100016273276
B1950123727557N12151921WA0031700295001100013264260
B1950133727557N12151924WA0031700295001100012259279
B1950143727556N12151926WA0031500294001100013263266
B1950153727556N12151929WA0031200292001100017267280
B1950163727556N12151933WA0031200291001100019268279
B1950173727556N12151936WA0031200290001100019267280
B1950183727556N12151940WA0031300290001100016268291
B1950193727556N12151943WA0031300291001100014273263
B1950203727556N12151945WA0031300291001100015266242
B1950213727555N12151948WA0031300291001100018250233
B1950223727553N12151951WA0031000289001100022229218
B1950233727550N12151954WA0030900289001100027211200
B1950243727544N12151954WA0030800287001100029174188
B1950253727539N12151951WA0030700285001100032154164
B1950263727535N12151943WA0030700285001100035122147
B1950273727532N12151935WA0030600286001100038112109
B1950283727530N12151926WA0030600285001100038100096
B1950293727530N12151917WA0030400285001100037086078
B1950303727533N12151908WA0030200285001100042070060
B1950313727536N12151901WA0030100283001100039059044
B1950323727540N12151895WA0030100282001100035048031
B1950333727544N12151892WA0030000281001100030038018
B1950343727548N12151890WA0030100280001100027025006
B1950353727552N12151891WA0030300280001100025007354
B1950363727556N12151891WA0030400281001100021357340
B1950373727558N12151892WA0030500282001100016352330
B1950383727561N12151893WA0030500282001100017347326
B1950393727563N12151894WA0030400282001100020337318
B1950403727566N12151896WA0030600282001100019334313
B1950413727569N12151897WA0030600283001100017340313
B1950423727571N12151898WA0030600283001100016346313
B1950433727573N12151899WA0030600283001100018339313
B1950443727576N12151901WA0030400282001100022333318
B1950453727579N12151902WA0030400283001100021337314
B1950463727582N12151904WA0030400283001100019346317
B1950473727585N12151904WA0030500284001100017350323
B1950483727587N12151905WA0030500284001100019341331
B1950493727590N12151907WA0030600284001100020337350
B1950503727593N12151908WA0030700285001100020346345
B1950513727596N12151908WA0030800286001100023000340
B1950523727600N12151908WA0030800286001100026005346
B1950533727603N12151908WA0030900286001100025003341
B1950543727607N12151908WA0030900287001100025355343
B1950553727611N12151908WA0031000288001100026354341
B1950563727615N12151909WA0031000289001100025358341
B1950573727618N12151908WA0031000289001100024000331
B1950583727622N12151908WA0030900288001100023000333
B1950593727626N12151908WA0031000288001100025002346
B1951003727629N12151908WA0030900288001100027008350
B1951013727633N12151906WA0031000288001100028018004
B1951023727637N12151904WA0030900289001100028028000
B1951033727641N12151901WA0030900288001100029033351
B1951043727644N12151898WA0030700287001100032031341
B1951053727649N12151895WA0030700287001100033026332
B1951063727653N12151892WA0030900287001100032023332
B1951073727657N12151891WA0030900286001100029018322
B1951083727661N12151889WA0031000287001100025014322
B1951093727663N12151890WA0031000286001100021004325
B1951103727665N12151891WA0030900286001100015338320
B1951113727666N12151893WA0030800286001100015324305
B1951123727667N12151895WA0030900286001100012315289
B1951133727668N12151897WA0030800286001100010284285
B1951143727667N12151899WA0030700286001100010256275
B1951153727665N12151902WA0030500286001100016229263
B1951163727662N12151904WA0030400286001100022208245
B1951173727656N12151906WA0030400285001100027190227
B1951183727651N12151905WA0030200284001100030176209
B1951193727644N12151901WA0030100284001100039155196
B1951203727638N12151894WA0030100284001100045133167
B1951213727634N12151886WA0030300284001100046122138
B1951223727631N12151878WA0030300283001100045113123
B1951233727630N12151869WA0030200283001100044100111
B1951243727629N12151860WA0030300283001100044093093
B1951253727629N12151852WA0030200282001100045092090
B1951263727628N12151843WA0030200282001100047099096
B1951273727626N12151834WA0030100282001100047108110
B1951283727623N12151826WA0030000281001100046118118
B1951293727618N12151820WA0029900279001100042133132
B1951303727613N12151816WA0029900278001100037148151
B1951313727608N12151815WA0030100278001100033169173
B1951323727603N12151817WA0030200278001100033192200
B1951333727598N12151820WA0030200278001100033204222
B1951343727594N12151824WA0030200278001100029213231
B1951353727592N12151827WA0030300278001100023220240
B1951363727591N12151830WA0030200277001100018229248
B1951373727591N12151833WA0030100277001100015247258
B1951383727591N12151837WA0030100277001100018271273
B1951393727592N12151840WA0030200278001100019281285
B1951403727593N12151844WA0030400280001100016289294
B1951413727595N12151846WA0030400281001100013304309
B1951423727596N12151848WA0030400281001100012317305
B1951433727598N12151849WA0030500282001100011329316
B1951443727599N12151850WA0030500282001100012332309
B1951453727601N12151851WA0030500282001100013323312
B1951463727603N12151853WA0030400281001100014308298
B1951473727604N12151856WA0030400280001100018302314
B1951483727606N12151858WA0030400280001100018304316
B1951493727607N12151861WA0030400280001100015307321
B1951503727608N12151863WA0030400280001100011311316
B1951513727609N12151864WA0030300280001100011313318
B1951523727611N12151866WA0030100279001100014309306
B1951533727612N12151868WA0030000278001100018311314
B1951543727614N12151871WA0029900277001100023311293
B1951553727617N12151875WA0029900277001100023312322
B1951563727619N12151878WA0030200276001100022308276
B1951573727621N12151881WA0030500276001100021310307
B1951583727622N12151885WA0030700277001100020296272
B1951593727621N12151887WA0030600277001100013269262
B1952003727621N12151889WA0030400277001100011268258
B1952013727619N12151891WA0029900277001100011253268
B1952023727618N12151894WA0029500276001100016252243
B1952033727616N12151898WA0029400275001100023249293
B1952043727615N12151902WA0029400275001100022250262
B1952053727613N12151905WA0029500275001100017244247
B1952063727612N12151907WA0029300274001100013233259
B1952073727610N12151909WA0028900273001100013223236
B1952083727608N12151910WA0028500271001100013217246
B1952093727606N12151912WA0028000269001100015218240
B1952103727602N12151915WA0027700266001100023219229
B1952113727599N12151918WA0027700264001100024219232
B1952123727595N12151922WA0027800264001100024213213
B1952133727591N12151924WA0028000263001100020204229
B1952143727589N12151925WA0027900263001100016194225
B1952153727587N12151925WA0027700262001100017194234
B1952163727584N12151926WA0027500260001100016204230
B1952173727582N12151928WA0027500258001100019211229
B1952183727579N12151931WA0027700258001100019215218
B1952193727576N12151934WA0028000258001100019213233
B1952203727572N12151936WA0028300259001100019203243
B1952213727570N12151937WA0028300260001100017199267
B1952223727567N12151939WA0028100258001100018202263
B1952233727565N12151941WA0027800258001100019204250
B1952243727564N12151944WA0027600257001100019227260
B1952253727563N12151947WA0027600256001100018253279
B1952263727564N12151951WA0027500255001100016276279
B1952273727565N12151954WA0027400254001100016295278
B1952283727567N12151957WA0027300253001100015299284
B1952293727568N12151959WA0027100252001100014298293
B1952303727569N12151962WA0027000250001100013300272
B1952313727570N12151964WA0026900249001100014299272
B1952323727571N12151966WA0026800247001100014290264
B1952333727572N12151969WA0026700246001100013286271
B1952343727572N12151971WA0026600245001100012282275
B1952353727572N12151973WA0026500243001100012264265
B1952363727572N12151976WA0026300242001100014242259
B1952373727570N12151978WA0026100239001100018233245
B1952383727569N12151981WA0025900236001100020228237
B1952393727566N12151984WA0025600235001100023212220
B1952403727562N12151985WA0025300232001100026194210
B1952413727557N12151984WA0025100230001100035164200
B1952423727551N12151981WA0025100229001100040155184
B1952433727546N12151977WA0025100228001100039149180
B1952443727541N12151972WA0025000226001100034144183
B1952453727537N12151969WA0024800224001100033150182
B1952463727532N12151966WA0024500222001100033163187
B1952473727527N12151966WA0024400221001100031179208
B1952483727523N12151966WA0024300219001100028185225
B1952493727520N12151967WA0024400218001100019197235
B1952503727520N12151971WA0024400216001100013260253
B1952513727522N12151975WA0024500214001100016295288
B1952523727524N12151977WA0024700214001100016318302
B1952533727528N12151977WA0024700214001100022005314
B1952543727534N12151975WA0024700213001100032020343
B1952553727540N12151970WA0024700212001100041041002
B1952563727544N12151962WA0024700212001100045063025
B1952573727546N12151954WA0024400212001100046077050
B1952583727546N12151945WA0024300212001100045087068
B1952593727542N12151937WA0024200211001100044115081
B1953003727539N12151930WA0024000210001100040123121
B1953013727534N12151925WA0024000210001100036134135
B1953023727529N12151924WA0023900210001100030164153
B1953033727525N12151925WA0024000210001100026184195
B1953043727522N12151928WA0024000210001100021193217
B1953053727520N12151931WA0024200210001100016223229
B1953063727519N12151935WA0024300211001100014238257
B1953073727519N12151937WA0024300211001100010258263
B1953083727520N12151939WA0024200211001100009272275
B1953093727521N12151941WA0024100211001100013297276
B1953103727523N12151944WA0024000211001100014306293
B1953113727525N12151946WA0023900211001100014305249
B1953123727526N12151949WA0023800210001100015310290
B1953133727528N12151951WA0023700210001100015308293
B1953143727529N12151954WA0023600209001100016297291
B1953153727530N12151957WA0023500209001100014285283
B1953163727531N12151960WA0023400209001100014280272
B1953173727531N12151963WA0023300207001100015284270
B1953183727532N12151965WA0023200206001100016275265
B1953193727532N12151969WA0023200205001100020259255
B1953203727531N12151973WA0023100205001100019241240
B1953213727529N12151975WA0023100204001100019222231
B1953223727526N12151976WA0023000204001100021190223
B1953233727522N12151976WA0022700203001100023169211
B1953243727518N12151973WA0022500202001100028154201
B1953253727514N12151970WA0022300199001100032149191
B1953263727509N12151967WA0022100198001100029160193
B1953273727506N12151966WA0021900198001100025173206
B1953283727502N12151966WA0021800196001100021184218
B1953293727500N12151968WA0021700195001100016202233
B1953303727498N12151970WA0021400193001100015219243
B1953313727497N12151972WA0021100190001100015228251
B1953323727496N12151974WA0020700186001100017236251
B1953333727494N12151977WA0020400182001100021238250
B1953343727492N12151981WA0020400181001100019237255
B1953353727491N12151984WA0020300179001100016237254
B1953363727490N12151986WA0020100178001100013243251
B1953373727489N12151989WA0019900176001100015250254
B1953383727488N12151991WA0019900175001100016244248
B1953393727487N12151994WA0019800173001100016226244
B1953403727485N12151995WA0019700172001100016210229
B1953413727483N12151996WA0019500172001100017200245
B1953423727480N12151998WA0019300168001100017208242
B1953433727478N12151999WA0019200167001100016211319
B1953443727477N12152000WA0019300165001100013209137
B1953453727476N12152000WA0019300163001100006206162
B1953463727476N12152000WA0019300162001100000206167
B1953473727476N12152001WA0019300164001100000206194
B1953483727476N12152001WA0019300163001100000206205
B1953493727476N12152001WA0019300165001100000206209
B1953503727477N12152001WA0019300165001100000206291
B1953513727476N12152001WA0019300165001100000206283
B1953523727477N12152001WA0019300164001100000206279
B1953533727477N12152001WA0019300164001100000206274
B1953543727477N12152000WA0019300164001100000206236
B1953553727477N12152000WA0019300164001100000206265
B1953563727477N12152000WA0019300164001100000206240
B1953573727477N12152000WA0019300164001100000206262
B1953583727477N12152000WA0019300164001100000206261
B1953593727477N12152000WA0019300164001100000206246
B1954003727477N12152000WA0019300164001100000206247
B1954013727477N12152000WA0019300164001100000206248
B1954023727477N12152000WA0019300164001100000206249
B1954033727477N12152000WA0019300164001100000206250
B1954043727477N12152000WA0019300164001100000206250
B1954053727477N12152000WA0019300164001100000206250
B1954063727477N12152000WA0019300164001100000206251
B1954073727477N12152000WA0019300164001100000206251
B1954083727477N12152000WA0019300164001100000206251
B1954093727477N12152000WA0019300164001100000206251
B1954103727477N12152000WA0019300164001100000206252
B1954113727477N12152000WA0019300164001100000206252
B1954123727477N12152000WA0019300164001100000206253
B1954133727477N12152000WA0019300164001100000206252
B1954143727477N12152000WA0019300164001100000206253
B1954153727477N12152000WA0019300164001100000206253
Gst1S3X2CHyB87LtZsmgYiLM0OUSUOKhYoQ9C1v19Pf7n+/wDBweuL21nlZqrB01j
GEADGhNyEIWioKBplrQCPchP9EQZRskBeisX5GY+HCGtuSnQ6y08xps4IzeWdzGhM
G+rG4YKuPNJOi851XFIdxVVaWavpV77m2GTb3VMCIbbQ=

