AXFH000
HFDTE010724
HFPLTPILOT:Scott O’Brien
HFGTYGLIDERTYPE:BGD Epic M
HFDTM100GPSDATUM:WGS84
HFRFWFIRMWAREVERSION:8.2.3
HFRHWHARDWAREVERSION:Unknown device (iPhone15,4)
HFFTYFRTYPE:Flyskyhy,8.2.3
HFGPS:Internal
HFPRSVARIO:Internal Vario
HFCCLCOMPETITIONCLASS:Paraglider
HFTZNTIMEZONE:-7
I053638FXA3941VXA4244GSP4547CCO4850HDT
C010724221856010724000106TASK
C0000000N00000000ETAKEOFF
C3645916N11905906W00004009999999000000360000STARTAREA DNLNCH
C3645916N11905906W00000000000400000000360000TURNAREA DNLNCH
C3644815N11904600W00000000000400000000360000TURNAREA SONTAG
C3644227N11904778W00000000000400000000360000TURNAREA LASTCH
C3645916N11905906W00000000000400000000360000TURNAREA DNLNCH
C3645983N11907769W00000000000400000000360000TURNAREA BIGCAT
C3644130N11906307W00000000000400000000360000TURNAREA DNLPLZ
C3644130N11906307W00004009999999000000360000FINISHAREA DNLPLZ
C0000000N00000000ELANDING
E221925PEVBackground
B2219253742136N12229992WA0003100030022003000083354
B2219263742136N12229992WA0003100029022003000083350
B2219273742136N12229992WA0003000029022003000083249
B2219283742136N12229992WA0003000028022003000083181
B2219293742136N12229993WA0003000028022003000083215
B2219303742136N12229993WA0002900027022004000083148
B2219313742136N12229994WA0002900030022006016002215
B2219323742137N12229994WA0002900030022003016296214
B2219333742137N12229995WA0003000031022003006296228
B2219343742137N12229997WA0003000032022003006281192
B2219353742137N12229999WA0003000034022003011290258
B2219363742138N12230000WA0003100034022003007296240
B2219373742138N12230002WA0003200034022003013295221
B2219383742138N12230004WA0003200034022003013263199
B2219393742137N12230006WA0003200035022003013220194
B2219403742132N12230004WA0003200035022003017166188
B2219413742131N12230001WA0003300037022003020123199
B2219423742129N12230000WA0003400036022003020152210
B2219433742128N12229999WA0003400036022003011184210
B2219443742126N12230000WA0003500035022003011189205
B2219453742124N12230000WA0003500035022003014186195
B2219463742122N12229999WA0003500035022003014166180
B2219473742120N12229997WA0003500036022003015129195
B2219483742118N12229995WA0003600037022003015141190
B2219493742116N12229994WA0003600036022003015148188
B2219503742114N12229993WA0003600036022003015163181
B2219513742112N12229991WA0003700037022003014155186
B2219523742111N12229989WA0003700038022003016131182
B2219533742109N12229987WA0003800039022003014130179
B2219543742108N12229985WA0003800040022003014135186
B2219553742106N12229984WA0003900040022003014141197
B2219563742104N12229983WA0003900040022003014152221
B2219573742102N12229982WA0004000040022003014159248
B2219583742100N12229981WA0004000041022003013162264
B2219593742098N12229980WA0004100041022003013153280
B2220003742096N12229979WA0004100041022003016147061
B2220013742094N12229977WA0004100042022003014150309
B2220023742092N12229977WA0004200042022003014163321
B2220033742090N12229977WA0004200042022003012178329
B2220043742089N12229977WA0004200043022003012176332
B2220053742086N12229976WA0004300043022003014163337
B2220063742084N12229975WA0004300044022003014154342
B2220073742082N12229974WA0004400044022003014156346
B2220083742081N12229973WA0004400044022003011165348
B2220093742079N12229973WA0004400044022003010171350
B2220103742078N12229973WA0004500043022003010170352
B2220113742076N12229972WA0004500043022003012165353
B2220123742074N12229972WA0004500043022003012164354
B2220133742073N12229971WA0004500042022003011170355
B2220143742071N12229971WA0004500041022003010175356
B2220153742070N12229971WA0004400040022003010177357
B2220163742067N12229971WA0004400040022003016173357
B2220173742065N12229971WA0004400040022003016175358
B2220183742063N12229971WA0004300042022003016170358
B2220193742061N12229970WA0004300043022003014174358
B2220203742059N12229970WA0004300044022003014189358
B2220213742057N12229970WA0004300045022003012159359
B2220223742055N12229969WA0004300047022003013168359
B2220233742053N12229968WA0004400048022004013161359
B2220243742050N12229967WA0004500048022004015157359
B2220253742048N12229966WA0004600049022004017156359
B2220263742047N12229965WA0004600049022004009155359
B2220273742044N12229965WA0004700048022003015165359
B2220283742042N12229964WA0004700048022003015169359
B2220293742040N12229964WA0004700050022003015174359
B2220303742038N12229964WA0004700048022003014176359
B2220313742037N12229964WA0004700048022003010178359
B2220323742035N12229964WA0004700049022003013185359
B2220333742033N12229964WA0004700048022003013187359
B2220343742031N12229965WA0004700049022003015191359
B2220353742029N12229966WA0004700050022003015191359
B2220363742028N12229966WA0004700050022003010195359
B2220373742026N12229967WA0004800050004003010188359
B2220383742025N12229967WA0004800049004003009191359
B2220393742024N12229969WA0004800048004003009219359
B2220403742025N12229973WA0004900048004003016282359
B2220413742027N12229977WA0004900049004003024304359
B2220423742032N12229979WA0004900050004004035333359
B2220433742037N12229980WA0004900049004003035354357
B2220443742043N12229980WA0004900049004003039004353
B2220453742048N12229980WA0004900048004003039002348
B2220463742055N12229977WA0004900048004003047017346
B2220473742061N12229976WA0004900047004003047014343
B2220483742067N12229973WA0004800047004003043014340
B2220493742074N12229972WA0004800048004004042014339
B2220503742079N12229971WA0004800048004003041011339
B2220513742085N12229971WA0004800048004003036351340
B2220523742089N12229973WA0004800049004003036332341
B2220533742093N12229976WA0004800049004003032315341
B2220543742095N12229979WA0004800050004003027311341
B2220563742097N12229981WA0004800051004003013295342
B2220573742097N12229982WA0004800051004003013264343
B2220583742097N12229984WA0004900050004003011233344
B2220593742096N12229985WA0004900049004003010203346
B2221003742094N12229985WA0004900050004003016178348
B2221013742092N12229984WA0005000051004003016163009
B2221023742089N12229983WA0005000051004003015155007
B2221033742087N12229982WA0005100052004003015152353
B2221043742085N12229981WA0005100052004003014148354
B2221053742084N12229980WA0005100052004003011157356
B2221063742082N12229979WA0005100051004003013156356
B2221073742080N12229979WA0005200051004003013170357
B2221083742078N12229978WA0005200051004003015162357
B2221093742076N12229977WA0005200051004003016160358
B2221103742074N12229976WA0005200051004003015152358
B2221113742072N12229974WA0005200052004003015146358
B2221123742069N12229972WA0005200051004003012156359
B2221133742067N12229971WA0005200051004003012163359
B2221143742065N12229970WA0005200050004003014166359
B2221153742063N12229970WA0005200051004003015164359
B2221163742061N12229969WA0005200051004003014162359
B2221173742059N12229968WA0005200052004003013160359
B2221183742057N12229967WA0005200052004003013164359
B2221193742054N12229967WA0005200053004003017170359
B2221203742052N12229967WA0005200054004003017174359
B2221213742050N12229966WA0005200055004003014166359
B2221223742048N12229965WA0005300055004003014152359
B2221233742046N12229963WA0005300056004003015143359
B2221243742044N12229961WA0005400055004003015147359
B2221253742043N12229960WA0005500056004003015156359
B2221263742041N12229960WA0005500055004003014167359
B2221273742039N12229959WA0005500055004003012166359
B2221283742037N12229959WA0005600055004003011165359
B2221293742036N12229958WA0005600055004003010159359
B2221303742035N12229957WA0005600054004003010168359
B2221313742033N12229957WA0005600054004003009185359
B2221323742032N12229958WA0005600055004003008205359
B2221333742031N12229959WA0005600055004004008216359
B2221343742030N12229960WA0005500054004003008212359
B2221353742029N12229961WA0005500057004003008193359
B2221363742028N12229961WA0005500057004003008179359
B2221373742027N12229961WA0005500057004004008173359
B2221383742025N12229960WA0005500057004003009181359
B2221393742024N12229960WA0005500057004003008178359
B2221403742022N12229960WA0005500057004003011168359
B2221413742021N12229959WA0005600057004003011159359
B2221423742019N12229958WA0005600057004003013153000
B2221433742017N12229957WA0005600057004003013151359
B2221443742015N12229955WA0005600057004003016144359
B2221453742014N12229953WA0005600057004003016137359
B2221463742012N12229952WA0005600056004003011140359
B2221473742011N12229951WA0005600054004003011162359
B2221483742010N12229951WA0005500053004003010195359
B2221493742009N12229952WA0005500053004003008211359
B2221503742008N12229953WA0005400053004003008213359
B2221513742007N12229954WA0005400053004003005211359
B2221523742007N12229954WA0005300053004003005208359
B2221533742006N12229955WA0005300053004003007231359
B2221543742006N12229957WA0005200052004003010262359
B2221553742007N12229960WA0005200051004003016291359
B2221563742010N12229963WA0005200051004003016324359
B2221573742013N12229965WA0005100051004003019333359
B2221583742017N12229965WA0005100051004003021351359
B2221593742021N12229967WA0005100050004004032349359
B2222003742027N12229967WA0005100049004003040005359
B2222013742033N12229966WA0005000050004003038003359
B2222023742038N12229966WA0005000051004003038001359
B2222033742044N12229965WA0005000052004003038003359
B2222043742049N12229963WA0005000052004004035015359
B2222053742054N12229962WA0005000053004003035010359
B2222063742058N12229962WA0005100054004003035001359
B2222073742064N12229962WA0005100053004004036001359
B2222083742069N12229962WA0005100054004004036357359
B2222093742074N12229963WA0005200056004006030355359
B2222103742077N12229965WA0005200055004004030344359
B2222113742080N12229967WA0005200054004004023322359
B2222123742083N12229969WA0005300053004004022322359
B2222133742084N12229972WA0005300053004004021293359
B2222143742085N12229973WA0005200053004003008275359
B2222153742085N12229974WA0005200052004003008278359
B2222163742085N12229975WA0005200052004003004225359
B2222173742084N12229976WA0005200052004003004220359
B2222183742083N12229976WA0005200052004003005198359
B2222193742082N12229977WA0005200052004003009181359
B2222203742081N12229977WA0005100052004003010167359
B2222213742079N12229976WA0005100053004003009152359
B2222223742078N12229975WA0005100052004003010139359
B2222233742077N12229974WA0005100052004003011146359
B2222243742076N12229973WA0005100051004003010175359
B2222253742074N12229973WA0005100051004003010171359
B2222263742073N12229973WA0005100051004003008187359
B2222273742072N12229973WA0005100050004003008174359
B2222283742070N12229972WA0005100049004003012159359
B2222293742069N12229972WA0005100051004003009150359
B2222303742067N12229971WA0005200051004003009154359
B2222313742066N12229970WA0005200051004003009167359
B2222323742065N12229970WA0005200051004003009162359
B2222333742063N12229969WA0005200052004003010164359
B2222343742062N12229969WA0005200052004003011164359
B2222353742060N12229968WA0005200053004004011171359
B2222363742059N12229968WA0005200053004003011162359
B2222373742057N12229967WA0005200053004003011162359
B2222383742055N12229966WA0005300053004003012155359
B2222393742054N12229965WA0005300053004004011155359
B2222403742052N12229965WA0005300053004003013158359
B2222413742051N12229964WA0005300052004003012163359
B2222423742049N12229963WA0005300052004003012166359
B2222433742047N12229963WA0005300052004003012162359
B2222443742045N12229961WA0005300052004003016154000
B2222453742043N12229960WA0005300052004003018151359
B2222463742041N12229958WA0005300053004003016152359
B2222473742039N12229958WA0005300053004003013158359
B2222483742038N12229957WA0005300053004003011179359
B2222493742037N12229958WA0005300052004003009189359
B2222503742036N12229959WA0005300053004003011236359
B2222513742035N12229961WA0005300052004003011258359
B2222523742040N12229965WA0005300052004003013325359
B2222533742044N12229967WA0005300052004003025343359
B2222543742050N12229968WA0005300051004003049359356
B2222553742057N12229966WA0005300052004003049018353
B2222563742062N12229963WA0005300055004003049028342
B2222573742067N12229961WA0005300056004003041017337
B2222583742071N12229961WA0005300055004003026005337
B2222593742073N12229965WA0005300051004003028305339
B2223003742076N12229969WA0005300050004003032298343
B2223013742078N12229972WA0005300052004003028306345
B2223023742081N12229973WA0005200054004003026354346
B2223033742082N12229973WA0005200054004003011030348
B2223043742084N12229974WA0005200051004003011326350
B2223053742085N12229977WA0005100047004003011284352
B2223063742085N12229982WA0005100047004003024280353
B2223073742086N12229984WA0005000050004003011274353
B2223083742086N12229984WA0005000051004003011119354
B2223093742085N12229984WA0004900049004003010132354
B2223103742083N12229983WA0004900048004003010164355
B2223113742081N12229983WA0004900047004003018177356
B2223123742078N12229982WA0004900048004003022163002
B2223133742075N12229980WA0004900048004003022146002
B2223153742072N12229977WA0004900049004003022135001
B2223163742068N12229971WA0004800049004003021135001
B2223173742065N12229968WA0004800048004004022141000
B2223183742062N12229965WA0004800047004003022134000
B2223193742060N12229962WA0004800050004003022143359
B2223203742058N12229961WA0004900049004003022177359
B2223213742057N12229962WA0004900050004003011244359
B2223223742057N12229965WA0004900050004003015268359
B2223233742058N12229967WA0004900051004003014295359
B2223243742059N12229969WA0005000051004003015309359
B2223253742061N12229971WA0005000052004003015315359
B2223263742064N12229974WA0005000050004003027335359
B2223273742068N12229976WA0005100050004003031339359
B2223283742072N12229977WA0005100050004003029342359
B2223293742076N12229979WA0005100050004003029339359
B2223303742080N12229981WA0005000050004003028334359
B2223313742083N12229984WA0005000050004003021325359
B2223323742085N12229986WA0005000050004003021307359
B2223333742086N12229989WA0005000049004003018282359
B2223343742086N12229991WA0004900048004003015276359
B2223353742084N12229993WA0004900048004003015201359
B2223363742082N12229992WA0004800050004003018163000
B2223373742079N12229990WA0004800049004003023140000
B2223383742077N12229988WA0004700048004003022138000
B2223393742074N12229985WA0004700048004003023133000
B2223403742072N12229982WA0004700048004003022131000
B2223413742070N12229979WA0004700048004003019123000
B2223423742068N12229975WA0004700048004003026127000
B2223433742066N12229971WA0004700048004003021120000
B2223443742063N12229969WA0004700047004004021155359
B2223453742061N12229967WA0004700047004003020155359
B2223463742058N12229966WA0004700047004003017160359
B2223473742056N12229966WA0004700049004003017183359
B2223483742054N12229966WA0004700050004003014202359
B2223493742053N12229966WA0004700049004003011178359
B2223503742051N12229966WA0004800049004003011180359
B2223513742049N12229966WA0004800049004004014185359
B2223523742046N12229965WA0004900050004004020170359
B2223533742044N12229965WA0004900049004004017170359
B2223543742041N12229965WA0004900050004004017166000
B2223553742039N12229963WA0004900050004004016151000
B2223563742037N12229961WA0005000050004003019137000
B2223573742035N12229958WA0005000051004003024125000
B2223583742032N12229955WA0005100051004003022131000
B2223593742030N12229953WA0005200051004003022148359
B2224003742028N12229952WA0005200051004003017179359
B2224013742027N12229953WA0005200051004003011211359
B2224023742026N12229954WA0005200051004003011238359
B2224033742026N12229956WA0005200051004003011277359
B2224043742027N12229958WA0005200051004003012301359
B2224053742028N12229960WA0005200052004003014302359
B2224063742033N12229963WA0005200051004003033338359
B2224073742037N12229966WA0005200052004003033329358
B2224083742044N12229963WA0005100051004003033014358
B2224093742051N12229961WA0005100049004004047012357
B2224103742057N12229959WA0005100052004004047016343
B2224113742063N12229955WA0005100053004006044022341
B2224123742067N12229958WA0005100048004004044358336
B2224133742072N12229961WA0005100047004004037321338
B2224143742076N12229964WA0005100047004004032320339
B2224153742078N12229966WA0005000050004003030317341
B2224163742080N12229967WA0005000050004004009350343
B2224173742082N12229967WA0005000047004003009336346
B2224183742083N12229970WA0005000045004003009305350
B2224193742084N12229976WA0004900044004003016275352
B2224203742084N12229979WA0004900048004003021279352
B2224213742085N12229980WA0004900049004003002290353
B2224223742085N12229980WA0004800048004003002290354
B2224233742084N12229981WA0004800046004003002234355
B2224243742083N12229984WA0004800042004003009248356
B2224253742082N12229989WA0004800043004003026245356
B2224263742080N12229990WA0004700045004003016193356
B2224273742078N12229989WA0004600044004003016145002
B2224283742075N12229985WA0004500046004003016122001
B2224293742073N12229983WA0004500046004003020141358
B2224303742070N12229982WA0004400046004003020169358
B2224313742067N12229981WA0004400046004003015165001
B2224323742065N12229979WA0004500046004003019133000
B2224333742063N12229975WA0004600047004003019119000
B2224343742061N12229970WA0004600048004003028116000
B2224353742060N12229967WA0004700049004003028128359
B2224363742058N12229966WA0004700049004003012157359
B2224373742057N12229969WA0004800045004003022260359
B2224383742058N12229973WA0004800045004003022290359
B2224393742059N12229976WA0004800046004003022306359
B2224403742060N12229978WA0004700047004003022301359
B2224413742059N12229978WA0004700047004003008168000
B2224423742057N12229977WA0004600045004003022161000
B2224433742054N12229975WA0004600043004003022150000
B2224443742050N12229971WA0004600046004003028129000
B2224453742049N12229966WA0004600048004003029107000
B2224463742048N12229961WA0004600050004003023101000
B2224473742047N12229958WA0004600049004003023112359
B2224483742045N12229958WA0004600047004003016178359
B2224493742043N12229960WA0004700045004003016238359
B2224503742043N12229964WA0004700045004003023273359
B2224513742047N12229968WA0004700044004003040328359
B2224523742053N12229970WA0004700044004003044348359
B2224533742059N12229970WA0004600046004003044003359
B2224543742064N12229970WA0004500048004003044004359
B2224553742068N12229971WA0004500049004003034353359
B2224563742073N12229972WA0004600048004003026338359
B2224573742076N12229975WA0004600047004003027328359
B2224583742079N12229977WA0004700047004003026317359
B2224593742081N12229980WA0004700047004003024303359
B2225003742082N12229982WA0004700047004003016270359
B2225013742081N12229984WA0004700047004003011221359
B2225023742079N12229984WA0004700046004003014187359
B2225033742077N12229983WA0004700047004003014152000
B2225043742075N12229982WA0004700047004003018144000
B2225053742073N12229979WA0004700048004003018139000
B2225063742071N12229978WA0004700049004003014143000
B2225073742069N12229977WA0004700048004003014160000
B2225083742066N12229974WA0004700049004003014149000
B2225093742064N12229972WA0004700048004003020138000
B2225103742062N12229970WA0004800048004003022138000
B2225113742059N12229967WA0004800049004003024141000
B2225123742056N12229964WA0004800051004003022151359
B2225133742053N12229964WA0004900050004003022180359
B2225143742052N12229964WA0004900052004003009185359
B2225153742051N12229964WA0004900051004003009191359
B2225163742050N12229964WA0005000051004003007187359
B2225173742049N12229965WA0005000050004003007227359
B2225183742048N12229968WA0005000049004003010262359
B2225193742050N12229971WA0005000049004003021301359
B2225203742053N12229974WA0005000049004003031328359
B2225213742058N12229975WA0005000049004003031349358
B2225223742064N12229975WA0005000048004003042008355
B2225233742070N12229973WA0004900049004003044022354
B2225243742076N12229970WA0004900051004003038021342
B2225253742081N12229970WA0004900051004003038003333
B2225263742085N12229971WA0005000051004003031341332
B2225273742089N12229973WA0005000050004003029311331
B2225283742090N12229977WA0005000051004003028287332
B2225293742091N12229979WA0005000051004003012253334
B2225303742090N12229980WA0005000052004003012206337
B2225313742089N12229981WA0005000052004003008181341
B2225323742088N12229981WA0005000053004003006142343
B2225333742087N12229981WA0005100052004003006181346
B2225343742086N12229980WA0005100052004003014173348
B2225353742083N12229979WA0005100053004003017160008
B2225363742081N12229977WA0005100053004003017139007
B2225373742078N12229974WA0005100053004003022130005
B2225383742076N12229971WA0005100053004003022130004
B2225393742073N12229968WA0005100052004003021145004
B2225403742071N12229966WA0005100053004003021150356
B2225413742068N12229965WA0005000054004003021164357
B2225423742066N12229964WA0005000055004003018164357
B2225433742065N12229964WA0005100056004003010168358
B2225443742065N12229965WA0005100056004003005226358
B2225453742064N12229965WA0005200056004003006211358
B2225463742063N12229965WA0005200056004003006182359
B2225473742062N12229966WA0005300056004003006206359
B2225483742061N12229966WA0005300056004003006187359
B2225493742059N12229966WA0005400056004003009173359
B2225503742058N12229965WA0005400056004003011157359
B2225513742056N12229964WA0005400057004003011161359
B2225523742055N12229963WA0005400057004003011155359
B2225533742054N12229963WA0005400055004003009188359
B2225543742055N12229967WA0005400051004003018280359
B2225553742057N12229969WA0005400050004003018320359
B2225563742063N12229973WA0005300051004003018336359
B2225573742066N12229974WA0005300054004003023353359
B2225583742070N12229976WA0005200055004004025341359
B2225593742072N12229977WA0005200054004004016341000
B2226003742064N12229977WA0005200049004003039177000
B2226013742060N12229976WA0005100051004003026166000
B2226023742057N12229973WA0005100051004004026151000
B2226033742054N12229967WA0005100050004004026125359
B2226043742055N12229964WA0005100053004003013079359
B2226053742053N12229962WA0005100049004003013158359
B2226063742053N12229967WA0005100048004003013266359
B2226073742053N12229969WA0005100045004003015269359
B2226083742062N12229973WA0005100045004003027341359
B2226093742067N12229973WA0005000048004003043005359
B2226103742072N12229974WA0004900050004003043355359
B2226113742076N12229975WA0004800053004004030353359
B2226123742079N12229977WA0004800051004006027335359
B2226133742070N12229983WA0004800051004003027212359
B2226143742068N12229983WA0004700052004003019189359
B2226153742066N12229984WA0004700052004003019165000
B2226163742064N12229980WA0004600052004003019117000
B2226173742062N12229979WA0004500050004003016130000
B2226183742060N12229977WA0004500049004003016155000
B2226193742058N12229975WA0004500048004003022150000
B2226203742055N12229972WA0004500047004003026134000
B2226213742053N12229969WA0004500048004003023126000
B2226223742051N12229966WA0004500048004003023126000
B2226233742049N12229963WA0004500049004003020122000
B2226243742047N12229960WA0004600049004003020127000
B2226253742045N12229957WA0004600048004003020130359
B2226263742044N12229955WA0004600048004003020140359
B2226273742042N12229955WA0004700047004003014185359
B2226283742042N12229956WA0004700047004003009245359
B2226293742042N12229959WA0004700045004003019294359
B2226303742045N12229961WA0004700044004003025317359
B2226313742048N12229964WA0004700044004003025337359
B2226323742053N12229966WA0004600044004003033349359
B2226333742059N12229966WA0004500045004003037000359
B2226343742064N12229966WA0004500046004003033007359
B2226353742069N12229966WA0004500046004003033003359
B2226363742073N12229967WA0004500045004003029345359
B2226373742077N12229968WA0004500045004003028340359
B2226383742080N12229972WA0004600047004003027325359
B2226393742082N12229974WA0004600048004003018315359
B2226403742084N12229975WA0004600048004003018318359
B2226413742084N12229978WA0004600048004003013284359
B2226423742085N12229980WA0004600049004003013263359
B2226433742084N12229982WA0004600049004003012244359
B2226443742083N12229983WA0004600049004003010213359
B2226453742082N12229984WA0004600049004003010190000
B2226463742080N12229984WA0004600049004003010168000
B2226473742078N12229984WA0004500048004003013174000
B2226483742076N12229983WA0004500049004003013171000
B2226493742073N12229982WA0004500049004003018161000
B2226503742071N12229981WA0004500049004003019149000
B2226513742069N12229979WA0004500049004003019146000
B2226523742066N12229977WA0004500049004003019147000
B2226533742064N12229975WA0004500051004003018141000
B2226543742062N12229973WA0004500052004003015140000
B2226553742060N12229972WA0004500052004003016152000
B2226563742058N12229970WA0004600055004003016153359
B2226573742056N12229971WA0004700052004003016182359
B2226583742054N12229972WA0004700052004003014180359
B2226593742052N12229971WA0004800051004003014168000
B2227003742050N12229969WA0004800052004003020136000
B2227013742048N12229967WA0004800051004003020132000
B2227023742046N12229964WA0004900052004003020130359
B2227033742044N12229963WA0004900051004003020146359
B2227043742044N12229966WA0004900048004003016267359
B2227053742046N12229969WA0004900047004003027295359
B2227063742049N12229974WA0004900046004003027317359
B2227073742053N12229976WA0004800048004003035341359
B2227083742058N12229977WA0004800049004003035352359
B2227093742062N12229979WA0004800050004003025347359
B2227103742064N12229981WA0004800049004003025323359
B2227113742066N12229984WA0004800047004003020284359
B2227123742065N12229987WA0004800045004003020238359
B2227133742062N12229987WA0004800043004003025175000
B2227153742059N12229985WA0004700040004003031149000
B2227163742055N12229977WA0004500044004003031105359
B2227183742054N12229976WA0004500043004003006134359
B2227193742051N12229979WA0004400041004004012221359
B2227203742049N12229979WA0004400045004003012179359
B2227213742048N12229977WA0004400046004003014121000
B2227223742046N12229976WA0004400046004003015139359
B2227233742044N12229975WA0004400045004003015162359
B2227243742040N12229975WA0004300045004003015182359
B2227253742037N12229974WA0004300045004003018156000
B2227263742036N12229974WA0004300046004003012168000
B2227273742033N12229971WA0004200045004003021135000
B2227283742031N12229970WA0004200044004003015161359
B2227293742028N12229969WA0004200044004003017177359
B2227303742026N12229970WA0004200044004003017192359
B2227313742023N12229969WA0004200044004003018178359
B2227323742020N12229969WA0004200044004003021177359
B2227333742017N12229969WA0004200045004003018177359
B2227343742014N12229969WA0004200046004003018180359
B2227353742013N12229970WA0004200046004003017199359
B2227363742011N12229970WA0004200047004003013197359
B2227373742009N12229970WA0004200047004003015180359
B2227383742006N12229970WA0004300047004003015174359
B2227393742005N12229970WA0004300048004003015165359
B2227403742003N12229970WA0004300048004003011172359
B2227413742000N12229970WA0004300045004003019181359
B2227423741997N12229970WA0004300044004003023184359
B2227433741994N12229971WA0004300044004003021185359
B2227443741992N12229971WA0004200045004003021178359
B2227453741990N12229970WA0004200046004003016169359
B2227463741988N12229969WA0004100046004003011162359
B2227473741986N12229969WA0004100045004003015170359
B2227483741983N12229969WA0004100044004003015177359
B2227493741980N12229968WA0004100044004003017172359
B2227503741978N12229967WA0004100045004003020164359
B2227513741975N12229966WA0004100046004003016155359
B2227523741973N12229965WA0004100045004003017152359
B2227533741971N12229963WA0004000045004003017155359
B2227543741968N12229962WA0004000045004003017158359
B2227553741966N12229961WA0004000045004003018160359
B2227563741963N12229960WA0004000045004003020161359
B2227573741960N12229958WA0004100045004003021162359
B2227583741957N12229958WA0004100045004003020171359
B2227593741954N12229956WA0004100046004003021163359
B2228003741952N12229955WA0004100047004003019162359
B2228013741948N12229954WA0004200050004003025163359
B2228023741947N12229953WA0004200051004003025156359
B2228033741945N12229953WA0004200049004003013183359
B2228043741943N12229953WA0004400049004003013188359
B2228053741940N12229952WA0004500050004003016174359
B2228063741937N12229951WA0004500050004003018160359
B2228073741935N12229950WA0004600051004003018161359
B2228083741932N12229949WA0004600051004003018161359
B2228093741930N12229948WA0004700051004003018162359
B2228103741927N12229947WA0004700052004003019154359
B2228113741925N12229945WA0004700053004003020156359
B2228123741922N12229944WA0004700054004003020153359
B2228133741920N12229942WA0004700054004003019155359
B2228143741918N12229942WA0004700053004003016172359
B2228153741915N12229942WA0004800051004003016175359
B2228163741913N12229942WA0004900050004003022182359
B2228173741909N12229942WA0004900049004003024182359
B2228183741906N12229942WA0004900050004003022179359
B2228193741903N12229941WA0004900050004003021165359
B2228203741900N12229940WA0004900051004003019151000
B2228213741897N12229937WA0004900051004003024146000
B2228223741894N12229935WA0004900050004003026150000
B2228233741891N12229933WA0004900050004003026153359
B2228243741888N12229931WA0004900050004003026149359
B2228253741885N12229929WA0004900051004003025148359
B2228263741882N12229927WA0004900051004003020152359
B2228273741880N12229926WA0004900051004003020168359
B2228283741877N12229925WA0004900050004003018178359
B2228293741874N12229925WA0004900049004003018176359
B2228303741871N12229925WA0004900049004003019174359
B2228313741868N12229924WA0004900049004003023169359
B2228323741864N12229923WA0004800049004003023167359
B2228333741861N12229923WA0004800049004003022169359
B2228343741859N12229922WA0004800049004003019169359
B2228353741855N12229921WA0004800048004003019170359
B2228363741852N12229921WA0004700047004003024170359
B2228373741848N12229919WA0004700048004003025159359
B2228383741845N12229918WA0004700047004003024160359
B2228393741843N12229916WA0004700048004003022159359
B2228403741840N12229915WA0004700049004003020164359
B2228413741837N12229916WA0004700047004003019172359
B2228423741834N12229914WA0004700047004003020156359
B2228433741831N12229913WA0004700047004003020152359
B2228443741829N12229911WA0004700046004003020158359
B2228453741827N12229911WA0004700045004003017176359
B2228463741824N12229911WA0004700045004003018180359
B2228473741821N12229910WA0004700044004003018172359
B2228483741819N12229908WA0004600044004003018151000
B2228493741816N12229906WA0004600044004003018147359
B2228503741814N12229906WA0004600043004003017163359
B2228513741812N12229906WA0004600043004003017188359
B2228523741809N12229905WA0004500044004003017177359
B2228533741807N12229904WA0004400044004003016148359
B2228543741805N12229902WA0004400044004003016133000
B2228553741803N12229901WA0004400044004003016137359
B2228563741801N12229899WA0004400044004003014151359
B2228573741800N12229898WA0004400044004003014159359
B2228583741798N12229897WA0004400044004003014156359
B2228593741796N12229896WA0004400044004003014152359
B2229003741794N12229894WA0004500043004003014145359
B2229013741792N12229893WA0004500043004003014148359
B2229023741790N12229892WA0004500043004003014149359
B2229033741789N12229891WA0004400043004003012156359
B2229043741787N12229890WA0004400043004003010162359
B2229053741786N12229890WA0004400044004003010165359
B2229063741784N12229889WA0004400044004003011161359
B2229073741783N12229889WA0004400044004003011161359
B2229083741781N12229888WA0004300043004003011164359
B2229093741780N12229888WA0004300043004003010164359
B2229103741778N12229887WA0004300042004003011167359
B2229113741776N12229887WA0004300042004003011166359
B2229123741774N12229886WA0004300042004003014171359
B2229133741772N12229886WA0004300041004003012170359
B2229143741771N12229886WA0004300042004003013171359
B2229153741769N12229886WA0004300042004003012175359
B2229163741767N12229886WA0004200042004003011176359
B2229173741765N12229885WA0004200042004003012174359
B2229183741763N12229885WA0004200042004003012169359
B2229203741761N12229885WA0004200043004003013169359
B2229213741760N12229884WA0004300043004003013171359
B2229223741758N12229884WA0004300043004003013175359
B2229233741756N12229884WA0004300044004003011173359
B2229243741755N12229883WA0004300043004003011171359
B2229253741753N12229883WA0004300044004003011166359
B2229263741751N12229882WA0004400044004003014165359
B2229273741749N12229881WA0004400044004003014162359
B2229283741747N12229881WA0004400044004003014159359
B2229293741745N12229880WA0004400044004003012158359
B2229303741744N12229879WA0004400045004003012162359
B2229313741742N12229878WA0004400045004003011165359
B2229323741740N12229878WA0004400046004003012166359
B2229333741739N12229877WA0004500047004003011165359
B2229343741738N12229877WA0004500047004003009172359
B2229353741735N12229878WA0004500046004003009194359
B2229363741733N12229878WA0004600047004003013190359
B2229373741731N12229878WA0004600048004003011181359
B2229383741730N12229878WA0004600048004003012174359
B2229393741728N12229878WA0004700048004003012170359
B2229403741726N12229877WA0004700049004003014171359
B2229413741724N12229877WA0004700050004003014171359
B2229423741721N12229876WA0004700051004003014169359
B2229433741719N12229875WA0004800052004003014166359
B2229443741717N12229875WA0004800052004003014164359
B2229453741716N12229874WA0004900053004003011167359
B2229463741714N12229874WA0004900053004003012173359
B2229473741712N12229874WA0004900054004003012180359
B2229483741710N12229874WA0005000054004003012183359
B2229493741709N12229874WA0005100055004003012182359
B2229503741707N12229874WA0005100056004003013174359
B2229513741705N12229873WA0005200056004003013162359
B2229523741703N12229872WA0005300056004003013156359
B2229533741701N12229871WA0005300056004003014159359
B2229543741698N12229871WA0005300056004003017175359
B2229553741695N12229870WA0005400057004003022175359
B2229563741693N12229870WA0005500058004003022174359
B2229573741691N12229870WA0005500059004003018169359
B2229583741688N12229869WA0005500060022003015165359
B2229593741686N12229868WA0005600062022003015165359
B2230003741683N12229869WA0005700061022003021182359
B2230013741680N12229868WA0005700062022003021179359
B2230023741678N12229869WA0005700063022003019178359
B2230033741676N12229869WA0005800062022003013197359
B2230043741675N12229869WA0005900062022003011190359
B2230053741672N12229870WA0006000062022003014190359
B2230063741670N12229870WA0006000062022003018185359
B2230073741667N12229871WA0006100062022003018184359
B2230083741665N12229871WA0006100062022003018185359
B2230093741663N12229871WA0006100063022003017186359
B2230103741661N12229872WA0006100062022003012206359
B2230113741659N12229871WA0006100063022003014170359
B2230123741657N12229871WA0006100064022003014181359
B2230133741654N12229871WA0006100064022004015175359
B2230143741651N12229872WA0006100061022003017191359
B2230153741648N12229873WA0006100062022003019190359
B2230163741646N12229873WA0006100062022003019180359
B2230173741643N12229872WA0006000063022003017169359
B2230183741641N12229871WA0006000062022003017162359
B2230193741638N12229871WA0006000062022003016172359
B2230203741636N12229871WA0005900062022003017179359
B2230213741633N12229871WA0005900060022003018179359
B2230223741630N12229870WA0005900060022003018172359
B2230233741628N12229870WA0005800060004003018169359
B2230243741625N12229869WA0005800060004003017164359
B2230253741623N12229868WA0005700060004003015165359
B2230263741621N12229868WA0005700060004003015168359
B2230273741619N12229867WA0005700059004003014166359
B2230283741617N12229867WA0005600059004003014162359
B2230293741614N12229866WA0005600059004003016167359
B2230303741612N12229865WA0005600059004003019169359
B2230313741609N12229865WA0005600058004003019172359
B2230323741606N12229864WA0005600059004003017167359
B2230333741604N12229863WA0005500060004003017161359
B2230343741601N12229862WA0005500060004003017160359
B2230353741599N12229860WA0005500060004003017158359
B2230363741597N12229860WA0005500060004003017171359
B2230373741594N12229860WA0005600059004003016180359
B2230383741592N12229859WA0005600060004003016174359
B2230393741589N12229858WA0005600061004003017163359
B2230403741587N12229857WA0005600061004003016159359
B2230413741585N12229856WA0005600062004003016164359
B2230423741583N12229856WA0005600062004003016172359
B2230433741580N12229856WA0005600063004003016174359
B2230443741577N12229855WA0005700064004003019170000
B2230453741574N12229854WA0005700066004003019165000
B2230463741571N12229853WA0005700068004004019168000
B2230473741568N12229853WA0005800070004006019174000
B2230483741568N12229850WA0005900070004003017099000
B2230493741567N12229849WA0006100071004003013135359
B2230503741565N12229847WA0006100070004003018146000
B2230513741562N12229845WA0006300071004003021157000
B2230523741560N12229843WA0006400070004003018152000
B2230533741558N12229841WA0006600073004003018144000
B2230543741556N12229839WA0006600073004003016128000
B2230553741554N12229837WA0006700074004003016134359
B2230563741552N12229835WA0006800075004003018150359
B2230573741550N12229835WA0006900076004004016180359
B2230583741547N12229836WA0006900076004003015190359
B2230593741546N12229836WA0006900078004003014180359
B2231003741544N12229835WA0007000078004003008162359
B2231013741543N12229835WA0007100079004003011163359
B2231023741540N12229834WA0007100078004003011165359
B2231033741538N12229833WA0007200078004003017165359
B2231043741536N12229832WA0007300078004003018164359
B2231053741533N12229831WA0007400079004003015162359
B2231063741532N12229831WA0007400079004003015164359
B2231073741530N12229830WA0007400078004003012168359
B2231083741528N12229830WA0007500076004003012170359
B2231093741525N12229829WA0007500076004003016170359
B2231103741523N12229829WA0007500076004003018171359
B2231113741520N12229828WA0007500077004003018163359
B2231123741518N12229827WA0007500078004003017163359
B2231133741516N12229826WA0007500080004004016165359
B2231143741514N12229826WA0007500079004006016176359
B2231153741511N12229826WA0007500079004006018175359
B2231163741508N12229825WA0007600082004004020170359
B2231173741506N12229825WA0007600084004004018165359
B2231183741505N12229823WA0007600085004004018129359
B2231193741504N12229822WA0007700084004003011129359
B2231203741502N12229821WA0007800085004003011153359
B2231213741500N12229821WA0007900085004003015186359
B2231223741498N12229821WA0007900087004003011185359
B2231233741497N12229821WA0008100088004003011165359
B2231243741496N12229820WA0008200088004003009172359
B2231253741495N12229820WA0008300087004004006174359
B2231263741493N12229820WA0008300087004004008181359
B2231273741492N12229820WA0008400088004004008165359
B2231283741490N12229819WA0008500088004004008165359
B2231293741489N12229819WA0008600090022004010167359
B2231303741488N12229818WA0008600090022003010172359
B2231313741487N12229818WA0008700091022003009169359
B2231323741485N12229817WA0008800092022003009159359
B2231333741484N12229816WA0008900093022003009156359
B2231343741483N12229816WA0008900094022003008156359
B2231353741481N12229816WA0009000094022003010172359
B2231363741480N12229815WA0009100096022003009172359
B2231373741478N12229815WA0009200097022003010166359
B2231383741477N12229814WA0009200098022003013150359
B2231393741475N12229813WA0009200098022003013154359
B2231403741474N12229812WA0009300099022003010161359
B2231413741473N12229812WA0009400099022003010176359
B2231423741471N12229812WA0009400099022003010181359
B2231433741469N12229812WA0009500101022003010175359
B2231443741468N12229811WA0009600102022003011162359
B2231453741467N12229811WA0009700103022003010152359
B2231463741466N12229810WA0009700103022004009150359
B2231473741465N12229809WA0009800105022004006153359
B2231483741464N12229809WA0009900105022006014159359
B2231493741462N12229808WA0010000106022004014166359
B2231503741460N12229808WA0010000108022004011167359
B2231513741459N12229808WA0010100109022003010168359
B2231523741458N12229807WA0010200109022003009168359
B2231533741456N12229807WA0010300110022003009169359
B2231543741455N12229807WA0010300111022003009171359
B2231553741454N12229807WA0010400112022003009168359
B2231563741452N12229806WA0010500113022003011167359
B2231573741450N12229806WA0010600113022003011163359
B2231583741449N12229805WA0010600114022003009159359
B2231593741448N12229805WA0010800114022003009159359
B2232003741446N12229804WA0010900114022003009162359
B2232013741444N12229804WA0011000114022003011165359
B2232023741443N12229803WA0011000115022003011165359
B2232033741441N12229803WA0011100116022003009165359
B2232043741440N12229803WA0011200117022003009167359
B2232053741439N12229803WA0011300117004003009172359
B2232063741437N12229803WA0011300118004003009177359
B2232073741436N12229803WA0011400119004003009176359
B2232083741434N12229802WA0011400119004003008168359
B2232093741433N12229802WA0011500121004003008172359
B2232103741432N12229802WA0011500121004004008172359
B2232113741431N12229802WA0011600120004003009189359
B2232123741429N12229803WA0011700121004004011185359
B2232133741428N12229802WA0011700122004006008182359
B2232143741426N12229802WA0011700124004004012163359
B2232153741424N12229801WA0011800125004004010155359
B2232163741423N12229800WA0011900126004004010163359
B2232173741422N12229799WA0011900126004004010165359
B2232183741420N12229798WA0011900127004004010168359
B2232193741419N12229798WA0012000127004003010169359
B2232203741417N12229797WA0012100128004003010166359
B2232213741415N12229797WA0012200129004003013159359
B2232223741413N12229795WA0012200130004003014156359
B2232233741411N12229794WA0012300130004003010157359
B2232243741410N12229794WA0012400131004003010161359
B2232253741408N12229793WA0012500132004003010161359
B2232263741407N12229792WA0012500133004004010158359
B2232273741405N12229792WA0012600133004003010163359
B2232283741404N12229791WA0012700135004004013169359
B2232293741402N12229791WA0012800134004003013183359
B2232303741400N12229792WA0012800134004003013187359
B2232313741398N12229792WA0012900135004003013182359
B2232323741396N12229791WA0013000137004004015168359
B2232333741393N12229790WA0013100138004004016158359
B2232343741391N12229789WA0013100138004003016157359
B2232353741390N12229788WA0013200139004003013158359
B2232363741388N12229787WA0013300139004003013158359
B2232373741385N12229786WA0013400140004003016156359
B2232383741383N12229784WA0013400141004003017152359
B2232393741381N12229783WA0013500142004003017153359
B2232403741380N12229782WA0013600143004003014155359
B2232413741378N12229781WA0013800144004003010158359
B2232423741377N12229780WA0013800143004003010162359
B2232433741375N12229780WA0013900144004003016165359
B2232443741372N12229779WA0014000144004003017168359
B2232453741370N12229779WA0014100145004003016169359
B2232463741368N12229778WA0014100147004003015164359
B2232473741366N12229777WA0014100147004003014153359
B2232483741364N12229775WA0014200147004003016146359
B2232493741362N12229774WA0014300146004003016150359
B2232503741360N12229773WA0014300146004003016159359
B2232513741357N12229773WA0014300146004003017171359
B2232523741355N12229772WA0014400146004003019173359
B2232533741352N12229772WA0014400147004003019174359
B2232543741349N12229772WA0014400148004003019178359
B2232553741347N12229772WA0014400149004003017184359
B2232563741345N12229771WA0014400149004003014178359
B2232573741342N12229771WA0014500149004003014178359
B2232583741340N12229772WA0014500149004003017178359
B2232593741337N12229772WA0014500149004003018183359
B2233003741335N12229772WA0014500149004003017184359
B2233013741333N12229773WA0014600148004003018198359
B2233023741330N12229774WA0014600148004003018195359
B2233033741328N12229774WA0014600149004003015183359
B2233043741325N12229773WA0014600151004003015175359
B2233053741323N12229773WA0014600151004003015180359
B2233063741321N12229774WA0014600152004004015185359
B2233073741318N12229773WA0014600152004004016168359
B2233083741315N12229773WA0014700152004004021192359
B2233093741311N12229773WA0014700152004004022176359
B2233103741308N12229772WA0014700152004004021165000
B2233113741305N12229770WA0014700152004004022152000
B2233123741303N12229769WA0014700151004004021157359
B2233133741300N12229768WA0014700151004004017163359
B2233143741298N12229766WA0014700151004006018154359
B2233153741294N12229765WA0014700152004004018170359
B2233163741291N12229764WA0014700154004004020163359
B2233173741288N12229763WA0014700155004006020162359
B2233183741286N12229762WA0014700156004004019161359
B2233193741283N12229761WA0014700155004003019169359
B2233203741280N12229762WA0014700154004003018175359
B2233213741277N12229762WA0014800153004003018169359
B2233223741274N12229760WA0014800153004003020167359
B2233233741271N12229760WA0014800153004003020175359
B2233243741268N12229760WA0014800153004003020181359
B2233253741265N12229760WA0014800153004003020182359
B2233263741262N12229760WA0014800153004003019173359
B2233273741259N12229759WA0014800153004003019175359
B2233283741256N12229760WA0014800153004003021185359
B2233293741253N12229760WA0014900153004003021181359
B2233303741250N12229759WA0014900154004003019174359
B2233313741247N12229759WA0014900154004003019181359
B2233323741244N12229759WA0014900154004003023169359
B2233333741241N12229759WA0014900154004003023181359
B2233343741239N12229759WA0014900154004003020181359
B2233353741236N12229759WA0014900154004003018180359
B2233363741233N12229759WA0015000154004003018175359
B2233373741230N12229759WA0015000153004003023169359
B2233383741227N12229757WA0015000154004003025162000
B2233393741223N12229756WA0015100154004003024155000
B2233403741220N12229753WA0015100154004003025148000
B2233413741217N12229751WA0015100154004003024149000
B2233423741214N12229749WA0015100154004003024152000
B2233433741211N12229747WA0015100155004003023155359
B2233443741208N12229745WA0015100157004003023148000
B2233453741205N12229743WA0015100157004003020146359
B2233463741203N12229741WA0015100159004003020149359
B2233473741200N12229740WA0015200160004003017156359
B2233483741198N12229738WA0015300160004003017157359
B2233493741196N12229737WA0015400160004003018151359
B2233503741193N12229735WA0015400161004003019146359
B2233513741191N12229733WA0015500162004003019146359
B2233523741188N12229732WA0015600162004003019161359
B2233533741186N12229731WA0015700163004003017168359
B2233543741184N12229731WA0015700163022003015175359
B2233553741182N12229730WA0015800164022003015169359
B2233563741180N12229731WA0015900164022003015184359
B2233573741178N12229731WA0015900164022004012171359
B2233583741176N12229731WA0015900162022003012183359
B2233593741173N12229731WA0016000163022003015178359
B2234003741170N12229731WA0016100163022003019175359
B2234013741168N12229730WA0016100164022004019170359
B2234023741165N12229730WA0016100165022003019173359
B2234033741163N12229729WA0016200166022003014171359
B2234043741161N12229729WA0016200166022003014173359
B2234053741159N12229729WA0016300166022003016177359
B2234063741156N12229728WA0016300166022003018176359
B2234073741154N12229728WA0016300166022003018174359
B2234083741151N12229728WA0016400167022003018170359
B2234093741149N12229727WA0016500167022003017165359
B2234103741147N12229726WA0016500169022003011161359
B2234113741144N12229725WA0016500168022003018165359
B2234123741142N12229724WA0016600169022003018166359
B2234133741139N12229724WA0016600170022004018178359
B2234143741137N12229724WA0016600170022003016179359
B2234153741134N12229723WA0016600170022003016166359
B2234163741132N12229723WA0016700170022003020162359
B2234173741130N12229722WA0016700170022003017163359
B2234183741127N12229721WA0016700171022003017164359
B2234193741124N12229720WA0016800171022003017166359
B2234203741122N12229720WA0016800170022003017183359
B2234213741119N12229721WA0016800170022003021187359
B2234223741115N12229721WA0016800170022003021189359
B2234233741112N12229722WA0016900170004003021188359
B2234243741110N12229722WA0016900170004003020183359
B2234253741106N12229723WA0016900170004003022183359
B2234263741103N12229723WA0016900169004003025186359
B2234273741099N12229724WA0016900169004003025187359
B2234283741095N12229724WA0016900170004003025184359
B2234293741092N12229724WA0016900171004003025176359
B2234303741089N12229724WA0016900173004003015190359
B2234313741086N12229725WA0016900172004003021180359
B2234323741083N12229725WA0016900173004004020183359
B2234333741080N12229726WA0016800170004004021196359
B2234343741076N12229726WA0016800170004003021184359
B2234353741072N12229726WA0016800169004003028181359
B2234363741068N12229725WA0016800169004003028173359
B2234373741064N12229725WA0016800169004003028170359
B2234383741060N12229724WA0016800170004003027165359
B2234393741056N12229724WA0016800170004003026180359
B2234403741052N12229723WA0016700170004003027170359
B2234413741048N12229722WA0016700168004003029173359
B2234423741044N12229722WA0016700168004003029174359
B2234433741040N12229721WA0016700168004003029171359
B2234443741036N12229720WA0016700168004003029170359
B2234453741032N12229720WA0016600168004003029172359
B2234463741027N12229719WA0016600166004003029180359
B2234473741023N12229719WA0016600165004003029178359
B2234483741019N12229718WA0016500165004003029173359
B2234493741015N12229718WA0016400164004003029177359
B2234503741010N12229718WA0016400164004003028172359
B2234513741006N12229717WA0016400164004003028174359
B2234523741002N12229717WA0016300163004003028177359
B2234533740997N12229716WA0016300163004003029176359
B2234543740993N12229716WA0016300162004003029177359
B2234553740989N12229715WA0016200162004003028173359
B2234563740985N12229715WA0016100161004003028176359
B2234573740980N12229714WA0016000160004003028175359
B2234583740976N12229714WA0016000159004003029174359
B2234593740971N12229713WA0015900159004003029171359
B2235003740967N12229712WA0015800158004003030170359
B2235013740963N12229711WA0015700157004003030169359
B2235023740959N12229710WA0015700156004003029173359
B2235033740955N12229710WA0015600155004003026176359
B2235043740951N12229709WA0015500154004003026172359
B2235053740946N12229709WA0015400152004003029171359
B2235063740942N12229708WA0015400150004003030169359
B2235073740938N12229707WA0015300149004003029177359
B2235083740934N12229707WA0015100148004003028183359
B2235093740930N12229707WA0015000147004004026184359
B2235103740927N12229707WA0015000146004003023177359
B2235113740923N12229706WA0014800144004003025172359
B2235123740919N12229706WA0014700143004003025174359
B2235133740915N12229705WA0014500142004003026176359
B2235143740911N12229705WA0014500141004003026174359
B2235153740907N12229704WA0014400140004003025169359
B2235163740904N12229704WA0014200139004003025169359
B2235173740900N12229703WA0014100137004003025172359
B2235183740896N12229702WA0014100135004003025179359
B2235193740893N12229702WA0013900134004003025181359
B2235203740889N12229702WA0013800134004003023175359
B2235213740886N12229701WA0013600133004004023166359
B2235223740884N12229700WA0013600134004004021164359
B2235233740882N12229700WA0013500133004004015173359
B2235243740880N12229701WA0013300133004004011185359
B2235253740878N12229701WA0013200131004003015180359
B2235263740875N12229700WA0013200129004004019175359
B2235273740873N12229700WA0013200128004004018169359
B2235283740871N12229701WA0013100127004004018183359
B2235293740869N12229699WA0013000126004004013169359
B2235303740866N12229699WA0013000124004006013172359
B2235313740864N12229699WA0012900123004004013179359
B2235323740862N12229699WA0012800123004004013172359
B2235333740859N12229699WA0012600122004004016174359
B2235343740857N12229698WA0012600123004004016165359
B2235353740855N12229697WA0012500123004004016161359
B2235363740853N12229696WA0012400124004004016170359
B2235383740851N12229696WA0012400124004003013171359
B2235393740849N12229696WA0012400123004003013170359
B2235403740846N12229695WA0012300124004003016170359
B2235413740844N12229695WA0012300124004003017171359
B2235423740842N12229694WA0012300124004003016172359
B2235433740840N12229694WA0012300125004003015176359
B2235443740837N12229694WA0012300125004003014179359
B2235453740835N12229694WA0012300126004003016181359
B2235463740833N12229694WA0012300127004003016178359
B2235473740831N12229694WA0012300127004003016178359
B2235483740828N12229695WA0012300127004003016194359
B2235493740823N12229694WA0012400129004003017174359
B2235513740820N12229694WA0012400130004003018170359
B2235523740816N12229694WA0012500131004003017178359
B2235533740813N12229694WA0012600131004003015184359
B2235543740811N12229693WA0012600133004004016169359
B2235553740808N12229693WA0012600133004004018170359
B2235563740806N12229694WA0012700134004006016185359
B2235573740804N12229694WA0012800135005006016201359
B2235583740801N12229695WA0012800136004004016189359
B2235593740799N12229695WA0012800136004004016188359
B2236003740796N12229695WA0012900135004004016183359
B2236013740794N12229695WA0012900135004004016179359
B2236023740791N12229696WA0012900135004003016184359
B2236033740788N12229696WA0013000136004003018191359
B2236043740785N12229696WA0013000137004003020184359
B2236053740782N12229696WA0013100138004003020172359
B2236063740780N12229695WA0013100139004003017168359
B2236073740778N12229694WA0013100139004004015159359
B2236083740775N12229694WA0013200138022003015173359
B2236093740772N12229693WA0013300138004003020174359
B2236103740769N12229693WA0013300139004003020171359
B2236113740766N12229692WA0013300140004003020165359
B2236123740764N12229691WA0013400140004003018171359
B2236133740762N12229691WA0013500141004004017173359
B2236143740759N12229690WA0013500142004003020166359
B2236153740756N12229689WA0013500142004003020168359
B2236163740753N12229688WA0013600142004003020160000
B2236173740750N12229687WA0013700143004003021165359
B2236183740747N12229686WA0013700144004003021166359
B2236193740744N12229685WA0013800146004003019166359
B2236203740741N12229684WA0014000148004003019164359
B2236213740739N12229683WA0014100148004003019165359
B2236223740736N12229683WA0014100149004003019174359
B2236233740732N12229683WA0014300151004003021176359
B2236243740729N12229682WA0014400151004003022180359
B2236253740726N12229682WA0014600153004003022178359
B2236263740724N12229682WA0014600154004003017176359
B2236273740721N12229681WA0014800155004003016178359
B2236283740719N12229682WA0015000154004003016188359
B2236293740716N12229681WA0015100155004003019176359
B2236303740713N12229681WA0015100156004003019171359
B2236313740711N12229681WA0015300157004004018178359
B2236323740708N12229680WA0015400158004003017181359
B2236333740705N12229681WA0015500159004003017186359
B2236343740702N12229681WA0015500160004003020183359
B2236353740700N12229681WA0015600160004003020184359
B2236363740697N12229681WA0015700162004004017187359
B2236373740694N12229680WA0015800162004004017169359
B2236383740691N12229680WA0015800163004004019173359
B2236393740688N12229680WA0015900164004003020174359
B2236403740685N12229680WA0016000164004003021174359
B2236413740682N12229679WA0016100165004003020171359
B2236423740679N12229678WA0016100165004003020171359
B2236433740676N12229678WA0016200165004003020169359
B2236443740673N12229678WA0016200165004003021180359
B2236453740670N12229678WA0016300165004003021173359
B2236463740666N12229677WA0016300165004003021174359
B2236473740663N12229676WA0016300165004003021166359
B2236483740660N12229676WA0016300166004003021174359
B2236493740658N12229676WA0016300166004003018178359
B2236503740655N12229675WA0016300166004003018184359
B2236513740653N12229676WA0016300166004003018186359
B2236523740650N12229676WA0016400164004003017182359
B2236533740647N12229676WA0016400164004003017183359
B2236543740644N12229677WA0016400163004003020187359
B2236553740641N12229677WA0016400164004003020180359
B2236563740639N12229676WA0016300164004003018165359
B2236573740636N12229675WA0016300164004003017158359
B2236583740634N12229674WA0016300166004003017165359
B2236593740631N12229674WA0016300163004003020168359
B2237003740628N12229673WA0016300162004003020174359
B2237013740625N12229672WA0016200163004003020166359
B2237023740622N12229671WA0016200164004003020164000
B2237033740620N12229670WA0016200163004004020159000
B2237043740617N12229668WA0016200163004004020152359
B2237053740614N12229667WA0016100162004004020157359
B2237063740611N12229665WA0016100162004004020165359
B2237073740608N12229664WA0016100161004003020161359
B2237083740606N12229663WA0016000161004003021159359
B2237093740603N12229661WA0016000161004003020159359
B2237103740600N12229660WA0016000161004003020161359
B2237113740598N12229659WA0016000161022003019163359
B2237123740595N12229658WA0016000161022003017153359
B2237133740593N12229656WA0016000160022003017151359
B2237143740590N12229655WA0016000159022003021161000
B2237153740587N12229653WA0015900159022003024150359
B2237163740584N12229651WA0015900158022003022159359
B2237173740581N12229650WA0015900159022003022165359
B2237183740578N12229649WA0015900159022003018167359
B2237193740576N12229649WA0015900159022003017170359
B2237203740573N12229648WA0015800159022003019171359
B2237213740570N12229648WA0015800160022003019175359
B2237223740567N12229648WA0015800160022003020177359
B2237233740564N12229648WA0015800161022003020181359
B2237243740561N12229648WA0015800160022003020187359
B2237253740558N12229648WA0015900161022003020185359
B2237263740556N12229648WA0015900161022003019181359
B2237273740553N12229648WA0015900161022003019177359
B2237283740550N12229648WA0015900162022003019183359
B2237293740547N12229649WA0015900162022003017188359
B2237303740544N12229648WA0015900164022003020170359
B2237313740542N12229648WA0016000165022003019178359
B2237323740539N12229647WA0016000164022003019173359
B2237333740536N12229646WA0016000166022003018176359
B2237343740533N12229646WA0016000165022003019167359
B2237353740531N12229646WA0016100164022003019183359
B2237363740527N12229646WA0016100164022003019178359
B2237373740525N12229646WA0016200164022003018181359
B2237383740522N12229646WA0016200164022004018176359
B2237393740520N12229645WA0016200164022003018161359
B2237403740517N12229644WA0016200163022003020170359
B2237413740514N12229643WA0016200164022003020168359
B2237423740511N12229643WA0016200163022003020169359
B2237443740509N12229643WA0016200163022003018172359
B2237453740506N12229641WA0016200163022003020159359
B2237463740503N12229641WA0016200163022003018168359
B2237473740500N12229640WA0016200162022003020164359
B2237483740497N12229639WA0016200162022003020165359
B2237493740494N12229638WA0016200161022003020168359
B2237503740492N12229638WA0016100161022003020171359
B2237513740489N12229637WA0016100161022003020165000
B2237523740486N12229636WA0016100161022003020162000
B2237533740483N12229634WA0016100162022003020159000
B2237543740480N12229633WA0016000162022003019162359
B2237553740477N12229632WA0016000162022003020162359
B2237563740474N12229631WA0016000162022003020166359
B2237573740471N12229630WA0016000163022003020164359
B2237583740468N12229629WA0016000163022003020162000
B2237593740465N12229628WA0016000163022003021161359
B2238003740462N12229627WA0016100162022003023161359
B2238013740455N12229624WA0016100162022003024160000
B2238023740452N12229622WA0016100163022003024158000
B2238033740449N12229621WA0016100163022003024157000
B2238043740446N12229619WA0016100164022004024157000
B2238053740443N12229617WA0016100163022004023151000
B2238063740439N12229615WA0016100163022004023163359
B2238073740436N12229614WA0016100163022003024166359
B2238083740432N12229613WA0016100162022003023166359
B2238093740429N12229611WA0016100162022003023153359
B2238103740426N12229610WA0016100163022003023157359
B2238113740423N12229608WA0016100162022003023162359
B2238123740420N12229608WA0016100161022003023169359
B2238133740416N12229607WA0016100160022003023178359
B2238143740413N12229607WA0016100160022003023177359
B2238153740409N12229606WA0016100160022003022170359
B2238163740406N12229606WA0016000160022003022173359
B2238173740403N12229605WA0016000159022003022169359
B2238183740400N12229605WA0016000158022003022176359
B2238193740397N12229604WA0015900157022003022181359
B2238203740393N12229604WA0015900157022003022180359
B2238213740390N12229604WA0015800156022003022175359
B2238223740387N12229604WA0015800156022003022175359
B2238233740384N12229604WA0015800155022003022178359
B2238243740380N12229603WA0015700155022003022177359
B2238253740377N12229603WA0015600154022003020178359
B2238263740375N12229603WA0015600153022003019180359
B2238273740372N12229603WA0015500154022003019177359
B2238283740369N12229602WA0015400153022003019173359
B2238293740366N12229602WA0015400153022003019171359
B2238303740364N12229601WA0015400151022003019163000
B2238313740361N12229600WA0015300150022003019156000
B2238323740358N12229599WA0015200150022003021163359
B2238333740355N12229598WA0015100149022003022169359
B2238343740352N12229598WA0015100148022003022179359
B2238353740349N12229597WA0015000148022003020171359
B2238363740346N12229596WA0014900147022003020162000
B2238373740343N12229595WA0014800147022003022159000
B2238383740340N12229594WA0014800146022003020165359
B2238393740337N12229593WA0014700146022003020169359
B2238403740334N12229592WA0014600146022003018163359
B2238413740332N12229591WA0014500145022003017159359
B2238423740329N12229590WA0014500144022003017163359
B2238433740327N12229590WA0014500142022003018170359
B2238443740324N12229589WA0014400141022003018172359
B2238453740322N12229588WA0014300140022003018165359
B2238463740319N12229587WA0014300140022003018161359
B2238473740316N12229586WA0014200140022003020173359
B2238483740313N12229586WA0014100140022003020180359
B2238493740310N12229586WA0013900140022003020175359
B2238503740307N12229586WA0013900141022003018174359
B2238513740305N12229586WA0013800142022003017176359
B2238523740303N12229587WA0013800141022003015199359
B2238533740301N12229588WA0013800143022004016222359
B2238543740299N12229591WA0013800144022003020227359
B2238553740297N12229592WA0013900144022003016203359
B2238563740296N12229593WA0013900144022003013183359
B2238573740294N12229594WA0014000142022003011195359
B2238583740292N12229596WA0014000140004003016219359
B2238593740291N12229598WA0014000140004003019229359
B2239003740289N12229601WA0014000141004003019235359
B2239013740288N12229603WA0014000141004003019243359
B2239023740287N12229605WA0014000141004003014256359
B2239033740286N12229608WA0013900140004003017249359
B2239043740285N12229611WA0013900140004003020245359
B2239053740284N12229615WA0013800140004003019256359
B2239063740284N12229618WA0013800139004003019267359
B2239073740284N12229622WA0013800139004003019269359
B2239083740284N12229626WA0013800138004003021269359
B2239093740284N12229630WA0013800136004003022273359
B2239103740285N12229634WA0013800136004003022288359
B2239113740287N12229638WA0013700134004003025303359
B2239123740290N12229642WA0013600134004003028312359
B2239133740292N12229646WA0013500133004003030316359
B2239143740296N12229650WA0013500132004003030318359
B2239153740299N12229654WA0013400131004003030323359
B2239163740304N12229657WA0013300130004003031332359
B2239173740309N12229659WA0013100129004003034347359
B2239183740315N12229659WA0013100128004003042004358
B2239193740321N12229658WA0013000129004003044009359
B2239203740327N12229653WA0012900126004003044023006
B2239213740334N12229649WA0012800126004003049024011
B2239223740337N12229642WA0012800126004003049055015
B2239233740342N12229636WA0012600126004003040049018
B2239243740346N12229631WA0012500124004003040045013
B2239253740350N12229625WA0012400122004003040047013
B2239263740355N12229618WA0012400120004004044048012
B2239273740360N12229612WA0012300120004003047047012
B2239283740365N12229606WA0012200119004003045035010
B2239293740371N12229602WA0012100120004003045030009
B2239303740376N12229598WA0012100119004003044028004
B2239313740382N12229594WA0012000118004003042021356
B2239323740388N12229592WA0011900117004003042017347
B2239333740395N12229589WA0011800118004003045012342
B2239343740401N12229588WA0011800119004003045011327
B2239353740406N12229588WA0011600121004003039359332
B2239363740411N12229588WA0011600123004003035353329
B2239373740415N12229589WA0011600125004003028341330
B2239383740418N12229591WA0011600125004003025328331
B2239393740421N12229594WA0011700125004003025319335
B2239403740424N12229597WA0011800125004003025312338
B2239413740427N12229601WA0012000126004003026317345
B2239423740431N12229603WA0012000127004003027325346
B2239433740434N12229606WA0012100127004003023331347
B2239443740436N12229608WA0012200126004003023318348
B2239453740438N12229612WA0012300126004003023299351
B2239463740440N12229616WA0012300126004003027301353
B2239473740443N12229619WA0012400127004003027317354
B2239483740446N12229622WA0012400128004003024327355
B2239503740449N12229624WA0012500128004003024326356
B2239513740452N12229627WA0012500129004003024319357
B2239523740455N12229631WA0012600129004003027321357
B2239533740458N12229634WA0012600129004003031322358
B2239543740462N12229638WA0012600129004003031320358
B2239553740465N12229641WA0012600130004003031312358
B2239563740467N12229646WA0012700132004003028300358
B2239573740470N12229650WA0012700133004004028312358
B2239583740472N12229653WA0012700133004003028299359
B2239593740473N12229657WA0012700134004003024290359
B2240003740474N12229661WA0012700134004003021281359
B2240013740475N12229665WA0012800134022003020278359
B2240023740475N12229669WA0012800133022004020278359
B2240033740475N12229672WA0012800133022003020268359
B2240043740475N12229675WA0012800132022003016264359
B2240053740474N12229677WA0012800132022003016243359
B2240063740474N12229680WA0012800131022003015253359
B2240073740471N12229684WA0012800130022003013212359
B2240083740469N12229684WA0012800130022003012198359
B2240093740467N12229685WA0012800130022003011187359
B2240103740466N12229686WA0012800131022003011205359
B2240113740464N12229686WA0012700129022003016179359
B2240123740461N12229686WA0012700129022003016180359
B2240133740459N12229684WA0012700129022003016156000
B2240143740457N12229683WA0012700128022003017148000
B2240153740455N12229681WA0012700128022003017145000
B2240163740452N12229679WA0012700128022003018145000
B2240173740450N12229677WA0012600127022003020140000
B2240183740448N12229674WA0012600127022003020128000
B2240193740446N12229671WA0012600127022003021132000
B2240203740444N12229666WA0012600127022003023117000
B2240213740442N12229662WA0012500126022003024112000
B2240223740440N12229658WA0012500124022004024117000
B2240233740439N12229653WA0012500126022003024111000
B2240243740438N12229647WA0012500125022003027106000
B2240253740436N12229642WA0012400126022003029106000
B2240263740435N12229637WA0012400126022003028110000
B2240273740434N12229632WA0012400126022003028114000
B2240283740432N12229628WA0012400126022003026114000
B2240293740431N12229623WA0012400126022003026110000
B2240303740429N12229618WA0012400126022003026115000
B2240313740427N12229614WA0012400126022003026119000
B2240323740425N12229611WA0012400126022003026128000
B2240333740423N12229607WA0012400126022003025135000
B2240343740420N12229604WA0012400128022004023134000
B2240353740418N12229601WA0012400129022003023132000
B2240363740417N12229599WA0012500128022003016146359
B2240373740414N12229599WA0012500127022003017170359
B2240383740412N12229599WA0012500126022003017195359
B2240393740410N12229600WA0012600125022003017207359
B2240403740409N12229602WA0012600125022003016241359
B2240413740408N12229604WA0012600125022003012253359
B2240423740408N12229607WA0012600125022003014278359
B2240433740409N12229610WA0012600124022003014288359
B2240443740410N12229613WA0012600124022003018297359
B2240453740412N12229616WA0012600120022003024315359
B2240463740416N12229619WA0012600121022003033328359
B2240473740420N12229622WA0012500122022004033328359
B2240483740424N12229624WA0012500123022004029337359
B2240493740429N12229624WA0012500122022006029349359
B2240503740433N12229627WA0012500123022006031338359
B2240513740438N12229630WA0012400122022004034327359
B2240523740442N12229634WA0012400123022004034318359
B2240533740445N12229639WA0012300123022004034313359
B2240543740448N12229643WA0012300125022004031304359
B2240553740450N12229647WA0012300126022004026299359
B2240563740452N12229650WA0012200126022004026301359
B2240573740452N12229652WA0012200125022004026251359
B2240583740453N12229655WA0012200125022006012300000
B2240593740448N12229656WA0012200126023006012208000
B2241003740444N12229644WA0012200125023006020108000
B2241013740443N12229639WA0012200126022004034100000
B2241023740444N12229632WA0012200125022004040074000
B2241033740444N12229626WA0012200126022003034081000
B2241043740444N12229621WA0012100125022003029097000
B2241053740443N12229616WA0012100124022003029106000
B2241063740442N12229610WA0012100124022003033106000
B2241073740441N12229605WA0012100125022003033114000
B2241083740438N12229602WA0012100126022003028148359
B2241093740435N12229600WA0012200125022003023168359
B2241103740433N12229599WA0012200125022003019178359
B2241113740432N12229601WA0012200126022003014233359
B2241123740433N12229607WA0012200126022003030284359
B2241133740436N12229610WA0012200125022003030319359
B2241143740440N12229613WA0012200125022003031337359
B2241153740445N12229614WA0012200125022003035353359
B2241163740450N12229616WA0012200125022003035347359
B2241173740454N12229618WA0012200125022003035334359
B2241183740458N12229621WA0012200126022003032329359
B2241193740462N12229624WA0012200127022003029330359
B2241203740466N12229626WA0012300127022003029331359
B2241213740470N12229629WA0012300128022003030329359
B2241223740473N12229633WA0012300128022003030307359
B2241233740475N12229637WA0012300128022003029301359
B2241243740478N12229642WA0012400129022003029304359
B2241253740480N12229646WA0012400129022003029309359
B2241263740483N12229650WA0012400131022003029307359
B2241273740485N12229654WA0012400130022003029303359
B2241283740488N12229658WA0012400130022003028309359
B2241293740491N12229663WA0012500130022003028313359
B2241303740496N12229666WA0012500129004003033330359
B2241313740501N12229670WA0012500129004003038331359
B2241323740506N12229673WA0012600129004003038333359
B2241333740511N12229676WA0012600130004003038343359
B2241343740516N12229677WA0012600129004003038348359
B2241353740522N12229679WA0012600129004003039351359
B2241363740528N12229680WA0012600129004003041350359
B2241373740534N12229682WA0012600128004003041351359
B2241383740541N12229682WA0012600128004003041354359
B2241393740547N12229683WA0012600128004003042354359
B2241403740553N12229684WA0012600128004003043356356
B2241413740560N12229684WA0012500128004003045356354
B2241423740567N12229684WA0012500127004003045358350
B2241433740574N12229685WA0012500127004003045359349
B2241443740581N12229685WA0012500127004003046000344
B2241453740587N12229684WA0012500127004004046002347
B2241463740595N12229683WA0012500126004004046003339
B2241473740602N12229683WA0012500125004004048003342
B2241483740610N12229683WA0012400124004004048001346
B2241493740617N12229683WA0012400122004004051002343
B2241503740625N12229681WA0012400123005006055003347
B2241513740632N12229681WA0012300123005006050003344
B2241523740639N12229680WA0012300124004006050003345
B2241533740647N12229678WA0012300125004004049005344
B2241543740654N12229677WA0012300126004004049003343
B2241563740661N12229676WA0012200127004003043010338
B2241573740667N12229675WA0012200128004003043003335
B2241583740673N12229675WA0012300128004003042358336
B2241593740679N12229676WA0012300128004003040352330
B2242003740685N12229677WA0012400128004003041348330
B2242013740691N12229679WA0012400128004003041342332
B2242023740697N12229681WA0012500129004003040342334
B2242033740701N12229684WA0012500131004004038337338
B2242053740711N12229688WA0012600132004003032342343
B2242063740715N12229691WA0012600132004004035340346
B2242073740720N12229694WA0012600131004003035333350
B2242083740725N12229697WA0012700132004003036335352
B2242093740730N12229699WA0012800134004003034334353
B2242103740735N12229702WA0012900134004003035339354
B2242113740740N12229703WA0012900135004004035342355
B2242123740751N12229708WA0013000136004003037342357
B2242133740756N12229710WA0013100135004004037340357
B2242143740762N12229711WA0013100137004003038355358
B2242153740767N12229712WA0013200137004004038351358
B2242163740773N12229713WA0013300137004006038352358
B2242173740779N12229715WA0013400135004004040346359
B2242183740785N12229716WA0013400136004004041349359
B2242193740791N12229718WA0013400136004004043348359
B2242203740798N12229719WA0013400135004003043349359
B2242213740805N12229721WA0013400135004003046350356
B2242223740812N12229722WA0013400134004003048350352
B2242233740819N12229724WA0013400134004003047351349
B2242243740826N12229725WA0013300133004003047352348
B2242253740833N12229727WA0013300132004003047353346
B2242263740840N12229728WA0013300131004003049354344
B2242273740847N12229729WA0013200131004003049355341
B2242283740854N12229729WA0013100130004003046355339
B2242293740862N12229730WA0013000130004003048354340
B2242303740869N12229731WA0013000128004003048352346
B2242313740877N12229733WA0012900127004003051352344
B2242323740885N12229733WA0012900127004003052357345
B2242333740893N12229733WA0012800127004003051001347
B2242343740900N12229733WA0012800127004003051002343
B2242353740907N12229732WA0012700126004003049003342
B2242363740914N12229732WA0012600125004003046003345
B2242373740921N12229731WA0012500124004003046003343
B2242383740928N12229731WA0012500122004003049003348
B2242393740935N12229731WA0012400121004003051002348
B2242403740943N12229731WA0012300120004003051359342
B2242413740950N12229731WA0012200120004003051356345
B2242423740957N12229732WA0012200120004003049352337
B2242433740963N12229733WA0012100120004003042349336
B2242443740970N12229735WA0011900120004003042349337
B2242453740976N12229736WA0011800119004003042350334
B2242463740983N12229736WA0011800118004003043354336
B2242473740989N12229738WA0011700118004003044348334
B2242483740996N12229740WA0011600117004003043346331
B2242493741002N12229742WA0011500117004003043344331
B2242503741008N12229744WA0011500116004003043343330
B2242513741015N12229746WA0011500114004003043345335
B2242523741022N12229748WA0011400113004003044346334
B2242533741028N12229750WA0011300113004003043343340
B2242543741034N12229752WA0011300112004003043343340
B2242553741041N12229754WA0011200112004003043344344
B2242563741047N12229757WA0011100111004003045344345
B2242573741054N12229759WA0011100111004003045344341
B2242583741060N12229762WA0011100111004003046344343
B2242593741067N12229764WA0011000112004003046345344
B2243003741073N12229766WA0010900112004003045343340
B2243013741080N12229768WA0010900111004003045345340
B2243023741087N12229771WA0010900111004004047346340
B2243033741094N12229773WA0010900110004004050345339
B2243043741101N12229775WA0010900112004004050345338
B2243053741107N12229777WA0010900112004004049344335
B2243063741114N12229780WA0010900114004004046345337
B2243073741121N12229782WA0010800114004004046346333
B2243083741128N12229784WA0010800113004004049346332
B2243093741135N12229786WA0010800113022003049343336
B2243103741142N12229788WA0010800112022003048345335
B2243113741149N12229790WA0010800112022003046344338
B2243123741156N12229792WA0010800111022003046347336
B2243133741163N12229793WA0010800110022003049350336
B2243143741170N12229795WA0010800110022003049352336
B2243153741177N12229796WA0010700110022003049351335
B2243163741185N12229797WA0010700110022003048350337
B2243173741192N12229799WA0010700109022003049347340
B2243183741200N12229801WA0010700109022003049348329
B2243193741207N12229803WA0010600109022003050348332
B2243203741215N12229804WA0010600108022003050351341
B2243213741222N12229806WA0010600107022003050351339
B2243223741229N12229807WA0010600106022003050352346
B2243233741237N12229808WA0010600105022003052351342
B2243243741245N12229810WA0010600103022003054351335
B2243253741253N12229811WA0010500103022003054351337
B2243263741260N12229813WA0010500102022003054352337
B2243273741268N12229814WA0010400103022003053350337
B2243283741275N12229816WA0010400102022003049348333
B2243293741283N12229818WA0010300101022003050348334
B2243303741291N12229819WA0010200100022003050349337
B2243313741298N12229822WA0010200100022003051346333
B2243323741306N12229824WA0010100099022003052347334
B2243333741313N12229825WA0010000098022003052349336
B2243343741321N12229827WA0009900098022003053352340
B2243353741329N12229828WA0009800098022003053353343
B2243363741337N12229830WA0009800098022003053352340
B2243373741345N12229831WA0009800098022003053351338
B2243383741352N12229833WA0009700098022003052350340
B2243393741360N12229834WA0009700097022003053352341
B2243403741368N12229835WA0009700096022003053354341
B2243413741376N12229837WA0009600096022003054355343
B2243423741384N12229838WA0009600097022003054354339
B2243433741392N12229839WA0009600096022003052351337
B2243443741400N12229841WA0009600096022003052348337
B2243453741407N12229842WA0009500095022003052350335
B2243463741415N12229843WA0009500095022004052353338
B2243473741423N12229845WA0009400095022003052350339
B2243483741431N12229846WA0009400095022003053352336
B2243493741439N12229847WA0009400095022003053353337
B2243503741447N12229848WA0009400095022003053349334
B2243513741455N12229850WA0009400095022003053349335
B2243523741463N12229853WA0009400095022003054350338
B2243533741471N12229854WA0009400094022003054354335
B2243543741479N12229855WA0009400094022003054353334
B2243553741487N12229857WA0009400093022003053349332
B2243563741495N12229859WA0009400092022003053346333
B2243573741503N12229861WA0009400091022003054348330
B2243583741511N12229862WA0009300091022003054351337
B2243593741519N12229863WA0009300091022003054352331
B2244003741526N12229865WA0009300091022003051349331
B2244023741534N12229867WA0009300090022003050345338
B2244033741541N12229870WA0009300090022003053345342
B2244043741549N12229872WA0009200088022003055348346
B2244053741557N12229874WA0009200088022003054347341
B2244063741565N12229876WA0009200087022003054349341
B2244073741572N12229878WA0009100087022003051346342
B2244083741579N12229881WA0009100086022003049343341
B2244093741587N12229883WA0009100085022003053348342
B2244103741595N12229885WA0009000084022003053346340
B2244113741603N12229887WA0008900083022003054350342
B2244123741611N12229888WA0008800083022003054349341
B2244133741626N12229892WA0008700083022003053349340
B2244143741634N12229895WA0008600083022003052344337
B2244153741641N12229896WA0008400082022003051349338
B2244163741649N12229898WA0008400081022003050348334
B2244173741656N12229900WA0008300081022003050346339
B2244183741663N12229903WA0008200080022003049345342
B2244193741671N12229906WA0008100078022003049343343
B2244203741678N12229908WA0008100077022003051345342
B2244213741686N12229910WA0008000076022003055347341
B2244223741693N12229912WA0007900075022003055349340
B2244233741701N12229914WA0007800074022003053348336
B2244243741708N12229916WA0007800071022003052347335
B2244253741715N12229918WA0007600070022003052347336
B2244263741723N12229920WA0007400070022003048348336
B2244273741730N12229922WA0007300068022003052347338
B2244283741738N12229924WA0007300067022003052350335
B2244293741745N12229926WA0007100066022003052349336
B2244303741753N12229928WA0007000065022003053348336
B2244313741761N12229930WA0006900064022003053347337
B2244323741769N12229932WA0006900064022003053347337
B2244333741777N12229934WA0006700063022003053348338
B2244343741784N12229936WA0006600062022003052350337
B2244353741792N12229937WA0006400062022003052353337
B2244363741800N12229938WA0006400060022003052355336
B2244373741807N12229939WA0006300059022003053354340
B2244383741815N12229940WA0006200057022003053352338
B2244393741824N12229942WA0006100057022003055352337
B2244403741832N12229943WA0006100057022003055354336
B2244413741839N12229944WA0005900057022003049356331
B2244423741846N12229944WA0005800058022003049000329
B2244433741853N12229944WA0005700058022003046002336
B2244443741861N12229943WA0005700058022003046003342
B2244453741868N12229942WA0005600057022003047003343
B2244463741875N12229942WA0005600057022003048004337
B2244473741883N12229941WA0005600056022003048004341
B2244483741890N12229940WA0005600054022003048004342
B2244493741897N12229940WA0005600055022003048359344
B2244503741904N12229940WA0005600054022003046000346
B2244513741910N12229941WA0005600055022003045357349
B2244523741917N12229940WA0005500055022003045001350
B2244533741924N12229941WA0005500055022003045357352
B2244543741930N12229941WA0005500056022003043355352
B2244553741936N12229943WA0005500056022003043345354
B2244563741942N12229945WA0005500056022003042344355
B2244573741948N12229946WA0005500057022003044348356
B2244583741955N12229948WA0005500058022003044352356
B2244593741962N12229949WA0005500060022003047350357
B2245003741968N12229949WA0005500057022003047353357
B2245013741974N12229950WA0005600057022003043350358
B2245023741980N12229952WA0005600056022003043349358
B2245033741987N12229953WA0005600056022003043351358
B2245043741993N12229954WA0005600055022003044353358
B2245053742000N12229956WA0005600055022003044348359
B2245063742005N12229958WA0005500055022003038345359
B2245073742011N12229959WA0005500056022003038346359
B2245083742016N12229961WA0005500055022003038342359
B2245093742022N12229963WA0005400055022003039343359
B2245103742027N12229965WA0005400056022003039342359
B2245113742032N12229967WA0005400056022003035338359
B2245123742036N12229970WA0005400057022003035335359
B2245133742041N12229972WA0005400056022003033333359
B2245143742046N12229975WA0005400056022003033335359
B2245153742050N12229978WA0005400056022003034334359
B2245163742055N12229980WA0005400055022003032333359
B2245173742059N12229983WA0005400055022003032331359
B2245183742062N12229986WA0005400054022003029329359
B2245193742067N12229988WA0005300053022003029336359
B2245203742072N12229990WA0005300053022003034341359
B2245213742077N12229992WA0005300053022003038348359
B2245223742082N12229994WA0005300052022003038347359
B2245233742088N12229995WA0005200053022003036349359
B2245243742093N12229996WA0005200053022003036350359
B2245253742098N12229997WA0005200052022003036351359
B2245263742104N12229998WA0005200052022003038355359
B2245273742110N12229999WA0005200052022003039354359
B2245283742115N12230000WA0005200052022003039354359
B2245293742121N12230000WA0005200052022003039356359
B2245303742127N12230000WA0005200051022003039359358
B2245313742133N12230000WA0005200051022003040001357
B2245323742140N12229999WA0005200051022003042002352
B2245333742146N12229999WA0005200051022003041002349
B2245343742152N12229999WA0005200051022003041000348
B2245353742158N12229999WA0005100051022003041357349
B2245363742164N12230000WA0005100050022003037351351
B2245373742169N12230002WA0005100050022003037346351
B2245383742174N12230003WA0005100049022003034346352
B2245393742177N12230005WA0005100050022003034332352
B2245403742181N12230008WA0005100050022003029327352
B2245413742183N12230010WA0005000050022003019316351
B2245423742184N12230012WA0005000049022003019286351
B2245433742184N12230013WA0004900047022003010204351
B2245443742181N12230012WA0004900047022003010161006
B2245453742178N12230010WA0004900046022003023140005
B2245463742176N12230006WA0004800048022003027117004
B2245473742175N12230003WA0004700048022003027110356
B2245483742174N12230000WA0004700048022003021103356
B2245493742174N12229998WA0004700048022003015108357
B2245503742172N12229996WA0004700046022003015137358
B2245513742171N12229995WA0004700043022003015164358
B2245523742169N12229994WA0004700041022003017173358
B2245533742166N12229993WA0004700040022003016171359
B2245543742164N12229993WA0004600038022003016169359
B2245553742162N12229992WA0004500039022003016171359
B2245563742161N12229993WA0004500038004003005199359
B2245573742161N12229992WA0004300036004003005182359
B2245583742160N12229992WA0004100036004003002182000
B2245593742160N12229993WA0003900035004003002182358
B2246003742160N12229993WA0003900034004003002182000
B2246013742160N12229994WA0003800035004003007273359
B2246023742161N12229995WA0003700035004003000273013
B2246033742161N12229995WA0003600035004003002182000
B2246043742161N12229995WA0003600035004003000182000
B2246053742161N12229995WA0003600035004003000182000
B2246063742161N12229994WA0003600035004003000182000
B2246073742161N12229994WA0003600035004003000182000
B2246083742161N12229994WA0003600035004003000182000
B2246093742161N12229994WA0003600035004003000182000
B2246103742161N12229994WA0003600036004003000182000
B2246113742161N12229994WA0003600036004003000182000
B2246123742162N12229994WA0003600035004003000182000
B2246133742162N12229994WA0003600036004003000182000
B2246143742162N12229994WA0003600036004003000182000
B2246153742162N12229994WA0003600036004003000182000
B2246163742162N12229994WA0003700036004003000182000
B2246173742162N12229994WA0003700036004003000182000
B2246183742162N12229994WA0003700036004003000182000
B2246193742162N12229994WA0003700036004003000182000
B2246203742162N12229994WA0003700036004003000182000
B2246213742162N12229994WA0003700036004003000182000
B2246223742162N12229994WA0003700036004003000182000
B2246233742162N12229994WA0003700036004003000182000
B2246243742162N12229994WA0003700036004003002182356
B2246253742162N12229994WA0003700036004003003014000
B2246263742163N12229994WA0003700036004003002014355
B2246273742163N12229994WA0003700036004003000014340
B2246283742163N12229993WA0003700036004003000014349
B2246293742163N12229993WA0003700036004003000014000
B2246303742163N12229993WA0003700036004003000014353
B2246313742163N12229993WA0003600035004003000014357
B2246323742164N12229993WA0003600036004003002014344
GOezoGpOweCKb76efuu/rDL90Bf3t2pZWF8bsN//9FrfMPUWxfESgiOplxtPWDRMo
G7R6t/aTKhQfEQ1Y+YqkCy2+QtwLn7LOo242qoYvLKc/EiPAXIsOseWweySPTSU1B
GAr1mUaDuPyv5G9pBwLEsu5jXophstJRkqdw7jMFf/+w=

