AXFH000
HFDTE030725
HFPLTPILOT:Scott O’Brien
HFGTYGLIDERTYPE:Ozone Swift 6
HFDTM100GPSDATUM:WGS84
HFRFWFIRMWAREVERSION:9.0
HFRHWHARDWAREVERSION:iPhone 15
HFFTYFRTYPE:Flyskyhy,9.0
HFGPS:Internal
HFPRSVARIO:Internal Vario
HFCCLCOMPETITIONCLASS:Paraglider
HFTZNTIMEZONE:2
HFSITSITE:Wispile-1900 (Saanen- Gstaad),CH
I053638FXA3941VXA4244GSP4547CCO4850HDT
B1102144626222N00717613EA0193001929005010002060162
B1102154626223N00717614EA0193001930005010005085119
B1102164626223N00717614EA0193001929005010003105153
B1102174626222N00717615EA0193001929005010003138183
B1102184626222N00717615EA0193001929005010002140265
B1102194626222N00717616EA0193001929005010004104282
B1102204626221N00717616EA0192901929005010003140264
B1102214626221N00717617EA0192901929005010004109281
B1102224626221N00717617EA0192901929005010001131251
B1102234626221N00717617EA0192901928005010001040263
B1102244626221N00717617EA0192901928005010001217276
B1102254626221N00717617EA0192801928005010000265262
B1102264626221N00717617EA0192801928005010000331258
B1102274626221N00717617EA0192801928005010000000258
B1102284626221N00717617EA0192801928005010000000241
B1102294626221N00717617EA0192801928005010000000230
B1102304626221N00717617EA0192801928005010000000228
B1102314626221N00717617EA0192801928005010000000226
B1102324626221N00717617EA0192801928005010000000222
B1102334626221N00717617EA0192801928005010000000225
B1102344626221N00717617EA0192801928005010001140247
B1102354626221N00717617EA0192801928005010004098224
B1102364626221N00717618EA0192801928005010005090225
B1102374626221N00717620EA0192801928005010004139257
B1102384626220N00717620EA0192801927005010004107354
B1102394626220N00717621EA0192701927005010007123226
B1102404626220N00717623EA0192701926005010009112130
B1102414626219N00717625EA0192701926005010007104300
B1102424626219N00717627EA0192601926005010012087315
B1102434626219N00717630EA0192601925005010016093095
B1102444626219N00717635EA0192501925005010023094077
B1102454626219N00717640EA0192301925005010019098094
B1102464626219N00717644EA0192301924005010016088097
B1102474626219N00717648EA0192301924005010015080091
B1102484626220N00717652EA0192401924005010021086086
B1102494626221N00717657EA0192501924005010025074089
B1102504626222N00717663EA0192701924005010029070080
B1102514626223N00717669EA0192701923005010030071075
B1102524626225N00717676EA0192701923005010030069076
B1102534626226N00717682EA0192701924005010027075074
B1102544626228N00717688EA0192701924005010023069080
B1102554626229N00717692EA0192601924005010021052075
B1102564626232N00717696EA0192601924005010024035062
B1102574626236N00717699EA0192501924005010030018045
B1102584626240N00717700EA0192501923005010034007028
B1102594626246N00717701EA0192401922005010036358015
B1103004626251N00717700EA0192301921005010036355005
B1103014626257N00717700EA0192101920005010035359003
B1103024626262N00717701EA0191901920005010037006007
B1103034626268N00717702EA0191801920005010035014013
B1103044626273N00717704EA0191701920005010030010022
B1103054626277N00717705EA0191701921005010025002019
B1103064626281N00717705EA0191801921005010026358013
B1103074626285N00717705EA0192001922005010028000009
B1103084626289N00717704EA0192101923005010025348010
B1103094626292N00717703EA0192401925005010023340359
B1103104626295N00717701EA0192601926005010019342351
B1103114626298N00717700EA0192801927005010023346355
B1103124626301N00717700EA0193001928005010020015356
B1103134626304N00717702EA0193201929005010020031025
B1103144626305N00717705EA0193301930005010020065039
B1103154626306N00717709EA0193301931005010019083069
B1103164626304N00717713EA0193301932005010025148090
B1103174626299N00717715EA0193301933005010037191135
B1103184626292N00717712EA0193401934005010049217167
B1103194626284N00717707EA0193501935005010050220186
B1103204626276N00717701EA0193601936005010048208192
B1103214626268N00717698EA0193801937005010048191182
B1103224626260N00717696EA0193801938005010045191170
B1103234626253N00717696EA0194001939005010037166164
B1103244626248N00717699EA0194001940005010034149140
B1103254626244N00717703EA0194101941005010029139124
B1103264626242N00717709EA0194101942005010032102113
B1103274626247N00717714EA0194301944005010035006086
B1103284626253N00717714EA0194301946005010035346011
B1103294626258N00717711EA0194401949005010028319355
B1103304626261N00717707EA0194601951005010025318335
B1103314626265N00717704EA0194901953005010031324336
B1103324626269N00717702EA0194901955005010029356340
B1103334626274N00717702EA0195101956005010031352009
B1103344626278N00717700EA0195401958005010028350006
B1103354626282N00717699EA0195501959005010025341005
B1103364626286N00717697EA0195601961005010023334000
B1103374626289N00717695EA0195601962005010026337356
B1103384626293N00717694EA0195701963005010024000356
B1103394626297N00717695EA0195801964005010027012015
B1103404626301N00717697EA0195801965005010027014024
B1103414626304N00717698EA0195901967005010024012025
B1103424626308N00717699EA0196001968005010022000024
B1103434626311N00717699EA0196101970005010020010017
B1103444626314N00717700EA0196201971005010021013025
B1103454626317N00717702EA0196401972005010023043026
B1103464626319N00717707EA0196601973005010026061052
B1103474626320N00717712EA0196701975005010028078060
B1103484626319N00717718EA0196801976005010030116073
B1103494626315N00717724EA0196901976005010033147103
B1103504626310N00717727EA0196901977005010034153134
B1103514626306N00717731EA0196901978005010033156161
B1103524626301N00717733EA0197001978005010031162172
B1103534626297N00717731EA0197001978005010036235180
B1103544626294N00717724EA0197001978005010038240251
B1103554626292N00717715EA0197001978010019039246266
B1103564626290N00717707EA0197001978005010040250273
B1103574626288N00717698EA0197001978005010036253279
B1103584626287N00717691EA0197201978005010029253284
B1103594626288N00717688EA0197301977005010025013290
B1104004626292N00717690EA0197301977005010027019025
B1104014626295N00717692EA0197401976005010024039035
B1104024626299N00717696EA0197501976005010023061062
B1104034626300N00717700EA0197701975005010022067081
B1104044626304N00717704EA0197801975005010021092080
B1104054626305N00717708EA0198001975005010022111088
B1104064626304N00717713EA0198101975005010021109094
B1104074626303N00717717EA0198101974005010020109084
B1104084626302N00717720EA0198201974005010021123091
B1104094626300N00717723EA0198301973005010022142122
B1104104626297N00717726EA0198301972005010021149139
B1104114626294N00717728EA0198201972005010019166149
B1104124626291N00717728EA0198101971005010019178164
B1104134626288N00717727EA0198001970005010021202182
B1104144626285N00717724EA0197801970005010024212210
B1104154626282N00717720EA0197701969005010028222226
B1104164626281N00717712EA0197701968005010038279235
B1104174626282N00717699EA0197701967005010038282291
B1104184626283N00717690EA0197801966005010035282300
B1104194626284N00717681EA0197901966005010030284322
B1104204626286N00717675EA0198001966005010026285325
B1104214626286N00717670EA0198001965005010020292327
B1104224626289N00717666EA0198101965005010014301343
B1104234626290N00717663EA0198201964005010014278002
B1104244626291N00717661EA0198201963005010010272347
B1104254626291N00717661EA0198301962005010012239355
B1104264626289N00717659EA0198301960005010017222251
B1104274626287N00717657EA0198301959005010020235218
B1104284626285N00717654EA0198301958005010027247242
B1104294626283N00717648EA0198301957010019037256251
B1104304626281N00717639EA0198301956010019040267270
B1104314626281N00717631EA0198301955010019038270298
B1104324626280N00717623EA0198301954010019036268314
B1104334626280N00717616EA0198201952010019037267318
B1104344626281N00717614EA0198201951010019017053321
B1104354626284N00717618EA0198301950010019017056062
B1104364626286N00717623EA0198501949010019015053058
B1104374626289N00717626EA0198701950010019015049054
B1104384626291N00717629EA0198901950010019017051053
B1104394626294N00717634EA0199001950010019023039056
B1104404626298N00717638EA0199001950010019026029046
B1104414626302N00717640EA0199001950010019026005032
B1104424626306N00717641EA0199001950005010025352017
B1104434626309N00717639EA0199001951005010024352032
B1104444626312N00717639EA0199101951005010022006045
B1104454626315N00717640EA0199101952005010023026044
B1104464626318N00717644EA0199101952005010023048055
B1104474626320N00717649EA0199101952005010025067068
B1104484626321N00717655EA0199101953005010026083081
B1104494626321N00717661EA0199001953005010026092093
B1104504626320N00717667EA0199001953005010025102097
B1104514626317N00717672EA0199001954005010024128102
B1104524626314N00717676EA0199101954005010023143122
B1104534626311N00717678EA0199101954005010021161136
B1104544626307N00717679EA0199101954005010020183152
B1104554626304N00717679EA0199001954005010021196174
B1104564626301N00717678EA0198801954005010022201189
B1104574626298N00717675EA0198701954005010023206197
B1104584626295N00717673EA0198601954005010022213203
B1104594626293N00717669EA0198601954005010022221212
B1105004626291N00717664EA0198501955005010024237223
B1105014626290N00717657EA0198501955005010022250243
B1105024626289N00717652EA0198501955005010014241259
B1105034626289N00717650EA0198401956005010005188246
B1105044626290N00717649EA0198401957005010014038105
B1105054626291N00717650EA0198401958005010020031051
B1105064626293N00717652EA0198401958005010022025045
B1105074626297N00717653EA0198401959005010025021034
B1105084626302N00717654EA0198501960005010024021031
B1105094626307N00717655EA0198601962005010022025030
B1105104626310N00717657EA0198801963005010022024030
B1105114626313N00717658EA0198901964005010025016026
B1105124626318N00717659EA0198901965005010034007030
B1105134626325N00717659EA0198901966005010038002033
B1105144626330N00717659EA0198901967005010037001028
B1105154626336N00717659EA0198901968005010030008026
B1105164626339N00717660EA0198901970005010024021029
B1105174626342N00717662EA0198901971005010020031039
B1105184626344N00717664EA0199001972005010018034049
B1105194626346N00717667EA0199101973005010017059050
B1105204626347N00717670EA0199101974005010019086069
B1105214626347N00717675EA0199201975005010024100086
B1105224626346N00717680EA0199201976005010025108099
B1105234626344N00717685EA0199201977005010026130106
B1105244626340N00717689EA0199301977005010031144126
B1105254626336N00717693EA0199301978005010034153139
B1105264626330N00717693EA0199401978005010051203149
B1105274626322N00717688EA0199401979005010052206202
B1105284626316N00717683EA0199401979005010051208205
B1105294626311N00717675EA0199401979005010051256207
B1105304626309N00717664EA0199301978010019050256259
B1105314626308N00717653EA0199201977010019044253259
B1105324626306N00717645EA0199101976010019040250252
B1105334626304N00717637EA0199001975010019038249250
B1105344626302N00717629EA0198901975010019036246248
B1105354626303N00717628EA0198901976010019021071245
B1105364626306N00717633EA0198801976010019021073069
B1105374626309N00717639EA0198701976010019020070062
B1105384626313N00717645EA0198601976010019021065063
B1105394626316N00717651EA0198601977005010022056048
B1105404626320N00717656EA0198601977005010022043043
B1105414626326N00717661EA0198501978005010021028027
B1105424626331N00717665EA0198501978005010020012019
B1105434626336N00717667EA0198501978005010023002013
B1105444626341N00717668EA0198401978005010026000027
B1105454626346N00717670EA0198401978005010027002021
B1105464626350N00717671EA0198301978005010025007027
B1105474626354N00717673EA0198201978005010022014041
B1105484626358N00717675EA0198201978005010021017044
B1105494626361N00717677EA0198101978005010022019042
B1105504626365N00717679EA0198101978005010025022058
B1105514626369N00717681EA0198101978005010026024035
B1105524626373N00717684EA0198101978005010033026009
B1105534626378N00717688EA0198101978005010033024027
B1105544626383N00717691EA0198101978005010033023015
B1105554626387N00717692EA0198101978005010025009016
B1105564626390N00717692EA0198201978005010021347038
B1105574626393N00717691EA0198301978005010018339032
B1105584626396N00717689EA0198501978005010021347031
B1105594626399N00717689EA0198601978005010023001030
B1106004626403N00717690EA0198601978005010023016036
B1106014626406N00717692EA0198501978005010021036041
B1106024626408N00717695EA0198401978005010018037039
B1106034626410N00717698EA0198301978005010018036038
B1106044626412N00717700EA0198201978005010019025038
B1106054626415N00717703EA0198201977005010022021044
B1106064626419N00717705EA0198201977005010024023036
B1106074626422N00717707EA0198101977005010022027039
B1106084626425N00717710EA0198001977005010020031043
B1106094626427N00717712EA0197901976005010021034042
B1106104626430N00717715EA0197901976005010023030037
B1106114626434N00717718EA0197801975005010027028033
B1106124626438N00717721EA0197701975005010033029019
B1106134626442N00717725EA0197601976005010031034027
B1106144626446N00717729EA0197501978005010027037026
B1106154626448N00717732EA0197501979005010020036019
B1106164626451N00717735EA0197501981005010018038021
B1106174626453N00717738EA0197601982005010020038034
B1106184626455N00717740EA0197701983005010023035019
B1106194626459N00717744EA0197701984005010026032025
B1106204626462N00717747EA0197701985005010027033044
B1106214626465N00717750EA0197701986005010023026031
B1106224626468N00717751EA0197701987005010017016049
B1106234626470N00717752EA0197801988005010015020041
B1106244626473N00717753EA0197901989005010017016043
B1106254626475N00717755EA0197901990005010020024026
B1106264626478N00717757EA0197901990005010024025013
B1106274626482N00717759EA0197901991005010024018016
B1106284626485N00717760EA0197901991005010024008020
B1106294626489N00717761EA0197801992005010024004017
B1106304626493N00717761EA0197701992005010024004010
B1106314626496N00717761EA0197701992005010024358010
B1106324626500N00717761EA0197601992005010027352358
B1106334626505N00717761EA0197601992005010033351004
B1106344626510N00717760EA0197601991005010034350012
B1106354626515N00717758EA0197601991005010033352005
B1106364626520N00717758EA0197601990005010032355005
B1106374626525N00717757EA0197501989005010031358347
B1106384626530N00717757EA0197501988005010031355008
B1106394626535N00717756EA0197501988005010033348002
B1106404626540N00717754EA0197401986005010035347006
B1106414626545N00717752EA0197401985005010037350013
B1106424626550N00717751EA0197201984005010036355011
B1106434626556N00717751EA0197101982005010038358013
B1106444626562N00717751EA0197001981005010039000014
B1106454626567N00717752EA0196901980005010037006027
B1106464626573N00717753EA0196901978005010036003016
B1106474626578N00717753EA0196901977005010034001034
B1106484626583N00717753EA0196901977005010030006056
B1106494626587N00717755EA0197001976005010031028076
B1106504626591N00717758EA0197201976005010031033091
B1106514626594N00717762EA0197401975005010026049101
B1106524626596N00717767EA0197601975005010023062112
B1106534626598N00717770EA0197701974005010014053118
B1106544626597N00717775EA0197801974005010009083023
B1106554626594N00717779EA0197901973005010001090038
B1106564626594N00717779EA0198001973010019013248049
B1106574626593N00717775EA0198001972010019029278015
B1106584626592N00717768EA0198101971010019023296343
B1106594626593N00717764EA0198301970010019014313008
B1107004626595N00717763EA0198301969010019009011033
B1107014626594N00717765EA0198401968010019019091059
B1107024626592N00717770EA0198401968010019032106088
B1107034626589N00717776EA0198501967010019028136102
B1107044626586N00717780EA0198701966010019028152121
B1107054626582N00717783EA0198901965010019030158133
B1107064626577N00717785EA0199001964010019032170139
B1107074626572N00717786EA0199301964010019033188149
B1107084626567N00717785EA0199501964010019037209168
B1107094626562N00717780EA0199701964010019036218198
B1107104626556N00717779EA0199901964010019038247213
B1107114626554N00717772EA0200101964010019033266255
B1107124626554N00717766EA0200201964005010031274284
B1107134626554N00717761EA0200301964005010021275295
B1107144626555N00717757EA0200401964005010013320306
B1107154626557N00717758EA0200501964005010022023357
B1107164626561N00717761EA0200601965005010034045030
B1107174626564N00717767EA0200801965005010037065045
B1107184626570N00717775EA0200901965005010034091060
B1107194626572N00717781EA0201201966005010030109080
B1107204626571N00717787EA0201201966005010030127094
B1107214626569N00717793EA0201401966005010034140112
B1107224626565N00717798EA0201601967005010036146127
B1107234626561N00717802EA0201801967005010034169136
B1107244626556N00717803EA0202001967005010033181164
B1107254626551N00717802EA0202201968010019034190179
B1107264626546N00717799EA0202301968010019036201191
B1107274626541N00717795EA0202501968005010038211205
B1107284626536N00717789EA0202701969005010032226217
B1107294626534N00717784EA0202901969005010031239237
B1107304626534N00717780EA0203001970010019019351251
B1107314626537N00717779EA0203101969005010018356353
B1107324626540N00717779EA0203201969005010017006356
B1107334626543N00717780EA0203401969005010017025003
B1107344626545N00717782EA0203501968005010020043016
B1107354626547N00717785EA0203601968010019021055030
B1107364626548N00717790EA0203801968010019021070040
B1107374626550N00717796EA0203801967005010019078052
B1107384626550N00717801EA0203901967005010014080057
B1107394626548N00717807EA0204101967005010006103052
B1107404626546N00717809EA0204201967005010002227038
B1107414626546N00717809EA0204401967005010010257038
B1107424626545N00717806EA0204501967010019018273295
B1107434626544N00717801EA0204701967010019024279293
B1107444626543N00717794EA0204801967010019016282295
B1107454626542N00717787EA0204901967010019011306303
B1107464626543N00717783EA0204901968005010010346325
B1107474626544N00717782EA0205001967010019011024349
B1107484626547N00717783EA0205101966010019009059011
B1107494626551N00717785EA0205201966010019013093028
B1107504626553N00717788EA0205301965010019018112057
B1107514626554N00717793EA0205501964010019023124085
B1107524626552N00717800EA0205701963010019024136103
B1107534626551N00717805EA0205901963010019026150118
B1107544626547N00717808EA0206001963005010027160138
B1107554626543N00717809EA0206001964005010027173153
B1107564626539N00717809EA0206101964005010028186171
B1107574626535N00717808EA0206201963005010028192189
B1107584626531N00717806EA0206201964005010029203198
B1107594626527N00717803EA0206301964005010026210212
B1108004626525N00717800EA0206401964005010021223224
B1108014626523N00717797EA0206601965005010018237245
B1108024626521N00717795EA0206701966005010014213264
B1108034626520N00717791EA0206801968005010007187245
B1108044626520N00717791EA0207001969005010006143320
B1108054626522N00717790EA0207101970010019010118047
B1108064626525N00717792EA0207301971010019011132068
B1108074626524N00717794EA0207401971010019011138085
B1108084626525N00717796EA0207601973005010017151091
B1108094626524N00717799EA0207701973005010024160129
B1108104626521N00717802EA0207801972005010026172150
B1108114626518N00717804EA0207901972005010027178167
B1108124626514N00717804EA0207901972005010026190176
B1108134626511N00717804EA0207901972005010025198192
B1108144626508N00717802EA0207901972005010020199203
B1108154626504N00717798EA0207901972010019014209207
B1108164626503N00717797EA0207901972010019011232231
B1108174626501N00717796EA0208001973010019011239273
B1108184626497N00717786EA0208201976010019008279279
B1108194626496N00717783EA0208401976010019009329320
B1108204626497N00717782EA0208601976010019006345339
B1108214626499N00717779EA0208701977010019007071346
B1108224626499N00717778EA0208701978010019014089009
B1108234626499N00717781EA0208701979010019023092028
B1108254626505N00717790EA0208701980005010025107057
B1108264626504N00717795EA0208701980005010027107069
B1108274626503N00717801EA0208901980005010027108077
B1108284626503N00717806EA0209001981010019024112082
B1108294626505N00717812EA0209101982005010025125085
B1108304626506N00717818EA0209101983005010024131108
B1108314626504N00717826EA0209201986005010021141119
B1108384626523N00717772EA0209902120004006032002122
B1108394626529N00717773EA0210002120004003035024357
B1108404626533N00717780EA0210102120004003035044014
B1108414626535N00717787EA0210202121004003038071032
B1108424626536N00717794EA0210302123004003038091061
B1108444626535N00717800EA0210302126004003029120085
B1108454626531N00717805EA0210402125004003031145127
B1108464626527N00717809EA0210502125004003031153161
B1108474626522N00717812EA0210602125004003035156173
B1108484626517N00717813EA0210702126004003035175186
B1108504626517N00717817EA0210802105005010033173201
B1108514626512N00717815EA0210902105005010037208212
B1108524626508N00717809EA0210902105005010040241236
B1108534626505N00717801EA0211002104010019038256261
B1108544626505N00717793EA0211002103010019035276272
B1108554626506N00717785EA0211102103005010034295288
B1108564626509N00717779EA0211102103005010031315303
B1108574626512N00717774EA0211202104005010034338319
B1108584626517N00717771EA0211202104005010033354339
B1108594626522N00717772EA0211302105005010036018354
B1109004626527N00717775EA0211302105005010039030015
B1109014626532N00717780EA0211402105005010039044028
B1109024626536N00717786EA0211402105005010040059042
B1109034626538N00717793EA0211402105005010031091055
B1109054626535N00717805EA0211402106005010028122103
B1109064626533N00717810EA0211402106005010029139116
B1109074626529N00717813EA0211402107005010031157133
B1109084626524N00717815EA0211502107005010033171153
B1109094626519N00717815EA0211502108005010035190168
B1109104626514N00717813EA0211602108005010035204188
B1109114626509N00717810EA0211702109005010034220202
B1109124626505N00717805EA0211802110005010033236219
B1109134626503N00717799EA0211902111005010034257235
B1109144626502N00717792EA0211902111005010034273257
B1109154626503N00717784EA0212002111005010035286274
B1109164626506N00717778EA0212002111005010037308287
B1109174626509N00717772EA0212102112005010036322310
B1109184626514N00717768EA0212102113005010032343325
B1109194626519N00717768EA0212202113005010042012346
B1109204626525N00717771EA0212202113005010041032015
B1109214626530N00717776EA0212202113010019041042035
B1109224626533N00717783EA0212202112010019036077044
B1109234626534N00717791EA0212202112010019035078079
B1109244626534N00717798EA0212202112010019031092080
B1109254626533N00717804EA0212202112010019032134094
B1109264626528N00717808EA0212202113010019029156133
B1109274626523N00717809EA0212202112010019029183154
B1109284626519N00717807EA0212302112005010033203179
B1109294626514N00717804EA0212302112005010035226199
B1109304626511N00717798EA0212302112005010038245222
B1109314626509N00717791EA0212402112005010036259242
B1109324626508N00717783EA0212502112005010035279256
B1109334626510N00717776EA0212502112005010030302276
B1109344626513N00717772EA0212602112005010027333300
B1109354626517N00717770EA0212602112005010034008334
B1109364626522N00717772EA0212602112005010036024011
B1109374626527N00717776EA0212602112005010038036028
B1109384626531N00717782EA0212602111005010039052040
B1109394626534N00717789EA0212502111005010041063055
B1109404626536N00717797EA0212402110005010038088066
B1109414626537N00717804EA0212202110005010033095092
B1109424626536N00717811EA0212102110005010028102099
B1109434626535N00717816EA0212102110005010023125106
B1109444626532N00717819EA0212102109005010025153128
B1109454626528N00717821EA0212002109005010029174153
B1109464626523N00717820EA0212002108005010032196172
B1109474626519N00717817EA0212002108005010032229193
B1109484626516N00717811EA0212002108005010035243225
B1109494626514N00717804EA0212002107005010034251239
B1109504626513N00717798EA0212102107005010028268246
B1109514626512N00717791EA0212102107005010032269262
B1109524626512N00717784EA0212202107005010037271265
B1109534626512N00717775EA0212202107005010038273267
B1109544626512N00717767EA0212202107005010036276269
B1109554626513N00717759EA0212302107005010034286272
B1109564626514N00717750EA0212302108005010035299284
B1109574626516N00717741EA0212302109005010036302287
B1109584626519N00717734EA0212302109005010038289285
B1109594626520N00717726EA0212202110005010041268275
B1110004626519N00717716EA0212202110005010039251257
B1110014626516N00717709EA0212202111005010032232238
B1110024626514N00717704EA0212102112005010028214219
B1110034626510N00717701EA0212102112005010024205208
B1110044626507N00717700EA0212002113005010028197198
B1110054626502N00717698EA0212002113005010031197199
B1110064626498N00717697EA0211902113005010033197198
B1110074626493N00717695EA0211902113005010035195199
B1110084626488N00717693EA0211802113005010033194197
B1110094626483N00717691EA0211702113005010033193194
B1110104626478N00717690EA0211702113005010035193191
B1110114626473N00717688EA0211602114005010036192195
B1110124626468N00717686EA0211602114005010037188198
B1110134626462N00717685EA0211602114005010036185209
B1110144626457N00717684EA0211602114005010034188208
B1110154626452N00717683EA0211702114005010033195214
B1110164626448N00717681EA0211702114005010031201212
B1110174626443N00717678EA0211702114005010031204212
B1110184626439N00717675EA0211702114005010033204213
B1110194626435N00717672EA0211702114005010036208203
B1110204626430N00717668EA0211602114005010040207205
B1110214626424N00717664EA0211602114005010038204204
B1110224626420N00717661EA0211502113005010034201201
B1110234626415N00717658EA0211402113005010032203199
B1110244626410N00717655EA0211302113005010035198205
B1110254626405N00717653EA0211302113005010037196199
B1110264626400N00717651EA0211302113005010036192201
B1110274626395N00717650EA0211302113005010034188189
B1110284626390N00717649EA0211302113005010031189179
B1110294626385N00717648EA0211302113005010033187194
B1110304626380N00717647EA0211402113005010038183190
B1110314626374N00717647EA0211402113005010040183197
B1110324626368N00717646EA0211402113005010037185193
B1110334626363N00717645EA0211502114005010032190184
B1110344626359N00717644EA0211502114005010028190180
B1110354626355N00717643EA0211502114005010031188184
B1110364626350N00717642EA0211502115005010038184183
B1110374626344N00717641EA0211402115005010041185179
B1110384626338N00717640EA0211402115005010039185180
B1110394626333N00717639EA0211202115005010032188189
B1110404626328N00717638EA0211102116005010028189167
B1110414626324N00717637EA0211002116005010028184171
B1110424626320N00717637EA0211002116005010030180191
B1110434626315N00717637EA0211002116005010036178194
B1110444626310N00717637EA0211002116005010034182215
B1110454626305N00717636EA0211002116005010033196211
B1110464626301N00717633EA0211102116005010029204204
B1110474626297N00717630EA0211202116005010026210208
B1110484626294N00717627EA0211302117005010027211206
B1110494626290N00717624EA0211402117005010031213206
B1110504626286N00717620EA0211502117005010033214206
B1110514626281N00717616EA0211502117005010038208195
B1110524626276N00717612EA0211602117005010037202166
B1110534626271N00717611EA0211602117005010034184152
B1110544626266N00717611EA0211602117005010034161141
B1110554626262N00717615EA0211702118005010033136125
B1110564626259N00717620EA0211802118005010035109107
B1110574626258N00717628EA0211902119005010034081087
B1110584626260N00717634EA0211902119005010031055063
B1110594626263N00717639EA0212002120005010031036047
B1111004626267N00717642EA0212002121005010034015028
B1111014626273N00717642EA0212002122005010035355007
B1111024626278N00717640EA0212002122005010037331347
B1111034626282N00717634EA0212002123005010038299324
B1111044626283N00717626EA0212002123005010040275291
B1111054626283N00717617EA0212002124005010039254268
B1111064626281N00717609EA0212002125005010036236247
B1111074626277N00717604EA0212002125005010039216229
B1111084626271N00717600EA0212002126010019040199209
B1111094626265N00717599EA0212102127005010043173192
B1111104626259N00717601EA0212102127005010039148168
B1111114626255N00717606EA0212102128005010035137144
B1111124626253N00717613EA0212102128005010036080133
B1111134626256N00717620EA0212102129005010037059081
B1111144626259N00717626EA0212102131005010032038062
B1111154626263N00717630EA0212102132005010027031042
B1111164626268N00717632EA0212102133005010031007037
B1111174626273N00717632EA0212102133005010034342013
B1111184626278N00717628EA0212102134005010033330343
B1111194626282N00717624EA0212102135005010029321332
B1111204626285N00717620EA0212102135005010027316323
B1111214626288N00717615EA0212102135005010032312331
B1111224626292N00717609EA0212102135005010039308326
B1111234626296N00717602EA0212102135005010046304329
B1111244626300N00717593EA0212202135005010048305322
B1111254626304N00717587EA0212302136005010032313320
B1111264626307N00717581EA0212402136005010032315310
B1111274626310N00717576EA0212602136005010035310284
B1111284626313N00717569EA0212802137005010039298287
B1111294626315N00717561EA0212802137005010041279271
B1111304626315N00717552EA0212902137005010043250254
B1111314626311N00717544EA0213002136005010045224230
B1111324626306N00717539EA0213002136005010043205206
B1111334626300N00717538EA0213002136005010042169187
B1111344626294N00717541EA0213002137010019039148156
B1111354626289N00717546EA0213002138010019032135137
B1111364626287N00717551EA0213202140010019026109121
B1111374626286N00717557EA0213402141005010026086098
B1111384626287N00717562EA0213602143005010027068078
B1111394626289N00717567EA0213802144005010028047063
B1111404626293N00717571EA0214002145005010031021045
B1111414626298N00717572EA0214202147005010036356023
B1111424626303N00717569EA0214402149005010042334000
B1111434626309N00717564EA0214502150005010041313338
B1111444626312N00717556EA0214602151005010041291318
B1111454626313N00717547EA0214702153005010043276295
B1111464626313N00717538EA0214802154005010041259279
B1111474626311N00717530EA0214802155005010041236261
B1111484626307N00717523EA0214802156005010044215236
B1111494626301N00717520EA0214802157005010042186212
B1111514626286N00717529EA0214802160005010029139135
B1111524626283N00717533EA0214902161005010025136132
B1111534626280N00717537EA0215102163005010025137131
B1111544626277N00717541EA0215302165005010028137135
B1111554626274N00717545EA0215502167005010030136129
B1111564626271N00717550EA0215702169005010030138130
B1111574626268N00717554EA0215902171005010027137106
B1111584626266N00717558EA0216102173005010022123097
B1111594626264N00717562EA0216302175005010022097086
B1112004626265N00717567EA0216402177005010026070072
B1112014626267N00717571EA0216602179005010027047048
B1112024626271N00717575EA0216702180005010031020032
B1112034626276N00717575EA0216702182005010036352011
B1112044626282N00717572EA0216702183005010042330348
B1112054626287N00717567EA0216702184005010046318321
B1112064626291N00717559EA0216802185005010043297308
B1112074626293N00717550EA0216802186005010044277289
B1112084626293N00717540EA0216802187005010045252270
B1112094626289N00717531EA0216902187005010048233244
B1112104626285N00717524EA0217002188005010043224224
B1112114626279N00717520EA0217102189005010039181214
B1112124626274N00717522EA0217102190010019033156170
B1112134626270N00717525EA0217302192010019028143141
B1112144626267N00717529EA0217402194010019023129124
B1112154626265N00717533EA0217602195005010020117107
B1112164626264N00717537EA0217802197005010019108094
B1112174626264N00717541EA0218002198005010019087081
B1112184626264N00717545EA0218202200005010021074067
B1112194626265N00717550EA0218302201005010024061064
B1112204626268N00717554EA0218302203005010030049065
B1112214626271N00717559EA0218302204005010031046060
B1112224626274N00717564EA0218302205005010029047047
B1112234626277N00717569EA0218202206005010027044024
B1112244626280N00717572EA0218202207005010027020010
B1112254626285N00717574EA0218202208005010037002355
B1112264626291N00717573EA0218202207005010043339335
B1112274626297N00717567EA0218202207005010049319315
B1112284626303N00717560EA0218302207005010049308298
B1112294626304N00717550EA0218302208005010046258288
B1112304626302N00717541EA0218302208005010040233245
B1112314626297N00717536EA0218402208005010037207218
B1112324626292N00717532EA0218402208005010039202191
B1112334626287N00717531EA0218502209005010031167185
B1112344626282N00717533EA0218602209005010032152146
B1112354626279N00717538EA0218702209005010030123132
B1112364626277N00717543EA0218802210005010030103106
B1112374626276N00717550EA0218802210005010029087092
B1112384626276N00717556EA0218902210005010030075067
B1112394626278N00717562EA0219002211005010033063061
B1112404626281N00717568EA0219002211005010037048038
B1112414626285N00717574EA0219002211005010036035024
B1112424626290N00717577EA0219102212005010038009009
B1112434626295N00717577EA0219102212005010036347354
B1112444626300N00717573EA0219202213005010040321339
B1112454626304N00717566EA0219302213005010041309316
B1112464626307N00717558EA0219502214005010040285306
B1112474626308N00717550EA0219602215005010038268279
B1112484626306N00717541EA0219802216005010036250263
B1112494626304N00717535EA0220002217005010032230243
B1112504626300N00717530EA0220202218005010031210218
B1112514626296N00717528EA0220402219005010030193189
B1112524626291N00717528EA0220502221005010029178169
B1112534626287N00717529EA0220702222005010029158148
B1112544626283N00717532EA0220802223005010030136128
B1112554626281N00717538EA0220902224005010030113105
B1112564626280N00717544EA0221002225005010032093081
B1112574626280N00717552EA0221002226005010036079068
B1112584626282N00717559EA0221102226005010037069053
B1112594626284N00717566EA0221102227005010033064037
B1113004626287N00717571EA0221102227005010036023036
B1113014626293N00717572EA0221202229005010038000012
B1113024626299N00717571EA0221302230005010036343352
B1113034626303N00717567EA0221402231005010031314343
B1113044626306N00717562EA0221602232005010032295318
B1113054626307N00717554EA0221802233005010039282294
B1113064626308N00717545EA0222002234005010042272273
B1113074626307N00717536EA0222102235005010043262252
B1113084626306N00717527EA0222202236005010040246248
B1113094626303N00717520EA0222302236005010036228228
B1113104626299N00717515EA0222302237005010032209206
B1113114626294N00717513EA0222402238010019030192179
B1113124626290N00717512EA0222502239010019031179162
B1113134626285N00717513EA0222602240010019031163138
B1113144626281N00717516EA0222702242010019032139131
B1113154626278N00717522EA0222802243010019036113109
B1113164626277N00717530EA0222902244010019038093092
B1113174626278N00717538EA0223002245010019038068074
B1113184626281N00717544EA0223002246010019035044053
B1113194626285N00717549EA0223102247010019031030037
B1113204626290N00717551EA0223202248005010033012022
B1113214626295N00717550EA0223302250005010034325009
B1113224626298N00717543EA0223402251005010039297328
B1113234626301N00717535EA0223602253005010042282295
B1113244626301N00717525EA0223702254005010042264278
B1113254626299N00717516EA0223802254005010042240257
B1113264626295N00717509EA0223802254005010043218228
B1113274626290N00717505EA0223802255005010041195207
B1113284626284N00717504EA0223802255005010033180179
B1113294626280N00717506EA0223802255010019033152159
B1113304626276N00717509EA0223902256010019028140135
B1113314626273N00717514EA0224002257005010027127116
B1113324626271N00717519EA0224202258005010032115105
B1113334626269N00717527EA0224302258005010038097086
B1113344626269N00717534EA0224302259005010036076067
B1113354626272N00717541EA0224302260005010033046053
B1113364626276N00717544EA0224402261005010033016032
B1113374626281N00717546EA0224502262005010037008012
B1113384626286N00717545EA0224502263005010033347003
B1113394626290N00717541EA0224602264005010033305345
B1113404626292N00717534EA0224802265005010035284305
B1113414626292N00717525EA0224902266005010038263280
B1113424626290N00717516EA0225002266005010041246253
B1113434626287N00717508EA0225002266005010043226231
B1113444626282N00717502EA0225102267005010043208208
B1113454626276N00717499EA0225102268005010039188191
B1113464626270N00717499EA0225102269005010035173167
B1113474626265N00717500EA0225102270005010032162154
B1113484626261N00717503EA0225202271005010031155140
B1113494626257N00717506EA0225302273005010031142122
B1113504626253N00717511EA0225502274005010032126107
B1113514626251N00717518EA0225602275005010033108091
B1113524626250N00717525EA0225702276005010034090081
B1113534626251N00717531EA0225802278005010031071071
B1113544626253N00717537EA0225902278005010029051062
B1113554626256N00717541EA0225902279005010029035043
B1113564626260N00717544EA0225902280005010026021031
B1113574626264N00717546EA0225902281005010024009022
B1113584626268N00717546EA0226002282005010024352011
B1113594626271N00717543EA0226002283005010033323357
B1114004626275N00717537EA0226002283005010037307323
B1114014626278N00717530EA0226002284005010039287306
B1114024626278N00717521EA0226002285005010040268283
B1114034626277N00717512EA0226002285005010042246261
B1114044626274N00717504EA0226002285005010043229233
B1114054626269N00717497EA0226002286005010041219215
B1114064626264N00717492EA0226102286005010041201195
B1114074626258N00717490EA0226102286005010039189177
B1114084626253N00717489EA0226202286005010036175165
B1114094626248N00717491EA0226202287005010036158149
B1114104626243N00717495EA0226302287005010036140132
B1114114626240N00717500EA0226302287005010032120119
B1114124626238N00717506EA0226402287005010027098106
B1114134626238N00717511EA0226402288005010025076088
B1114144626239N00717516EA0226402288005010022065072
B1114154626241N00717521EA0226502289005010022064060
B1114164626243N00717525EA0226502289005010025060052
B1114174626245N00717530EA0226602290005010029049046
B1114184626248N00717534EA0226602290005010029035034
B1114194626252N00717537EA0226602290005010025015027
B1114204626256N00717537EA0226602291005010026352011
B1114214626260N00717536EA0226602291005010030338350
B1114224626264N00717533EA0226602291005010034326332
B1114234626268N00717528EA0226602291005010035312318
B1114244626271N00717521EA0226502291005010036295306
B1114254626273N00717514EA0226502291005010040282285
B1114264626274N00717505EA0226502291005010040274273
B1114274626273N00717495EA0226502290005010044260259
B1114284626272N00717486EA0226502290005010044249237
B1114294626269N00717477EA0226502290005010043235224
B1114304626264N00717471EA0226502290005010039218209
B1114314626259N00717466EA0226502289005010039200194
B1114324626253N00717465EA0226502289005010038185176
B1114334626248N00717465EA0226502289005010036172159
B1114344626243N00717467EA0226602289005010034160145
B1114354626238N00717470EA0226702290005010031144131
B1114364626235N00717475EA0226702290005010030127120
B1114374626233N00717480EA0226702290005010029112103
B1114384626232N00717486EA0226802290005010028093089
B1114394626232N00717492EA0226802290005010027071078
B1114404626234N00717497EA0226902291005010026052059
B1114414626237N00717500EA0226902291005010026034047
B1114424626241N00717503EA0226902291005010029018029
B1114434626245N00717504EA0226902292005010031005014
B1114444626250N00717504EA0226902292005010031351003
B1114454626254N00717502EA0226902292005010033330350
B1114464626258N00717497EA0227002291005010036312334
B1114474626261N00717490EA0227002291005010041297311
B1114484626264N00717482EA0226902291005010042288292
B1114494626265N00717472EA0226902291005010043270284
B1114504626264N00717463EA0226902290005010044253260
B1114514626261N00717454EA0226902290005010045239242
B1114524626257N00717446EA0226902290005010045225225
B1114534626252N00717440EA0226902290005010044209207
B1114544626246N00717436EA0226902290005010039193192
B1114554626240N00717435EA0226902290005010036176177
B1114564626235N00717437EA0226902290005010034156160
B1114574626231N00717441EA0226902290005010033141141
B1114584626227N00717446EA0227002291005010031130132
B1114594626225N00717451EA0227002291005010028125123
B1115004626222N00717456EA0227002291005010026126125
B1115014626220N00717460EA0227002292005010025129122
B1115024626218N00717465EA0227002292005010027128131
B1115034626215N00717469EA0227102292005010030127133
B1115044626212N00717475EA0227102293005010032131136
B1115054626209N00717480EA0227102293005010033135144
B1115064626205N00717484EA0227102294005010032142141
B1115074626202N00717488EA0227202294005010032143139
B1115084626198N00717492EA0227302294005010030143150
B1115094626194N00717496EA0227302295005010030144147
B1115104626190N00717500EA0227402295005010031148156
B1115114626186N00717503EA0227502296005010031152154
B1115124626182N00717506EA0227602296005010032153153
B1115134626178N00717509EA0227602296005010032152166
B1115144626173N00717512EA0227602296005010032153162
B1115154626169N00717515EA0227602296005010035159160
B1115164626163N00717517EA0227602295005010042163161
B1115174626157N00717520EA0227602295005010046162160
B1115184626151N00717523EA0227502294005010044159153
B1115194626145N00717527EA0227402294005010040155155
B1115204626140N00717530EA0227402294005010037155161
B1115214626135N00717533EA0227402294005010034159151
B1115224626130N00717536EA0227402294005010036161152
B1115234626125N00717538EA0227402293005010036162149
B1115244626119N00717541EA0227402293005010040157148
B1115254626114N00717545EA0227402292005010044153154
B1115264626108N00717549EA0227402291005010043152147
B1115274626102N00717553EA0227402291005010041153156
B1115284626097N00717557EA0227302290005010039153160
B1115294626092N00717560EA0227202290005010036153147
B1115304626087N00717564EA0227202289005010034154157
B1115314626083N00717567EA0227102288005010033156157
B1115324626078N00717570EA0227002287005010036155154
B1115334626073N00717573EA0226902285005010039149155
B1115344626068N00717578EA0226902284005010037144156
B1115354626064N00717582EA0226802283005010033145155
B1115364626060N00717586EA0226602281005010032147148
B1115374626056N00717590EA0226402280005010031147150
B1115384626052N00717594EA0226402278005010034142144
B1115394626048N00717599EA0226202277005010037141156
B1115404626044N00717604EA0225902275005010036143148
B1115414626040N00717608EA0225702274005010032143152
B1115424626036N00717612EA0225702272005010032143139
B1115434626032N00717616EA0225502270005010031142122
B1115454626028N00717621EA0225302268005010034134094
B1115464626024N00717633EA0225102264005010034092081
B1115474626025N00717641EA0224902262005010036070062
B1115484626028N00717647EA0224702260005010035048050
B1115504626032N00717652EA0224402259005010034029036
B1115514626042N00717656EA0224202255005010034001011
B1115524626047N00717656EA0224002253005010036353359
B1115544626052N00717654EA0223802251005010036346350
B1115554626057N00717652EA0223802250005010035338351
B1115564626062N00717648EA0223602248005010035330348
E111556PEVBackground
B1115574626070N00717641EA0223202245005010033332347
B1115584626075N00717637EA0223202243005010034334348
B1116004626080N00717634EA0223002241005010036334346
B1116024626090N00717627EA0222602238005010039331349
B1116034626094N00717623EA0222602236005010036330352
B1116054626102N00717616EA0222302234005010030330356
B1116064626106N00717613EA0222202232005010029333350
B1116074626110N00717610EA0222202231005010032333353
B1116084626115N00717606EA0222102230005010036329353
B1116094626119N00717602EA0222002230005010035326000
B1116104626124N00717598EA0221902229005010036331011
B1116114626128N00717595EA0221902229005010027339008
B1116124626132N00717594EA0221802228005010027350001
B1116134626136N00717593EA0221702227005010030353004
B1116144626140N00717593EA0221602227005010034357007
B1116154626145N00717593EA0221602226005010032358000
B1116164626150N00717593EA0221602226005010028359001
B1116174626154N00717593EA0221502226005010025002354
B1116184626157N00717593EA0221402226005010024000352
B1116194626161N00717594EA0221402225005010025000348
B1116204626165N00717594EA0221302225005010028004348
B1116214626170N00717595EA0221202224005010037008347
B1116224626175N00717597EA0221102224005010039009346
B1116234626181N00717598EA0221102223005010034008346
B1116244626185N00717599EA0221002222005010025008344
B1116254626189N00717600EA0220902222005010025004344
B1116264626193N00717601EA0220802222005010027004343
B1116274626197N00717601EA0220802221005010036006343
B1116284626203N00717602EA0220702219005010038007343
B1116294626208N00717604EA0220502217005010038007343
B1116304626214N00717604EA0220402215005010032003342
B1116314626218N00717605EA0220402213005010030002342
B1116324626222N00717605EA0220202212005010027000342
B1116334626226N00717605EA0219902211005010028359342
B1116344626230N00717605EA0219802210005010029356344
B1116354626235N00717604EA0219802209005010028350348
B1116364626239N00717603EA0219702208005010027342348
B1116374626242N00717600EA0219602208005010029336339
B1116384626246N00717598EA0219502207005010029330331
B1116394626250N00717594EA0219502207005010030321318
B1116404626253N00717589EA0219502206005010031309310
B1116414626256N00717583EA0219402205005010036291312
B1116424626257N00717575EA0219302204005010041274310
B1116434626256N00717566EA0219302203005010044258310
B1116444626254N00717557EA0219202202005010042241313
B1116454626251N00717550EA0219102201005010040225316
B1116464626246N00717545EA0219002200005010038210321
B1116474626241N00717541EA0219002199005010037199323
B1116484626235N00717540EA0218902198005010038190327
B1116494626230N00717539EA0218802197005010040184354
B1116504626223N00717538EA0218602196005010043179349
B1116514626217N00717538EA0218602195005010043182349
B1116524626211N00717538EA0218402193005010038178348
B1116534626206N00717538EA0218202192005010035184347
B1116544626201N00717537EA0218102191005010035186346
B1116554626195N00717537EA0218002190005010037183345
B1116564626190N00717537EA0218002189005010039174344
B1116574626184N00717538EA0217902189005010041168344
B1116584626178N00717540EA0217802188005010039166343
B1116594626173N00717542EA0217802187005010037165343
B1117004626167N00717545EA0217702187005010037163343
B1117014626162N00717548EA0217602186005010039154342
B1117024626157N00717552EA0217502185005010041148342
B1117034626152N00717557EA0217302185005010038145342
B1117044626148N00717561EA0217302185005010034146342
B1117054626144N00717565EA0217202185005010031144342
B1117064626141N00717569EA0217202185005010031138342
B1117074626137N00717574EA0217202185005010032135342
B1117084626134N00717580EA0217202184005010037130342
B1117094626130N00717586EA0217202184005010038133342
B1117104626127N00717592EA0217102184005010036135342
B1117114626123N00717597EA0217102184005010033130342
B1117124626121N00717603EA0217102183005010031118342
B1117134626119N00717610EA0217002183005010034108342
B1117144626117N00717617EA0216902182005010040106342
B1117154626116N00717625EA0216802181005010038104342
B1117164626115N00717633EA0216702180005010032088342
B1117174626116N00717639EA0216502180005010029066342
B1117184626119N00717645EA0216402179005010030043342
B1117194626123N00717648EA0216302178005010032027342
B1117204626127N00717651EA0216102176005010032021342
B1117214626132N00717654EA0216002174005010032019342
B1117224626136N00717656EA0215802172005010033018344
E111722PEVForeground
E111722PEVVario Device removed
B1117234626141N00717658EA0215602170005010034016350
B1117244626146N00717659EA0215402168005010032010019
B1117254626151N00717660EA0215202167005010028006016
B1117264626155N00717660EA0215102165005010027004018
B1117274626159N00717661EA0215002163005010030005004
B1117284626164N00717662EA0214902161005010033002005
B1117294626168N00717661EA0214902160005010031353348
B1117304626173N00717660EA0214702159005010030339350
B1117314626177N00717657EA0214602158005010030330350
B1117324626181N00717653EA0214502157005010031327357
B1117334626185N00717650EA0214502156005010033336007
B1117344626190N00717648EA0214402155005010037347003
B1117354626195N00717646EA0214302154005010035355004
B1117364626200N00717646EA0214202153005010032353001
B1117374626204N00717644EA0214102152005010030344358
B1117384626209N00717643EA0214102152005010030342002
B1117394626213N00717641EA0214002151005010030346001
B1117404626217N00717640EA0214002150005010030350356
B1117414626222N00717638EA0214002150005010029349352
B1117424626226N00717637EA0213902149005010029344357
B1117434626230N00717635EA0213902149005010030343358
B1117444626234N00717633EA0213802148005010031345007
B1117454626239N00717632EA0213702147005010032349021
B1117464626243N00717631EA0213702146005010031350016
B1117474626248N00717630EA0213702146005010029355018
B1117484626252N00717630EA0213602145005010028003020
B1117494626256N00717631EA0213502145005010029004027
B1117504626261N00717632EA0213502145005010030005037
B1117514626265N00717633EA0213502144005010031011042
B1117524626270N00717635EA0213402144005010031023044
B1117534626274N00717638EA0213402143005010030033041
B1117544626277N00717642EA0213402143005010030036039
B1117554626281N00717646EA0213302142005010030036049
B1117564626285N00717650EA0213302142005010029037047
B1117574626288N00717654EA0213302142005010028043043
B1117584626291N00717658EA0213202142005010029042037
B1117594626294N00717663EA0213202142005010032044032
B1118004626298N00717668EA0213202141005010032041022
B1118014626301N00717672EA0213202141005010030042031
B1118024626305N00717676EA0213202141005010026039035
B1118034626307N00717680EA0213202142005010025043029
B1118044626310N00717684EA0213102142005010024041031
B1118054626313N00717687EA0213102142005010025042023
B1118064626316N00717691EA0213102142005010028035029
B1118074626319N00717694EA0213102142005010030032024
B1118084626323N00717698EA0213102142005010029033023
B1118094626326N00717701EA0213102142005010026036029
B1118104626329N00717705EA0213102143005010022040030
B1118114626332N00717708EA0213102143005010022037034
B1118124626335N00717711EA0213102143005010023037023
B1118134626338N00717714EA0213102144005010026039024
B1118144626341N00717717EA0213102144005010026033018
B1118154626344N00717720EA0213102144005010023026018
B1118164626347N00717722EA0213102144005010020024024
B1118174626350N00717724EA0213102145005010019021021
B1118184626353N00717725EA0213102145005010021016031
B1118194626356N00717726EA0213102145005010023015028
B1118204626360N00717728EA0213002145005010027017043
B1118214626364N00717729EA0212902144005010027023034
B1118224626367N00717733EA0212802144005010026028033
B1118234626371N00717736EA0212802143005010027028030
B1118244626375N00717739EA0212702142005010029024033
B1118254626379N00717741EA0212502141005010032022031
B1118264626384N00717744EA0212402140005010035021027
B1118274626389N00717747EA0212402138005010037021023
B1118284626394N00717750EA0212202137005010038018018
B1118294626399N00717753EA0212002136005010037014017
B1118304626405N00717754EA0211902135005010035009025
B1118314626410N00717755EA0211902134005010036009024
B1118324626415N00717757EA0211702133005010038013020
B1118334626421N00717759EA0211602131005010039014019
B1118344626426N00717761EA0211502130005010038014015
B1118354626431N00717763EA0211502128005010037012023
B1118364626437N00717764EA0211402127005010036011019
B1118374626442N00717766EA0211302125005010038010029
B1118384626448N00717768EA0211202124005010039011024
B1118394626454N00717770EA0211202122005010042012021
B1118404626460N00717772EA0211002121005010044011015
B1118414626466N00717773EA0210902120005010038013011
B1118424626471N00717775EA0210802120005010031007008
B1118434626475N00717775EA0210802120005010024000020
B1118444626479N00717775EA0210802120005010022356022
B1118454626482N00717775EA0210802120005010025003036
B1118464626486N00717776EA0210702120005010031014032
B1118474626491N00717778EA0210702120005010034023032
B1118484626496N00717782EA0210702120005010033023038
B1118494626500N00717785EA0210602120005010029029034
B1118504626503N00717788EA0210502119005010025031032
B1118514626506N00717791EA0210502119005010025031027
B1118524626510N00717794EA0210402118005010029029029
B1118534626514N00717797EA0210302118005010031027030
B1118544626518N00717801EA0210202117005010031025026
B1118554626522N00717804EA0210202116005010029026022
B1118564626526N00717806EA0210102116005010028029023
B1118574626530N00717809EA0210002115005010029029015
B1118584626534N00717812EA0209902114005010030026006
B1118594626538N00717815EA0209902113005010032021005
B1119004626542N00717817EA0209802112005010031014001
B1119014626547N00717818EA0209702111005010029007002
B1119024626551N00717818EA0209702110005010027003005
B1119034626555N00717819EA0209702110005010026003011
B1119044626559N00717819EA0209602109005010028004013
B1119054626563N00717819EA0209502108005010029007034
B1119064626567N00717820EA0209502107005010027012047
B1119074626571N00717822EA0209502107005010026025052
B1119084626574N00717825EA0209402106005010027043064
B1119094626577N00717830EA0209402106005010031051065
B1119104626580N00717835EA0209302105005010032055078
B1119114626582N00717841EA0209302104005010031064098
B1119124626584N00717848EA0209202103005010032074106
B1119134626584N00717855EA0209002102005010034091114
B1119144626583N00717862EA0208902101005010036112125
B1119154626581N00717869EA0208902100005010035112135
B1119164626577N00717874EA0208702099005010040152137
B1119174626571N00717877EA0208502098005010042170160
B1119184626565N00717877EA0208402097005010038185171
B1119194626559N00717875EA0208402096005010037196180
B1119204626554N00717871EA0208202095010019040198191
B1119214626548N00717868EA0208102094010019042191200
B1119224626542N00717866EA0207902093010019044189201
B1119234626535N00717863EA0207902092005010044193199
B1119244626529N00717860EA0207802090005010041201199
B1119254626524N00717856EA0207702089005010041208205
B1119264626518N00717851EA0207602088005010042209211
B1119274626513N00717846EA0207602087005010044209216
B1119284626507N00717841EA0207502086005010045209220
B1119294626501N00717836EA0207402085010019045211218
B1119314626486N00717821EA0207102081005010041215217
B1119324626480N00717815EA0207102080005010044215217
B1119334626475N00717810EA0207002078005010046213213
B1119344626469N00717804EA0206902077005010048213215
B1119354626463N00717799EA0206702075005010046210217
B1119364626457N00717794EA0206702074005010044212222
B1119374626451N00717789EA0206602072005010045212220
B1119384626445N00717783EA0206502071005010048213218
B1119394626439N00717777EA0206302069005010049212213
B1119404626433N00717772EA0206302068005010050206204
B1119414626426N00717768EA0206202067005010049199185
B1119424626419N00717765EA0206102067005010046197191
B1119434626413N00717762EA0206102066005010043194211
B1119444626406N00717760EA0206102066005010042197198
B1119454626400N00717757EA0206102066005010042198204
B1119464626395N00717754EA0206102065005010041199205
B1119474626389N00717751EA0206102065005010041200196
B1119484626383N00717748EA0206102064005010040199195
B1119494626377N00717746EA0206102064005010040196189
B1119504626372N00717743EA0206002063005010040196192
B1119514626366N00717741EA0205902062005010041196192
B1119524626360N00717738EA0205902062005010040198199
B1119534626355N00717735EA0205802061005010038201195
B1119544626349N00717732EA0205702060005010037203191
B1119554626344N00717729EA0205602059005010039202197
B1119564626339N00717726EA0205602058005010042199195
B1119574626333N00717722EA0205502057005010043199200
B1119584626327N00717720EA0205402056005010042197192
B1119594626321N00717717EA0205202056005010038199188
B1120004626316N00717714EA0205202055005010036198180
B1120014626310N00717712EA0205102054005010038194185
B1120024626305N00717710EA0205102053005010041188176
B1120034626298N00717709EA0205002053005010042185181
B1120044626292N00717708EA0205002052005010042185179
B1120054626286N00717708EA0204902052005010041184176
B1120064626280N00717707EA0204902052005010039186169
B1120074626275N00717706EA0204902052005010037184165
B1120084626269N00717705EA0204902052005010037181171
B1120094626263N00717706EA0204802051005010041176164
B1120104626257N00717706EA0204802051005010042174169
B1120114626251N00717707EA0204802051005010041173163
B1120124626245N00717708EA0204802051005010040173163
B1120134626239N00717709EA0204702051005010039173166
B1120144626234N00717710EA0204702050005010039172159
B1120154626228N00717711EA0204602050005010039172158
B1120164626222N00717712EA0204602050005010035170177
B1120174626217N00717714EA0204602050005010032162167
B1120184626213N00717716EA0204602050005010031157166
B1120194626209N00717718EA0204602050005010031161171
B1120204626204N00717720EA0204602049005010033167171
B1120214626199N00717722EA0204502048005010035170166
B1120224626194N00717723EA0204402047005010035175169
B1120234626189N00717723EA0204402047005010034182172
B1120244626184N00717722EA0204402046005010033186169
B1120254626180N00717722EA0204202045005010032182147
B1120264626175N00717722EA0204102044005010031169136
B1120274626171N00717725EA0203902043005010031144125
B1120284626168N00717730EA0203902042005010035118102
B1120294626166N00717737EA0203802041005010036097092
B1120304626166N00717745EA0203602040005010035078068
B1120314626168N00717752EA0203502039005010033057048
B1120324626171N00717757EA0203502039005010033037038
B1120334626176N00717760EA0203402038005010035022022
B1120344626181N00717763EA0203302037005010035014014
B1120354626186N00717764EA0203202037005010032008009
B1120364626190N00717764EA0203202036005010031002008
B1120374626195N00717764EA0203102035005010032359005
B1120384626200N00717764EA0203002033005010033000009
B1120394626205N00717764EA0202902032005010033003003
B1120404626210N00717765EA0202902030005010033006011
B1120414626215N00717766EA0202802029005010033008017
B1120424626220N00717767EA0202702027005010033007014
B1120434626225N00717768EA0202502026005010033006010
B1120444626229N00717769EA0202502024005010033008020
B1120454626234N00717770EA0202302023005010032011011
B1120464626239N00717771EA0202102021005010031013010
B1120474626243N00717773EA0202002020005010030014013
B1120484626247N00717775EA0202002018005010031011002
B1120494626252N00717776EA0201802016005010032009020
B1120504626257N00717777EA0201602014005010033008001
B1120514626262N00717778EA0201502013005010034007009
B1120524626266N00717779EA0201502011005010030002005
B1120534626271N00717779EA0201302010005010030005009
B1120544626275N00717780EA0201102009005010027016022
B1120554626278N00717782EA0201002008005010026019008
B1120564626282N00717784EA0201002007005010026016011
B1120574626286N00717785EA0200902005005010029002355
B1120584626290N00717784EA0200702004005010028353354
B1120594626294N00717784EA0200602003005010026350000
B1121004626298N00717782EA0200602002005010024346350
B1121014626301N00717781EA0200402001005010024346355
B1121024626305N00717780EA0200301999005010024347346
B1121034626309N00717779EA0200001998005010025346348
B1121044626312N00717777EA0200001997005010028344348
B1121054626317N00717775EA0199801995005010031346348
B1121064626321N00717774EA0199601994005010031349008
B1121074626326N00717773EA0199401993005010031352006
B1121084626330N00717773EA0199401992005010024007005
B1121094626333N00717774EA0199201991005010026008014
B1121104626337N00717775EA0199001989005010025011014
B1121114626341N00717777EA0198801988005010031010005
B1121124626346N00717778EA0198801987005010036013015
B1121134626352N00717780EA0198701985005010038015013
B1121144626357N00717783EA0198501983005010035018004
B1121154626361N00717785EA0198301982005010031020003
B1121164626365N00717788EA0198301981005010029020008
B1121174626370N00717789EA0198101980005010029014003
B1121184626374N00717791EA0198001979005010031010352
B1121194626378N00717792EA0197901978005010032359350
B1121204626383N00717791EA0197901977005010029346004
B1121214626387N00717789EA0197901977005010027341001
E112121PEVBackground
B1121224626391N00717787EA0197801977005010028348015
B1121234626395N00717787EA0197801976005010028359359
B1121244626399N00717787EA0197801976005010027001001
B1121254626403N00717786EA0197801976005010026355002
B1121264626407N00717786EA0197701976005010026351009
B1121274626411N00717785EA0197701976005010026355017
B1121284626415N00717785EA0197701976005010029001006
B1121294626420N00717785EA0197701976005010029010354
B1121304626424N00717786EA0197701976005010031004002
B1121314626428N00717787EA0197701976005010031002006
B1121324626433N00717787EA0197701976005010029008009
B1121334626437N00717789EA0197701976005010028016006
B1121344626441N00717790EA0197601976005010028017351
B1121354626445N00717792EA0197601976005010029010001
B1121364626449N00717793EA0197501976005010030005007
B1121374626454N00717794EA0197501976005010030010007
B1121384626458N00717796EA0197501976005010031020003
B1121394626462N00717798EA0197501975005010030024355
B1121404626466N00717801EA0197501975005010030018356
B1121414626471N00717803EA0197501975005010030012007
B1121424626475N00717804EA0197501975005010031011007
B1121434626480N00717805EA0197501975005010033015007
B1121444626485N00717807EA0197501975005010035017357
B1121454626490N00717809EA0197501975005010030018352
B1121464626494N00717811EA0197501976005010026013332
B1121474626497N00717812EA0197501977005010022357321
B1121484626500N00717810EA0197601978005010022328316
B1121494626503N00717807EA0197601979005010027299312
B1121504626504N00717801EA0197601979005010033280312
B1121514626504N00717793EA0197701979005010035264313
B1121524626502N00717785EA0197701980005010039240318
B1121534626499N00717779EA0197701980005010036222320
B1121544626495N00717775EA0197701980005010034210322
B1121554626490N00717771EA0197701981005010033200324
B1121564626485N00717770EA0197701982005010039185001
B1121574626479N00717770EA0197701983005010040170355
B1121584626473N00717774EA0197801983005010048149352
B1121594626468N00717780EA0197901984005010046132349
B1122004626464N00717788EA0197901984005010040113348
B1122014626463N00717796EA0197901985005010036093347
B1122024626463N00717804EA0198001986005010036080346
B1122034626465N00717811EA0198001986005010033056346
B1122044626469N00717816EA0198001986005010031033347
B1122054626473N00717818EA0198001987005010033013337
B1122064626478N00717819EA0198001987005010037357332
B1122074626484N00717818EA0198001987005010035342327
B1122084626489N00717814EA0198001987005010032325315
B1122094626492N00717810EA0198001988005010028310323
B1122104626494N00717805EA0198001989005010025296322
B1122114626495N00717800EA0198001990005010024279321
B1122124626495N00717794EA0198101991005010026259327
B1122134626494N00717788EA0198201991005010032254329
B1122144626493N00717781EA0198201992005010034261334
B1122154626493N00717774EA0198301992005010032262335
B1122164626493N00717767EA0198301993005010029264336
B1122174626492N00717761EA0198301993005010029265337
B1122184626492N00717754EA0198301994005010031256337
B1122194626490N00717747EA0198201994005010036241337
B1122204626487N00717741EA0198201993005010036225338
B1122224626483N00717737EA0198201994005010036205338
B1122234626477N00717734EA0198201994005010038188350
B1122244626472N00717734EA0198201995005010036174348
B1122254626466N00717736EA0198301995005010037159347
B1122264626461N00717740EA0198401996005010039142346
B1122274626458N00717747EA0198401996005010040105345
B1122284626458N00717756EA0198501997005010044081345
B1122294626460N00717764EA0198601997010019042054346
B1122304626465N00717770EA0198701998010019037031341
B1122314626470N00717774EA0198701999010019043025334
B1122324626476N00717774EA0198802000010019034335326
B1122334626480N00717769EA0199002001005010034317323
B1122344626483N00717763EA0199102002005010030298327
B1122354626484N00717757EA0199102004005010027283324
B1122364626485N00717751EA0199302005005010027267330
B1122374626484N00717744EA0199602006005010032262329
B1122384626483N00717737EA0199802007005010034251330
B1122394626481N00717730EA0199802008005010034237332
B1122404626477N00717724EA0199902009005010034219332
B1122414626473N00717721EA0200102010005010036200354
B1122424626467N00717719EA0200302012005010039179351
E112242PEVForeground
E112242PEVVario Device removed
B1122434626462N00717721EA0200402013005010042157349
B1122444626456N00717726EA0200402015005010043134150
B1122454626453N00717734EA0200602016005010044110126
B1122464626452N00717743EA0200802018005010041090102
B1122474626453N00717751EA0201002020005010037067081
B1122484626456N00717758EA0201002022005010035045059
B1122494626460N00717762EA0201202024005010034021039
B1122504626465N00717763EA0201402026005010031357018
B1122514626470N00717761EA0201602027010019037326358
B1122544626477N00717737EA0202002034010019034228325
B1122564626472N00717731EA0202102035005010037211235
B1122584626454N00717728EA0202602041005010041161174
B1122594626449N00717732EA0202902042005010040134157
B1123004626445N00717740EA0202902044005010044114126
B1123014626443N00717748EA0203102046005010043096104
B1123024626444N00717757EA0203402048005010037070085
B1123034626446N00717763EA0203602050005010032053059
B1123044626451N00717767EA0203602052005010035012043
B1123054626456N00717767EA0203802053005010035356008
B1123064626461N00717765EA0204002055005010033337354
B1123074626465N00717761EA0204202057005010033315338
B1123084626468N00717755EA0204202058005010036292319
B1123094626469N00717747EA0204402059005010038274298
B1123104626469N00717738EA0204502061005010038254281
B1123114626466N00717731EA0204602062005010038228261
B1123124626461N00717726EA0204602063005010039199235
B1123134626455N00717725EA0204802064010019041174203
B1123144626449N00717728EA0205002065010019039150175
B1123154626444N00717733EA0205102066010019044134148
B1123164626442N00717741EA0205102068010019043094131
B1123174626442N00717751EA0205302069010019045081087
B1123184626443N00717760EA0205502070010019040075075
B1123194626445N00717767EA0205702072010019025082069
B1123204626445N00717771EA0205902073010019016084071
B1123214626446N00717773EA0205902075005010011062067
B1123224626448N00717773EA0206102076005010010015040
B1123234626449N00717771EA0206202078005010003291006
B1123244626449N00717771EA0206402078005010013214006
B1123254626449N00717762EA0206402079005010025187233
B1123264626446N00717757EA0206602080005010027160191
B1123274626443N00717756EA0206702081005010035124158
B1123284626441N00717760EA0206902082005010042096118
B1123294626441N00717766EA0206902083005010039069090
B1123304626444N00717772EA0207102085010019035048062
B1123314626448N00717773EA0207302087010019036359042
B1123324626453N00717770EA0207402089005010034331357
B1123334626457N00717763EA0207402091005010035308333
B1123344626459N00717755EA0207702094005010035290312
B1123354626460N00717747EA0207902095005010037268295
B1123364626459N00717739EA0208102097005010037241273
B1123374626455N00717732EA0208102099005010035233247
B1123384626452N00717726EA0208402101005010031210239
B1123394626447N00717724EA0208602103010019027185216
B1123404626443N00717725EA0208802104005010025159189
B1123414626439N00717728EA0208802106005010029148160
B1123424626435N00717735EA0208902107005010044103147
B1123434626435N00717744EA0209002109005010038092099
B1123444626435N00717752EA0209102111005010033068087
B1123454626438N00717758EA0209102113010019032044062
B1123464626442N00717762EA0209102115005010031024038
B1123474626446N00717764EA0209302117005010032000019
B1123484626451N00717763EA0209402119005010033335357
B1123494626455N00717759EA0209402121005010037323334
B1123504626458N00717753EA0209702123005010039278323
B1123514626457N00717744EA0210002125005010039256281
B1123524626455N00717737EA0210202128005010036233260
B1123534626451N00717732EA0210202131005010033211237
B1123544626446N00717730EA0210502134005010036189216
B1123554626440N00717730EA0210902136010019042175193
B1123564626433N00717732EA0211102138005010042160177
B1123574626428N00717736EA0211402139005010041141161
B1123584626423N00717743EA0211402140005010043124141
B1123594626421N00717751EA0211602141005010042103122
B1124004626420N00717760EA0211702142005010038082100
B1124014626422N00717769EA0211802144005010040078078
B1124024626423N00717777EA0211802145010019035077074
B1124034626424N00717783EA0211902146010019024088073
B1124044626424N00717788EA0212002148005010020088082
B1124054626424N00717792EA0212102148005010019085080
B1124104626423N00717733EA0212502143010019036175198
B1124114626417N00717736EA0212702143010019037156178
B1124134626411N00717741EA0212902143005010045142157
B1124154626406N00717757EA0213102144005010041087109
B1124164626408N00717766EA0213202145005010042065083
B1124174626411N00717774EA0213202146010019040059060
B1124184626416N00717779EA0213202148005010039018054
B1124194626423N00717780EA0213202149010019044352015
B1124204626429N00717777EA0213202151005010046339350
B1124214626435N00717772EA0213302152005010039313339
B1124224626438N00717765EA0213502154005010034295314
B1124234626440N00717759EA0213502156005010031286297
B1124244626440N00717751EA0213702159005010032266289
B1124254626439N00717744EA0214002161005010034245270
B1124264626436N00717737EA0214302162005010037240260
B1124274626433N00717730EA0214302164005010037242258
B1124284626431N00717723EA0214602165005010036250261
B1124294626431N00717716EA0214902166005010036295264
B1124304626434N00717709EA0215002167005010035312303
B1124314626438N00717704EA0215002168005010034320318
B1124324626442N00717700EA0215202169005010034322325
B1124334626446N00717695EA0215202169005010035323331
B1124344626451N00717691EA0215302169005010035325327
B1124354626455N00717687EA0215302170005010039328340
B1124364626460N00717683EA0215302169005010040330333
B1124384626475N00717670EA0215202169005010038330343
B1124394626480N00717666EA0215102168005010038334349
B1124404626485N00717664EA0215102168005010039349356
B1124414626491N00717663EA0215002167005010041351354
B1124424626497N00717662EA0214802166005010041351355
B1124434626503N00717661EA0214702165005010039350355
B1124444626508N00717660EA0214702163005010036351358
B1124454626514N00717659EA0214502162005010035356359
B1124464626519N00717659EA0214402160005010037002001
B1124474626524N00717659EA0214302158005010039004005
B1124484626530N00717660EA0214302155005010039001357
B1124494626536N00717660EA0214102152005010039000000
B1124504626542N00717660EA0214002150005010039000006
B1124514626547N00717660EA0213702148005010037001002
B1124524626553N00717660EA0213702145005010036000356
B1124534626558N00717660EA0213502143005010037357356
B1124544626564N00717659EA0213202139005010039355358
B1124554626570N00717658EA0212902136005010041355356
B1124564626576N00717657EA0212602133005010041355356
B1124574626582N00717656EA0212602130005010041355357
B1124584626588N00717656EA0212302127005010040354355
B1124594626594N00717655EA0212002124005010038352356
B1125004626599N00717653EA0211602122005010039353358
B1125014626605N00717652EA0211602120005010039355003
B1125024626611N00717652EA0211402117005010037357002
B1125034626616N00717651EA0211102116005010037358000
B1125044626622N00717651EA0210902114005010037356353
B1125054626627N00717650EA0210902112005010037351350
B1125064626633N00717649EA0210702111005010038346350
B1125074626638N00717646EA0210502109005010038345354
B1125084626644N00717644EA0210402108005010039348000
B1125094626649N00717643EA0210402106005010039351357
B1125104626655N00717642EA0210202105005010039353352
B1125114626661N00717641EA0210002103005010039351348
B1125124626667N00717639EA0209802101005010041347354
B1125134626673N00717637EA0209802100005010041346007
B1125144626678N00717635EA0209602098005010041350007
B1125154626685N00717634EA0209402097005010041358008
B1125164626691N00717635EA0209202095005010042005355
B1125174626697N00717636EA0209202093005010045003353
B1125184626704N00717636EA0209002090005010047358354
B1125194626711N00717636EA0208802088005010048356355
B1125204626718N00717635EA0208502086005010046355354
B1125214626725N00717634EA0208302085005010044356346
B1125224626732N00717633EA0208302083005010044353343
B1125234626738N00717632EA0208002081005010045349351
B1125244626745N00717630EA0207702079005010046348001
B1125254626751N00717628EA0207502078005010047352000
B1125264626758N00717627EA0207502076005010047357353
B1125274626765N00717627EA0207302074005010046357352
B1125284626772N00717626EA0207102072005010046354354
B1125294626779N00717625EA0206902070005010046351355
B1125304626786N00717623EA0206902068005010046351354
B1125314626793N00717622EA0206602066005010047354352
B1125324626800N00717621EA0206402064005010046354349
B1125334626806N00717620EA0206202062005010047351348
B1125344626813N00717618EA0206202060005010047348348
B1125354626820N00717616EA0205902058005010048346348
B1125364626827N00717613EA0205702056005010048346347
B1125374626834N00717611EA0205402054005010049345341
B1125384626841N00717608EA0205402052005010049344351
B1125394626848N00717605EA0205102050005010049346001
B1125404626855N00717603EA0204902048005010048352001
B1125414626862N00717602EA0204602047005010046357351
B1125424626869N00717602EA0204602045005010045356345
B1125434626876N00717601EA0204402043005010043349350
B1125444626882N00717599EA0204202042005010044345359
B1125454626888N00717596EA0204002041005010044348358
B1125464626895N00717595EA0204002039005010045353349
B1125474626902N00717594EA0203902038005010044354343
B1125484626908N00717592EA0203702037005010043349346
B1125494626914N00717590EA0203502035005010042344352
B1125504626920N00717588EA0203502034005010043346354
B1125514626927N00717586EA0203302032005010043350353
B1125524626933N00717585EA0203102030005010047355351
B1125534626940N00717584EA0202902028005010047356353
B1125544626947N00717584EA0202902026005010047355359
B1125554626954N00717583EA0202602024005010046356358
B1125564626961N00717583EA0202302022005010046356357
B1125574626968N00717582EA0202102020005010043355351
B1125584626974N00717581EA0202102018005010042350349
B1125594626980N00717579EA0201802017005010041346353
B1126004626986N00717577EA0201602016005010041348003
B1126024626993N00717575EA0201402014005010043356005
B1126034626999N00717575EA0201402013005010045003001
B1126044627006N00717576EA0201202011005010046004353
B1126054627013N00717577EA0201002009005010046359353
B1126064627020N00717576EA0200802007005010045356005
B1126074627026N00717576EA0200802005005010043000009
B1126084627033N00717576EA0200602003005010043007000
B1126094627039N00717578EA0200302001005010043007350
B1126104627046N00717579EA0200101999005010044001346
B1126114627052N00717578EA0200101997005010046353002
B1126124627059N00717577EA0199801994005010048355014
B1126134627066N00717577EA0199601992005010047001020
B1126144627073N00717578EA0199301990005010039016352
B1126154627078N00717580EA0199301988005010032021341
B1126164627082N00717582EA0199101986005010029011351
B1126174627086N00717583EA0198901984005010027000359
B1126184627091N00717582EA0198701982005010038349014
B1126194627097N00717581EA0198701980005010041357003
B1126204627103N00717581EA0198501978005010039003007
B1126214627108N00717581EA0198301976005010033003343
B1126224627113N00717581EA0198101975005010030359358
B1126234627117N00717581EA0197801973005010030356358
B1126244627122N00717580EA0197801972005010035351004
B1126254627127N00717579EA0197501970005010038354354
B1126264627133N00717579EA0197301968005010040356351
B1126274627139N00717578EA0197101967005010037354358
B1126284627144N00717577EA0197101965005010036351359
B1126294627150N00717576EA0196901964005010037354359
B1126304627155N00717575EA0196601962005010038357357
B1126314627161N00717575EA0196401960005010041000357
B1126324627168N00717575EA0196401958005010040000359
B1126334627174N00717575EA0196201956005010040000001
B1126344627179N00717576EA0195901954005010039001000
B1126354627185N00717576EA0195701953005010037002000
B1126364627191N00717576EA0195701951005010036002003
B1126374627196N00717577EA0195401949005010036003003
B1126384627202N00717577EA0195201947005010037004006
B1126394627207N00717578EA0195001945005010039006005
B1126404627213N00717579EA0195001943005010038008004
B1126414627219N00717580EA0194701941005010038008002
B1126424627224N00717581EA0194501939005010037007002
B1126434627230N00717582EA0194201937005010037006005
B1126444627235N00717583EA0194201935005010038007006
B1126454627241N00717584EA0193901933005010038008359
B1126464627247N00717585EA0193701931005010038007355
B1126474627252N00717586EA0193501929005010036004354
B1126484627258N00717586EA0193501927005010036359354
B1126494627263N00717586EA0193201926005010036355357
B1126504627268N00717585EA0193001924005010037355000
B1126514627274N00717584EA0192801922005010037358359
B1126524627279N00717585EA0192801921005010037001356
B1126534627285N00717585EA0192601919005010037001351
B1126544627291N00717585EA0192401918005010037359353
B1126554627296N00717585EA0192201916005010037357356
B1126564627302N00717584EA0192201914005010036357357
B1126574627307N00717584EA0192101913005010036359357
B1126584627312N00717584EA0191901912005010036001359
B1126594627318N00717584EA0191701910005010038001356
B1127004627324N00717584EA0191701909005010039001000
B1127014627329N00717585EA0191601907005010038002358
B1127024627335N00717585EA0191401906005010038003357
B1127034627341N00717586EA0191201905005010037003351
B1127044627346N00717586EA0191201903005010036002356
B1127054627352N00717586EA0191001902005010038002001
B1127064627357N00717587EA0190801900005010039004001
B1127074627363N00717588EA0190701899005010039006358
B1127084627369N00717589EA0190701898005010038006356
B1127094627375N00717589EA0190501897005010036005354
B1127104627380N00717590EA0190301896005010035004356
B1127114627385N00717590EA0190201895005010034002353
B1127124627390N00717591EA0190201894005010035359353
B1127134627396N00717590EA0190001892005010036356354
B1127144627401N00717590EA0189901891005010037356354
B1127154627407N00717589EA0189701890005010037356345
B1127164627412N00717589EA0189701888005010036355332
B1127174627417N00717588EA0189501887005010034349345
B1127184627422N00717586EA0189301886005010031341343
B1127194627426N00717584EA0189201886005010031335345
B1127204627431N00717581EA0189201885005010032335332
B1127214627435N00717578EA0189001884005010034337348
B1127224627440N00717575EA0188901883005010036341351
B1127234627445N00717573EA0188701881005010036342002
B1127244627450N00717571EA0188701880005010036347353
B1127254627455N00717570EA0188601879005010035356337
B1127264627461N00717570EA0188401878005010034358307
B1127274627465N00717568EA0188201876005010031340290
B1127284627469N00717565EA0188201875005010030310276
B1127294627471N00717558EA0188001873005010039277251
B1127304627469N00717550EA0187801870005010046224225
B1127314627463N00717545EA0187601868005010040211181
B1127324627457N00717540EA0187601865010019051207256
B1127334627452N00717539EA0187201862010019020156232
B1127344627450N00717541EA0186601860010019009163147
B1127354627449N00717542EA0186001860010019009192068
B1127364627449N00717542EA0186001859010019021230014
B1127374627448N00717538EA0185201859010019017203277
B1127384627446N00717537EA0184401859010019011185224
B1127394627444N00717537EA0183501859010019011218077
B1127404627445N00717540EA0183501858010019002014316
B1127414627444N00717540EA0182701857010019010174314
B1127424627444N00717538EA0181901856010019009207082
B1127434627443N00717538EA0181201856030057009207046
B1127444627440N00717538EA0181201855030057012195047
B1127454627439N00717537EA0180401854030057013296139
B1127464627441N00717534EA0179601853010019031329324
B1127474627446N00717529EA0178801853010019044326001
B1127484627449N00717526EA0178801852030057039341346
B1127494627450N00717531EA0178001851030057023071352
B1127564627467N00717579EA0174101729014016055293039
B1127594627453N00717544EA0173101691004004044220294
B1128004627448N00717549EA0172601677004004035218218
B1128034627448N00717567EA0171501659004006023109102
B1128044627450N00717569EA0171501652005006014062102
B1128054627451N00717562EA0170901647005004014251075
B1128064627449N00717558EA0170201644004006015234149
B1128094627449N00717580EA0168801638005006038043090
B1128114627458N00717565EA0167401623005006038305348
B1128134627444N00717563EA0166701613004006025173180
B1128154627450N00717580EA0165501629004004025028104
B1128164627456N00717570EA0165501632004003051299049
B1128174627459N00717568EA0165101633004003025310303
B1128184627463N00717566EA0164901632004003021343331
B1128194627468N00717564EA0164801629004003021340003
B1128204627473N00717560EA0164801626004003039329354
B1128214627477N00717555EA0164701625004003041320337
B1128224627482N00717550EA0164601626004003039321341
B1128234627485N00717547EA0164401626004003033330339
B1128244627492N00717541EA0164201623004003027331349
B1128254627497N00717539EA0164101622004003031334001
B1128264627501N00717538EA0163901621004003031356022
B1128274627505N00717540EA0163901618004003031033047
B1128284627509N00717547EA0163801614004003034065064
B1128294627510N00717554EA0163601614004003043079051
B1128304627512N00717561EA0163501613004003043068031
B1128314627515N00717563EA0163501608004003033015018
B1128334627516N00717561EA0163001612005010042032358
B1128344627524N00717559EA0163001606005010055299019
B1128354627528N00717548EA0162701605005010051300315
B1128374627537N00717534EA0162101604005010045328319
B1128394627546N00717540EA0161901602010019039040333
B1128404627551N00717545EA0161601601005010031023023
B1128414627556N00717543EA0161601600005010051323006
B1128424627561N00717536EA0161401600010019049305306
B1128434627565N00717528EA0161201598010019044305286
B1128444627564N00717526EA0160801595010019041148320
B1128454627558N00717533EA0160801593010019053127136
B1128474627553N00717552EA0159801590030057032099099
B1128484627553N00717551EA0159301589010019043296110
B1128564627552N00717525EA0156401544014016048221242
B1128574627545N00717517EA0156001537007016048215198
B1128584627539N00717512EA0155601526007012046213193
B1129034627542N00717552EA0154801524004004047022088
B1129044627546N00717553EA0154801523004003040356026
B1129054627550N00717553EA0154601521004003029346359
B1129064627555N00717550EA0154401519004003035331352
B1129074627559N00717546EA0154301517004003035314331
B1129084627562N00717539EA0154301516004003038291314
B1129094627563N00717531EA0154101515004003038273284
B1129104627565N00717525EA0153901513005010034262258
B1129124627564N00717517EA0153701512005010033246242
B1129134627557N00717505EA0153301508005010037226223
B1129144627553N00717499EA0153301507005010036217198
B1129154627548N00717496EA0153101505005010036199187
B1129164627543N00717494EA0152901504005010035177169
B1129174627537N00717496EA0152701502005010037157150
B1129184627533N00717501EA0152701500005010038130132
B1129194627530N00717508EA0152501498005010038104110
B1129204627530N00717516EA0152301496005010038076090
B1129214627533N00717524EA0152101495005010038048067
B1129224627537N00717528EA0152101493005010037021045
B1129234627543N00717530EA0151901492005010035000021
B1129244627548N00717529EA0151601490005010033340001
B1129254627552N00717526EA0151401489005010031323342
B1129264627555N00717521EA0151401488005010033307321
B1129274627558N00717514EA0151301486005010037297312
B1129284627561N00717507EA0151101484005010037296311
B1129294627563N00717500EA0150901483005010035301313
B1129304627566N00717494EA0150901482005010031305318
B1129314627569N00717488EA0150701480005010030307315
B1129324627571N00717483EA0150601478005010031304320
B1129334627574N00717477EA0150401477005010032299312
B1129344627576N00717471EA0150401475005010031293302
B1129354627577N00717464EA0150201474005010030287288
B1129364627578N00717458EA0150101473005010030277278
B1129374627579N00717451EA0150001472005010032270270
B1129384627578N00717444EA0150001470005010034262273
B1129394627577N00717437EA0149801469005010034258292
B1129404627577N00717430EA0149701468005010033263304
B1129414627577N00717423EA0149601466005010031283309
B1129424627579N00717417EA0149601465005010032302322
B1129434627582N00717412EA0149401464005010037331339
B1129444627587N00717409EA0149301462005010037346000
B1129454627593N00717410EA0149101461005010036016013
B1129464627598N00717413EA0149101459005010035037036
B1129474627601N00717419EA0148901458005010038057050
B1129484627604N00717427EA0148701456005010038073063
B1129494627603N00717435EA0148501455005010034100072
B1129504627602N00717442EA0148501453005010031096080
B1129514627602N00717449EA0148301451005010030079072
B1129524627603N00717455EA0148201449005010033058057
B1129534627607N00717460EA0148001448005010039019039
B1129544627613N00717460EA0148001446005010044345006
B1129554627619N00717455EA0147801444005010044319337
B1129564627623N00717449EA0147601442005010036311314
B1129574627623N00717441EA0147401440005010044240308
B1129584627619N00717433EA0147401439005010036229240
B1129594627614N00717429EA0147101437005010040192231
B1130004627608N00717427EA0146901436005010032203205
B1130014627603N00717424EA0146701436005010034209217
B1130024627598N00717420EA0146701435005010034209224
B1130034627597N00717413EA0146601433005010045302225
B1130044627602N00717406EA0146401432010019048326313
B1130054627609N00717402EA0146201430010019051346334
B1130064627616N00717401EA0146201429010019048001352
B1130074627622N00717401EA0146001427010019034010001
B1130084627627N00717402EA0145701426010019029000005
B1130094627631N00717402EA0145501424005010031352000
B1130104627636N00717401EA0145501422005010033355001
B1130114627641N00717401EA0145401421005010032000000
B1130124627646N00717401EA0145201420005010031001352
B1130134627650N00717401EA0145101419005010029356342
B1130144627655N00717400EA0145101418005010030348333
B1130154627659N00717398EA0145001417005010031335328
B1130164627663N00717394EA0144801416005010032321321
B1130174627666N00717389EA0144701415005010032306309
B1130184627668N00717383EA0144701413005010032292298
B1130194627669N00717377EA0144501412005010031279286
B1130204627670N00717370EA0144401411005010030266272
B1130214627669N00717363EA0144201410005010030255259
B1130224627667N00717357EA0144201408005010031243245
B1130234627664N00717351EA0144001407005010033234233
B1130244627661N00717346EA0143801406005010034224225
B1130254627657N00717341EA0143701405005010033216207
B1130264627653N00717338EA0143701404005010031206184
B1130274627649N00717336EA0143501403005010029184164
B1130284627644N00717337EA0143301402005010039163141
B1130294627640N00717341EA0143201401005010037120119
B1130304627639N00717350EA0143201398005010050081081
B1130314627642N00717360EA0143001396005010049046047
B1130324627647N00717366EA0142601393010019044034017
B1130334627653N00717372EA0142201392010019045037005
B1130344627659N00717374EA0142201391050095031026053
B1130354627662N00717373EA0141801391050095018052035
B1130364627662N00717372EA0141301391050095032082050
B1130374627662N00717378EA0140801391030057045105066
B1130384627661N00717383EA0140801391010019054036081
B1130394627667N00717384EA0140401391010019054351020
B1130464627630N00717346EA0138301336024024032024302
B1130504627666N00717362EA0137401336004003043346345
B1130514627672N00717359EA0137401335004003043336340
B1130524627677N00717356EA0137201335004003041323334
B1130534627681N00717352EA0137001335004003035322341
B1130544627680N00717354EA0137001332005010032325353
B1130554627684N00717350EA0136801332005010032338354
B1130564627689N00717348EA0136601330005010029338000
B1130574627694N00717347EA0136401329005010039001359
B1130584627700N00717347EA0136401328005010040002000
B1130594627705N00717347EA0136301327005010034004347
B1131004627710N00717347EA0136201326005010030354346
B1131014627714N00717346EA0136101325005010027339340
B1131024627718N00717343EA0136101324005010029325328
B1131034627721N00717338EA0136001323005010033312316
B1131044627724N00717332EA0135901322005010034293303
B1131054627725N00717325EA0135801321005010034271285
B1131064627724N00717318EA0135701320005010033248266
B1131074627721N00717312EA0135601319005010033229244
B1131084627717N00717307EA0135501318005010033212223
B1131094627713N00717304EA0135401318005010030197203
B1131104627709N00717304EA0135301317005010030178188
B1131114627704N00717305EA0135201316005010033159166
B1131124627699N00717308EA0135101316005010036145150
B1131134627695N00717314EA0135001315005010038133125
B1131144627692N00717320EA0134901314005010036120111
B1131154627690N00717327EA0134801314005010034105089
B1131164627690N00717334EA0134701313005010034087079
B1131174627691N00717342EA0134601313005010035067062
B1131184627694N00717348EA0134601312005010038047043
B1131194627699N00717353EA0134501312005010039023027
B1131204627704N00717354EA0134401311005010039355007
B1131214627710N00717352EA0134301310005010042330343
B1131224627715N00717346EA0134201309005010040318321
B1131234627717N00717338EA0134001308005010040262311
B1131244627715N00717330EA0133801307005010036240259
B1131254627711N00717325EA0133701306005010037195238
B1131264627705N00717324EA0133601305005010033179191
B1131274627700N00717325EA0133401304005010034158179
B1131284627696N00717327EA0133301303005010031164165
B1131294627691N00717328EA0133201302005010034179172
B1131304627686N00717326EA0133101301005010034209187
B1131314627682N00717321EA0133001300005010036230218
B1131324627678N00717314EA0132801298005010037244240
B1131334627677N00717307EA0132701297005010031255254
B1131344627677N00717300EA0132501295005010036290267
B1131354627681N00717294EA0132401294010019039336301
B1131364627688N00717293EA0132201292010019040003344
B1131374627693N00717296EA0132201290010019040032008
B1131384627699N00717303EA0132101288010019040052031
B1131394627703N00717310EA0131901286010019037045039
B1131404627708N00717314EA0131801284010019035021029
B1131414627713N00717316EA0131701281005010034357007
B1131424627719N00717313EA0131501278005010038332345
B1131434627723N00717306EA0131201275005010043304350
B1131444627727N00717299EA0130901273010019035319317
B1131454627729N00717295EA0130501270010019027322328
B1131464627733N00717292EA0130101268030057026345331
B1131474627735N00717296EA0129701267010019035020343
B1131494627739N00717300EA0129301267005010049007006
B1131514627751N00717304EA0128801267010019055357349
B1131524627756N00717303EA0128601267030057050358348
B1131534627761N00717303EA0128501267010019045357354
B1131544627759N00717303EA0128401266010019019203356
B1131554627754N00717303EA0128301267010019019211198
B1131564627748N00717301EA0128301266010019020219207
B1131574627746N00717298EA0128301266010019019222216
B1131584627744N00717295EA0128101266010019019232219
B1131594627741N00717289EA0128001266010019015246231
B1132004627739N00717283EA0127801266010019017288246
B1132014627740N00717278EA0127601266010019016294297
B1132024627742N00717275EA0127501265010019014313305
B1132034627741N00717270EA0127401265010019028357334
B1132044627743N00717267EA0127301265010019032354357
B1132054627746N00717266EA0127101263005010036352355
B1132064627750N00717264EA0127001261005010037352344
B1132074627754N00717262EA0126901260005010037346328
B1132084627758N00717258EA0126701258005010035331322
B1132094627761N00717252EA0126601256005010033306308
B1132104627764N00717244EA0126501255005010039291288
B1132114627764N00717235EA0126401253005010040257273
B1132124627761N00717227EA0126201251005010039230240
B1132134627756N00717221EA0126101249005010037202214
B1132144627750N00717220EA0125901246005010040178188
B1132154627744N00717220EA0125801244005010036157167
B1132164627740N00717224EA0125601242005010034136149
B1132174627737N00717229EA0125601240005010032116131
B1132184627734N00717235EA0125501238005010032110122
B1132194627731N00717241EA0125401236005010031115126
B1132204627729N00717247EA0125201235005010033126134
B1132214627725N00717252EA0125101233005010032141144
B1132224627720N00717255EA0125001231005010032165158
B1132234627715N00717255EA0124801229005010036199179
B1132244627711N00717250EA0124601226005010038224209
B1132254627708N00717244EA0124501224005010039251233
B1132264627708N00717235EA0124201222005010039282259
B1132274627709N00717227EA0124001220005010038287290
B1132284627711N00717219EA0123901218005010035297295
B1132304627727N00717220EA0123601210005010030002001
B1132314627732N00717221EA0123501208005010032356000
B1132324627737N00717221EA0123301205005010034350354
B1132334627743N00717220EA0123201203005010034349347
B1132344627749N00717219EA0123101200005010033348335
B1132354627753N00717217EA0123001198005010031339325
B1132364627757N00717214EA0122901196005010028320316
B1132374627760N00717209EA0122901194005010034294301
B1132384627762N00717201EA0122701192005010037276279
B1132394627762N00717194EA0122601190005010034256261
B1132404627760N00717187EA0122401187005010030231242
B1132414627756N00717183EA0122301185005010028203217
B1132424627752N00717182EA0122101183005010031181190
B1132434627747N00717183EA0122001181005010031170172
B1132444627743N00717184EA0121901180005010030169179
B1132454627738N00717184EA0121901178005010029179185
B1132464627734N00717184EA0121801177005010031188197
B1132474627729N00717182EA0121701175005010037197208
B1132484627726N00717177EA0121601174010019039274216
B1132494627728N00717168EA0121401172010019044304284
B1132504627733N00717161EA0121201170010019043323309
B1132514627738N00717156EA0121001168010019036329315
B1132524627742N00717151EA0120901166010019030307314
B1132534627744N00717145EA0120701164010019032276293
B1132544627743N00717138EA0120601162005010039248263
B1132554627741N00717131EA0120401160005010034240234
B1132564627736N00717128EA0120401158010019046171226
B1132574627730N00717132EA0120301157010019039143164
B1132584627726N00717137EA0120101156010019034132143
B1132594627722N00717142EA0119901155010019030141141
B1133004627718N00717145EA0119801154005010029163145
B1133014627714N00717146EA0119701153005010033178164
B1133024627709N00717146EA0119701152005010034186184
B1133034627704N00717144EA0119601151005010030203195
B1133044627701N00717140EA0119401150005010029234212
B1133054627700N00717134EA0119301149005010034270241
B1133064627701N00717126EA0119101147010019039294278
B1133074627705N00717120EA0118901145010019042318303
B1133084627710N00717115EA0118801144010019044344326
B1133094627717N00717114EA0118601142010019041002354
B1133104627722N00717115EA0118401141030057032009002
B1133114627727N00717117EA0118201140005010031003357
B1133124627732N00717116EA0118101138005010034344347
B1133134627736N00717113EA0118101136005010038321327
B1133144627739N00717107EA0118001135005010039287304
B1133154627740N00717099EA0117901133010019038252271
B1133164627737N00717092EA0117701131010019035228236
B1133174627734N00717088EA0117601130010019015226214
B1133184627731N00717089EA0117401128005010010116207
B1133194627729N00717094EA0117301126005010026117118
B1133204627725N00717100EA0117201124005010023124123
B1133214627723N00717105EA0117201123005010025104129
B1133224627721N00717111EA0117201121005010030109111
B1133234627717N00717115EA0117101119005010036170116
B1133244627711N00717117EA0117101118005010035165169
B1133254627705N00717117EA0116901116005010032196166
B1133264627701N00717114EA0116801115005010023223194
B1133274627698N00717111EA0116701114005010022226219
B1133284627696N00717106EA0116601113005010025237221
B1133294627695N00717099EA0116501112005010034277233
B1133304627695N00717091EA0116501111005010034273271
B1133314627695N00717083EA0116401110005010028266266
B1133324627694N00717077EA0116401110005010027237259
B1133334627691N00717071EA0116301109005010032216227
B1133344627686N00717068EA0116201108005010035203202
B1133354627681N00717065EA0116101107005010036190191
B1133364627676N00717064EA0116001106005010031179185
B1133374627672N00717064EA0115901106005010026180176
B1133384627668N00717063EA0115701106005010024184174
B1133394627665N00717063EA0115601105005010024189182
B1133404627661N00717062EA0115501104005010027191185
B1133414627657N00717060EA0115401104005010029191190
B1133424627652N00717059EA0115301103005010030197195
B1133434627648N00717056EA0115101102005010028201196
B1133444627645N00717054EA0115001101005010026200191
B1133454627641N00717052EA0114801101005010028197186
B1133464627637N00717050EA0114701100005010031193183
B1133474627632N00717049EA0114601099005010032187184
B1133484627627N00717048EA0114501098005010031184192
B1133494627623N00717047EA0114501098005010028193194
B1133504627619N00717045EA0114401097010019026211217
B1133514627616N00717041EA0114301096010019026227222
B1133524627614N00717036EA0114201095005010027234241
B1133534627612N00717031EA0114201094010019030246260
B1133544627611N00717024EA0114201093010019033263277
B1133554627611N00717017EA0114001092010019036280297
B1133564627612N00717009EA0113901090010019038290302
B1133574627615N00717002EA0113701089010019039314303
B1133584627620N00716997EA0113501087010019041319313
B1133594627625N00716991EA0113301086010019037317307
B1134004627628N00716985EA0113201084010019034305300
B1134014627631N00716980EA0113101083010019031301296
B1134024627633N00716974EA0113101082010019028291295
B1134034627634N00716968EA0113001080005010026285313
B1134044627635N00716962EA0113001079005010026293327
B1134054627637N00716957EA0112901078005010029292341
B1134064627641N00716953EA0112801076005010044349345
B1134074627648N00716954EA0112701074010019048012025
B1134084627653N00716958EA0112501072010019042045042
B1134104627656N00716966EA0112301070010019038075061
B1134114627657N00716973EA0112101068010019033086076
B1134124627658N00716980EA0111901066010019028076072
B1134134627659N00716986EA0111801064010019027067061
B1134144627661N00716991EA0111801062010019030044052
B1134154627665N00716995EA0111801060010019034023033
B1134164627670N00716996EA0111701058010019036359016
B1134174627675N00716994EA0111601056010019038331359
B1134184627679N00716989EA0111501054010019036313340
B1134194627682N00716984EA0111301052010019029321333
B1134204627685N00716981EA0111101050010019030353342
B1134214627691N00716982EA0111001048010019041014010
B1134224627696N00716986EA0110801046010019041034026
B1134234627701N00716992EA0110601044010019042047043
B1134244627704N00716999EA0110401042010019036061053
B1134254627706N00717005EA0110201040010019030059059
B1134264627708N00717010EA0110001039010019026045064
B1134274627711N00717013EA0109801038010019024047052
B1134284627713N00717016EA0109701036010019019036054
B1134294627715N00717018EA0109701035005010014029046
B1134304627717N00717020EA0109601033010019011030043
B1134314627718N00717021EA0109601032010019006048047
B1134324627718N00717023EA0109601030005010004061070
B1134334627717N00717023EA0109601029005010001107084
B1134344627717N00717023EA0109601029005010002148084
B1134354627717N00717023EA0109601029005010002172084
B1134364627717N00717023EA0109601029005010002183084
B1134374627717N00717023EA0109601029005010002177085
B1134384627717N00717023EA0109601029005010002178088
B1134394627717N00717023EA0109601029005010003181081
B1134404627717N00717023EA0109601029005010003184090
B1134414627717N00717023EA0109601029005010003186094
B1134424627717N00717023EA0109601029005010001185096
B1134434627717N00717023EA0109601029005010000000086
B1134444627717N00717023EA0109601029005010000000091
B1134454627717N00717023EA0109601029005010000000111
B1134464627717N00717023EA0109601029005010000000110
B1134474627717N00717023EA0109601029005010000000119
B1134484627717N00717023EA0109601029005010001072102
B1134494627717N00717023EA0109601029005010000000100
B1134504627717N00717023EA0109601029005010000000100
B1134514627717N00717023EA0109601029005010000000098
B1134524627717N00717023EA0109601029005010000000097
G1h2FcZ5uBGpMdF3iiwGNjPB8Ldk0NIR8MIKU0dWWihX3qARRDgnAm/nMGSM+qVOW
G5SWUGU8bXmzZ7kZxzcckI3TB1lm2ZIPEC/iwJATvjC+9oDlHved6/nQAEWaDSrog
GnH5w5e8hqkbex/4Yt7puGsxg2kVsEb4e+Cx/Lc0sC04=

