AXFH000
HFDTE081124
HFPLTPILOT:Scott O’Brien
HFGTYGLIDERTYPE:BGP Epic M
HFDTM100GPSDATUM:WGS84
HFRFWFIRMWAREVERSION:8.2.5
HFRHWHARDWAREVERSION:iPhone 15
HFFTYFRTYPE:Flyskyhy,8.2.5
HFGPS:Internal
HFPRSVARIO:Internal Vario
HFCCLCOMPETITIONCLASS:Paraglider
HFTZNTIMEZONE:-3
HFSITSITE:Iquique - Palo Buque,CL
I053638FXA3941VXA4244GSP4547CCO4850HDT
C081124211107081124000105TASK
C0000000N00000000ETAKEOFF
C3832449N11204411W00000000001000000000360000STARTAREA T04
C3832449N11204411W00030009999999000000360000TURNAREA T04
C3833533N11148217W00000000002000000000360000TURNAREA P30
C3845304N11125100W00000000006000000000360000TURNAREA S08
C3913309N11109083W00000000002000000000360000TURNAREA F04
C3935774N11050460W00000000003000000000360000TURNAREA G14
C3935774N11050460W00000000000400000000360000FINISHAREA G14
C0000000N00000000ELANDING
E211136PEVBackground
B2111362023034S07009265WA0018300183022003000264002
B2111372023034S07009265WA0018300183022003000264003
B2111382023034S07009265WA0018300182022003000264003
B2111392023034S07009265WA0018300182022003000264004
B2111402023034S07009265WA0018300182022003000264004
B2111412023034S07009265WA0018300182022003000264003
B2111422023034S07009265WA0018300182022003000264003
B2111432023034S07009265WA0018300182022003000264003
B2111442023034S07009265WA0018300182022003000264003
B2111452023034S07009265WA0018200182022003000264003
B2111462023034S07009265WA0018200182022003000264003
B2111472023034S07009266WA0018200182022003000264009
B2111482023034S07009266WA0018200182022003000264012
B2111492023034S07009266WA0018200182022003000264011
B2111502023034S07009266WA0018200183022003000239354
B2111512023034S07009266WA0018200183022003002239047
B2111522023034S07009265WA0018200183022003000239040
B2111532023034S07009265WA0018200183022003001239291
B2111542023034S07009265WA0018200183022003001183208
B2111552023036S07009266WA0018300181022004008216237
B2111562023037S07009268WA0018200180022003015235240
B2111572023038S07009272WA0018200180004003023251253
B2111582023039S07009274WA0018100178004004023248258
B2111592023039S07009276WA0017900180004004017294259
B2112002023038S07009278WA0017900181004003013282253
B2112012023039S07009280WA0017900182004003013257256
B2112022023039S07009283WA0018000182004004017261256
B2112032023039S07009286WA0018000181004006021258253
B2112042023039S07009289WA0018000179004004019270253
B2112052023039S07009292WA0018000180004004019264252
B2112062023039S07009296WA0018000180004004019260258
B2112072023040S07009299WA0017900178004004019260274
B2112082023039S07009302WA0017900180004004023281295
B2112092023038S07009306WA0017800182004003023279306
B2112102023038S07009309WA0017800182004004023282319
B2112112023037S07009311WA0017800180004003021298326
B2112122023036S07009313WA0017800179004003016284330
B2112132023035S07009316WA0017800178004004020287336
B2112142023036S07009320WA0017800177004004020265341
B2112152023035S07009323WA0017800177004004022281344
B2112162023033S07009326WA0017700177004006022307347
B2112172023032S07009329WA0017700176004004021296350
B2112182023031S07009333WA0017600175004004025285352
B2112192023030S07009336WA0017600174004003025289353
B2112202023028S07009341WA0017600176004003025293354
B2112212023026S07009344WA0017600176004004026304355
B2112222023026S07009347WA0017500174004004017272355
B2112232023027S07009351WA0017500173004004023250355
B2112242023029S07009353WA0017400171004003023207355
B2112252023033S07009354WA0017300170004003023178356
B2112262023036S07009352WA0017200169004003026140002
B2112272023038S07009348WA0017100169004003033112002
B2112282023039S07009344WA0017000168004003033094001
B2112292023040S07009340WA0016800168004003032088001
B2112302023040S07009336WA0016800168004003026095001
B2112312023040S07009332WA0016700167004003023096000
B2112322023041S07009328WA0016700164004003025108000
B2112332023043S07009326WA0016700166004003025132000
B2112342023044S07009325WA0016600162004003016158000
B2112352023046S07009322WA0016600161004003016129000
B2112362023049S07009320WA0016500160004003020145000
B2112372023052S07009318WA0016500160004003027144000
B2112382023055S07009316WA0016400160004003027155359
B2112392023058S07009315WA0016300159004003021147000
B2112402023060S07009312WA0016200160004003021127000
B2112412023062S07009307WA0016100157004003024111000
B2112422023064S07009303WA0016000157004003029116000
B2112432023066S07009300WA0015900157004003029121000
B2112442023068S07009297WA0015900156004003026144000
B2112452023071S07009296WA0015800154004003025163359
B2112462023074S07009296WA0015700153004003023187359
B2112472023077S07009296WA0015600152004004022191359
B2112482023079S07009299WA0015500150004006022231359
B2112492023082S07009302WA0015300153004004022227359
B2112502023085S07009304WA0015200153004004022210359
B2112512023088S07009305WA0015100152004003022194359
B2112522023091S07009306WA0015000152004004021195359
B2112532023093S07009306WA0014900152004003021176359
B2112542023096S07009306WA0014800152004003017189359
B2112552023098S07009306WA0014800149004003017187359
B2112562023100S07009307WA0014700147004004016192359
B2112572023103S07009307WA0014700144004006015187359
B2112582023105S07009309WA0014600143004004016204359
B2112592023108S07009310WA0014500144022004016215359
B2113002023109S07009311WA0014400141004004016203000
B2113012023110S07009311WA0014300139004004010187003
B2113022023111S07009311WA0014200137004006002187002
B2113032023111S07009311WA0014100137004004000187002
B2113042023111S07009311WA0013900137004006000187001
B2113052023111S07009311WA0013900138004006000187001
B2113062023111S07009310WA0013800138004006000187000
B2113072023111S07009310WA0013800138004006000187000
B2113082023110S07009310WA0013800139004006002186000
B2113092023110S07009310WA0013800136004004002327000
B2113102023110S07009310WA0013800135004006000327000
E211311PEVForeground
B2113112023110S07009310WA0013800136004006000327000
B2113122023110S07009310WA0013800137004004001186293
B2113132023110S07009310WA0013800136004004000186287
B2113142023110S07009311WA0013800137004003001186292
B2113152023110S07009311WA0013800138004003000186290
B2113162023110S07009311WA0013800137004003000186292
B2113182023110S07009311WA0013800137004003000186292
B2113192023110S07009311WA0013800137004003000186292
B2113202023110S07009311WA0013800137004003000186292
B2113212023110S07009311WA0013800138004004000186292
B2113222023110S07009311WA0013800138004003000186292
B2113232023110S07009311WA0013800138004003000186292
B2113242023110S07009311WA0013800138004003000186292
B2113252023110S07009311WA0013800138004003000186292
B2113262023110S07009310WA0013800138004003000186292
B2113272023110S07009310WA0013800138004003000186292
B2113282023110S07009310WA0013800137004003001081292
B2113292023110S07009310WA0013800138004003001186293
B2113302023110S07009310WA0013800138004003000186290
B2113312023110S07009310WA0013800137004003000186291
B2113322023110S07009311WA0013800137004003000186291
B2113332023110S07009311WA0013800136004003000186291
GZlO5NL7IT5IpcIziqJ8IGDgZZ7bI0reMwBEdDeajWCVnBAxvhTfFqZ+y14YvONYQ
G4t74lb48lCryZBkHE+KQRcFSaCrJ4QpI8OLMu1cKrA+iGtYgqBohmDkkDvyCNXy6
G35L+PthcsY6Y4NHgeqdGsd7zTwj7R7AX7GswlH1R60s=

