AXFH000
HFDTE110726
HFPLTPILOT:Scott O’Brien
HFGTYGLIDERTYPE:Ozone Swift 6
HFDTM100GPSDATUM:WGS84
HFRFWFIRMWAREVERSION:9.6.1
HFRHWHARDWAREVERSION:iPhone 15
HFFTYFRTYPE:Flyskyhy,9.6.1
HFGPS:Internal
HFPRSVARIO:Internal Vario
HFCCLCOMPETITIONCLASS:Paraglider
HFTZNTIMEZONE:-7
HFSITSITE:Ed Levin,US
I053638FXA3941VXA4244GSP4547CCO4850HDT
B2009473728535N12151669WA0070100702005010000000042
B2009483728535N12151669WA0070100702005010000000041
B2009493728535N12151669WA0070100702005010001055041
B2009503728535N12151669WA0070100702005010002046062
B2009513728536N12151669WA0070100702005010002047066
B2009523728536N12151668WA0070200703005010001080072
B2009533728536N12151668WA0070200703005010001127061
B2009543728536N12151668WA0070200703005010001110027
B2009553728536N12151668WA0070200703005010001113041
B2009563728536N12151668WA0070300703005010001107057
B2009573728536N12151668WA0070300703005010001106063
B2009583728536N12151668WA0070300703005010003072090
B2009593728536N12151667WA0070300704005010003097086
B2010003728536N12151667WA0070300703005010001291287
B2010013728536N12151667WA0070300703005010000000241
B2010023728536N12151667WA0070300703005010001273238
B2010033728536N12151670WA0070300703005010005246254
B2010043728536N12151671WA0070300703005010005238245
B2010053728536N12151672WA0070300703005010002234258
B2010063728535N12151672WA0070300703005010002300283
B2010073728536N12151673WA0070300703005010006292270
B2010083728536N12151675WA0070300702005010008269272
B2010093728536N12151676WA0070200702005010004261261
B2010103728535N12151677WA0070200702005010006253265
B2010113728535N12151678WA0070200702005010006262276
B2010123728535N12151679WA0070200702005010008265265
B2010133728534N12151681WA0070100701005010007279269
B2010143728535N12151682WA0070100700005010013265246
B2010153728534N12151685WA0070000700005010016247257
B2010173728533N12151688WA0069900699005010018240254
B2010183728530N12151695WA0069800697005010021239247
B2010193728528N12151698WA0069700697005010019218239
B2010203728526N12151701WA0069700696005010020211221
B2010213728523N12151703WA0069800695005010024202198
B2010223728519N12151705WA0069800695005010029187187
B2010233728515N12151705WA0069900695005010033170176
B2010243728509N12151702WA0069900694005010041149165
B2010253728505N12151697WA0069900694005010044135147
B2010263728500N12151691WA0070000695005010046127128
B2010273728496N12151684WA0070000696005010044119130
B2010283728494N12151676WA0070200697005010040112134
B2010303728492N12151669WA0070300698005010039107131
B2010313728489N12151662WA0070400698005010041116124
B2010323728486N12151655WA0070500699005010045125136
B2010333728482N12151648WA0070600700005010046128138
B2010343728478N12151642WA0070600701005010042128144
B2010353728474N12151636WA0070600702005010039131145
B2010363728470N12151631WA0070700702005010035140148
B2010373728466N12151628WA0070700703005010030163158
B2010383728461N12151628WA0070700703005010033190181
B2010393728457N12151631WA0070700702005010029226204
B2010403728456N12151636WA0070700701005010025271234
B2010413728457N12151640WA0070600701005010026316269
B2010423728463N12151645WA0070500699005010017322302
B2010443728465N12151650WA0070300698005010016296314
B2010453728467N12151654WA0070200698005010024305304
B2010463728469N12151657WA0070000697005010026315311
B2010473728472N12151660WA0069900697005010023320309
B2010483728474N12151663WA0069900696005010019318315
B2010493728476N12151665WA0069800696005010014312316
B2010503728478N12151667WA0069700695005010015315300
B2010513728480N12151669WA0069600694005010021323309
B2010523728482N12151672WA0069500694005010025319290
B2010533728485N12151675WA0069500694005010024309296
B2010543728487N12151678WA0069400693005010019298291
B2010553728487N12151680WA0069400693005010008288309
B2010563728488N12151682WA0069400693005010008315307
B2010573728489N12151683WA0069500693005010012318313
B2010583728491N12151685WA0069600692005010020317312
B2010593728493N12151687WA0069600692005010021325328
B2011003728495N12151689WA0069600692005010018334346
B2011013728498N12151690WA0069600692005010016342337
B2011023728500N12151691WA0069600692005010016337318
B2011033728503N12151692WA0069600691005010020334317
B2011043728505N12151694WA0069600691005010023318315
B2011053728508N12151697WA0069600691005010026322334
B2011063728511N12151700WA0069600691005010024334336
B2011073728515N12151702WA0069600691005010020345323
B2011083728517N12151703WA0069600691005010018342312
B2011093728520N12151704WA0069600691005010019330307
B2011103728523N12151707WA0069600691005010024319296
B2011113728525N12151710WA0069600692005010025312298
B2011123728528N12151714WA0069700692005010023302305
B2011133728529N12151717WA0069700692005010021305314
B2011143728531N12151720WA0069600692005010020313318
B2011153728533N12151723WA0069600692005010021317302
B2011163728536N12151726WA0069600693005010021319279
B2011173728538N12151729WA0069600693005010019307264
B2011183728539N12151732WA0069700693005010022285261
B2011193728539N12151736WA0069700693005010024254243
B2011203728537N12151740WA0069700692005010026223227
B2011213728534N12151742WA0069600692005010030198205
B2011223728529N12151742WA0069500692005010042164188
B2011233728523N12151738WA0069500691005010046143163
B2011243728517N12151732WA0069400690005010044129149
B2011253728514N12151725WA0069200689005010039131151
B2011263728510N12151720WA0069100688005010034139148
B2011273728506N12151716WA0069000687005010034145157
B2011283728501N12151712WA0068900686005010044148164
B2011293728495N12151707WA0068800685005010042148176
B2011303728490N12151703WA0068700685005010041150176
B2011313728485N12151700WA0068700684005010029144157
B2011323728482N12151697WA0068800684005010027143166
B2011333728479N12151693WA0068800684005010030147176
B2011343728474N12151690WA0068900684005010043152153
B2011353728468N12151686WA0068900684005010043151167
B2011363728463N12151682WA0068900684005010040143139
B2011373728459N12151677WA0068900685005010036133135
B2011383728455N12151672WA0069000686005010031123143
B2011393728453N12151667WA0069100687005010032122150
B2011403728450N12151662WA0069200688005010033127152
B2011413728446N12151656WA0069300688005010045136178
B2011423728441N12151651WA0069300688005010045140177
B2011433728436N12151646WA0069300688005010041147176
B2011443728431N12151642WA0069200688005010035158167
B2011453728426N12151640WA0069100688005010035164204
B2011463728420N12151639WA0069000687005010036164187
B2011473728415N12151637WA0068900686005010038163201
B2011483728410N12151635WA0068800686005010038168200
B2011493728404N12151634WA0068700685005010036175202
B2011503728399N12151634WA0068700685005010034179200
B2011513728394N12151634WA0068600684005010033183205
B2011523728389N12151635WA0068600684005010035183209
B2011533728384N12151635WA0068500683005010030188203
B2011543728380N12151637WA0068500682005010032194211
B2011553728375N12151638WA0068400682005010036198214
B2011563728370N12151641WA0068300681005010037204217
B2011573728365N12151644WA0068200681005010031209222
B2011583728362N12151647WA0068100681005010024215228
B2011593728359N12151650WA0068000681005010023224237
B2012003728357N12151654WA0068000680005010028229248
B2012013728354N12151658WA0068000680005010031223254
B2012023728350N12151662WA0067900679005010031225252
B2012033728347N12151666WA0067900679005010027219247
B2012043728344N12151669WA0067800679005010024220244
B2012053728341N12151672WA0067700679005010024214242
B2012063728338N12151675WA0067700678005010030217242
B2012073728333N12151679WA0067600678005010041215255
B2012083728328N12151683WA0067500677005010043214247
B2012093728324N12151687WA0067400677005010033219254
B2012103728320N12151691WA0067300676005010024228253
B2012113728319N12151694WA0067300676005010019247254
B2012123728318N12151698WA0067200675005010019254254
B2012133728317N12151701WA0067200674005010025256247
B2012143728314N12151706WA0067100673005010038225243
B2012153728309N12151710WA0067000673005010044196219
B2012163728302N12151710WA0066800671005010046172200
B2012173728295N12151708WA0066800671005010046159174
B2012183728289N12151705WA0066400670005010042156165
B2012193728283N12151701WA0066400669005010040153149
B2012203728278N12151697WA0066400668005010043148134
B2012213728272N12151692WA0066300667005010047137132
B2012223728268N12151685WA0066300666005010047124115
B2012233728264N12151677WA0066200665005010045114121
B2012243728262N12151669WA0066200664005010041114116
B2012253728259N12151662WA0066100663005010039113110
B2012263728256N12151655WA0066100662005010043115119
B2012273728254N12151647WA0066000661005010048116091
B2012283728251N12151639WA0065900659005010050112125
B2012293728248N12151630WA0065800658005010049110124
B2012303728246N12151622WA0065700656005010042105131
B2012313728244N12151615WA0065600655005010036109123
B2012323728242N12151609WA0065500653005010036115128
B2012333728240N12151603WA0065400651005010036118131
B2012343728236N12151597WA0065300649005010042123140
B2012353728233N12151590WA0065100647005010041125143
B2012363728229N12151584WA0064900645005010039127143
B2012373728225N12151578WA0064900643005010039126158
B2012383728222N12151572WA0064700641005010039126153
B2012393728218N12151567WA0064500639005010041129151
B2012403728214N12151561WA0064300637005010043136158
B2012413728209N12151556WA0064100636005010044146160
B2012423728203N12151552WA0063900634005010043150164
B2012433728198N12151548WA0063800633005010039152167
B2012443728193N12151545WA0063700632005010037148168
B2012453728189N12151541WA0063700631005010036148170
B2012463728184N12151538WA0063700630005010034148162
B2012473728180N12151535WA0063700629005010033146166
B2012483728176N12151531WA0063700629005010036144161
B2012493728171N12151527WA0063600628005010039144151
B2012513728167N12151523WA0063600627005010041143144
B2012523728158N12151513WA0063400625005010039135139
B2012533728154N12151507WA0063300624005010039132153
B2012543728150N12151502WA0063200623005010040132142
B2012553728146N12151496WA0063200622005010039130164
B2012573728142N12151491WA0063100621005010039129145
B2012583728138N12151484WA0062900621005010044127172
B2012593728134N12151478WA0062900621005010046130183
B2013003728129N12151472WA0062800621005010042143186
B2013013728124N12151469WA0062800621005010039163200
B2013023728118N12151469WA0062900620005010036193217
B2013033728114N12151472WA0063000620005010030228240
B2013043728112N12151476WA0063100620005010030253270
B2013053728112N12151481WA0063200620005010024304284
B2013063728115N12151484WA0063300620005010026337318
B2013073728123N12151485WA0063400620010019028003338
B2013083728127N12151484WA0063500620010019029025357
B2013093728130N12151479WA0063600620010019044077016
B2013103728131N12151470WA0063700620010019048096071
B2013113728129N12151461WA0063700620005010046115093
B2013133728123N12151445WA0063700620005010041117115
B2013153728116N12151430WA0063800619005010047125127
B2013163728112N12151423WA0063800619005010047140137
B2013173728106N12151418WA0063800618005010047154156
B2013183728099N12151415WA0063800617005010046160167
B2013193728093N12151412WA0063800616005010044163174
B2013203728087N12151410WA0063700615005010034173176
B2013213728082N12151409WA0063600614005010033183193
B2013223728076N12151410WA0063400613005010037184200
B2013233728070N12151410WA0063100612005010040180201
B2013243728064N12151410WA0062900612005010041175213
B2013253728059N12151409WA0062700611005010032170203
B2013263728054N12151408WA0062500611005010029173199
B2013273728049N12151407WA0062400610005010030182208
B2013283728045N12151408WA0062300609005010032185208
B2013293728040N12151408WA0062200607005010035188204
B2013303728035N12151409WA0062100606005010033193235
B2013313728030N12151411WA0062000606005010034192223
B2013323728025N12151412WA0061800606005010027188226
B2013333728022N12151412WA0061700605005010025186218
B2013343728018N12151413WA0061700605005010025190226
B2013353728014N12151414WA0061600604005010036190221
B2013363728008N12151415WA0061600603005010038188214
B2013373728002N12151416WA0061500603005010039187231
B2013383727996N12151417WA0061500602005010037186226
B2013393727991N12151417WA0061400602005010033183225
B2013403727986N12151417WA0061300601005010033176227
B2013413727981N12151417WA0061200601005010034176216
B2013423727976N12151416WA0061200601005010036182223
B2013433727971N12151417WA0061100600005010033190214
B2013443727966N12151418WA0061100599005010029196222
B2013453727962N12151420WA0061000599005010029194224
B2013463727958N12151421WA0061000598005010031191225
B2013473727953N12151422WA0060900598005010032192235
B2013483727948N12151424WA0060800597005010030194227
B2013493727944N12151425WA0060700596005010028200227
B2013503727940N12151427WA0060600595005010030205228
B2013513727936N12151430WA0060500594005010029203231
B2013523727933N12151432WA0060400594005010028202231
B2013533727929N12151434WA0060400593005010029199234
B2013543727925N12151436WA0060300592005010030207245
B2013553727920N12151439WA0060300591005010037209238
B2013563727915N12151443WA0060100590005010038211243
B2013573727911N12151446WA0060000589005010030209226
B2013583727907N12151448WA0059900588005010031205229
B2013593727903N12151451WA0059700587005010031208233
B2014003727898N12151454WA0059600585005010035210229
B2014013727894N12151458WA0059500584005010038211208
B2014023727889N12151461WA0059400583005010035204240
B2014033727884N12151463WA0059300583005010034197229
B2014043727880N12151465WA0059200582005010033195248
B2014053727875N12151467WA0059100582005010032199238
B2014063727871N12151469WA0059100581005010030205233
B2014073727867N12151472WA0059100580005010034210233
B2014083727862N12151475WA0059000580005010039211241
B2014093727857N12151479WA0058900579005010039211241
B2014103727852N12151483WA0058800578005010039207265
B2014113727847N12151486WA0058600577005010031209253
B2014123727843N12151489WA0058500576005010031211248
B2014133727839N12151492WA0058500575005010033224246
B2014143727836N12151497WA0058400574005010036222248
B2014153727832N12151501WA0058300574005010037217253
B2014163727827N12151505WA0058200573005010036209248
B2014173727822N12151508WA0058000572005010034209254
B2014183727818N12151512WA0057900571005010037209236
B2014193727813N12151515WA0057800570005010038212220
B2014203727808N12151519WA0057700569005010042210205
B2014213727802N12151523WA0057500568005010046206241
B2014223727796N12151527WA0057400566005010046204237
B2014233727790N12151530WA0057200565005010041204251
B2014243727785N12151533WA0057000564005010038208229
B2014253727780N12151537WA0056900562005010038210237
B2014273727775N12151541WA0056700561005010039210237
B2014283727770N12151544WA0056600559005010040210249
B2014293727765N12151548WA0056500557005010040211258
B2014303727760N12151552WA0056300556005010037214249
B2014313727756N12151556WA0056200554005010035218248
B2014323727752N12151560WA0056000552005010033221248
B2014333727749N12151564WA0055800551005010033221256
B2014343727745N12151569WA0055700549005010035222253
B2014353727741N12151573WA0055500547005010037223254
B2014363727737N12151578WA0055300545005010039223261
B2014373727733N12151583WA0055200544005010038225253
B2014383727729N12151588WA0055000542005010035225242
B2014393727726N12151592WA0054800540005010035224246
B2014403727722N12151597WA0054800538005010036221254
B2014413727718N12151601WA0054600537005010037220260
B2014423727714N12151606WA0054500535005010038221252
B2014433727709N12151611WA0054300533005010037222249
B2014443727705N12151616WA0054200531005010037222250
B2014453727701N12151620WA0054000529005010036222254
B2014463727697N12151625WA0053900528005010035221255
B2014473727693N12151629WA0053700526005010036222258
B2014483727690N12151634WA0053600524005010037223242
B2014493727686N12151639WA0053500523005010038225256
B2014503727682N12151644WA0053400521005010038224254
B2014513727678N12151649WA0053300520005010036224256
B2014523727670N12151658WA0053200518005010031224254
B2014533727667N12151662WA0053100518005010032225253
B2014543727664N12151666WA0053000517005010034224250
B2014553727660N12151671WA0053000516005010034223253
B2014563727657N12151675WA0052900515005010034222249
B2014573727653N12151679WA0052900514005010032220255
B2014583727649N12151683WA0052800513005010031220248
B2014593727646N12151687WA0052600512005010031221257
B2015003727643N12151691WA0052500511005010032224254
B2015013727639N12151696WA0052500511005010033228262
B2015023727636N12151700WA0052400510005010033225271
B2015033727632N12151705WA0052200509005010031222267
B2015043727629N12151708WA0052100509005010028221281
B2015053727626N12151712WA0052100509005010024222272
B2015063727624N12151715WA0052000508005010024226263
B2015073727621N12151718WA0051900508005010027237257
B2015083727619N12151723WA0051900507005010029236253
B2015093727616N12151727WA0051900507005010029230243
B2015103727614N12151731WA0051800506005010029227252
B2015113727611N12151735WA0051700505005010029222248
B2015123727607N12151739WA0051600504005010030219255
B2015133727604N12151742WA0051600504005010030220270
B2015143727600N12151746WA0051500503005010028222248
B2015153727598N12151749WA0051400502005010024222278
B2015163727595N12151752WA0051300502005010025217258
B2015173727592N12151755WA0051300501005010025217269
B2015183727589N12151758WA0051200501005010024219262
B2015193727586N12151761WA0051200500005010025223258
B2015203727584N12151764WA0051200500005010026229258
B2015213727581N12151768WA0051200500005010027235258
B2015223727579N12151772WA0051200499005010026239269
B2015233727577N12151776WA0051100499005010024232287
B2015243727575N12151780WA0051100500005010023238291
B2015253727574N12151784WA0051100500005010020259300
B2015263727574N12151787WA0051200500005010013283310
B2015273727575N12151788WA0051200500005010016346320
B2015283727578N12151788WA0051200500005010023018349
B2015293727581N12151785WA0051200500005010027038007
B2015303727584N12151781WA0051100499005010033057024
B2015313727587N12151774WA0051000499005010043070040
B2015323727589N12151766WA0050700499005010046079060
B2015333727589N12151757WA0050400498005010041088074
B2015343727589N12151750WA0050400498005010033094080
B2015353727589N12151743WA0050200498005010033102082
B2015363727587N12151736WA0050100496005010040110095
B2015373727584N12151729WA0049900495005010046124108
B2015383727579N12151722WA0049900494005010046129130
B2015393727574N12151716WA0049800493005010048147135
B2015403727567N12151711WA0049700492005010048151158
B2015413727560N12151708WA0049600491005010048159164
B2015423727553N12151706WA0049600490005010050172176
B2015433727546N12151706WA0049600489005010049182190
B2015443727539N12151707WA0049600489005010042192201
B2015453727533N12151710WA0049600488005010035203216
B2015473727532N12151714WA0049700487005010019280230
B2015483727534N12151718WA0049700486005010014301293
B2015493727536N12151721WA0049700486010019013332306
B2015503727538N12151721WA0049800485010019018355320
B2015513727545N12151720WA0049800484005010031023335
B2015523727548N12151714WA0049800483005010052087001
B2015533727548N12151703WA0049800482005010052094071
B2015543727545N12151693WA0049700481005010054117080
B2015553727540N12151685WA0049600481005010052134112
B2015563727535N12151679WA0049600480005010047146138
B2015573727529N12151674WA0049500479005010049154156
B2015583727522N12151672WA0049400478005010049167167
B2015593727514N12151671WA0049300477005010047179186
B2016003727508N12151672WA0049300476005010039199201
B2016013727504N12151675WA0049300475005010028213227
B2016023727501N12151678WA0049300475005010020251248
B2016033727501N12151682WA0049300474005010016272278
B2016043727501N12151685WA0049300473005010015280290
B2016053727502N12151687WA0049300473005010007279294
B2016063727503N12151689WA0049400472005010005291298
B2016073727503N12151690WA0049400472005010002255305
B2016083727503N12151690WA0049400472005010005290304
B2016093727504N12151692WA0049400472005010011295302
B2016103727505N12151695WA0049400471005010021300300
B2016113727507N12151699WA0049200470005010021295310
B2016123727508N12151702WA0049000469005010016300309
B2016133727510N12151704WA0049000468005010014321314
B2016143727512N12151706WA0048800467005010016325299
B2016153727514N12151708WA0048500467005010019310295
B2016163727516N12151712WA0048300466005010023289291
B2016173727517N12151716WA0048300465005010026289323
B2016183727518N12151720WA0048200465005010015287334
B2016193727518N12151722WA0048100464005010011276307
B2016203727518N12151724WA0048100464005010010262315
B2016213727518N12151726WA0048100465005010010269313
B2016223727519N12151729WA0048200465005010011302318
B2016233727520N12151730WA0048300465005010015337325
B2016243727523N12151731WA0048300465005010017357336
B2016253727525N12151730WA0048400465005010020012345
B2016263727528N12151729WA0048500465005010023031354
B2016273727531N12151726WA0048500465005010026040005
B2016283727534N12151722WA0048500465005010031051014
B2016293727537N12151717WA0048500464005010034065027
B2016303727538N12151710WA0048500464005010040094042
B2016313727536N12151702WA0048400464005010054117078
B2016323727530N12151693WA0048400464005010057132117
B2016333727524N12151686WA0048300464005010055146139
B2016343727517N12151681WA0048200463005010051158159
B2016353727509N12151679WA0048200463005010048172177
B2016363727502N12151678WA0048100463005010040188196
B2016373727497N12151680WA0048100463005010037198218
B2016383727492N12151683WA0048100462005010028223230
B2016393727490N12151687WA0048100462005010023237256
B2016403727489N12151690WA0048100462005010017249269
B2016413727488N12151693WA0048100462005010014260283
B2016423727488N12151695WA0048100461005010014266286
B2016433727488N12151698WA0048000461005010020275284
B2016443727489N12151703WA0047900460005010023270289
B2016453727488N12151707WA0047900459005010021262289
B2016463727488N12151710WA0047800459005010019262293
B2016473727488N12151713WA0047600458005010018264287
B2016483727488N12151717WA0047400457005010026277289
B2016493727488N12151722WA0047400456005010027275289
B2016503727489N12151727WA0047200454005010026271301
B2016513727489N12151731WA0047000453005010024265294
B2016523727488N12151736WA0046800451005010022264308
B2016533727488N12151739WA0046800450005010022268300
B2016543727488N12151744WA0046600448005010026279304
B2016553727489N12151749WA0046300446005010029287317
B2016563727491N12151753WA0045900444005010029294319
B2016573727493N12151757WA0045900442005010020301327
B2016583727494N12151760WA0045600441005010016306308
B2016593727495N12151762WA0045200439005010016302298
B2017003727497N12151765WA0044900437005010018294282
B2017013727498N12151768WA0044900435005010020299309
B2017023727499N12151771WA0044700433005010017311311
B2017043727501N12151773WA0044400431005010014318282
B2017053727502N12151775WA0044300430005010011306286
B2017063727503N12151777WA0044200429005010013285288
B2017073727503N12151779WA0044200427005010015272299
B2017083727503N12151782WA0044100425005010015275285
B2017093727504N12151785WA0044000424005010014283283
B2017103727504N12151787WA0043900422005010014280286
B2017113727504N12151790WA0043900421005010015262276
B2017123727503N12151793WA0043800420005010015252293
B2017133727503N12151795WA0043700418005010013253296
B2017143727503N12151798WA0043500417005010010264294
B2017153727503N12151800WA0043500416005010011270293
B2017163727503N12151802WA0043400415005010011267287
B2017173727503N12151804WA0043300414005010014265297
B2017183727502N12151807WA0043200412005010017262304
B2017193727502N12151810WA0043200411005010020264312
B2017203727502N12151814WA0043000409005010019270304
B2017213727502N12151818WA0042700407005010018276290
B2017223727502N12151821WA0042500406005010016282285
B2017233727503N12151824WA0042500404005010015289263
B2017243727504N12151826WA0042200403005010016291290
B2017253727504N12151829WA0041900401005010016290284
B2017263727505N12151831WA0041700400005010009282283
B2017273727505N12151833WA0041700399005010006290303
B2017283727505N12151834WA0041600398005010005281285
B2017293727506N12151835WA0041500397005010008292283
B2017303727506N12151837WA0041400395005010017286285
B2017313727507N12151840WA0041400394005010019279292
B2017323727507N12151844WA0041300392005010019278288
B2017333727508N12151848WA0041100391005010017282301
B2017343727508N12151850WA0041000390005010011271287
B2017353727508N12151852WA0041000389005010013273286
B2017363727508N12151855WA0040800388005010016267291
B2017373727508N12151858WA0040600386005010020266280
B2017383727508N12151862WA0040500385005010021268309
B2017393727508N12151866WA0040500384005010017268275
B2017403727507N12151868WA0040400383005010013255296
B2017413727507N12151871WA0040300382005010011271276
B2017423727507N12151873WA0040200381005010011275269
B2017433727507N12151875WA0040200380005010014269270
B2017443727507N12151878WA0040100379005010017255281
B2017453727506N12151881WA0040000378005010018250291
B2017463727505N12151884WA0039900376005010016244291
B2017473727504N12151887WA0039900375005010014254290
B2017483727504N12151889WA0039700374005010012254277
B2017493727503N12151891WA0039600373005010015264275
B2017503727503N12151894WA0039400372005010016259287
B2017513727502N12151897WA0039400370005010017252269
B2017523727501N12151900WA0039200369005010018247288
B2017533727500N12151903WA0038900367005010017249275
B2017543727499N12151906WA0038600365005010017260284
B2017553727499N12151909WA0038600363005010016260271
B2017563727498N12151911WA0038300361005010016250273
B2017573727497N12151914WA0038000359005010016248280
B2017583727496N12151917WA0037700358005010016257270
B2017593727496N12151920WA0037700356005010018269268
B2018003727496N12151923WA0037400354005010019269253
B2018013727495N12151926WA0037200352005010020265287
B2018023727495N12151929WA0036900350005010014235284
B2018033727493N12151931WA0036900348005010010223292
B2018043727492N12151932WA0036700347005010009224283
B2018053727491N12151934WA0036500345005010013254276
B2018063727491N12151936WA0036300343005010015248284
B2018073727490N12151939WA0036300341005010017257270
B2018083727489N12151942WA0036200340005010013239272
B2018093727488N12151944WA0036000338005010011233258
B2018103727487N12151946WA0035900337005010013244250
B2018113727486N12151948WA0035900335005010017244263
B2018123727485N12151951WA0035700334005010019241267
B2018133727483N12151954WA0035600333005010018227282
B2018143727482N12151957WA0035600332005010017230273
B2018153727480N12151959WA0035600331005010016241270
B2018163727480N12151962WA0035500330005010018262268
B2018173727479N12151966WA0035400328005010020260247
B2018183727478N12151970WA0035200327005010020247266
B2018193727477N12151973WA0035200326005010019236267
B2018203727476N12151976WA0035100325005010020235265
B2018213727474N12151980WA0034900324005010019243263
B2018223727473N12151983WA0034800323005010019250246
B2018233727472N12151986WA0034800321005010020245256
B2018243727471N12151990WA0034600320005010020239255
B2018253727469N12151993WA0034400319005010020232260
B2018263727467N12151996WA0034200318005010020231254
B2018273727465N12151999WA0034200317005010021228253
B2018283727463N12152002WA0034000316005010021226239
B2018293727461N12152005WA0033800314005010020227252
B2018303727459N12152008WA0033700313005010019226245
B2018313727457N12152010WA0033700312005010019230252
B2018323727455N12152013WA0033500310005010021236252
B2018333727453N12152017WA0033300309005010025231257
B2018343727451N12152020WA0033100307005010024230252
B2018353727448N12152023WA0033100306005010024221251
B2018363727445N12152026WA0032900305005010023216248
B2018373727443N12152028WA0032700303005010020215242
B2018383727440N12152030WA0032500302005010020214235
B2018393727438N12152032WA0032500301005010023206246
B2018403727434N12152034WA0032300299005010024206243
B2018413727431N12152036WA0032100298005010024207257
B2018423727428N12152038WA0031900296005010024207253
B2018433727425N12152040WA0031900295005010021208249
B2018443727422N12152042WA0031800294005010019209248
B2018453727420N12152044WA0031600292005010019215252
B2018463727418N12152046WA0031400291005010018223270
B2018473727416N12152049WA0031400290005010018226258
B2018483727414N12152051WA0031200288005010020225302
B2018493727411N12152054WA0031100287005010020224303
B2018503727410N12152057WA0030900285005010014244312
B2018513727409N12152059WA0030900283005010009264319
B2018523727411N12152060WA0030700282005010024352328
B2018533727415N12152060WA0030400280005010029013350
B2018543727419N12152058WA0030100278005010033030357
B2018553727423N12152054WA0030100277005010033040005
B2018563727427N12152050WA0029800275005010031045006
B2018573727430N12152045WA0029500273005010033046000
B2018583727434N12152041WA0029300271005010037042355
B2018593727439N12152036WA0029300268005010040037002
B2019003727444N12152031WA0029000265005010040032016
B2019013727449N12152027WA0028700263005010039031038
B2019023727454N12152023WA0028400261005010039037010
B2019033727458N12152018WA0028400260005010038042356
B2019043727462N12152014WA0028200259005010032046335
B2019053727465N12152010WA0028000258005010031036325
B2019063727469N12152007WA0027900257005010029017330
B2019073727473N12152006WA0027900256005010024000325
B2019083727476N12152007WA0027900256005010017345315
B2019093727478N12152008WA0027900255005010015322311
B2019103727480N12152011WA0027800254005010015302299
B2019113727481N12152013WA0027800253005010016295293
B2019123727482N12152016WA0027700253005010016301301
B2019133727483N12152019WA0027600252005010018317295
B2019143727485N12152021WA0027500251005010016324283
B2019153727487N12152023WA0027500251005010015320273
B2019163727488N12152024WA0027500250005010012306277
B2019173727489N12152027WA0027400249005010014286273
B2019183727489N12152030WA0027400249005010017266268
B2019193727488N12152033WA0027400248005010019244258
B2019203727487N12152036WA0027300247005010022226248
B2019213727484N12152038WA0027300247005010023206236
B2019223727480N12152039WA0027200246005010028186224
B2019233727475N12152038WA0027200245005010036166206
B2019243727469N12152035WA0027000243005010041152182
B2019253727464N12152030WA0026800241005010048138163
B2019263727458N12152022WA0026600239005010056123144
B2019273727454N12152012WA0026600237005010059107123
B2019283727453N12152001WA0026400236005010058087102
B2019293727455N12151991WA0026200234005010054068076
B2019303727459N12151982WA0026100232010019047053051
B2019313727463N12151977WA0026100231010019040039030
B2019323727468N12151973WA0025900229005010036028012
B2019333727473N12151971WA0025800227005010034011358
B2019343727478N12151971WA0025700226005010030354343
B2019353727482N12151972WA0025700225005010024338327
B2019363727485N12151974WA0025600224005010018328316
B2019373727487N12151976WA0025500224005010012331310
B2019383727489N12151977WA0025500223005010012354308
B2019393727491N12151977WA0025500223005010019355310
B2019403727494N12151977WA0025500222005010022000310
B2019413727501N12151977WA0025500220005010020013327
B2019423727503N12151976WA0025500220005010019018321
B2019433727506N12151975WA0025500220005010020021312
B2019443727509N12151974WA0025500219005010017016304
B2019453727511N12151974WA0025500219005010016349291
B2019463727513N12151975WA0025500218005010015318282
B2019473727514N12151978WA0025500218005010015280275
B2019483727514N12151981WA0025500217005010016250269
B2019493727513N12151983WA0025400216005010018231251
B2019503727511N12151986WA0025300216005010020213241
B2019513727508N12151988WA0025100215005010025193227
B2019523727504N12151988WA0025100214005010031172220
B2019533727498N12151986WA0024900213005010038163230
B2019543727493N12151984WA0024700212005010035169229
B2019553727489N12151984WA0024500212005010022186237
B2019563727486N12151985WA0024500210005010015208253
B2019573727485N12151987WA0024300209005010016288264
B2019583727486N12151989WA0024100208005010018312296
B2019593727488N12151991WA0023900207005010017328293
B2020003727491N12151993WA0023900206005010014329301
B2020013727492N12151994WA0023700205005010012327299
B2020023727494N12151996WA0023500203005010013328297
B2020033727496N12151997WA0023300202005010016334300
B2020043727499N12151999WA0023300201005010024328300
B2020053727502N12152002WA0023100200005010025319295
B2020063727505N12152005WA0022900198005010023303282
B2020073727505N12152008WA0022800197005010017247274
B2020083727503N12152010WA0022800196005010020202255
B2020093727500N12152011WA0022700195005010023178236
B2020103727496N12152010WA0022600193005010026165222
B2020113727492N12152008WA0022400192005010026165213
B2020123727488N12152006WA0022400191005010026172216
B2020133727484N12152005WA0022300190005010026177217
B2020143727480N12152005WA0022200189005010026176222
B2020153727476N12152004WA0022000188005010024176228
B2020163727473N12152004WA0022000187005010020179234
B2020173727470N12152004WA0021900185005010016184236
B2020183727468N12152004WA0021700184005010016190243
B2020193727465N12152005WA0021600183005010016191232
B2020203727463N12152005WA0021600182005010021193225
B2020213727459N12152006WA0021400181005010021194217
B2020223727456N12152006WA0021300179005010024179219
B2020233727453N12152006WA0021100178005010022172237
B2020243727449N12152005WA0021100177005010022173258
B2020253727446N12152005WA0021000176005010021191269
B2020263727445N12152008WA0020900174005010019272277
B2020273727446N12152011WA0020700173005010022308298
B2020283727449N12152013WA0020700171005010021345306
B2020293727452N12152014WA0020600170010019018000306
B2020303727454N12152014WA0020400168010019014349296
B2020313727456N12152015WA0020300167010019010319291
B2020323727457N12152017WA0020300166010019014299291
B2020333727458N12152019WA0020100164005010005271286
B2020343727458N12152019WA0019900164005010003013276
B2020353727458N12152019WA0019800163005010002031276
B2020363727459N12152019WA0019800162005010003062276
B2020373727459N12152019WA0019700161005010004090276
B2020383727459N12152019WA0019600160005010002086279
B2020393727459N12152019WA0019600160005010001069279
B2020403727460N12152019WA0019600160005010001145279
B2020413727460N12152019WA0019600160005010000265279
B2020423727460N12152019WA0019600160005010001268279
B2020433727460N12152019WA0019600160005010000000279
B2020443727460N12152019WA0019600160005010000000279
B2020453727460N12152019WA0019600160005010000000279
B2020463727460N12152019WA0019600160005010000000279
B2020473727460N12152019WA0019600160005010000000279
B2020483727460N12152019WA0019600160005010000000279
B2020493727460N12152019WA0019600160005010000000279
B2020503727460N12152019WA0019600160005010000000279
B2020513727460N12152019WA0019600160005010000000279
B2020523727460N12152019WA0019600160005010000000279
B2020533727460N12152019WA0019600160005010000263279
B2020543727460N12152019WA0019600160005010000247279
B2020553727460N12152019WA0019600160005010001230279
B2020563727460N12152019WA0019600160005010000000279
B2020573727460N12152019WA0019600160005010000000279
B2020583727460N12152019WA0019600160005010000000279
B2020593727460N12152019WA0019600160005010000019279
B2021003727460N12152019WA0019600160005010001023279
B2021013727460N12152019WA0019600160005010001033279
B2021023727460N12152019WA0019600160005010000000279
B2021033727460N12152019WA0019600160005010000000279
B2021043727460N12152019WA0019600160005010001095279
B2021053727460N12152019WA0019600160005010000074279
GBA3nGIUsZ2CNAvu2BYu4KUG4LD0XSisxquZf8OPqvFWEgY9bIrdCjSkLZ6ygDN7s
GUOpbieqTomAb1ElLxaDfg3Dld6dG4GmESLT1YIzgIzUkGuQGIVnqlOSnB44S8uLr
GliWlSE6XdUkqOMZHGS34ADO+eEiKG4VpWFtnG7mGo9Q=

