AXFH000
HFDTE070926
HFPLTPILOT:Scott O’Brien
HFGTYGLIDERTYPE:Ozone Swift 6
HFDTM100GPSDATUM:WGS84
HFRFWFIRMWAREVERSION:9.7.1
HFRHWHARDWAREVERSION:iPhone 15
HFFTYFRTYPE:Flyskyhy,9.7.1
HFGPS:Bluetooth vario
HFPRSVARIO:Bluetooth vario
HFCCLCOMPETITIONCLASS:Paraglider,EN-B
HFTZNTIMEZONE:-7
HFSITSITE:Ed Levin 600ft,US
I053638FXA3941VXA4244GSP4547CCO4850HDT
B1947013727670N12151638WA0034700347001100002280103
B1947023727670N12151638WA0034700346001100001280093
B1947033727670N12151638WA0034700346001100001280094
B1947043727670N12151638WA0034700346001100000280093
B1947053727670N12151638WA0034700346001100000280086
B1947063727670N12151638WA0034700346001100000280087
B1947073727670N12151638WA0034700346001100000280082
B1947083727670N12151638WA0034700346001100000280082
B1947093727670N12151638WA0034700346001100000280077
B1947103727670N12151638WA0034700346001100000280073
B1947113727670N12151638WA0034700346001100001280056
B1947123727670N12151638WA0034700346001100001280058
B1947133727670N12151638WA0034700346001100000280038
B1947143727670N12151638WA0034600346001100001133070
B1947153727670N12151638WA0034700346001100001132024
B1947163727670N12151638WA0034700347001100001132022
B1947173727670N12151638WA0034600347001100001132007
B1947183727670N12151638WA0034600347001100001132015
B1947193727670N12151638WA0034700347001100001132021
B1947203727670N12151638WA0034700347001100001132041
B1947213727670N12151638WA0034700347001100000132051
B1947223727670N12151638WA0034700347001100000132074
B1947233727670N12151637WA0034700347001100002120094
B1947243727670N12151637WA0034700347001100002100055
B1947253727669N12151637WA0034700347001100003160230
B1947263727669N12151637WA0034700347001100002248242
B1947273727669N12151638WA0034500347001100004288255
B1947283727669N12151639WA0034500347001100012284241
B1947293727670N12151642WA0034600346001100015266198
B1947303727669N12151645WA0034500346001100016244185
B1947313727667N12151647WA0034800347001100015221164
B1947323727664N12151648WA0034800347001100021192181
B1947333727660N12151648WA0034800346001100022175196
B1947343727657N12151648WA0034700346001100022188182
B1947353727653N12151649WA0034600345001100023200192
B1947363727649N12151651WA0034600344001100026205192
B1947373727646N12151653WA0034700344001100026198191
B1947383727642N12151653WA0034600344001100028159190
B1947393727638N12151650WA0034500343001100027147166
B1947403727635N12151648WA0034300341001100024159169
B1947413727631N12151646WA0034000340001100025165185
B1947423727627N12151647WA0033600337001100025194193
B1947433727624N12151649WA0033600335001100024213215
B1947443727624N12151655WA0033400332001100020275232
B1947453727626N12151659WA0033200331001100024320276
B1947463727631N12151662WA0033200330001100029334312
B1947473727636N12151663WA0033100329001100031345319
B1947483727640N12151664WA0033100329001100026352322
B1947493727644N12151665WA0032900328001100024345325
B1947503727647N12151667WA0032700326001100026334320
B1947513727651N12151670WA0032500323001100031322310
B1947523727655N12151674WA0032300321001100033311300
B1947533727658N12151679WA0032300319001100034306292
B1947543727660N12151685WA0032400318001100033300289
B1947553727661N12151690WA0032500318001100032297287
B1947563727662N12151695WA0032700319001100025289287
B1947573727662N12151699WA0032700318001100021284275
B1947583727663N12151702WA0032500318001100023279269
B1947593727663N12151706WA0032200317001100021276266
B1948003727664N12151710WA0032100316001100028283259
B1948013727665N12151716WA0031900316001100033287263
B1948023727666N12151722WA0031900315001100032287259
B1948033727668N12151727WA0032000314001100028293262
B1948043727670N12151731WA0032000314001100022291268
B1948053727671N12151735WA0031900313001100021278268
B1948063727671N12151739WA0031600312001100023272255
B1948073727671N12151743WA0031400309001100025271246
B1948083727671N12151748WA0031100306001100028270249
B1948093727671N12151754WA0031000304001100032265249
B1948103727671N12151760WA0030800302001100033264235
B1948113727670N12151767WA0030800301001100034264243
B1948123727670N12151773WA0030800300001100035267247
B1948133727670N12151780WA0031100301001100035268254
B1948143727671N12151786WA0031100301001100029280246
B1948153727673N12151790WA0031000301001100025286252
B1948163727674N12151795WA0031000300001100024282259
B1948173727674N12151799WA0030800300001100025270256
B1948183727674N12151804WA0030600300001100028255251
B1948193727673N12151809WA0030400298001100032256238
B1948203727672N12151816WA0030300297001100036263241
B1948213727671N12151823WA0030300296001100038260251
B1948223727671N12151829WA0030300296001100034260251
B1948233727672N12151835WA0030400296001100031275255
B1948243727673N12151840WA0030400296001100028289253
B1948253727675N12151845WA0030400297001100032289261
B1948263727677N12151850WA0030600296001100032283279
B1948273727679N12151855WA0030700296001100029291261
B1948283727681N12151858WA0030700297001100023297254
B1948293727683N12151862WA0030700298001100023299259
B1948303727685N12151865WA0030600297001100023299267
B1948313727686N12151869WA0030400297001100025288270
B1948323727686N12151874WA0030500298001100028277266
B1948333727686N12151879WA0030500299001100029272257
B1948343727686N12151884WA0030700300001100024257251
B1948353727684N12151888WA0030800301001100023252239
B1948363727682N12151891WA0030800302001100019232233
B1948373727678N12151891WA0031000303001100020183217
B1948383727673N12151888WA0031000304001100028155173
B1948393727669N12151884WA0031100305001100031147151
B1948403727664N12151880WA0031200306001100033138138
B1948413727661N12151875WA0031300307001100037127118
B1948423727658N12151868WA0031200307001100041105098
B1948433727658N12151860WA0031300307001100044083078
B1948443727660N12151851WA0031200307001100042074054
B1948453727666N12151846WA0031100306001100034043045
B1948463727674N12151848WA0030900305001100034001021
B1948473727679N12151852WA0030900305001100024333342
B1948483727681N12151858WA0030900306001100019293316
B1948493727681N12151861WA0031100308001100014278274
B1948503727682N12151864WA0031100308001100010274257
B1948513727682N12151866WA0031100307001100009268250
B1948523727682N12151868WA0031000306001100014282248
B1948533727683N12151872WA0030900307001100019287253
B1948553727685N12151879WA0031000309001100016276253
B1948563727686N12151882WA0031000309001100014272238
B1948573727686N12151885WA0030800308001100017270245
B1948583727686N12151889WA0030800307001100022271240
B1948593727686N12151894WA0030700306001100024266243
B1949003727685N12151899WA0031000307001100026266249
B1949013727685N12151904WA0031200308001100023270255
B1949023727685N12151907WA0031500309001100018280259
B1949033727686N12151910WA0031600310001100018288266
B1949043727686N12151913WA0031500311001100015283254
B1949053727687N12151916WA0031500312001100013280235
B1949063727687N12151917WA0031200312001100011279219
B1949073727685N12151919WA0031100312001100013230212
B1949083727681N12151921WA0030900311001100030194198
B1949093727675N12151923WA0030900310001100033191177
B1949103727669N12151923WA0031100309001100031187178
B1949113727664N12151922WA0031400310001100030185181
B1949123727660N12151921WA0031500311001100021175172
B1949133727657N12151920WA0031600311001100020163166
B1949143727654N12151918WA0031600310001100022161149
B1949153727650N12151914WA0031400309001100037137139
B1949163727646N12151908WA0031500309001100040121121
B1949173727645N12151899WA0031500309001100044091104
B1949183727646N12151890WA0031400308001100044079079
B1949193727650N12151881WA0031400308001100045055067
B1949203727655N12151876WA0031500309001100040030042
B1949213727661N12151873WA0031400309001100036017016
B1949223727666N12151874WA0031300309001100030351000
B1949233727669N12151876WA0031400309001100028332331
B1949243727671N12151880WA0031400310001100026301311
B1949253727673N12151884WA0031500312001100019294282
B1949263727674N12151888WA0031500312001100015298271
B1949273727675N12151890WA0031400312001100014299270
B1949283727676N12151893WA0031400310001100019300271
B1949293727678N12151897WA0031400309001100025296270
B1949303727679N12151901WA0031300309001100025295268
B1949313727680N12151906WA0031300309001100024285261
B1949323727681N12151910WA0031200310001100023282260
B1949333727682N12151914WA0031300311001100022282266
B1949343727683N12151918WA0031500312001100023295286
B1949353727685N12151922WA0031500312001100026309279
B1949363727687N12151926WA0031700313001100028311267
B1949373727690N12151930WA0031900314001100025296245
B1949383727690N12151934WA0032000315001100019264227
B1949393727688N12151937WA0032000316001100020217209
B1949403727684N12151936WA0031900317001100029161183
B1949413727679N12151932WA0032100318001100035134151
B1949423727676N12151926WA0032100318001100036117126
B1949433727676N12151918WA0032100319001100041085109
B1949443727678N12151910WA0032100319001100042071077
B1949453727683N12151904WA0032100318001100037047059
B1949463727689N12151904WA0032000318001100030009031
B1949473727695N12151909WA0032200318001100031323345
B1949483727697N12151917WA0032300319001100035289299
B1949493727697N12151925WA0032600318001100028279273
B1949503727696N12151929WA0032900321001100019261264
B1949513727695N12151933WA0033000323001100016264248
B1949523727695N12151936WA0033100324001100017260241
B1949533727694N12151939WA0033100326001100019248236
B1949543727692N12151942WA0033100327001100025225229
B1949553727688N12151945WA0033000328001100027203212
B1949563727682N12151943WA0032800327001100032163196
B1949573727677N12151939WA0032800326001100035142165
B1949583727675N12151930WA0032800325001100038098145
B1949593727678N12151921WA0032700325001100040067102
B1950003727683N12151915WA0032800324001100041041067
B1950013727690N12151913WA0032800324001100038005034
B1950023727697N12151916WA0032900324001100038341352
B1950033727702N12151920WA0033000324001100035329325
B1950043727705N12151926WA0033200325001100029301313
B1950053727706N12151931WA0033200326001100024280285
B1950063727705N12151935WA0033300326001100022256266
B1950073727703N12151939WA0033200326001100023233245
B1950083727700N12151942WA0033100325001100025216229
B1950093727696N12151944WA0033000325001100030199217
B1950103727691N12151945WA0033000325001100032190204
B1950113727686N12151945WA0032800325001100034169196
B1950123727681N12151942WA0032900326001100037157179
B1950133727675N12151938WA0032800326001100038146167
B1950143727671N12151933WA0032900326001100038134158
B1950153727667N12151927WA0032800325001100039121145
B1950163727666N12151919WA0032700324001100041091132
B1950173727668N12151912WA0032700323001100039077099
B1950183727672N12151906WA0032600322001100037044083
B1950193727678N12151903WA0032500322001100037011042
B1950203727684N12151904WA0032600322001100038340001
B1950213727688N12151908WA0032700322001100036326327
B1950223727690N12151914WA0032500322001100031293312
B1950233727691N12151920WA0032600322001100027276279
B1950243727689N12151925WA0032700323001100024251263
B1950253727688N12151929WA0032700323001100021254248
B1950263727687N12151933WA0032600322001100019260255
B1950273727687N12151936WA0032500321001100020258252
B1950283727686N12151940WA0032300319001100022259252
B1950293727686N12151945WA0031800317001100027262252
B1950303727685N12151950WA0031800316001100028262255
B1950313727685N12151956WA0031800317001100028261253
B1950323727684N12151961WA0031800317001100026259255
B1950333727683N12151966WA0031700316001100027268258
B1950343727684N12151971WA0031500315001100030277261
B1950353727685N12151977WA0031300314001100035284262
B1950363727686N12151984WA0031300314001100035286261
B1950373727687N12151989WA0031300314001100031286264
B1950383727688N12151995WA0031300314001100026283267
B1950393727689N12152000WA0031300313001100025284263
B1950403727690N12152005WA0031200312001100028287264
B1950413727692N12152010WA0031100311001100030288264
B1950423727693N12152015WA0031200310001100030287263
B1950433727694N12152021WA0031100310001100028283260
B1950443727695N12152026WA0031200310001100026286266
B1950453727697N12152030WA0031100309001100026291266
B1950463727698N12152035WA0031000308001100029293265
B1950473727700N12152040WA0030900307001100030292262
B1950483727702N12152045WA0030800307001100031291265
B1950493727704N12152051WA0030800306001100032294282
B1950503727706N12152056WA0030700306001100033302281
B1950513727709N12152061WA0030800307001100034311275
B1950523727712N12152065WA0030900309001100032316273
B1950533727715N12152069WA0031200310001100027311269
B1950543727717N12152073WA0031200311001100021297256
B1950553727717N12152076WA0031000311001100014248257
B1950563727715N12152078WA0030800309001100019230235
B1950573727713N12152081WA0030500307001100021244238
B1950583727712N12152085WA0030400306001100021256245
B1950593727711N12152089WA0030300305001100021261249
B1951003727711N12152093WA0030200304001100020263246
B1951013727711N12152096WA0030000303001100019264250
B1951023727710N12152100WA0029800301001100020253221
B1951033727709N12152103WA0029500298001100022238207
B1951043727706N12152106WA0029300295001100024215201
B1951053727701N12152106WA0029000292001100033168187
B1951063727695N12152103WA0028900289001100037157159
B1951073727691N12152098WA0029000287001100036142150
B1951083727687N12152092WA0029000287001100031121140
B1951093727686N12152086WA0028900287001100031108129
B1951103727685N12152079WA0028900286001100033105113
B1951113727683N12152073WA0028800285001100038102105
B1951123727682N12152065WA0028600284001100040098096
B1951133727682N12152058WA0028400283001100039092089
B1951143727682N12152050WA0028300281001100039089084
B1951153727682N12152043WA0028200280001100038087082
B1951163727683N12152036WA0028000279001100038088077
B1951173727683N12152028WA0027800277001100039092086
B1951183727682N12152021WA0027600276001100038095090
B1951193727682N12152014WA0027300274001100038100099
B1951203727680N12152007WA0027000272001100039104105
B1951213727678N12151999WA0026800270001100041107116
B1951223727676N12151992WA0026800269001100040112135
B1951233727673N12151986WA0026900268001100036122150
B1951243727670N12151981WA0026900268001100032138154
B1951253727666N12151979WA0026800266001100030153158
B1951263727662N12151977WA0026600265001100031155165
B1951273727657N12151974WA0026400263001100035157162
B1951283727652N12151972WA0026300262001100037161166
B1951293727647N12151970WA0026200261001100037171171
B1951303727641N12151970WA0026200260001100034180178
B1951313727636N12151970WA0026200261001100030187182
B1951323727632N12151971WA0026200260001100029191187
B1951333727627N12151972WA0026000259001100029183181
B1951343727623N12151972WA0025900258001100032174179
B1951353727618N12151971WA0025600256001100034168182
B1951363727613N12151970WA0025500254001100035176198
B1951373727608N12151971WA0025500253001100036184187
B1951383727602N12151972WA0025600252001100035191211
B1951393727598N12151975WA0026000251001100028199230
B1951403727596N12151977WA0026200252001100021216246
B1951413727596N12151981WA0026200253001100018252268
B1951423727598N12151985WA0026200254001100022292288
B1951433727602N12151989WA0026300254001100028329319
B1951443727608N12151988WA0026200255001100029016349
B1951453727613N12151983WA0025900255001100036046026
B1951463727614N12151974WA0025900255001100040083062
B1951473727613N12151964WA0025900256001100040099097
B1951483727610N12151957WA0026200257001100036107118
B1951493727606N12151952WA0026600258001100030128126
B1951503727602N12151949WA0026700260001100026146157
B1951513727598N12151947WA0026800262001100023156175
B1951523727595N12151946WA0026800263001100021166193
B1951533727592N12151946WA0026800265001100021183204
B1951543727589N12151949WA0026700265001100028229214
B1951553727587N12151954WA0026800266001100027242244
B1951563727585N12151959WA0026900267001100024258267
B1951573727586N12151963WA0027100268001100021282274
B1951583727588N12151966WA0027100268001100020312289
B1951593727592N12151966WA0027000269001100026358308
B1952003727597N12151965WA0027100269001100033010346
B1952013727602N12151963WA0027100270001100037016009
B1952023727608N12151961WA0027100269001100039024025
B1952033727613N12151956WA0027000268001100040038045
B1952043727615N12151948WA0026900268001100045066062
B1952053727616N12151938WA0026900269001100044082081
B1952063727614N12151930WA0027100270001100040109105
B1952073727610N12151923WA0027100270001100038131132
B1952083727605N12151920WA0027100270001100035151152
B1952093727599N12151921WA0027200270001100034187173
B1952103727594N12151923WA0027600272001100029200206
B1952113727590N12151926WA0027600273001100027218223
B1952123727589N12151930WA0027600274001100023238239
B1952133727589N12151935WA0027600274001100024271249
B1952143727591N12151940WA0027800275001100028306272
B1952153727595N12151944WA0027900276001100030326302
B1952163727600N12151946WA0028200278001100031346319
B1952173727606N12151943WA0028200279001100038024336
B1952183727612N12151937WA0028000279001100045040024
B1952193727615N12151928WA0027900279001100046065042
B1952203727615N12151918WA0028000279001100045092070
B1952213727612N12151909WA0028100280001100044105104
B1952223727608N12151902WA0028300281001100041116122
B1952233727604N12151896WA0028600283001100034127142
B1952243727601N12151893WA0028700284001100032139157
B1952253727597N12151891WA0028600284001100028155178
B1952263727592N12151893WA0028500284001100028204194
B1952273727589N12151898WA0028600285001100029227227
B1952283727588N12151904WA0028800285001100026271241
B1952293727589N12151910WA0029000287001100026282273
B1952303727590N12151914WA0029100289001100021296288
B1952313727593N12151917WA0029100289001100021313296
B1952323727595N12151919WA0029200289001100022321315
B1952333727598N12151922WA0029200289001100027339329
B1952343727603N12151923WA0029200289001100034353346
B1952353727609N12151922WA0029300290001100038008004
B1952363727615N12151919WA0029200290001100041028028
B1952373727620N12151913WA0028900289001100042049049
B1952383727621N12151903WA0028600288001100048080066
B1952393727621N12151893WA0028500288001100048090099
B1952403727618N12151884WA0028700288001100042104106
B1952413727615N12151878WA0028900288001100037114124
B1952423727611N12151872WA0029100291001100035122130
B1952433727608N12151867WA0029200291001100036130132
B1952443727604N12151862WA0029200291001100035140150
B1952453727599N12151859WA0029100291001100036154165
B1952463727594N12151857WA0029000290001100036172185
B1952473727589N12151858WA0029000290001100035185200
B1952483727584N12151860WA0028900290001100032198223
B1952493727581N12151863WA0029000290001100027218234
B1952503727579N12151868WA0029100290001100023237251
B1952513727578N12151872WA0029200291001100021252269
B1952523727578N12151875WA0029200291001100020276281
B1952533727579N12151879WA0029100291001100022302295
B1952543727582N12151883WA0029000290001100025318309
B1952553727586N12151886WA0029000289001100031325307
B1952563727590N12151889WA0029200290001100029327298
B1952573727593N12151891WA0029300291001100024336285
B1952583727596N12151892WA0029300291001100018341289
B1952593727599N12151893WA0029200290001100018341297
B1953003727602N12151894WA0029000288001100020327299
B1953013727604N12151897WA0028800286001100024317299
B1953023727607N12151901WA0028500285001100030310309
B1953033727610N12151905WA0028600284001100030310309
B1953043727614N12151909WA0028700284001100030324322
B1953053727618N12151911WA0028800285001100027342333
B1953063727622N12151912WA0028700284001100026352337
B1953073727626N12151912WA0028500283001100028356329
B1953083727631N12151913WA0028300281001100033353322
B1953093727636N12151914WA0028200280001100035348315
B1953103727641N12151916WA0028100279001100036342315
B1953113727646N12151918WA0028100279001100033338314
B1953123727650N12151920WA0028100279001100027344317
B1953133727654N12151921WA0027900278001100026346316
B1953143727658N12151923WA0027800276001100027338304
B1953153727662N12151926WA0027600274001100030322264
B1953163727665N12151930WA0027600273001100032316286
B1953173727668N12151934WA0027600273001100032310290
B1953183727671N12151939WA0027600273001100031307284
B1953193727674N12151944WA0027500273001100028302277
B1953203727676N12151949WA0027500273001100028296274
B1953213727678N12151954WA0027500273001100030294271
B1953223727679N12151959WA0027500273001100029289265
B1953233727681N12151964WA0027600273001100026282260
B1953243727681N12151969WA0027700273001100025278268
B1953253727682N12151973WA0027700273001100025279264
B1953263727683N12151978WA0027700273001100029282270
B1953273727684N12151984WA0027700272001100032285273
B1953283727685N12151990WA0027700274001100033290275
B1953293727687N12151995WA0027800275001100032289272
B1953303727688N12152001WA0027900276001100030283253
B1953313727689N12152006WA0028100277001100030283255
B1953323727691N12152012WA0028100278001100030285257
B1953333727692N12152018WA0028200278001100032283263
B1953343727693N12152024WA0028200278001100033277254
B1953353727694N12152030WA0028200279001100035277257
B1953363727695N12152036WA0028300279001100034284258
B1953373727696N12152042WA0028300280001100033295268
B1953383727699N12152048WA0028300281001100033301269
B1953393727701N12152053WA0028400282001100031293264
B1953403727702N12152059WA0028400282001100030277254
B1953413727702N12152065WA0028400282001100033265263
B1953423727702N12152071WA0028400283001100033265258
B1953433727702N12152077WA0028600283001100029275258
B1953443727703N12152082WA0028900285001100026288271
B1953453727704N12152086WA0028900286001100022291255
B1953463727705N12152089WA0029100287001100019280252
B1953473727706N12152093WA0029100287001100021270245
B1953483727705N12152097WA0029200288001100024267248
B1953493727705N12152101WA0029400290001100025270233
B1953503727706N12152106WA0029500292001100021275245
B1953513727706N12152110WA0029700293001100019273243
B1953523727706N12152113WA0029800294001100019261239
B1953533727705N12152117WA0029800295001100022250245
B1953543727704N12152121WA0029900295001100023248239
B1953553727703N12152125WA0029900296001100022248244
B1953563727701N12152128WA0030000297001100020231231
B1953573727699N12152131WA0030100298001100021214210
B1953583727695N12152133WA0030000298001100026201197
B1953593727690N12152134WA0029800298001100034188184
B1954003727684N12152133WA0030000298001100038172169
B1954013727678N12152129WA0030100298001100045145155
B1954023727674N12152122WA0030100298001100045125126
B1954033727672N12152113WA0030200298001100044098111
B1954043727673N12152104WA0030200299001100041083083
B1954053727677N12152098WA0030200299001100039055067
B1954063727682N12152093WA0030200299001100037036035
B1954073727687N12152092WA0030300300001100033003014
B1954083727692N12152093WA0030400300001100029352340
B1954093727695N12152096WA0030500301001100024333329
B1954103727698N12152099WA0030600302001100019312311
B1954113727699N12152102WA0030800305001100016299292
B1954123727700N12152105WA0030800305001100014291283
B1954133727701N12152108WA0030800304001100016284279
B1954143727701N12152111WA0030700304001100021289286
B1954153727703N12152116WA0030700304001100026294284
B1954163727705N12152120WA0030700304001100029297285
B1954173727706N12152126WA0030900305001100030293272
B1954183727708N12152131WA0030900306001100026287270
B1954193727709N12152135WA0030900307001100021278265
B1954203727709N12152138WA0030900307001100019269250
B1954213727708N12152143WA0030700307001100025257243
B1954223727706N12152148WA0030500306001100034239224
B1954233727703N12152153WA0030600305001100034228213
B1954243727697N12152156WA0030700305001100033195206
B1954253727692N12152156WA0030800305001100031171186
B1954263727688N12152153WA0030800306001100029152173
B1954273727684N12152150WA0030900306001100032138157
B1954283727680N12152144WA0030700305001100037129140
B1954293727677N12152138WA0030700305001100039115127
B1954303727677N12152129WA0030800304001100044088110
B1954313727678N12152120WA0030900304001100044076078
B1954323727682N12152113WA0031000304001100041060062
B1954333727687N12152110WA0031200305001100033027043
B1954343727692N12152108WA0031300307001100031020007
B1954353727696N12152109WA0031300308001100023002359
B1954363727699N12152111WA0031300308001100020335338
B1954373727701N12152114WA0031300308001100022307316
B1954383727702N12152119WA0031300309001100024282297
B1954393727702N12152124WA0031200310001100024263280
B1954403727700N12152128WA0031200309001100024237265
B1954413727697N12152131WA0031300309001100027211247
B1954423727693N12152134WA0031400310001100029198224
B1954433727688N12152134WA0031600311001100028180212
B1954443727684N12152133WA0031700311001100028164196
B1954453727680N12152129WA0031500312001100035141181
B1954463727677N12152123WA0031400311001100037120151
B1954473727678N12152114WA0031300310001100040087125
B1954483727682N12152105WA0031300310001100038054083
B1954493727688N12152101WA0031400310001100034021042
B1954503727693N12152102WA0031400311001100033344006
B1954513727697N12152105WA0031500313001100030329331
B1954523727700N12152109WA0031700314001100027316318
B1954533727702N12152113WA0031900316001100022297307
B1954543727702N12152117WA0031900317001100017267291
B1954553727701N12152120WA0031900317001100019250268
B1954563727699N12152124WA0031900317001100026237255
B1954573727695N12152128WA0031900318001100033219243
B1954583727691N12152131WA0032100319001100030196226
B1954593727685N12152130WA0032200320001100035161207
B1955003727681N12152126WA0032100320001100039137171
B1955013727679N12152118WA0032000320001100040102145
B1955023727679N12152110WA0032000319001100041090101
B1955033727682N12152103WA0031900317001100039058087
B1955043727686N12152098WA0031900317001100040042048
B1955053727692N12152095WA0031900317001100038019030
B1955063727698N12152094WA0032000318001100035010005
B1955073727702N12152096WA0032100319001100023342356
B1955083727704N12152099WA0032000318001100020320326
B1955093727705N12152103WA0032000318001100020284307
B1955103727705N12152108WA0032000317001100025281278
B1955113727706N12152113WA0032000318001100029285274
B1955123727707N12152119WA0032100319001100027276269
B1955133727707N12152124WA0032100318001100026259260
B1955143727706N12152128WA0032000318001100027240251
B1955153727702N12152132WA0032100318001100028218236
B1955163727698N12152134WA0032100318001100029197220
B1955173727693N12152134WA0032200318001100029172203
B1955183727689N12152132WA0032300319001100031150181
B1955193727686N12152127WA0032300319001100034131159
B1955203727683N12152121WA0032500319001100035113136
B1955213727682N12152114WA0032600320001100034097115
B1955223727683N12152107WA0032500320001100031080094
B1955233727686N12152102WA0032400321001100030059071
B1955243727691N12152099WA0032400321001100033032045
B1955253727697N12152099WA0032500322001100033000016
B1955263727703N12152100WA0032600322001100031350345
B1955273727707N12152102WA0032600324001100027326336
B1955283727709N12152107WA0032700324001100027303314
B1955293727711N12152112WA0032700324001100027289296
B1955303727712N12152118WA0032800324001100027271285
B1955313727711N12152123WA0032500324001100028256271
B1955323727709N12152128WA0032400324001100029233259
B1955333727704N12152131WA0032300323001100031208241
B1955343727698N12152132WA0032300322001100032187219
B1955353727692N12152130WA0032300321001100040158200
B1955363727687N12152126WA0032200320001100038146168
B1955373727683N12152121WA0032200320001100036126156
B1955383727681N12152115WA0032300320001100036111130
B1955393727680N12152108WA0032300320001100035096110
B1955403727680N12152101WA0032500321001100036084093
B1955413727681N12152095WA0032500321001100035068077
B1955423727684N12152089WA0032600321001100037050057
B1955433727689N12152086WA0032700322001100035026038
B1955443727694N12152084WA0032800323001100032005010
B1955453727699N12152085WA0032900324001100029351350
B1955463727703N12152087WA0032900325001100026333334
B1955473727706N12152089WA0033000326001100024327315
B1955483727709N12152092WA0033000326001100024317305
B1955493727711N12152096WA0033000327001100022300291
B1955503727712N12152100WA0033100327001100023278281
B1955513727712N12152104WA0033100327001100024252262
B1955523727710N12152108WA0033000327001100026230247
B1955533727706N12152112WA0032800327001100028215227
B1955543727702N12152114WA0032800326001100032197218
B1955553727697N12152114WA0032800326001100034179200
B1955563727691N12152112WA0032600325001100039153183
B1955573727686N12152107WA0032700324001100039139157
B1955583727683N12152100WA0032500323001100039118141
B1955593727684N12152091WA0032600322001100039084119
B1956003727685N12152084WA0032700323001100037071075
B1956013727688N12152078WA0032600324001100037063058
B1956023727691N12152072WA0032600323001100038055045
B1956033727695N12152066WA0032500323001100040043031
B1956043727700N12152062WA0032500322001100040031020
B1956053727706N12152059WA0032600322001100040015010
B1956063727712N12152059WA0032700322001100038003355
B1956073727716N12152061WA0033000324001100025338343
B1956083727718N12152064WA0033000325001100017315320
B1956093727720N12152067WA0033100325001100016296300
B1956103727720N12152071WA0033000325001100020281286
B1956113727721N12152076WA0032800325001100026269274
B1956123727721N12152081WA0032800325001100031263267
B1956133727720N12152087WA0033100326001100032264272
B1956143727719N12152093WA0033300327001100029269283
B1956153727720N12152098WA0033400329001100024287290
B1956163727722N12152102WA0033500330000100021299284
B1956173727724N12152105WA0033500331000100021300291
B1956183727725N12152108WA0033300331000100022300291
B1956193727727N12152112WA0033000329000100026297291
B1956203727729N12152117WA0032700326000100031305298
B1956213727733N12152122WA0032600324000100035316308
B1956223727737N12152126WA0032400323000100039327314
B1956233727743N12152129WA0032400323000100039333314
B1956243727749N12152131WA0032500323000100037338318
B1956253727754N12152134WA0032500323000100032336315
B1956263727758N12152136WA0032500322000100030327308
B1956273727762N12152140WA0032500322000100034320306
B1956283727766N12152144WA0032500321000100040321310
B1956293727771N12152149WA0032500322000100041326317
B1956303727776N12152152WA0032500323000100038333277
B1956313727781N12152155WA0032800326000100034333297
B1956323727785N12152158WA0033000327000100031321296
B1956333727789N12152162WA0033200329000100027310291
B1956343727791N12152166WA0033200330000100026302281
B1956353727793N12152170WA0033300331000100027296273
B1956363727794N12152175WA0033500332000100027276267
B1956373727794N12152180WA0033500333000100027258248
B1956383727790N12152184WA0033500334000100029220231
B1956393727785N12152185WA0033500335000100029188206
B1956403727779N12152181WA0033400335000100042148177
B1956413727774N12152174WA0033700335000100042129140
B1956423727773N12152165WA0033800336000100040094120
B1956433727775N12152157WA0033800336000100039076084
B1956443727779N12152151WA0033900337000100036054063
B1956453727785N12152149WA0034000338000100032011038
B1956463727791N12152150WA0034100338000100030344354
B1956473727795N12152153WA0034100339000100029323329
B1956483727797N12152157WA0034200339000100027300310
B1956493727798N12152163WA0034300340000100027281292
B1956503727798N12152168WA0034400342000100022255277
B1956513727797N12152171WA0034500343000100019240257
B1956523727794N12152174WA0034400343000100019222247
B1956533727792N12152175WA0034300343000100021209229
B1956543727787N12152177WA0034200343000100030203219
B1956553727782N12152179WA0034300343000100030198207
B1956563727778N12152180WA0034400343000100028189200
B1956573727773N12152179WA0034500344000100025174193
B1956583727770N12152178WA0034400343000100024170182
B1956593727766N12152177WA0034200341000100026166170
B1957003727762N12152176WA0033900339000100033161162
B1957013727756N12152172WA0033800337000100041151141
B1957023727750N12152166WA0033500335000100044137129
B1957033727746N12152158WA0033400334000100045122123
B1957043727743N12152150WA0033400333000100045110113
B1957053727741N12152141WA0033200332000100044104100
B1957063727740N12152133WA0033200330000100046107099
B1957073727737N12152124WA0032900328000100049112102
B1957083727734N12152116WA0032900327000100052115100
B1957093727731N12152107WA0033000328000100048114102
B1957103727728N12152100WA0033200329000100042116102
B1957113727725N12152093WA0033200330000100036118102
B1957123727723N12152088WA0033100331000100035116107
B1957133727721N12152082WA0033000330000100036115107
B1957143727718N12152076WA0032800328000100040119108
B1957153727715N12152069WA0032700327000100042121108
B1957163727712N12152063WA0032700327000100039120107
B1957173727709N12152057WA0032700327000100036118106
B1957183727706N12152051WA0032600326000100035116106
B1957193727704N12152044WA0032500324000100038116105
B1957203727701N12152038WA0032300323000100041115107
B1957213727699N12152030WA0032200322000100045112102
B1957223727696N12152022WA0032300321000100046110108
B1957233727694N12152014WA0032400320000100046109105
B1957243727691N12152007WA0032500321000100043111111
B1957253727689N12152000WA0032700322000100040115113
B1957263727686N12151994WA0032800324000100037118128
B1957273727683N12151988WA0032900325000100032121141
B1957283727681N12151984WA0032800325000100029126151
B1957293727678N12151980WA0032700325000100027133149
B1957303727675N12151977WA0032300325000100029139134
B1957313727670N12151974WA0032200324000100037140123
B1957323727665N12151969WA0032100323000100043134121
B1957333727660N12151963WA0032100322000100042127115
B1957343727657N12151956WA0032200322000100039122116
B1957353727655N12151950WA0032100322000100036116110
B1957363727652N12151944WA0032100321000100038111101
B1957373727651N12151937WA0032000320000100041104085
B1957383727650N12151929WA0032000319000100043096078
B1957393727650N12151921WA0032000319000100043087075
B1957403727651N12151913WA0032000318000100042079069
B1957413727652N12151905WA0031900318000100041074060
B1957423727654N12151897WA0031900317000100043070056
B1957433727657N12151889WA0031900317000100047068053
B1957443727660N12151881WA0031900316000100048066050
B1957453727663N12151873WA0031900317000100045064042
B1957463727666N12151865WA0031900317000100041060038
B1957473727669N12151859WA0031900317000100038056039
B1957483727672N12151853WA0031800316000100038055048
B1957493727676N12151847WA0031700315000100041056055
B1957503727679N12151840WA0031600315000100043062065
B1957513727682N12151833WA0031600314000100044074084
B1957523727683N12151825WA0031700314000100043083100
B1957533727682N12151817WA0031800314000100041091121
B1957543727681N12151810WA0031900315000100038102127
B1957553727679N12151804WA0031900315000100032115124
B1957563727676N12151800WA0031800315000100029124140
B1957573727673N12151796WA0031700314000100032127118
B1957583727670N12151791WA0031500313000100037123124
B1957593727667N12151785WA0031500313000100037117107
B1958003727665N12151779WA0031600313000100033112109
B1958013727663N12151773WA0031700313000100030104111
B1958023727662N12151767WA0031700313000100030109118
B1958033727661N12151762WA0031600312000100034110115
B1958043727659N12151755WA0031400311000100038109115
B1958053727657N12151748WA0031400310000100040106113
B1958063727656N12151741WA0031600310000100040105120
B1958073727654N12151734WA0031600311000100035111134
B1958083727652N12151728WA0031600311000100032120141
B1958093727649N12151723WA0031600311000100032127136
B1958103727646N12151719WA0031400311000100033128139
B1958113727643N12151714WA0031400310000100034130136
B1958123727640N12151709WA0031300310000100033134141
B1958133727636N12151705WA0031200309000100034135142
B1958143727633N12151700WA0031100309000100033134140
B1958153727629N12151696WA0031100309001100030138145
B1958163727626N12151693WA0031100309001100029144146
B1958173727622N12151690WA0031100309001100028150140
B1958183727619N12151687WA0031100309001100029148147
B1958193727615N12151684WA0030900307001100031142140
B1958203727611N12151680WA0030800305001100034136128
B1958213727608N12151675WA0030700305000100035132134
B1958223727604N12151670WA0030600304000100034128131
B1958233727601N12151665WA0030600304000100034127141
B1958243727598N12151660WA0030500303000100033131142
B1958253727594N12151656WA0030300302000100034138151
B1958263727591N12151652WA0030300301000100034143160
B1958273727586N12151648WA0030200301000100033150175
B1958283727582N12151646WA0030100300000100031161194
B1958293727578N12151645WA0030100300000100028175214
B1958303727574N12151646WA0030000299000100023202218
B1958313727572N12151649WA0029800298000100021223232
B1958323727570N12151652WA0029700296000100022232237
B1958333727568N12151656WA0029500294000100025233232
B1958343727566N12151660WA0029300292000100025231235
B1958353727564N12151664WA0029200290000100026231237
B1958363727562N12151668WA0029000289000100027242251
B1958373727560N12151673WA0029000288000100028251253
B1958383727559N12151678WA0029000287000100028257245
B1958393727558N12151683WA0029100288000100025258240
B1958403727558N12151688WA0029200289000100022258253
B1958413727557N12151692WA0029300290000100022260256
B1958423727557N12151696WA0029400291000100023266260
B1958433727557N12151700WA0029600293000100021277257
B1958443727557N12151704WA0029600294000100020279270
B1958453727558N12151708WA0029700295000100021272251
B1958463727558N12151712WA0029700295000100023262232
B1958473727557N12151717WA0029700295000100023248230
B1958483727555N12151720WA0029800295000100022227212
B1958493727552N12151722WA0029700295000100022207193
B1958503727547N12151720WA0029700294000100030153179
B1958513727543N12151714WA0029600294000100040127141
B1958523727541N12151706WA0029600293000100045100114
B1958533727543N12151697WA0029600292000100047073085
B1958543727546N12151689WA0029600291000100044055057
B1958553727552N12151685WA0029600290000100037022036
B1958563727558N12151686WA0029500290000100035349001
B1958573727563N12151688WA0029500289000100033335329
B1958583727566N12151692WA0029400289000100027320315
B1958593727568N12151696WA0029300288000100022302302
B1959003727569N12151699WA0029200288000100019291280
B1959013727569N12151703WA0029200286000100022278272
B1959023727570N12151708WA0029100285000100026281268
B1959033727571N12151713WA0029100285000100027284273
B1959043727572N12151718WA0029400286000100027290275
B1959053727574N12151722WA0029600287000100026295284
B1959063727576N12151726WA0029800289000100022307295
B1959073727578N12151729WA0029900290000100018315290
B1959083727581N12151731WA0029800291000100017316283
B1959093727583N12151733WA0029700291000100019305275
B1959103727584N12151737WA0029600290000100023289248
B1959113727584N12151742WA0029500290000100024270236
B1959123727583N12151746WA0029500291000100020247228
B1959133727581N12151749WA0029400290000100020221210
B1959143727577N12151748WA0029200289000100021176199
B1959153727571N12151743WA0029100288000100036140174
B1959163727568N12151737WA0029100287000100038122138
B1959173727566N12151729WA0029100286000100042094120
B1959183727567N12151720WA0028900285000100042079086
B1959193727571N12151713WA0028700284001100040049067
B1959203727577N12151709WA0028800284001100037038031
B1959213727583N12151709WA0028900284001100032003017
B1959223727587N12151711WA0028800283001100026344337
B1959233727589N12151715WA0028800284001100022314318
B1959243727591N12151720WA0028800284001100022297291
B1959253727593N12151724WA0028900284001100022295284
B1959263727594N12151728WA0028900285001100023306284
B1959273727597N12151731WA0029000286001100025319297
B1959283727600N12151734WA0028900286001100025325303
B1959293727603N12151737WA0028800285001100026320302
B1959303727607N12151741WA0028700283001100028316287
B1959313727609N12151745WA0028600282001100028308277
B1959323727612N12151749WA0028400281001100028298275
B1959333727614N12151754WA0028400280001100030292266
B1959343727615N12151760WA0028500279001100030292256
B1959353727616N12151765WA0028700280001100028291261
B1959363727617N12151769WA0028800280001100020289261
B1959373727618N12151772WA0028800280001100017279260
B1959383727618N12151776WA0028800280001100021274259
B1959393727618N12151780WA0028800280001100023272265
B1959403727618N12151784WA0028800282001100022274268
B1959413727618N12151788WA0028800281001100020280265
B1959423727619N12151791WA0028800281001100020282271
B1959433727620N12151795WA0028700280001100021283268
B1959443727621N12151799WA0028600279001100024283224
B1959453727622N12151804WA0028500279001100025281259
B1959463727622N12151808WA0028400278001100023279265
B1959473727623N12151812WA0028200277001100022278265
B1959483727624N12151817WA0028000275001100024281261
B1959493727625N12151821WA0027800272001100026280258
B1959503727625N12151826WA0027700271001100029269246
B1959513727624N12151832WA0027600270001100030263239
B1959523727623N12151837WA0027600269001100029262242
B1959533727622N12151843WA0027500269001100027257248
B1959543727621N12151847WA0027500268001100025256243
B1959553727620N12151852WA0027300267001100027251233
B1959563727618N12151857WA0027200266001100031244230
B1959573727616N12151863WA0027100264001100035242234
B1959583727613N12151869WA0027000264001100034243227
B1959593727611N12151874WA0026900264001100030240223
B2000003727608N12151879WA0027000263001100028228215
B2000013727605N12151882WA0026900263001100028218225
B2000023727602N12151885WA0026800263001100027217221
B2000033727599N12151889WA0026700262001100027225226
B2000043727596N12151892WA0026600260001100029229221
B2000053727593N12151896WA0026400259001100030225218
B2000063727589N12151900WA0026400258001100028217211
B2000073727586N12151903WA0026200257000100027216217
B2000083727583N12151906WA0026000255000100027219224
B2000093727580N12151909WA0025800253000100028227232
B2000103727577N12151913WA0025600251000100029230217
B2000113727574N12151917WA0025600250000100029228232
B2000123727571N12151921WA0025700250000100027226231
B2000133727569N12151924WA0025600250000100023228229
B2000143727566N12151928WA0025600249000100021233225
B2000153727564N12151931WA0025300248000100022233227
B2000163727562N12151934WA0025100247000100025228221
B2000173727558N12151938WA0025000245000100033221212
B2000183727555N12151943WA0024900244000100033224225
B2000193727551N12151947WA0024900243000100029227223
B2000203727548N12151951WA0024800243000100025225215
B2000213727545N12151954WA0024600242000100024219217
B2000223727542N12151956WA0024400240000100025210213
B2000233727539N12151959WA0024200237000100030207212
B2000243727534N12151962WA0024000236000100035210215
B2000253727530N12151965WA0024000234000100035213221
B2000263727526N12151969WA0023900234000100032219228
B2000273727523N12151973WA0023800233000100026226226
B2000283727520N12151976WA0023600231000100025228228
B2000293727518N12151980WA0023300229000100025229209
B2000303727515N12151983WA0022900226000100027219208
B2000313727511N12151987WA0022700223000100034209205
B2000323727507N12151990WA0022600222000100033207203
B2000333727501N12151992WA0022700220000100033203189
B2000343727496N12151994WA0022700220000100030204227
B2000353727493N12151996WA0022700220000100023207213
B2000363727489N12151998WA0022500219000100021200211
B2000373727486N12151999WA0022300218000100024191210
B2000383727482N12151999WA0022100216000100030189195
B2000393727477N12152000WA0021800214000100034192220
B2000403727472N12152002WA0021800213000100032198221
B2000413727468N12152004WA0021700212000100028201225
B2000423727464N12152005WA0021600212000100026198206
B2000433727460N12152007WA0021500211000100024195211
B2000443727456N12152008WA0021300208000100025193213
B2000453727453N12152009WA0021100205000100028195194
B2000463727449N12152011WA0021100204000100030195191
B2000473727444N12152012WA0021200202000100028193193
B2000483727440N12152013WA0021300202000100028192219
B2000493727436N12152014WA0021400203000100023194246
B2000503727433N12152016WA0021300203000100021209266
B2000513727431N12152018WA0021100202000100022226274
B2000523727431N12152022WA0020900202001100017257288
B2000533727434N12152025WA0021000202000100017307301
B2000543727440N12152026WA0021000201001100023357317
B2000553727445N12152022WA0021100201000100027030343
B2000563727449N12152018WA0021100201000100027038008
B2000573727453N12152014WA0020900200000100027035007
B2000583727457N12152011WA0020500197000100025025355
B2000593727461N12152009WA0020200195001100031022003
B2001003727465N12152007WA0019900193001100033026005
B2001013727470N12152004WA0019800191001100032028007
B2001023727474N12152001WA0019600189001100029022007
B2001033727478N12152000WA0019400187001100023011356
B2001043727481N12152002WA0019100184001100019331341
B2001053727481N12152007WA0018900182001100021268306
B2001063727479N12152013WA0018800179001100024239264
B2001073727474N12152017WA0018700178001100026213244
B2001083727469N12152018WA0018600176001100027196225
B2001093727465N12152020WA0018400175001100025193212
B2001103727461N12152021WA0018200172001100025201221
B2001113727457N12152023WA0018000170001100027221228
B2001123727455N12152027WA0018000169001100027232247
B2001133727453N12152032WA0018100170000100024246257
B2001143727452N12152036WA0017900170001100018263281
B2001153727453N12152038WA0018000169001100011284276
B2001163727453N12152040WA0018000169001100000284015
B2001173727453N12152040WA0018000169001100000284226
B2001183727453N12152041WA0018000169001100000284240
B2001193727454N12152041WA0018000169001100000284248
B2001203727454N12152040WA0018000168001100000284253
B2001213727453N12152040WA0018000169000100000284242
B2001223727453N12152040WA0018000169000100000284250
B2001233727453N12152040WA0018000169001100000284253
B2001243727453N12152040WA0018000169001100000284257
B2001253727453N12152040WA0018000169001100000284293
B2001263727453N12152040WA0018000169001100000284291
B2001273727453N12152040WA0018000169000100000284288
B2001283727453N12152040WA0018000169000100000284286
B2001293727453N12152040WA0018000169000100000284284
B2001303727453N12152040WA0018000169000100000284273
B2001313727453N12152040WA0018000169001100000284273
B2001323727453N12152040WA0018000169001100000284274
B2001333727453N12152040WA0018000169001100000284274
B2001343727453N12152040WA0018000169001100000284275
B2001353727453N12152040WA0018000169001100000284279
B2001363727453N12152040WA0018000169001100000284279
B2001373727453N12152040WA0018100169001100000284279
B2001383727453N12152040WA0018000169001100000284279
B2001393727453N12152040WA0018000169001100000284278
B2001403727453N12152040WA0018000169001100000284278
B2001413727453N12152040WA0018000169001100000284278
B2001423727453N12152040WA0018000169001100000284278
B2001433727453N12152040WA0018000169001100000284278
B2001443727453N12152040WA0018000169001100000284278
B2001453727453N12152040WA0018000169001100000284278
B2001463727453N12152040WA0018000169001100000284278
B2001473727453N12152040WA0018000169001100000284278
B2001483727453N12152040WA0018000169001100000284278
GX01rjpDq5eWj14XoBvk9Yl9BaJrb8UDjl1+jHpniJsLqEyrQV9h2J8AekkXvvR4z
GsuMpP4BDQ5HTh3aT+fjwTpY5Zg1VMYS3aRActNH+VyMvFaLjMRulIhWbuP3BMPEi
GMkVdvsd02LHFELf3USnud4vbR/trDH/omiozMuDS1/s=

