AXFH000
HFDTE310724
HFPLTPILOT:Scott O’Brien
HFGTYGLIDERTYPE:BGD Epic M
HFDTM100GPSDATUM:WGS84
HFRFWFIRMWAREVERSION:8.2.4
HFRHWHARDWAREVERSION:Unknown device (iPhone15,4)
HFFTYFRTYPE:Flyskyhy,8.2.4
HFGPS:Internal
HFPRSVARIO:Internal Vario
HFCCLCOMPETITIONCLASS:Paraglider
HFTZNTIMEZONE:-7
HFSITSITE:Mission Ridge (Fremont- San Jose),US
I053638FXA3941VXA4244GSP4547CCO4850HDT
C310724190439310724000108TASK
C0000000N00000000ETAKEOFF
C3920440N12241116W00015009999999000000360000STARTAREA POTLAU
C3922249N12241405W00000000001000000000360000TURNAREA SNOWVL
C3920978N12239724W00000000000400000000360000TURNAREA POTLZ
C3920095N12241882W00000000000400000000360000TURNAREA TOP
C3922264N12241989W00000000001000000000360000TURNAREA SNOWLO
C3920983N12238798W00000000001000000000360000TURNAREA TROUGH
C3920095N12241882W00000000000400000000360000TURNAREA TOP
C3925826N12241497W00000000005000000000360000TURNAREA STJOHN
C3920440N12241116W00000000001500000000360000TURNAREA POTLAU
C3920978N12239724W00000000000400000000360000FINISHAREA POTLZ
C0000000N00000000ELANDING
E190510PEVBackground
B1905103731056N12153510WA0058400584005010003194034
B1905113731056N12153510WA0058400584005010005215039
B1905123731055N12153510WA0058400584005010005221046
B1905133731054N12153511WA0058400584005010005209067
B1905143731054N12153511WA0058400584005010004208118
B1905153731053N12153511WA0058400583005010001137103
B1905163731053N12153510WA0058400583005010004108034
B1905173731053N12153510WA0058300583005010004103035
B1905183731053N12153509WA0058300583005010001003044
B1905193731053N12153509WA0058300583005010001043309
B1905203731053N12153509WA0058300583005010001018318
B1905213731053N12153509WA0058300583005010001047039
B1905223731053N12153509WA0058300583005010002205049
B1905233731053N12153510WA0058300583005010001143041
B1905243731053N12153510WA0058300583005010001053024
B1905253731053N12153510WA0058300583005010001289242
B1905263731052N12153510WA0058300583005010005205316
B1905273731052N12153511WA0058300583005010006219344
B1905283731051N12153512WA0058300583005010009224230
B1905293731049N12153514WA0058300583005010014216214
B1905303731047N12153515WA0058300583005010019206188
B1905313731044N12153517WA0058300582005010020199202
B1905323731041N12153518WA0058300582005010018198232
B1905333731039N12153520WA0058200582005010021210233
B1905343731036N12153522WA0058200582005010023220250
B1905353731033N12153525WA0058100582005010022227265
B1905363731032N12153529WA0058100581005010019244287
B1905373731031N12153532WA0058000581005010018263295
B1905383731031N12153535WA0058000581005010020282322
B1905393731032N12153539WA0058000580005010022303318
B1905403731035N12153542WA0058000580005010024313315
B1905413731038N12153545WA0057900580005010023320318
B1905423731041N12153547WA0057900579005010023322326
B1905433731044N12153550WA0057900579005010025320335
B1905443731048N12153553WA0057800579005010027320346
B1905453731051N12153556WA0057700578005010029323348
B1905463731055N12153559WA0057700578005010029331347
B1905473731059N12153560WA0057700578005010024342348
B1905483731062N12153561WA0057700577005010020345351
B1905493731065N12153562WA0057700577005010020333353
B1905503731069N12153564WA0057700576005010024329355
B1905513731072N12153566WA0057700576005010028330355
B1905523731076N12153569WA0057700575005010028330356
B1905533731080N12153571WA0057600575005010026328357
B1905543731083N12153574WA0057500575005010023326357
B1905553731086N12153576WA0057400574005010023323357
B1905563731089N12153579WA0057300574005010024321358
B1905573731092N12153582WA0057300574005010026322358
B1905583731095N12153585WA0057300573005010027323358
B1905593731098N12153588WA0057300573005010027324359
B1906003731101N12153591WA0057200572005010027322359
B1906013731104N12153594WA0057100572005010026320359
B1906023731107N12153597WA0057100572005010024322359
B1906033731110N12153600WA0057000571005010023320359
B1906043731113N12153602WA0056900571005010024321359
B1906053731116N12153605WA0056800570005010025326359
B1906063731119N12153607WA0056700570005010026329359
B1906073731123N12153610WA0056700569005010024328359
B1906083731126N12153612WA0056600569005010022319359
B1906093731128N12153615WA0056500568005010023310359
B1906103731130N12153619WA0056400568005010024308359
B1906113731133N12153622WA0056300567005010023312359
B1906123731135N12153625WA0056300566005010022312359
B1906133731137N12153628WA0056100566005010022306359
B1906143731139N12153632WA0056000565005010024304359
B1906153731141N12153636WA0055900564005010023307359
B1906163731144N12153639WA0055900564005010024311359
B1906173731146N12153642WA0055800563005010022315359
B1906183731149N12153645WA0055700562005010023321359
B1906193731152N12153648WA0055700562005010025323359
B1906203731156N12153650WA0055600561005010028326359
B1906213731160N12153653WA0055500561005010032333359
B1906223731164N12153655WA0055500561005010032336359
B1906233731169N12153657WA0055500561005010027338359
B1906243731172N12153659WA0055500561005010023337359
B1906253731175N12153661WA0055500561005010022328359
B1906263731178N12153663WA0055600561005010028327359
B1906273731182N12153666WA0055700562005010030325359
B1906283731186N12153669WA0055800562005010028333359
B1906293731189N12153671WA0055900562005010020332359
B1906303731191N12153673WA0056000562005010017332359
B1906313731193N12153675WA0056000562005010018318359
B1906323731196N12153677WA0056100562005010026330359
B1906333731200N12153680WA0056100563005010030331355
B1906343731204N12153682WA0056100563005010030336356
B1906353731208N12153684WA0056100563005010026335356
B1906363731211N12153686WA0056000563005010024334357
B1906373731214N12153688WA0056000563005010022331358
B1906383731218N12153690WA0056000563005010024333355
B1906393731221N12153692WA0056000563005010026335350
B1906403731225N12153694WA0056000563005010026337350
B1906413731228N12153696WA0056000563005010024339353
B1906423731232N12153697WA0056000563005010022340354
B1906433731235N12153698WA0056000563005010022338354
B1906443731239N12153700WA0055900563005010025337352
B1906453731243N12153702WA0055800562005010030339350
B1906463731248N12153703WA0055700562005010036346347
B1906473731253N12153704WA0055500562005010033348333
B1906483731258N12153706WA0055400561005010030346340
B1906493731263N12153708WA0055200561005010031334344
B1906503731267N12153710WA0055100561005010033332348
B1906513731272N12153713WA0055000560005010035336351
B1906523731277N12153716WA0055000560005010036338352
B1906533731282N12153718WA0054900559005010034338352
B1906543731287N12153721WA0054800559005010032335355
B1906553731291N12153723WA0054700558005010030335356
B1906563731295N12153725WA0054700558005010030335357
B1906573731299N12153727WA0054600557005010031338355
B1906583731304N12153729WA0054600557005010032339355
B1906593731308N12153731WA0054600557005010034341356
B1907003731313N12153733WA0054600556005010033337356
B1907013731317N12153736WA0054700556005010030335356
B1907023731321N12153738WA0054800556005010029337357
B1907033731325N12153740WA0054900557005010028336357
B1907043731329N12153742WA0055000556005010027337357
B1907053731333N12153744WA0055100556005010031333358
B1907063731338N12153746WA0055100556005010036336358
B1907073731343N12153749WA0055100556005010033338358
B1907083731347N12153751WA0055100556005010029333358
B1907093731351N12153754WA0055000555005010030327358
B1907103731355N12153757WA0054900555005010030315358
B1907113731358N12153762WA0054900555005010032314359
B1907123731362N12153766WA0054900555005010031320359
B1907133731365N12153769WA0055000556005010027324359
B1907143731368N12153772WA0055100556005010024322359
B1907153731371N12153775WA0055300557005010021314359
B1907163731372N12153778WA0055300557005010020305359
B1907173731373N12153781WA0055500557005010020284359
B1907183731372N12153785WA0055700558005010019238000
B1907193731369N12153787WA0055800558005010025188000
B1907203731365N12153786WA0055800558005010033152000
B1907213731360N12153783WA0055800559005010029150000
B1907223731357N12153778WA0055800559005010035097000
B1907233731356N12153772WA0055900560010019034090000
B1907243731356N12153765WA0056000561010019036092000
B1907253731355N12153758WA0056100563010019033099359
B1907263731354N12153752WA0056200564010019038105359
B1907273731351N12153747WA0056300564010019031163359
B1907283731347N12153747WA0056300565010019023186359
B1907293731344N12153748WA0056200565010019021216359
B1907303731342N12153751WA0056100566005010020243359
B1907313731342N12153754WA0056000567005010014253356
B1907323731342N12153756WA0055900567005010014293356
B1907333731343N12153759WA0055800567010019019321355
B1907343731347N12153761WA0055800568010019024325356
B1907353731351N12153763WA0055700568010019026318357
B1907363731355N12153767WA0055700569010019027312357
B1907373731359N12153771WA0055800569010019027311357
B1907383731363N12153775WA0055900569005010024312358
B1907393731366N12153778WA0056000570005010020311358
B1907403731369N12153781WA0056100570005010018308358
B1907413731371N12153784WA0056200570005010019311358
B1907423731374N12153787WA0056300571005010021309358
B1907433731376N12153790WA0056300571005010019292358
B1907443731377N12153793WA0056200570005010017253358
B1907453731376N12153796WA0056100570005010022211358
B1907463731373N12153798WA0056000570005010027187000
B1907473731369N12153797WA0056000570005010034153000
B1907483731365N12153793WA0055900569005010036135000
B1907493731362N12153787WA0055900570005010039113000
B1907503731361N12153781WA0055900572005010033111000
B1907513731359N12153775WA0055900573010019034112000
B1907523731357N12153771WA0056000574010019026130000
B1907533731354N12153767WA0056100576010019029135000
B1907543731351N12153763WA0056200577010019032140000
B1907553731347N12153760WA0056300578010019028147000
B1907563731344N12153758WA0056300579010019023142359
B1907573731341N12153755WA0056300580010019022138359
B1907583731339N12153753WA0056300581010019023142000
B1907593731337N12153751WA0056300582010019019146359
B1908003731334N12153749WA0056300582010019020162359
B1908013731332N12153749WA0056300583010019024170000
B1908023731328N12153749WA0056200583010019029161000
B1908033731324N12153747WA0056100583010019026146359
B1908043731320N12153745WA0055900584010019025152359
B1908053731317N12153743WA0055800584010019024161359
B1908063731314N12153742WA0055700585010019022168000
B1908073731311N12153742WA0055600585010019021163000
B1908083731308N12153741WA0055600584010019022160000
B1908093731305N12153740WA0055500584010019023160000
B1908103731303N12153740WA0055500584010019024162000
B1908123731300N12153739WA0055500583010019024165000
B1908133731293N12153737WA0055400583010019029162000
B1908143731289N12153736WA0055300583010019029168359
B1908163731285N12153735WA0055300582010019028170359
B1908173731277N12153734WA0055200581010019026166359
B1908183731274N12153733WA0055200580010019024163359
B1908193731271N12153732WA0055100579010019023166359
B1908203731268N12153731WA0055100578010019023171359
B1908223731264N12153731WA0055000578010019024172359
B1908243731257N12153731WA0054900576005010026180359
B1908253731251N12153732WA0054700574005010026179359
B1908263731247N12153732WA0054600574005010029177000
B1908273731242N12153732WA0054600573005010031173000
B1908293731238N12153731WA0054500572005010031168000
B1908303731233N12153729WA0054500571005010029161000
B1908313731229N12153727WA0054400570005010029155000
B1908323731225N12153725WA0054400570005010030155000
B1908343731217N12153720WA0054300569005010030157000
B1908363731207N12153716WA0054000566010019036171359
B1908373731202N12153715WA0053800565010019040175000
B1908383731196N12153714WA0053600564010019041169000
B1908393731190N12153712WA0053500564010019039155000
B1908403731185N12153708WA0053500563010019038153000
B1908413731180N12153705WA0053500563010019034149000
B1908423731175N12153702WA0053500563010019031148000
B1908433731171N12153699WA0053700563010019029155000
B1908443731167N12153696WA0053800562010019030157000
B1908453731163N12153692WA0053800562010019027146000
B1908463731160N12153689WA0053900562010019025144000
B1908473731157N12153686WA0054100562010019024137000
B1908483731154N12153682WA0054200562010019025141000
B1908493731150N12153678WA0054400563010019028143000
B1908503731147N12153675WA0054500563010019029144000
B1908513731143N12153672WA0054600563010019027145000
B1908523731140N12153669WA0054700564010019028146000
B1908533731136N12153666WA0054700564010019030149000
B1908543731132N12153663WA0054700564010019031152359
B1908553731128N12153661WA0054700564010019031162000
B1908563731123N12153660WA0054600564010019031170000
B1908573731119N12153659WA0054500564010019031169000
B1908583731114N12153658WA0054400564010019028165000
B1908593731110N12153657WA0054300564010019030162359
B1909003731106N12153655WA0054200563005010033164359
B1909013731101N12153655WA0054100562010019034183359
B1909023731096N12153655WA0054100561010019034186359
B1909033731091N12153656WA0053900560010019034183359
B1909043731086N12153656WA0053800559010019035180359
B1909053731081N12153656WA0053600558010019033177359
B1909063731077N12153656WA0053500557010019030174359
B1909073731073N12153655WA0053400557010019030172359
B1909083731069N12153655WA0053300556010019031172359
B1909093731064N12153654WA0053200555010019033173359
B1909103731059N12153654WA0053200554010019033179359
B1909113731055N12153654WA0053100553010019032184359
B1909123731050N12153655WA0053000552010019029186359
B1909133731046N12153656WA0052900551010019029184359
B1909143731042N12153656WA0052900551010019029183359
B1909153731038N12153657WA0052900550010019029185359
B1909163731033N12153658WA0052800549010019029189359
B1909173731029N12153659WA0052800548010019028188359
B1909183731025N12153660WA0052700547005010028189359
B1909193731022N12153660WA0052600546005010029192359
B1909203731017N12153662WA0052600546005010032195359
B1909213731013N12153663WA0052500545005010030192359
B1909223731009N12153664WA0052400545005010025190359
B1909233731005N12153665WA0052400545005010024189359
B1909243731002N12153666WA0052400545005010023189359
B1909253730998N12153667WA0052500545005010025190359
B1909263730995N12153668WA0052500545005010027190000
B1909273730990N12153669WA0052500545005010029189000
B1909283730986N12153670WA0052300545005010031190000
B1909293730982N12153672WA0052100544005010029193359
B1909303730978N12153673WA0051900544005010026196359
B1909313730974N12153675WA0051800543005010026195359
B1909323730970N12153676WA0051600543005010029188000
B1909333730966N12153677WA0051600543005010033174000
B1909343730961N12153675WA0051600543005010029164000
B1909353730957N12153673WA0051600543005010028161000
B1909363730953N12153671WA0051700544005010025155000
B1909373730949N12153669WA0051700545005010026154000
B1909383730945N12153667WA0051800545010019028154000
B1909393730941N12153664WA0051900546010019034152000
B1909403730936N12153660WA0051900546010019035149000
B1909413730931N12153657WA0051900546010019035149000
B1909423730926N12153653WA0051800546010019035148000
B1909433730922N12153649WA0051700546010019035147000
B1909443730917N12153645WA0051600546010019036151000
B1909453730912N12153642WA0051600546010019037153000
B1909463730907N12153639WA0051500546010019033148000
B1909473730903N12153636WA0051500546010019033148000
B1909483730899N12153632WA0051600547005010030144000
B1909493730896N12153629WA0051600547005010026136000
B1909503730893N12153625WA0051700548005010026137359
B1909513730890N12153622WA0051800548010019027140359
B1909523730886N12153619WA0051800549010019027147359
B1909533730883N12153616WA0051700549010019026152359
B1909543730880N12153614WA0051700548010019026153359
B1909553730877N12153612WA0051600548010019023152359
B1909563730874N12153610WA0051500547010019023157359
B1909573730872N12153609WA0051300546010019025165359
B1909583730868N12153608WA0051100546010019026171359
B1909593730864N12153609WA0050800545010019027174359
B1910003730859N12153610WA0050700545010019027176359
B1910013730856N12153611WA0050500544010019029188359
B1910023730851N12153613WA0050500543010019033191359
B1910033730845N12153616WA0050400541010019034192359
B1910043730840N12153618WA0050300539010019032194359
B1910053730836N12153621WA0050200538010019031199359
B1910063730831N12153624WA0050000536010019032200359
B1910073730826N12153626WA0049900533010019032198359
B1910083730822N12153629WA0049700531010019032197359
B1910093730817N12153631WA0049500529010019032198359
B1910103730812N12153634WA0049300527010019035202359
B1910113730807N12153637WA0049000524010019036198359
B1910123730802N12153639WA0049000522010019035193359
B1910133730797N12153641WA0048800520010019035194359
B1910143730792N12153643WA0048600518010019035197359
B1910153730787N12153645WA0048500517010019036196359
B1910163730782N12153647WA0048300516010019036195359
B1910173730777N12153648WA0048300514010019035193359
B1910183730772N12153649WA0048300513010019034187359
B1910193730767N12153650WA0048200511010019033186359
B1910203730762N12153651WA0048200510010019032187359
B1910213730757N12153652WA0048200509010019031186359
B1910223730752N12153652WA0048100508010019031185359
B1910233730747N12153653WA0048000506010019031184359
B1910243730743N12153654WA0047800505010019032187359
B1910253730738N12153655WA0047600504010019032188359
B1910263730733N12153656WA0047400502010019031190359
B1910273730729N12153657WA0047200501010019030189359
B1910283730724N12153658WA0047200500010019030189359
B1910293730719N12153659WA0047000499010019032191359
B1910303730714N12153660WA0046800497010019036189359
B1910313730708N12153661WA0046500495010019042196359
B1910323730703N12153663WA0046200494010019039196359
B1910333730697N12153665WA0045900493010019038196359
B1910343730692N12153667WA0045700492010019036195359
B1910353730687N12153669WA0045600491010019035195359
B1910363730682N12153671WA0045500490010019035194359
B1910373730677N12153672WA0045400489010019034198359
B1910383730672N12153674WA0045200488010019035201359
B1910393730668N12153677WA0045000487010019034209359
B1910403730664N12153680WA0044800486010019030217359
B1910413730661N12153684WA0044600485010019030218359
B1910423730658N12153688WA0044500484010019030216359
B1910433730655N12153692WA0044300483010019030216359
B1910443730652N12153696WA0044100482010019031218359
B1910453730650N12153698WA0044000480005010030214359
B1910463730647N12153701WA0044000479005010030214359
B1910473730643N12153703WA0043800478005010030213359
B1910483730639N12153705WA0043600476005010031202359
B1910493730635N12153707WA0043400474005010035203359
B1910503730631N12153709WA0043300472005010036206359
B1910513730626N12153711WA0043100470005010034206359
B1910523730622N12153713WA0043000468005010034204359
B1910533730618N12153715WA0042800466005010034203359
B1910543730614N12153717WA0042700464005010036205359
B1910553730609N12153720WA0042600462005010037204359
B1910563730605N12153722WA0042500459005010035199359
B1910573730600N12153723WA0042400457005010034193359
B1910583730595N12153725WA0042300455005010035191359
B1910593730589N12153726WA0042200452005010039190359
B1911003730583N12153727WA0042100450005010039187000
B1911013730577N12153727WA0042000448005010038177000
B1911023730572N12153726WA0041900447005010039172000
B1911033730566N12153726WA0041900446005010033174000
B1911043730561N12153725WA0041900445005010033172359
B1911053730555N12153725WA0041800444005010036173359
B1911063730550N12153724WA0041800442005010034178359
B1911073730544N12153725WA0041700441005010035184000
B1911083730539N12153726WA0041600439005010038188359
B1911093730533N12153727WA0041400438005010036180359
B1911103730528N12153727WA0041200437005010034173359
B1911113730523N12153726WA0041100435005010032168359
B1911123730518N12153726WA0041100434005010036167359
B1911133730513N12153724WA0041000433005010038167359
B1911143730508N12153722WA0040800432005010037174359
B1911153730502N12153722WA0040700431005010042185359
B1911163730497N12153723WA0040600430005010037179000
B1911173730491N12153723WA0040400428005010034176000
B1911183730486N12153724WA0040200427005010036173359
B1911193730480N12153723WA0040100425005010037186359
B1911203730475N12153724WA0040100422005010041191359
B1911213730469N12153726WA0039900421005010040190359
B1911223730463N12153727WA0039700418005010038184000
B1911233730457N12153727WA0039500416005010036175000
B1911243730452N12153726WA0039300414005010035171000
B1911253730446N12153725WA0039200412005010035169000
B1911263730441N12153725WA0039100410005010036171000
B1911273730435N12153724WA0038900409005010036174000
B1911283730430N12153724WA0038800407005010035170000
B1911293730424N12153723WA0038700405005010034165000
B1911303730419N12153721WA0038600404005010033160000
B1911313730414N12153720WA0038500403005010032159000
B1911323730409N12153718WA0038400401005010034158000
B1911333730404N12153716WA0038400400005010035162000
B1911343730399N12153714WA0038300400005010037163000
B1911353730394N12153712WA0038300399005010032159000
B1911363730389N12153710WA0038300399005010030157359
B1911373730385N12153708WA0038400399005010029153359
B1911383730381N12153706WA0038400398005010031155359
B1911393730377N12153703WA0038400398005010031159359
B1911403730372N12153702WA0038500398005010029172359
B1911413730368N12153702WA0038500398005010027187359
B1911423730364N12153703WA0038400397005010026194359
B1911433730360N12153705WA0038400397005010024196359
B1911443730357N12153706WA0038300397005010024204359
B1911453730354N12153709WA0038300396005010025218358
B1911463730351N12153711WA0038300396010019021222005
B1911473730349N12153714WA0038300396010019017239012
B1911483730348N12153717WA0038200396010019019242014
B1911493730347N12153720WA0038200395010019017235014
B1911593730320N12153671WA0038100286034096029252359
B1912003730343N12153707WA0038100403029064029280357
B1912013730344N12153708WA0038100386017032026312355
B1912023730351N12153706WA0038100375017032025346357
B1912033730355N12153711WA0038100385016032024007359
B1912043730359N12153707WA0038100385013024024023009
B1912053730363N12153700WA0038100380009016025029010
B1912063730365N12153695WA0038200380006008027042026
B1912073730366N12153691WA0038200382004006029059030
B1912083730367N12153685WA0038300381004006029086041
B1912093730365N12153678WA0038300381004004036108042
B1912103730364N12153670WA0038400381004004046101045
B1912113730360N12153663WA0038400382005006046113046
B1912123730353N12153659WA0038500383007008045136327
B1912133730349N12153670WA0038500384006008045226334
B1912143730345N12153674WA0038500384005008034212340
B1912153730343N12153676WA0038500383004006034241343
B1912163730351N12153660WA0038500367010019016188346
B1912173730348N12153660WA0038600368010019016195350
B1912183730345N12153660WA0038600369010019016186354
B1912193730342N12153661WA0038700369010019017198355
B1912203730339N12153663WA0038700370010019021221358
B1912213730336N12153666WA0038700369010019021222359
B1912223730333N12153669WA0038700368010019018230010
B1912233730329N12153681WA0038700367010019006230015
B1912243730329N12153684WA0038600366010019003064017
B1912253730329N12153685WA0038600366010019009084015
B1912263730329N12153685WA0038600366010019011087013
B1912273730329N12153685WA0038700365010019013099009
B1912283730329N12153683WA0038700365010019014098008
B1912293730329N12153682WA0038800365010019014090007
B1912303730329N12153680WA0038800365010019012090007
B1912313730329N12153678WA0038900365010019013092007
B1912323730329N12153676WA0039000365010019014092007
B1912333730337N12153671WA0039000368010019014103007
B1912343730341N12153666WA0039000371010019016121354
B1912353730342N12153661WA0039100372010019017131356
B1912363730341N12153655WA0039100373010019018134357
B1912373730337N12153649WA0039100375010019017138359
B1912383730335N12153646WA0039100376050095017139357
B1912393730334N12153644WA0039100376050095016142007
B1912403730332N12153642WA0039200376030057016144013
B1912463730321N12153646WA0039600339017024039210352
B1912473730308N12153643WA0039600378009016037235356
B1912483730313N12153645WA0039700371008016031303358
B1912493730312N12153646WA0039800389005008017345355
B1912503730314N12153646WA0039800393004006018001352
B1912523730316N12153646WA0039800395004006018003352
B1912533730318N12153646WA0039900396004006018008353
B1912543730321N12153644WA0040000396004004018027002
B1912553730324N12153641WA0040000396004004025042019
B1912563730327N12153638WA0040100397004004025040022
B1912573730329N12153632WA0040100399004004025070030
B1912583730330N12153625WA0040100400004004038082030
B1912593730329N12153619WA0040200402004004039107033
B1913003730328N12153611WA0040200403004004039096034
B1913013730322N12153608WA0040200401004004039134037
B1913023730316N12153607WA0040300404004004044159330
B1913033730310N12153607WA0040500405004006044189339
B1913043730306N12153608WA0040600407004006029200345
B1913053730302N12153609WA0040700409004006029190348
B1913063730300N12153611WA0040800408004006023207353
B1913073730297N12153612WA0040900408005008017208355
B1913083730295N12153614WA0041100409007012017213357
B1913093730299N12153618WA0041200409008012025299357
B1913103730300N12153621WA0041200408009016025296003
B1913113730303N12153620WA0041200407012016021333013
B1913123730313N12153609WA0041200408010016030042016
B1913133730315N12153599WA0041100409007012039059012
B1913143730290N12153602WA0041100395010019018095012
B1913153730290N12153601WA0041100395010019019085007
B1913163730291N12153599WA0041100394010019019076005
B1913173730292N12153599WA0041200393010019020075003
B1913183730294N12153597WA0041300392010019019071003
B1913193730295N12153595WA0041400393010019017068001
B1913203730298N12153591WA0041600391010019017061001
B1913213730302N12153587WA0041800391010019022046357
B1913223730308N12153584WA0041900390010019026020337
B1913233730317N12153581WA0042000391010019028348326
B1913243730323N12153580WA0042100392005010028323320
B1913253730326N12153581WA0042100396005010031285320
B1913263730326N12153586WA0042000395005010034258324
B1913273730322N12153588WA0041900397010019042196030
B1913283730315N12153587WA0041900401010019039174335
B1913293730311N12153584WA0041900407010019029166341
B1913303730307N12153583WA0042000411010019027165346
B1913313730303N12153581WA0042200414010019031173348
B1913323730298N12153580WA0042400416010019033173351
B1913333730293N12153580WA0042700418010019034178353
B1913343730288N12153580WA0042900420010019031186355
B1913353730284N12153581WA0043100422010019023196356
B1913363730281N12153582WA0043200424010019022198357
B1913373730278N12153583WA0043200425010019023207358
B1913383730275N12153586WA0043300426010019023220359
B1913393730273N12153589WA0043300428010019017243359
B1913403730272N12153592WA0043300429010019015246011
B1913413730272N12153595WA0043200431010019013263015
B1913423730272N12153597WA0043100432030057009280018
B1913433730273N12153598WA0043000434030057007329017
B1913443730274N12153598WA0043000435030057009033015
B1913453730280N12153596WA0043000436010019007097009
B1913463730283N12153590WA0043000435010019023104005
B1913473730286N12153581WA0043000434010019031090002
B1913483730287N12153570WA0043100435010019029089002
B1913493730288N12153560WA0043200433010019031067357
B1913503730294N12153553WA0043400433010019027049346
B1913513730298N12153546WA0043600432010019022023343
B1913523730301N12153544WA0043600431010019019336337
B1913533730303N12153547WA0043600430010019025297335
B1913543730304N12153552WA0043600430005010034269333
B1913553730302N12153557WA0043600430005010039222023
B1913563730298N12153561WA0043600431005010025206019
B1913573730294N12153560WA0043600432005010030162343
B1913583730289N12153558WA0043700433005010030153347
B1913593730285N12153555WA0043800434010019028157350
B1914003730281N12153553WA0044000435010019027160351
B1914013730277N12153551WA0044200436010019029164353
B1914023730273N12153550WA0044300436010019030173355
B1914033730269N12153550WA0044300437010019029176357
B1914043730265N12153550WA0044400437010019023186357
B1914053730261N12153551WA0044400438010019021202358
B1914063730259N12153553WA0044400439010019019228359
B1914073730257N12153556WA0044400439010019019239001
B1914083730256N12153559WA0044400440010019019242010
B1914093730256N12153562WA0044300440010019013269014
B1914103730256N12153564WA0044300440010019007287013
B1914113730257N12153564WA0044100441010019010017011
B1914123730259N12153563WA0044000441010019019043006
B1914133730261N12153560WA0043900442010019022057003
B1914143730263N12153557WA0043900442010019021059003
B1914153730264N12153553WA0043900442010019022066004
B1914163730267N12153549WA0043900442010019023048349
B1914173730272N12153544WA0043900441010019021033337
B1914183730279N12153541WA0044000440010019017009335
B1914193730285N12153541WA0044000439010019020323333
B1914203730291N12153540WA0044100438010019023291334
B1914213730294N12153540WA0044100438010019028274334
B1914223730294N12153544WA0044100437010019031246334
B1914233730292N12153548WA0044100437005010030226022
B1914243730287N12153549WA0044100437005010038186015
B1914263730282N12153547WA0044100438005010035167011
B1914273730274N12153540WA0044200439010019037132006
B1914283730271N12153534WA0044300439010019038124005
B1914303730269N12153528WA0044400440010019038121004
B1914313730266N12153521WA0044500441010019041120003
B1914323730259N12153507WA0044400442010019044124003
B1914333730255N12153501WA0044400442010019045132002
B1914343730251N12153495WA0044400443010019042138002
B1914353730246N12153490WA0044400443010019040141001
B1914363730241N12153485WA0044400444010019037141001
B1914373730237N12153481WA0044500444010019032141001
B1914383730234N12153478WA0044600445010019030143358
B1914393730230N12153474WA0044700445010019031145359
B1914403730226N12153471WA0044700445010019035150359
B1914413730221N12153469WA0044700445010019031177359
B1914433730217N12153470WA0044700446010019026195359
B1914443730211N12153474WA0044500445010019025206359
B1914453730208N12153476WA0044400445010019024194359
B1914473730205N12153477WA0044400445010019026184359
B1914483730201N12153478WA0044400445010019026180000
B1914503730193N12153477WA0044400446010019029170359
B1914513730189N12153476WA0044400446010019029171359
B1914523730184N12153476WA0044400446010019029175359
B1914533730180N12153476WA0044400446010019026180359
B1914543730177N12153476WA0044400446010019025185359
B1914553730173N12153477WA0044400446010019023193359
B1914563730170N12153478WA0044500446010019022199359
B1914573730167N12153479WA0044500446010019019205358
B1914583730166N12153479WA0044500446005010012210002
B1914593730165N12153481WA0044500447005010010248009
B1915003730165N12153484WA0044500447005010004281000
B1915013730167N12153484WA0044500447005010006029355
B1915023730172N12153481WA0044500446005010018032340
B1915033730177N12153478WA0044500445005010019035342
B1915043730181N12153476WA0044500445005010016015334
B1915053730185N12153475WA0044500445005010014346342
B1915063730188N12153476WA0044600444005010017329343
B1915073730193N12153478WA0044600444005010022317345
B1915083730196N12153481WA0044500444005010023310347
B1915093730200N12153485WA0044400443005010023300351
B1915103730202N12153489WA0044200443005010022298352
B1915113730205N12153492WA0044100443005010022302354
B1915123730207N12153496WA0043900442005010022309356
B1915133730211N12153498WA0043700442005010027326356
B1915143730216N12153501WA0043600441005010027326356
B1915153730219N12153504WA0043500440005010024318357
B1915163730222N12153507WA0043400440005010019308357
B1915173730224N12153510WA0043400439005010016305358
B1915183730225N12153512WA0043400439005010015305358
B1915193730227N12153515WA0043300439005010019302358
B1915203730229N12153518WA0043200438005010024304359
B1915213730232N12153522WA0043100438005010024310359
B1915223730234N12153525WA0043000437005010019312359
B1915233730236N12153528WA0042900437005010017311359
B1915243730238N12153530WA0042800437005010017313359
B1915253730240N12153533WA0042700436005010016315359
B1915263730242N12153535WA0042700436005010019317359
B1915273730245N12153538WA0042600435005010022320359
B1915283730248N12153540WA0042400434005010021318359
B1915293730250N12153543WA0042300433005010019318359
B1915303730253N12153545WA0042200432005010017324359
B1915313730255N12153547WA0042100431005010018327359
B1915323730258N12153549WA0042000431005010020332359
B1915333730261N12153551WA0041900430005010021337358
B1915343730264N12153552WA0041900429005010022344355
B1915353730268N12153553WA0041800428005010022353351
B1915363730271N12153553WA0041700428005010021355351
B1915373730274N12153553WA0041700427005010019000348
B1915383730277N12153553WA0041600426005010019003350
B1915393730280N12153553WA0041600425005010021009354
B1915403730283N12153552WA0041500424005010021012347
B1915413730286N12153551WA0041500424005010023023329
B1915423730289N12153549WA0041400423005010021025334
B1915433730291N12153548WA0041300422005010017358325
B1915443730293N12153549WA0041300421005010017318331
B1915453730295N12153552WA0041200421005010018311331
B1915463730296N12153555WA0041200420005010017290333
B1915473730296N12153559WA0041200420005010016263333
B1915483730295N12153563WA0041300419005010022230334
B1915493730292N12153566WA0041300419005010026216336
B1915503730288N12153569WA0041400418005010032198341
B1915513730282N12153570WA0041400418005010036183347
B1915523730277N12153571WA0041500418005010034187351
B1915533730272N12153572WA0041500417005010029194354
B1915543730268N12153574WA0041400417005010024212356
B1915553730265N12153578WA0041400417005010023231358
B1915563730264N12153581WA0041200416010019019246357
B1915573730263N12153585WA0041100416010019017269002
B1915583730264N12153587WA0040900416010019012303009
B1915593730265N12153588WA0040800415010019012003014
B1916003730269N12153586WA0040700415010019022034013
B1916013730272N12153582WA0040600414010019024042014
B1916023730275N12153579WA0040600413010019023041010
B1916033730279N12153575WA0040600413005010021039005
B1916043730283N12153572WA0040600412005010023036352
B1916053730286N12153569WA0040600411005010026027345
B1916063730290N12153567WA0040500410005010026015335
B1916073730295N12153567WA0040400409005010023355335
B1916083730298N12153567WA0040300408005010021340338
B1916093730302N12153569WA0040300408005010020336346
B1916103730304N12153570WA0040300408005010020337340
B1916113730307N12153571WA0040300407005010016339342
B1916123730309N12153573WA0040300407005010014333337
B1916133730311N12153574WA0040400407005010013333341
B1916143730313N12153575WA0040400407005010014337341
B1916153730316N12153576WA0040500406005010021338341
B1916163730320N12153577WA0040500406005010022341332
B1916173730323N12153579WA0040500405005010020345329
B1916183730326N12153580WA0040500405005010019344328
B1916193730329N12153581WA0040500405005010016340335
B1916203730331N12153582WA0040500405005010012320341
B1916213730331N12153584WA0040600405005010012291344
B1916223730332N12153587WA0040600405005010016282348
B1916233730333N12153591WA0040600404005010019290349
B1916243730335N12153595WA0040500404005010020295351
B1916253730336N12153598WA0040400403005010023298352
B1916263730338N12153602WA0040400402005010025300353
B1916273730341N12153607WA0040300402005010029298354
B1916283730343N12153612WA0040200401005010031292354
B1916293730344N12153618WA0040100401005010029288355
B1916303730345N12153623WA0040000400005010022278357
B1916313730346N12153626WA0040000400005010021279357
B1916323730347N12153630WA0039900399005010021283357
B1916333730348N12153633WA0039800399005010018291358
B1916343730349N12153637WA0039700398005010024288358
B1916353730350N12153642WA0039500397005010023289358
B1916363730351N12153645WA0039400396005010018286358
B1916373730352N12153649WA0039200395005010016280359
B1916383730352N12153652WA0039100394005010018277359
B1916393730352N12153656WA0039000393005010020281359
B1916403730353N12153660WA0039000392005010022286359
B1916413730354N12153664WA0038900391005010022274359
B1916423730354N12153668WA0038800390005010021258359
B1916433730353N12153672WA0038800390005010021255359
B1916443730352N12153676WA0038700389005010021256359
B1916453730351N12153680WA0038700389005010022259359
B1916463730351N12153684WA0038600388005010021272359
B1916473730351N12153688WA0038600388005010021276359
B1916483730351N12153692WA0038500387005010021285359
B1916493730353N12153695WA0038400386005010019305359
B1916503730356N12153696WA0038300386005010020323359
B1916513730360N12153698WA0038200385005010021328359
B1916523730363N12153700WA0038200384005010022322359
B1916533730366N12153702WA0038100383005010024320359
B1916543730369N12153705WA0038000382005010024321359
B1916553730372N12153708WA0038000382005010025319359
B1916563730374N12153711WA0038000381005010019316359
B1916573730375N12153714WA0038100381005010016315359
B1916583730377N12153716WA0038100380005010016307359
B1916593730379N12153719WA0038100380005010022309359
B1917003730381N12153723WA0038100379005010027294359
B1917013730382N12153728WA0038100379005010025279359
B1917023730382N12153732WA0038000379005010019271359
B1917033730382N12153735WA0038000379005010014267359
B1917043730381N12153738WA0038000379005010014266359
B1917053730382N12153741WA0038000379005010021274359
B1917063730383N12153746WA0037900378005010032291359
B1917073730385N12153752WA0037800378005010030296359
B1917083730386N12153756WA0037700378005010021292359
B1917093730387N12153759WA0037600378005010015291359
B1917103730388N12153761WA0037600378005010013287359
B1917113730389N12153764WA0037600378005010017296359
B1917123730390N12153768WA0037500377005010031285359
B1917133730391N12153775WA0037300377005010034287359
B1917143730392N12153780WA0037100376005010029280359
B1917153730393N12153786WA0037000376005010026281359
B1917163730394N12153790WA0036800375005010025281359
B1917173730395N12153795WA0036800374005010025288359
B1917183730397N12153799WA0036800374005010029293359
B1917193730399N12153804WA0036700373005010030290359
B1917203730400N12153810WA0036600373005010029281359
B1917213730401N12153815WA0036500372005010025274359
B1917223730401N12153820WA0036500372005010023270359
B1917233730400N12153824WA0036500372005010020256359
B1917243730399N12153827WA0036500372005010023225359
B1917253730395N12153830WA0036600371005010028200359
B1917263730390N12153831WA0036700371005010037186000
B1917273730384N12153831WA0036700370005010039174000
B1917283730379N12153830WA0036800370005010040162000
B1917293730373N12153827WA0036800370005010041150000
B1917303730367N12153823WA0036800369005010042134000
B1917313730363N12153816WA0036800369005010044119000
B1917323730360N12153809WA0036700368005010044104000
B1917333730359N12153800WA0036600368010019044088001
B1917343730361N12153793WA0036500368010019041072003
B1917353730363N12153786WA0036500369010019035053002
B1917363730367N12153782WA0036500369010019032035002
B1917373730371N12153779WA0036400369010019029015358
B1917383730375N12153777WA0036400369010019027006353
B1917393730379N12153777WA0036400369010019024355341
B1917403730383N12153777WA0036400368010019023342334
B1917413730386N12153779WA0036300368010019024327335
B1917423730390N12153782WA0036300367010019025316332
B1917433730393N12153785WA0036200367010019026307334
B1917443730395N12153790WA0036100366005010026296338
B1917453730397N12153794WA0036000366005010027290339
B1917463730398N12153799WA0036000365005010027284342
B1917473730398N12153804WA0036000365005010027272349
B1917483730398N12153809WA0036000365005010027268350
B1917493730398N12153814WA0036100366005010026268351
B1917503730398N12153819WA0036200366005010023274353
B1917513730399N12153823WA0036300366005010021278353
B1917523730399N12153827WA0036300366005010021281355
B1917533730400N12153831WA0036300366005010023279356
B1917543730400N12153835WA0036400366005010023275357
B1917553730401N12153840WA0036500367005010021275358
B1917563730401N12153843WA0036500367005010019279356
B1917573730402N12153847WA0036500367005010019280358
B1917583730403N12153849WA0036500368005010016303001
B1917593730404N12153852WA0036500368005010016299009
B1918003730406N12153854WA0036500368005010016338018
B1918013730409N12153853WA0036500369010019022019023
B1918023730412N12153850WA0036600369010019024046019
B1918033730415N12153846WA0036600369010019024055021
B1918043730417N12153841WA0036700370010019024057020
B1918053730419N12153837WA0036800370010019023061022
B1918063730421N12153833WA0036900370010019023073022
B1918073730421N12153829WA0037000370010019023084020
B1918083730421N12153824WA0037000370010019025096343
B1918093730418N12153816WA0037100369010019030114347
B1918103730414N12153808WA0037100369010019030119351
B1918113730411N12153801WA0037200368010019029122353
B1918123730406N12153795WA0037200368010019027145355
B1918133730401N12153791WA0037300368010019026162356
B1918143730395N12153789WA0037300368010019024166358
B1918153730391N12153787WA0037300368010019022174358
B1918163730388N12153787WA0037300367010019021178359
B1918173730385N12153787WA0037300367010019019182358
B1918183730382N12153787WA0037200367010019017188359
B1918193730379N12153787WA0037200367010019017186009
B1918203730374N12153794WA0037200367030057014171019
B1918213730371N12153802WA0037200367010019008177023
B1918223730369N12153802WA0037200367010019008162024
B1918233730369N12153807WA0037300366010019009141025
B1918243730368N12153809WA0037300366010019010126024
B1918253730373N12153808WA0037300366010019014082022
B1918263730377N12153806WA0037400365010019014093339
B1918273730379N12153803WA0037400365010019018109346
B1918283730379N12153799WA0037400365050095021118350
B1918363730402N12153807WA0037700381010016024068024
B1918373730404N12153802WA0037700382012016024068027
B1918383730398N12153791WA0037700386027024024104024
B1918393730399N12153790WA0037700380019024027090024
B1918403730401N12153782WA0037700381014024035101026
B1918413730389N12153777WA0037600361012016044131026
B1918423730381N12153775WA0037600364007012039151340
B1918433730371N12153776WA0037600362006012039181345
B1918443730365N12153775WA0037500372007012032200348
B1918453730358N12153774WA0037500411010024032215352
B1918463730355N12153784WA0037500393008024028222352
B1918473730354N12153791WA0037500380009024027226354
B1918483730352N12153794WA0037600379009024025237356
B1918493730354N12153802WA0037800379005012029260358
B1918503730355N12153808WA0037900375004006029288357
B1918513730358N12153811WA0038000373004006029336359
B1918523730362N12153812WA0038000373004004029002014
B1918533730366N12153811WA0037900372004004026017017
B1918543730367N12153806WA0037800372004003031072019
B1918553730368N12153802WA0037700371004003031092019
B1918563730369N12153797WA0037600371004003030067015
B1918573730367N12153791WA0037500371004004030098013
B1918583730367N12153785WA0037500370004004030102012
B1918593730368N12153795WA0037400380010019026104010
B1919003730367N12153790WA0037400380010019027115007
B1919013730364N12153779WA0037300380010019042116005
B1919023730361N12153770WA0037300378010019042101003
B1919033730360N12153761WA0037300379010019042094003
B1919043730359N12153753WA0037300380010019039093003
B1919053730358N12153745WA0037300378010019036093002
B1919063730358N12153738WA0037400378010019033092001
B1919073730357N12153732WA0037500378010019030090001
B1919083730356N12153726WA0037600376010019033083000
B1919093730356N12153719WA0037700375010019033079000
B1919103730357N12153713WA0037700374010019033074000
B1919113730358N12153707WA0037700373010019032068001
B1919123730360N12153701WA0037600371010019030056001
B1919133730363N12153697WA0037500370010019029035357
B1919143730367N12153695WA0037500369010019028006345
B1919153730371N12153696WA0037400369010019029339338
B1919163730374N12153699WA0037400369010019023311340
B1919173730376N12153702WA0037400369010019019305341
B1919183730377N12153704WA0037400370010019017300347
B1919193730377N12153707WA0037400371010019018285349
B1919203730378N12153711WA0037400371010019020281350
B1919213730378N12153714WA0037500371010019019271352
B1919223730378N12153718WA0037600371010019018270353
B1919233730379N12153721WA0037700371010019019276354
B1919243730379N12153725WA0037700371010019020283355
B1919253730379N12153728WA0037700371010019018269355
B1919263730379N12153731WA0037700371010019019251356
B1919273730378N12153735WA0037700371010019019251357
B1919283730377N12153738WA0037700371010019021263357
B1919293730377N12153742WA0037700371010019025275358
B1919303730378N12153747WA0037700372010019027281358
B1919313730378N12153752WA0037700372010019024273358
B1919323730378N12153756WA0037700372005010021268358
B1919333730378N12153760WA0037700372005010022269359
B1919343730378N12153765WA0037700372005010029279359
B1919353730379N12153771WA0037700373005010032280359
B1919363730380N12153776WA0037700373005010030284359
B1919373730381N12153781WA0037700374005010024287359
B1919383730382N12153785WA0037700375005010018286359
B1919393730383N12153788WA0037800376005010015287359
B1919403730384N12153791WA0037900376010019016295358
B1919413730385N12153793WA0038000377010019016309004
B1919423730387N12153795WA0038100378010019018321013
B1919433730389N12153796WA0038100379010019019352014
B1919443730393N12153796WA0038100380010019024007017
B1919453730397N12153793WA0038000381010019024051019
B1919463730398N12153789WA0037900382010019030080018
B1919473730399N12153782WA0037800383010019035096016
B1919483730397N12153776WA0037700383050095040113014
B1919493730394N12153768WA0037700383010019037124012
B1919503730390N12153761WA0037700383010019038130010
B1919513730385N12153754WA0037700383010019039138350
B1919523730381N12153749WA0037700383010019038144352
B1920023730357N12153759WA0037700372010012015350000
B1920033730360N12153758WA0037700371009012031019004
B1920043730364N12153757WA0037600368008012031025014
B1920053730367N12153755WA0037500371007008031024022
B1920063730371N12153752WA0037500369007008029042029
B1920073730373N12153745WA0037300369007008037062030
B1920083730371N12153738WA0037200369004006037081029
B1920093730370N12153731WA0037100372004006037105027
B1920103730368N12153725WA0037100374004004037110023
B1920113730365N12153720WA0037100375004004032125023
B1920123730362N12153714WA0037200375004004037130021
B1920133730357N12153710WA0037400375004004037149019
B1920143730352N12153708WA0037600377004003037168345
B1920153730347N12153706WA0037700377004004038161350
B1920163730341N12153708WA0037900375005006037189354
B1920173730340N12153714WA0038000379005008037215357
B1920183730337N12153718WA0038000380005008033232357
B1920193730342N12153720WA0038000378004006030340000
B1920203730345N12153720WA0038100379004004030018011
B1920213730349N12153717WA0038200380004004036042019
B1920223730351N12153711WA0038200382004003038068026
B1920233730351N12153705WA0038200383004003037101027
B1920243730350N12153699WA0038300384004003037106027
B1920253730344N12153695WA0038400382004004037139334
B1920263730340N12153691WA0038500382004006038144343
B1920273730335N12153689WA0038500381006008038155349
B1920283730332N12153691WA0038600377008012034177354
B1920293730337N12153700WA0038600375006008026292359
B1920303730338N12153701WA0038600378004006031016006
B1920313730340N12153701WA0038600381004006033033015
B1920323730343N12153698WA0038700383004004033048019
B1920333730345N12153693WA0038700385004004035053023
B1920343730348N12153688WA0038700386004006035050024
B1920353730350N12153681WA0038800388006006038067023
B1920363730343N12153674WA0038900391006006046103023
B1920373730336N12153671WA0039000394007008038124020
B1920383730330N12153669WA0039000398007012037147347
B1920393730325N12153667WA0039100402008016035150351
B1920403730322N12153668WA0039200398010016030157356
B1920413730315N12153677WA0039300387007012032194357
B1920423730317N12153684WA0039300391004006030308358
B1920433730318N12153687WA0039400393004006030331356
B1920443730321N12153688WA0039500394004004023003359
B1920453730324N12153688WA0039500396004006023003014
B1920463730327N12153686WA0039500396004006023030023
B1920473730329N12153679WA0039600396004006023058030
B1920483730330N12153673WA0039700396004006036075034
B1920493730330N12153667WA0039800398005006036085033
B1920503730320N12153663WA0039800397004004048137330
B1920513730315N12153662WA0039900396004004048180337
B1920523730310N12153663WA0040000396004003040193344
B1920533730305N12153665WA0040100396004003039207350
B1920543730301N12153668WA0040100396004003038223355
B1920553730300N12153672WA0040200397004003020265357
B1920563730299N12153675WA0040200397004003020265357
B1920573730302N12153677WA0040200397004003020344005
B1920583730306N12153676WA0040200396004003024013013
B1920593730310N12153673WA0040200398022003032045020
B1921003730312N12153668WA0040200400022003035073028
B1921013730312N12153662WA0040200400022003036099029
B1921023730310N12153656WA0040200400022003036121026
B1921033730308N12153651WA0040200399022003036136024
B1921043730302N12153648WA0040300397022003037164023
B1921053730297N12153647WA0040300396022003040172342
B1921063730291N12153647WA0040300395022003043185347
B1921073730285N12153647WA0040300395022003041187351
B1921083730281N12153651WA0040200394022003041222354
B1921093730278N12153655WA0040100395022003032239356
B1921103730276N12153659WA0040100394022004029245357
B1921113730279N12153663WA0040000392022003029310358
B1921123730280N12153666WA0039900391022003022318358
B1921133730282N12153668WA0039800390022003021325359
B1921143730285N12153671WA0039800390022004020329354
B1921153730289N12153670WA0039800387022003029357354
B1921163730293N12153671WA0039700387022003029348346
B1921173730296N12153673WA0039500387022003024342343
B1921183730299N12153674WA0039500386022003021341343
B1921193730302N12153676WA0039400385023003021332347
B1921203730305N12153679WA0039200384023003025325350
B1921213730308N12153682WA0039100385023004027319350
B1921223730311N12153684WA0039100385023003025333351
B1921233730314N12153685WA0038900386023004022338351
B1921243730317N12153687WA0038900385022004021330353
B1921253730320N12153690WA0038800385023004026321356
B1921263730315N12153695WA0038800361010019021325355
B1921273730318N12153697WA0038700361010019025328352
B1921283730322N12153699WA0038700361010019026343350
B1921293730326N12153700WA0038600361010019028355348
B1921303730332N12153700WA0038500361010019029356347
B1921313730337N12153700WA0038500361010019029349346
B1921323730341N12153701WA0038500361010019028347346
B1921333730346N12153702WA0038400362010019030342339
B1921343730350N12153704WA0038400362010019028342339
B1921353730354N12153705WA0038400362010019025342337
B1921363730357N12153706WA0038400362010019019356340
B1921373730360N12153706WA0038400362010019020359339
B1921383730363N12153706WA0038600363010019023352341
B1921393730366N12153707WA0038700363010019022349343
B1921403730369N12153707WA0038700364010019020339332
B1921413730371N12153708WA0038800365010019020338334
B1921423730373N12153710WA0038900365010019019337337
B1921433730375N12153711WA0039000366010019023331339
B1921443730378N12153713WA0039000366010019023327335
B1921453730381N12153715WA0039000367010019020325330
B1921463730383N12153718WA0039100368010019016318327
B1921473730384N12153720WA0039100369010019017301324
B1921483730384N12153723WA0039200370010019019271328
B1921493730384N12153727WA0039200370010019025270334
B1921503730384N12153732WA0039300371010019029267344
B1921513730384N12153737WA0039300371010019029264351
B1921523730384N12153742WA0039300372010019025284356
B1921533730385N12153746WA0039400372010019024283005
B1921543730386N12153750WA0039400372010019021287016
B1921553730387N12153753WA0039400372010019011329019
B1921563730389N12153752WA0039300372010019018031019
B1921573730392N12153749WA0039300373010019021040015
B1921583730396N12153743WA0039300374010019029064014
B1921593730400N12153736WA0039400375010019032073013
B1922003730402N12153729WA0039400375010019031077013
B1922013730403N12153722WA0039400375010019031084014
B1922023730403N12153713WA0039500376010019035100013
B1922033730402N12153705WA0039600376010019039115347
B1922043730398N12153697WA0039600376010019040119350
B1922053730395N12153689WA0039700375010019040122352
B1922063730390N12153681WA0039900375010019034127354
B1922073730385N12153676WA0039900376010019030185355
B1922083730379N12153677WA0039900376010019028205357
B1922093730375N12153680WA0040000375010019026226358
B1922103730372N12153684WA0040000374010019027230359
B1922113730370N12153690WA0040100374005010026257358
B1922123730369N12153695WA0040100374005010026257355
B1922133730368N12153700WA0040100374005010025258002
B1922143730368N12153705WA0040200374010019020257011
B1922153730367N12153709WA0040300374010019007304019
B1922163730368N12153710WA0040300373010019014049020
B1922173730370N12153707WA0040300373010019026063024
B1922183730373N12153702WA0040300373010019033067026
B1922193730376N12153695WA0040400373010019034080020
B1922203730377N12153689WA0040400372010019036081020
B1922213730378N12153681WA0040400371010019039084018
B1922223730379N12153669WA0040500372010019036096015
B1922233730380N12153660WA0040600371010019040113014
B1922243730378N12153653WA0040600370010019038121012
B1922253730376N12153644WA0040700371010019036127010
B1922263730373N12153638WA0040800372010019031139008
B1922273730370N12153634WA0040900373010019031142006
B1922283730366N12153629WA0041000373010019032145005
B1922293730362N12153625WA0041000374010019031141004
B1922303730358N12153622WA0041200375010019030137003
B1922313730354N12153618WA0041400376010019031141003
B1922323730350N12153615WA0041500376010019033156357
B1922333730344N12153613WA0041500377010019034170357
B1922343730338N12153612WA0041700379010019033177358
B1922353730332N12153613WA0041800380005010031173001
B1922363730327N12153613WA0041800381005010031160001
B1922373730322N12153611WA0041900382005010033151000
B1922383730317N12153609WA0042000383005010034144000
B1922393730314N12153605WA0042000384005010032141000
B1922403730310N12153601WA0042000384005010032142000
B1922413730306N12153598WA0041900384010019029153359
B1922423730302N12153596WA0041900384010019032168359
B1922433730297N12153595WA0041800384010019034179359
B1922443730292N12153596WA0041700384010019030193359
B1922453730289N12153598WA0041600384010019023230359
B1922463730286N12153602WA0041600385010019022233359
B1922473730284N12153607WA0041500385010019019258357
B1922483730284N12153611WA0041400385010019017293351
B1922493730285N12153614WA0041400386010019015331350
B1922503730289N12153617WA0041300386010019020340349
B1922513730292N12153619WA0041300386010019021351350
B1922523730297N12153621WA0041200386010019024346354
B1922533730301N12153623WA0041100385010019024346353
B1922543730306N12153625WA0041100385010019027342354
B1922553730311N12153627WA0041000385010019028344358
B1922563730316N12153630WA0040900384010019029349002
B1922573730321N12153630WA0040900384010019034354004
B1922583730326N12153631WA0040900384010019032358356
B1922593730329N12153631WA0040900384010019017355359
B1923003730331N12153631WA0041000384010019014354353
B1923013730333N12153632WA0041200384010019010344352
B1923023730335N12153632WA0041400385010019010347004
B1923033730339N12153630WA0041700385010019024007356
B1923043730343N12153629WA0041700385010019029358355
B1923053730348N12153629WA0041800386010019027002349
B1923063730352N12153628WA0042000387010019025000337
B1923073730355N12153628WA0042100387010019021358321
B1923083730358N12153628WA0042200389010019016350322
B1923093730360N12153628WA0042400389010019014349324
B1923103730362N12153630WA0042600390010019021306323
B1923113730363N12153633WA0042700391010019025287320
B1923123730363N12153637WA0042800392010019024256317
B1923133730361N12153640WA0042800393010019030217318
B1923143730356N12153642WA0042700395010019036192033
B1923153730351N12153641WA0042600397005010036171021
B1923163730346N12153637WA0042600399005010039147013
B1923173730343N12153631WA0042600401010019041124008
B1923183730340N12153624WA0042600402010019045106004
B1923193730340N12153616WA0042600402010019043084003
B1923203730342N12153608WA0042600403010019039073003
B1923213730344N12153602WA0042600404005010030052005
B1923223730348N12153598WA0042600405010019029027353
B1923233730352N12153597WA0042600406010019030008337
B1923243730357N12153597WA0042700407010019032349339
B1923253730361N12153599WA0042700408010019030332335
B1923263730364N12153602WA0042800410010019022314337
B1923273730366N12153605WA0042900411010019017290343
B1923283730367N12153609WA0042900412010019017286346
B1923293730367N12153612WA0043000413010019020274350
B1923303730367N12153616WA0043000414010019022286351
B1923313730368N12153620WA0043000415010019021289352
B1923323730369N12153624WA0043000416010019019288354
B1923333730371N12153627WA0043000417010019019290355
B1923343730372N12153630WA0043000418010019021298356
B1923353730374N12153634WA0043000419010019022299356
B1923363730375N12153637WA0043000419010019019292357
B1923373730376N12153641WA0043000420010019018286357
B1923383730377N12153644WA0043000421010019018284357
B1923393730377N12153647WA0043000422010019019275357
B1923403730377N12153651WA0043100423010019023258358
B1923413730375N12153655WA0043100424010019024244357
B1923423730373N12153658WA0043200425010019030220358
B1923433730368N12153661WA0043200426010019033202358
B1923443730363N12153663WA0043200425005010038192001
B1923453730357N12153664WA0043100425005010039177000
B1923463730351N12153662WA0042900424005010039160000
B1923473730346N12153659WA0042800423005010040145000
B1923483730341N12153654WA0042600422005010039134000
B1923493730337N12153649WA0042400421010019038128000
B1923503730334N12153642WA0042300420010019040119000
B1923513730331N12153635WA0042200419010019042106000
B1923523730330N12153627WA0042100419010019043090000
B1923533730331N12153619WA0042000418010019040076004
B1923543730333N12153613WA0042000418005010033058003
B1923553730336N12153609WA0042100417005010026034354
B1923563730339N12153607WA0042100417005010024006353
B1923573730343N12153607WA0042100417010019024342347
B1923583730346N12153609WA0042200417010019026327343
B1923593730349N12153612WA0042300416010019026317352
B1924003730352N12153616WA0042400416010019025317330
B1924013730354N12153618WA0042500416010019021326336
B1924023730357N12153621WA0042600416010019019328335
B1924033730359N12153623WA0042700416010019021321340
B1924043730362N12153626WA0042800415010019022308342
B1924053730364N12153629WA0042900415010019023299342
B1924063730365N12153633WA0042900415010019021290338
B1924083730365N12153637WA0042900414010019019278338
B1924093730362N12153643WA0042900414010019027225340
B1924113730357N12153645WA0042800413005010038197012
B1924123730351N12153646WA0042600413005010044173008
B1924133730339N12153638WA0042200412005010045127003
B1924153730336N12153631WA0042000412005010040120002
B1924163730334N12153624WA0041900412005010038098001
B1924173730335N12153616WA0041800412010019042082001
B1924183730337N12153608WA0041800412010019038071000
B1924193730339N12153601WA0041800412010019035055000
B1924203730343N12153595WA0041800412010019034038003
B1924213730348N12153592WA0041800412010019032023003
B1924223730352N12153590WA0041900412010019029012354
B1924233730356N12153589WA0041900412010019024004343
B1924243730360N12153589WA0042000412010019021349330
B1924253730363N12153590WA0042100412010019020322327
B1924263730365N12153594WA0042200412010019022295326
B1924273730365N12153598WA0042200412010019024270327
B1924283730364N12153603WA0042100412010019028238326
B1924293730361N12153606WA0042100411010019034212330
B1924303730356N12153609WA0042000411010019037190022
B1924313730350N12153609WA0041900411010019040171017
B1924323730344N12153607WA0041800411005010041157014
B1924333730338N12153603WA0041700411005010039151012
B1924343730333N12153599WA0041700411005010038151010
B1924353730328N12153596WA0041700411010019039151008
B1924363730318N12153589WA0041700412010019036151353
B1924373730313N12153585WA0041800412010019036153355
B1924383730308N12153582WA0041900412010019035156356
B1924393730303N12153580WA0042000413010019034166356
B1924403730299N12153579WA0042000413010019033170357
B1924413730294N12153578WA0042100413010019031175357
B1924423730289N12153578WA0042200414010019029174358
B1924433730285N12153577WA0042300414010019027166358
B1924443730281N12153576WA0042400414010019025164358
B1924453730278N12153574WA0042500415010019027161358
B1924463730274N12153573WA0042500415010019029159000
B1924473730269N12153571WA0042600415010019031158359
B1924483730265N12153569WA0042600415010019029158359
B1924493730261N12153567WA0042700415010019029157359
B1924503730257N12153565WA0042700416010019028158359
B1924513730253N12153565WA0042600416010019034195359
B1924523730249N12153567WA0042600416010019028212359
B1924533730246N12153570WA0042500416010019026221359
B1924543730243N12153574WA0042500416010019024227359
B1924553730241N12153577WA0042400416010019023222359
B1924563730239N12153580WA0042300415010019017242358
B1924573730238N12153583WA0042300415010019011250004
B1924593730238N12153585WA0042200415010019008283015
B1925003730241N12153589WA0042000415010019014349013
B1925013730244N12153588WA0041900415010019017049006
B1925023730249N12153584WA0041800415010019029048006
B1925033730255N12153580WA0041800414010019031044011
B1925043730261N12153575WA0041800414010019030041011
B1925053730268N12153570WA0041800413010019033035009
B1925063730274N12153565WA0041800413010019035032357
B1925083730280N12153561WA0041800412010019034024357
B1925093730285N12153559WA0041800412010019031011347
B1925103730289N12153558WA0041700412010019029355340
B1925113730295N12153559WA0041700411010019034350331
B1925123730300N12153560WA0041600410010019034352330
B1925133730305N12153561WA0041600410010019026338333
B1925143730308N12153563WA0041600410010019023329338
B1925153730311N12153566WA0041600410010019020307344
B1925163730313N12153569WA0041700410010019022302345
B1925173730315N12153573WA0041800410010019024309347
B1925183730317N12153576WA0041800410010019026311351
B1925193730320N12153580WA0041900410010019028313352
B1925203730323N12153584WA0042000410010019031312354
B1925213730325N12153589WA0042100410010019024293355
B1925223730327N12153593WA0042300410010019021301356
B1925233730328N12153596WA0042400410010019020306357
B1925243730330N12153599WA0042600411010019020314004
B1925253730332N12153601WA0042900411010019019324012
B1925263730334N12153602WA0043200411010019015358018
B1925273730336N12153601WA0043400412010019018035022
B1925283730338N12153599WA0043600412010019023035023
B1925293730340N12153596WA0043900412010019020056025
B1925303730341N12153592WA0044100412010019020086337
B1925313730341N12153588WA0044100412010019024109345
B1925323730339N12153582WA0044200413010019036111350
B1925333730336N12153575WA0044400413010019044116353
B1925343730330N12153562WA0044500413010019024124354
B1925353730327N12153557WA0044700414010019014150355
B1925363730324N12153554WA0044700414010019014153357
B1925373730321N12153551WA0044800414010019013151358
B1925383730318N12153548WA0045000415010019009148359
B1925393730317N12153547WA0045200415010019007138358
B1925403730307N12153560WA0045500415010019005168009
B1925413730307N12153565WA0045700415010019006271016
B1925423730307N12153566WA0045800415010019005316019
B1925433730311N12153566WA0045900415010019014010022
B1925443730315N12153565WA0045900415030057011058023
B1925453730317N12153562WA0045900415050095014113336
B1925463730319N12153551WA0045900416010019031125341
B1925473730317N12153541WA0045900417010019035141347
B1925483730313N12153533WA0046000417010019036148351
B1925493730308N12153528WA0046200417010019032152354
B1925553730296N12153556WA0046700466009012023021014
B1925563730302N12153548WA0046700467009012025050014
B1925583730308N12153548WA0046700473009016000359012
B1925593730307N12153541WA0046700473009016000359012
B1926003730301N12153525WA0046800468008012000359011
B1926013730293N12153518WA0046900466006012056131011
B1926023730285N12153513WA0046900471005008049151009
B1926033730280N12153509WA0047000473004008049162351
B1926043730275N12153507WA0047000472004006040166353
B1926053730271N12153505WA0047100473004006028155355
B1926063730267N12153504WA0047200473004008028163356
B1926073730264N12153503WA0047300470004008027176357
B1926083730259N12153505WA0047300466005008027196358
B1926093730255N12153511WA0047300466005008036216359
B1926103730259N12153519WA0047200462005008038296358
B1926113730261N12153520WA0047100462004008036336000
B1926123730265N12153522WA0046900466004006033343356
B1926133730267N12153520WA0046800465004006026033351
B1926143730270N12153519WA0046700465004006019011345
B1926153730272N12153518WA0046700462005006019015346
B1926163730276N12153518WA0046600460005006019004342
B1926173730279N12153518WA0046600459007008023004348
B1926183730282N12153520WA0046600461007008023345339
B1926193730286N12153521WA0046500461009008021355334
B1926203730280N12153523WA0046400454010019023352335
B1926213730283N12153523WA0046400455010019019346333
B1926223730285N12153524WA0046300455010019015330343
B1926233730287N12153525WA0046300456010019016316346
B1926243730289N12153528WA0046300456010019015298346
B1926253730290N12153530WA0046300456010019015298347
B1926263730291N12153533WA0046200455010019014296350
B1926273730292N12153535WA0046200455010019014290352
B1926283730293N12153538WA0046100454010019018289353
B1926293730294N12153542WA0046000454010019019296355
B1926303730296N12153545WA0046000454010019019305356
B1926313730298N12153548WA0046000454010019019310354
B1926323730300N12153551WA0046000453010019021305355
B1926333730301N12153554WA0046000453010019019295356
B1926343730302N12153557WA0046000452005010015279357
B1926353730302N12153560WA0046000452010019015278357
B1926363730303N12153563WA0045900452010019019287358
B1926373730304N12153566WA0045800451010019022297358
B1926383730306N12153570WA0045700451010019025298358
B1926393730308N12153574WA0045700450010019024299358
B1926403730310N12153578WA0045600450010019021303359
B1926413730312N12153581WA0045400450010019022308359
B1926423730314N12153584WA0045300449010019022313359
B1926433730317N12153587WA0045200449010019022317359
B1926443730319N12153590WA0045100448010019022312359
B1926453730322N12153592WA0045000448010019021311359
B1926463730323N12153595WA0044900448010019019301359
B1926473730325N12153598WA0044800447010019020305359
B1926483730327N12153601WA0044700447010019021308359
B1926493730329N12153604WA0044500446010019025307359
B1926503730332N12153608WA0044300445010019026303359
B1926513730334N12153612WA0044100445010019026304359
B1926523730337N12153616WA0044000444010019024309359
B1926533730340N12153619WA0043800443010019024314359
B1926543730342N12153622WA0043700442010019025317359
B1926553730346N12153626WA0043500441010019027312359
B1926563730348N12153630WA0043400440010019029304359
B1926573730351N12153635WA0043400439010019030296359
B1926583730352N12153640WA0043200437010019030293359
B1926593730354N12153646WA0043100436010019029292359
B1927003730355N12153651WA0043000435010019028289359
B1927013730358N12153661WA0042900433010019030283359
B1927023730359N12153667WA0042800431010019028278359
B1927033730359N12153672WA0042700429010019028272359
B1927043730359N12153678WA0042500427010019028269359
B1927053730358N12153684WA0042400424010019030266359
B1927063730358N12153690WA0042200422010019030262359
B1927073730357N12153695WA0042000421010019026254359
B1927083730355N12153700WA0041800419010019025247359
B1927093730353N12153704WA0041700418010019027242359
B1927103730351N12153709WA0041500416010019030246359
B1927113730350N12153714WA0041300414010019030264359
B1927123730351N12153720WA0041100413010019031276359
B1927133730352N12153726WA0040900411010019030283359
B1927143730353N12153731WA0040700409010019028281359
B1927153730354N12153737WA0040500407010019029281359
B1927163730355N12153743WA0040500405010019033289359
B1927173730357N12153749WA0040400404005010035290359
B1927183730359N12153755WA0040200402005010031281359
B1927193730359N12153760WA0040000401005010026272359
B1927203730359N12153765WA0039900399005010023274359
B1927213730360N12153769WA0039800397005010023272359
B1927223730361N12153774WA0039700395005010034291359
B1927233730362N12153781WA0039500394005010036285359
B1927243730364N12153787WA0039300392005010031282359
B1927253730365N12153792WA0039100391005010026281359
B1927263730366N12153797WA0038900389005010023282359
B1927273730367N12153802WA0038700388005010025281359
B1927283730368N12153806WA0038600387005010026282359
B1927293730369N12153811WA0038500386005010026282359
B1927303730369N12153816WA0038400384005010025283359
B1927313730370N12153821WA0038300383005010025284359
B1927323730372N12153826WA0038200382005010027285359
B1927333730373N12153830WA0038200380005010026285359
B1927343730374N12153835WA0038100379005010023284359
B1927353730374N12153839WA0038000377005010021273359
B1927363730375N12153843WA0037900376005010019282359
B1927373730375N12153846WA0037700375005010021276359
B1927383730376N12153851WA0037600373005010027287359
B1927393730378N12153856WA0037400371005010032294359
B1927403730380N12153861WA0037200369005010033292359
B1927413730381N12153867WA0036900368005010031284359
B1927423730382N12153873WA0036600366005010029277359
B1927433730383N12153878WA0036300364005010028274359
B1927443730384N12153883WA0036100362005010028282359
B1927453730385N12153889WA0035900360005010031284359
B1927463730386N12153895WA0035700357005010033283359
B1927473730387N12153900WA0035400355005010031282359
B1927483730388N12153906WA0035200353005010029286359
B1927493730390N12153911WA0034900350005010027287359
B1927503730391N12153916WA0034900348005010028293359
B1927513730393N12153921WA0034700346005010034290359
B1927523730395N12153927WA0034500344005010033285359
B1927533730396N12153933WA0034400344005010029281359
B1927543730397N12153938WA0034300344005010025287359
B1927553730399N12153942WA0034200343005010020293359
B1927563730400N12153945WA0034200343005010018299359
B1927573730402N12153948WA0034300343005010019300359
B1927583730404N12153951WA0034500342005010019295359
B1927593730405N12153954WA0034600342005010016282359
B1928003730405N12153957WA0034700342005010016267359
B1928013730404N12153960WA0034700341005010020250359
B1928023730403N12153964WA0034700341005010022253359
B1928033730402N12153968WA0034600340005010025255359
B1928043730400N12153973WA0034400340010019026256359
B1928053730400N12153977WA0034200340010019025256359
B1928063730399N12153982WA0034100339010019025256359
B1928073730398N12153987WA0033900339010019026259359
B1928083730398N12153992WA0033900338010019026261359
B1928093730397N12153997WA0033700338010019026264359
B1928103730397N12154001WA0033600337010019024266359
B1928113730397N12154006WA0033500337010019023276359
B1928123730398N12154009WA0033300336010019022280359
B1928133730399N12154013WA0033200336010019022283359
B1928143730400N12154017WA0033000335010019022283359
B1928153730401N12154021WA0032900334010019022281359
B1928163730402N12154025WA0032700332010019023281359
B1928173730402N12154029WA0032500331010019024279359
B1928183730403N12154034WA0032300329005010025278359
B1928193730403N12154038WA0032100328005010025278359
B1928203730404N12154043WA0031900326005010024277359
B1928213730404N12154047WA0031700325005010024275359
B1928223730404N12154052WA0031500323005010024278359
B1928233730405N12154057WA0031300322005010025282359
B1928243730406N12154061WA0031300320005010025282359
B1928253730406N12154066WA0031100318005010023277359
B1928263730406N12154070WA0030900317005010022273359
B1928273730407N12154074WA0030700315005010021275359
B1928283730407N12154078WA0030500313005010022276359
B1928293730408N12154082WA0030300311005010024286359
B1928303730409N12154086WA0030100309005010025292359
B1928313730411N12154090WA0029900307005010026294359
B1928323730412N12154094WA0029600305005010024292359
B1928333730413N12154099WA0029400304005010023288359
B1928343730414N12154103WA0029300302005010023279359
B1928353730414N12154107WA0029100300005010023280359
B1928363730415N12154112WA0029000299005010024280359
B1928373730416N12154116WA0028800297005010024283359
B1928383730417N12154120WA0028600296005010024281359
B1928393730417N12154125WA0028400294005010024278359
B1928403730418N12154130WA0028200292005010024275359
B1928413730418N12154135WA0028000290005010024274359
B1928423730418N12154140WA0028000288005010024272359
B1928433730418N12154145WA0027800287005010025268359
B1928443730417N12154150WA0027600285005010026266359
B1928453730417N12154155WA0027400283005010026267359
B1928463730416N12154160WA0027200281005010026268359
B1928473730416N12154165WA0027000280005010025266359
B1928483730416N12154170WA0026800278005010023269359
B1928493730415N12154174WA0026700277010019020271359
B1928503730415N12154178WA0026600276010019019268359
B1928513730415N12154181WA0026500274010019020268359
B1928523730415N12154185WA0026500273010019021273359
B1928533730416N12154189WA0026400271010019022277359
B1928543730416N12154193WA0026300270010019021275359
B1928553730416N12154197WA0026200268005010021271359
B1928563730416N12154201WA0026200267005010021262359
B1928573730415N12154206WA0026100265005010022263359
B1928583730415N12154210WA0026100264005010024268359
B1928593730415N12154215WA0026100262005010027275359
B1929003730416N12154220WA0026000261005010027299359
B1929013730419N12154224WA0025900260005010027311359
B1929023730421N12154227WA0025900258005010026317358
B1929033730424N12154231WA0025900257005010026312358
B1929043730427N12154235WA0025900256005010022301359
B1929053730428N12154238WA0025900255005010019293359
B1929063730429N12154242WA0025900254005010020299359
B1929073730431N12154245WA0025900253005010030317359
B1929083730434N12154250WA0025900252005010031299359
B1929093730435N12154255WA0025800251005010027281359
B1929103730436N12154260WA0025800250005010024267359
B1929113730435N12154265WA0025800250005010023253359
B1929123730433N12154269WA0025800249005010025228359
B1929133730430N12154272WA0025800249005010030206359
B1929143730425N12154273WA0025800249005010040185000
B1929153730419N12154273WA0025900249005010038171000
B1929163730413N12154270WA0025900249005010039148000
B1929173730409N12154265WA0025900249010019040125000
B1929183730407N12154258WA0025900249010019039102000
B1929193730406N12154251WA0025900250010019040081001
B1929203730408N12154243WA0025900250010019043061002
B1929213730411N12154237WA0025900250010019035054358
B1929223730416N12154232WA0025900250010019036029345
B1929233730421N12154230WA0025800250010019030012342
B1929243730425N12154231WA0025700250010019031352341
B1929253730429N12154233WA0025700250010019027323342
B1929263730432N12154236WA0025600251010019023312343
B1929273730434N12154240WA0025600251010019023308347
B1929283730436N12154244WA0025600251010019024300349
B1929293730438N12154249WA0025700251010019025299351
B1929303730440N12154253WA0025700251010019026298354
B1929313730442N12154258WA0025800252010019028296353
B1929323730444N12154263WA0025800252010019028296354
B1929333730446N12154268WA0026000252010019026297356
B1929343730448N12154272WA0026100252010019024297357
B1929353730449N12154276WA0026100253010019024295358
B1929363730451N12154281WA0026200253010019023295357
B1929373730452N12154284WA0026300253010019021299357
B1929383730454N12154288WA0026300253010019020301002
B1929393730456N12154291WA0026200253010019018310006
B1929403730458N12154292WA0026200253010019015322010
B1929413730459N12154292WA0026100254010019013340030
B1929423730461N12154292WA0026100254010019012008031
B1929433730463N12154291WA0026000254010019013031035
B1929443730463N12154290WA0025900254010019011050034
B1929453730463N12154288WA0025800254010019010084033
B1929463730461N12154286WA0025700255010019013100029
B1929473730460N12154283WA0025700255010019017112028
B1929483730458N12154280WA0025700255010019020117338
B1929493730456N12154275WA0025700254010019026122341
B1929503730453N12154269WA0025800254010019030122347
B1929513730450N12154262WA0025800254050095029128350
B1929523730446N12154257WA0025800254030057031129353
B1929533730442N12154251WA0025800254030057031131355
B1929543730438N12154246WA0025800254030057032132356
B1929553730435N12154241WA0025800254010019029133358
B1930053730426N12154208WA0025400219012016041106016
B1930063730421N12154200WA0025200201015024044118015
B1930073730416N12154198WA0025100189015024044131013
B1930083730409N12154192WA0025100204011024038138011
B1930093730404N12154192WA0025000235011024038151350
B1930103730401N12154191WA0025000239010024033155351
B1930113730397N12154193WA0025000250008016031177354
B1930123730391N12154194WA0025000254009016031178355
B1930133730388N12154197WA0025100249008016031192356
B1930143730383N12154199WA0025100247008012034194357
B1930153730379N12154200WA0025100246009012031195357
B1930163730374N12154204WA0025100245006012033207358
B1930173730371N12154207WA0025100244006012026212358
B1930183730369N12154211WA0025100245007012026223359
B1930203730369N12154217WA0025200245007012023282359
B1930213730370N12154219WA0025300245006008014286359
B1930223730374N12154222WA0025400244005006020342357
B1930233730377N12154223WA0025400244004006020355003
B1930243730380N12154222WA0025300243004006024024014
B1930253730384N12154218WA0025200243004006024038020
B1930263730386N12154208WA0025100242004006052069023
B1930273730388N12154201WA0024900242005006052071023
B1930283730388N12154192WA0024800243006008045082021
B1930293730382N12154188WA0024800236006008041114019
B1930303730377N12154183WA0024800242005006039130016
B1930313730373N12154180WA0024800242004006031139344
B1930323730369N12154178WA0024900240004006031157348
B1930333730363N12154176WA0024900239004006031168351
B1930343730358N12154175WA0025000238004006034171353
B1930353730354N12154174WA0025100240004006034182355
B1930363730352N12154176WA0025100240004004019218357
B1930373730350N12154178WA0025000239004004021253358
B1930383730350N12154182WA0025000239004003021274359
B1930393730351N12154186WA0024900238004003021298358
B1930403730352N12154189WA0024900238004003022295000
B1930413730355N12154192WA0024800240004006024314011
B1930423730361N12154188WA0024700244004006038019014
B1930433730364N12154180WA0024600239004004038048018
B1930443730366N12154173WA0024600239004004039061016
B1930453730368N12154167WA0024500238004006039067018
B1930463730370N12154161WA0024500238006006035073017
B1930473730369N12154154WA0024500237007008035084017
B1930483730361N12154152WA0024500231007008035139345
B1930493730358N12154153WA0024500231006008029182350
B1930503730354N12154151WA0024500229007012026162354
B1930513730355N12154154WA0024400224006008022274357
B1930523730353N12154156WA0024400222007008022268358
B1930533730356N12154159WA0024400225004006022328357
B1930543730358N12154160WA0024300228004006027001357
B1930553730361N12154161WA0024200230004004029017359
B1930563730364N12154159WA0024200233004004026028001
B1930573730367N12154157WA0024100236004004026034005
B1930583730369N12154152WA0024100235004003026061006
B1930593730372N12154149WA0024100235004004023051000
B1931003730375N12154146WA0024100235004006026037007
B1931013730378N12154145WA0024200236004006023017017
B1931023730382N12154142WA0024300235004006029023016
B1931033730385N12154139WA0024400237004004026036009
B1931043730388N12154136WA0024400238004004027037004
B1931053730391N12154133WA0024400237004004026033003
B1931063730393N12154132WA0024400238004004021020350
B1931073730397N12154130WA0024400237004004026013337
B1931083730400N12154130WA0024400235004006024359322
B1931093730404N12154130WA0024300234005006025356306
B1931103730405N12154136WA0024300235022006024291300
B1931113730407N12154139WA0024300234023006023303305
B1931123730403N12154142WA0024300232010019028293306
B1931133730404N12154146WA0024200231010019023270312
B1931143730402N12154149WA0024200232010019018224317
B1931153730399N12154151WA0024200233010019024199322
B1931163730395N12154152WA0024300233010019031188330
B1931173730390N12154152WA0024300233010019032181334
B1931183730385N12154152WA0024400234010019031179341
B1931193730380N12154152WA0024400234010019032180345
B1931203730375N12154152WA0024400235010019030189348
B1931213730370N12154153WA0024400235010019032192350
B1931223730365N12154154WA0024200235010019033188351
B1931233730360N12154155WA0024200235010019034188354
B1931243730355N12154156WA0024100235010019034189355
B1931253730350N12154157WA0024100235030057033188356
B1931263730345N12154158WA0024000235030057033190357
B1931273730340N12154160WA0024000235010019032200357
B1931283730336N12154162WA0024000235010019031205358
B1931293730332N12154165WA0024000235010019030208358
B1931303730328N12154167WA0024000235010019029211358
B1931313730324N12154170WA0023900235010019029212358
B1931323730321N12154173WA0023800235010019028213359
B1931333730317N12154176WA0023800235010019028215359
B1931343730314N12154179WA0023800235010019028216359
B1931353730311N12154182WA0023700234010019028217359
B1931363730308N12154186WA0023700235010019028218359
B1931373730305N12154189WA0023600235010019028223359
B1931383730303N12154194WA0023600234010019028249359
B1931393730302N12154199WA0023600234030057027248359
B1931403730300N12154203WA0023600234030057027249358
B1931413730299N12154208WA0023700234010019027249357
B1931423730297N12154213WA0023800234050095028248009
B1931433730296N12154218WA0023800234050095026247016
B1931443730294N12154220WA0023800234010019021241023
B1931453730293N12154222WA0023800234010019017237026
B1931463730291N12154224WA0023700234050095012231022
B1931473730299N12154223WA0023500234050095005265020
B1931483730304N12154221WA0023400234050095002275014
B1931493730308N12154219WA0023400234050095002044009
B1931503730312N12154215WA0023400234050095007063007
B1931513730315N12154210WA0023400233010019015081003
B1931523730319N12154197WA0023500233010019031077002
B1931533730318N12154183WA0023600230010019033074357
B1931543730324N12154167WA0023600227010019040038343
B1932013730345N12154159WA0023000217006012020237350
B1932023730344N12154163WA0023000211006008022238352
B1932033730341N12154168WA0022900209006008022236354
B1932043730338N12154172WA0022800208006008027233355
B1932053730336N12154176WA0022600208006008028234355
B1932063730333N12154180WA0022500210004006022230356
B1932073730330N12154184WA0022500210004004025228357
B1932083730328N12154187WA0022300209004004022237358
B1932093730326N12154191WA0022200207004004024235358
B1932103730324N12154195WA0022100207004003024240358
B1932113730323N12154199WA0022000207004003024252359
B1932123730322N12154203WA0021800207004003024262359
B1932133730321N12154208WA0021700206004004024258359
B1932143730321N12154213WA0021600206004004027267359
B1932153730323N12154217WA0021500204005006027285359
B1932163730321N12154220WA0021500206004006023242359
B1932173730320N12154224WA0021500206004006017265359
B1932183730321N12154228WA0021500203004006024290359
B1932193730321N12154233WA0021500202004006028271359
B1932203730320N12154238WA0021500202004006026264359
B1932213730319N12154243WA0021500202007008026256359
B1932223730314N12154244WA0021400201004006028216359
B1932233730312N12154248WA0021300200005006029226359
B1932243730324N12154244WA0021300212010019024229359
B1932253730321N12154247WA0021200212010019024222359
B1932263730316N12154254WA0021100211010019026234359
B1932273730314N12154258WA0020900210010019031236359
B1932283730311N12154263WA0020700210010019032231359
B1932293730309N12154267WA0020500210010019032231359
B1932303730306N12154272WA0020300209010019031236359
B1932313730304N12154277WA0020200209010019029246359
B1932323730302N12154282WA0020100209010019029249358
B1932333730301N12154287WA0020000209010019028250005
B1932343730301N12154291WA0019900209010019017301011
B1932353730303N12154293WA0019800209010019015316011
B1932363730305N12154294WA0019600209030057012347006
B1932373730309N12154293WA0019500210010019008356003
B1932383730310N12154287WA0019500209010019021058005
B1932393730312N12154280WA0019400208010019022047006
B1932403730315N12154272WA0019300208010019023041016
B1932413730318N12154267WA0019200207010019024036014
B1932423730321N12154263WA0019100207010019022031015
B1932433730324N12154258WA0019000206010019021030026
B1932443730326N12154255WA0018900205010019020036016
B1932453730329N12154251WA0018800203010019022037017
B1932463730332N12154248WA0018700202010019023037017
B1932473730335N12154244WA0018700201010019025035019
B1932483730338N12154241WA0018600201010019026034017
B1932493730341N12154238WA0018600200010019024039020
B1932503730344N12154234WA0018600199010019021046015
B1932513730346N12154231WA0018500199010019022044004
B1932523730349N12154228WA0018400198010019021047353
B1932533730351N12154225WA0018300197010019021042328
B1932543730353N12154223WA0018200197010019018029315
B1932553730355N12154221WA0018200196010019016014314
B1932563730358N12154221WA0018000195010019014350318
B1932573730360N12154223WA0017800194010019014321323
B1932583730362N12154226WA0017600193010019018304330
B1932593730364N12154231WA0017400191010019021293330
B1933003730365N12154236WA0017200189010019022287334
B1933013730367N12154241WA0017100187010019022283341
B1933023730367N12154246WA0017000187010019023282345
B1933033730368N12154251WA0016900187010019022283348
B1933043730368N12154256WA0016900187010019016272350
B1933053730368N12154260WA0016900185010019018268351
B1933063730368N12154264WA0016900184005010023264354
B1933073730367N12154270WA0016900183005010026248353
B1933083730365N12154275WA0016800183005010026242354
B1933093730362N12154280WA0016700182005010026224356
B1933103730357N12154283WA0016600182005010024211357
B1933113730353N12154285WA0016600181005010020202357
B1933123730347N12154288WA0016500179005010025206357
B1933133730342N12154291WA0016500176005010023221358
B1933143730337N12154294WA0016500175005010022229358
B1933153730334N12154297WA0016400173005010018223358
B1933163730331N12154299WA0016300172005010016214000
B1933173730327N12154302WA0016100170005010016224000
B1933183730321N12154304WA0016000167005010008221000
B1933193730319N12154302WA0015900163005010007177000
B1933203730317N12154301WA0015800161005010004173000
B1933213730316N12154301WA0015700159005010004117000
B1933223730316N12154300WA0015700157005010001104000
B1933233730316N12154300WA0015700156005010001019000
B1933243730316N12154300WA0015700155005010000000000
B1933253730316N12154300WA0015700155005010000353000
B1933263730316N12154300WA0015700154005010001298000
B1933273730316N12154300WA0015700153005010000006000
B1933283730316N12154300WA0015700153005010000351000
B1933293730316N12154300WA0015700153005010000000000
B1933303730316N12154300WA0015700152005010000000000
B1933313730316N12154300WA0015700152005010000000000
B1933323730316N12154300WA0015700152005010001059000
B1933333730316N12154300WA0015700151005010002115000
B1933343730316N12154299WA0015700151005010004139000
B1933353730315N12154299WA0015700150005010003157000
B1933363730314N12154298WA0015700150005010003129000
B1933373730314N12154298WA0015700149005010003134000
B1933383730314N12154298WA0015700149005010003148000
B1933393730313N12154297WA0015700148005010001138000
B1933403730313N12154297WA0015700148005010001192000
B1933413730313N12154298WA0015700148005010000000000
B1933423730313N12154298WA0015700147005010001090000
B1933433730313N12154298WA0015700147005010001342000
B1933453730313N12154298WA0015700147005010000000000
B1933463730313N12154298WA0015700147005010000000000
B1933473730313N12154298WA0015700147005010003043000
B1933483730314N12154297WA0015700147005010004049000
B1933493730314N12154296WA0015700146005010005028000
B1933503730315N12154296WA0015700146005010005035000
B1933513730315N12154295WA0015600146005010005031000
B1933523730316N12154295WA0015600145005010004017000
B1933533730316N12154294WA0015600145005010004044000
B1933543730317N12154294WA0015600144005010005040000
B1933553730317N12154293WA0015600144005010005047000
B1933563730318N12154293WA0015600144005010005040000
B1933573730318N12154292WA0015600144005010005047000
B1933583730319N12154291WA0015600144005010005054000
B1933593730319N12154291WA0015600143005010004056000
B1934003730319N12154290WA0015500143005010004059000
B1934013730320N12154289WA0015500143005010005042000
B1934023730320N12154289WA0015500142005010005035000
B1934033730321N12154288WA0015500142005010004048359
B1934043730321N12154287WA0015500142005010005048000
B1934053730322N12154287WA0015500142005010005045000
B1934063730322N12154286WA0015500142005010005048000
B1934073730323N12154285WA0015500142005010004055000
B1934083730323N12154284WA0015500142005010004069000
B1934093730323N12154283WA0015500141005010005059000
B1934103730324N12154283WA0015500141005010005056000
B1934113730324N12154281WA0015500141005010007077000
B1934123730324N12154280WA0015400141005010006050000
B1934133730325N12154279WA0015400141005010004027000
B1934143730326N12154279WA0015400141005010004023000
B1934153730326N12154279WA0015400141005010006027000
B1934163730327N12154278WA0015400140005010004030000
B1934173730328N12154278WA0015400140005010005019000
B1934183730329N12154278WA0015400140005010006011000
B1934193730330N12154278WA0015400140005010005016000
B1934203730330N12154278WA0015400140005010004019000
B1934213730331N12154277WA0015400139005010004026000
B1934223730332N12154277WA0015400139005010005027000
B1934233730332N12154276WA0015400139005010005021000
B1934243730333N12154276WA0015400139005010005021000
B1934253730334N12154276WA0015400139005010005019000
B1934263730335N12154275WA0015400139005010005021000
B1934273730335N12154275WA0015400139005010005031000
B1934283730336N12154275WA0015400139005010005031000
B1934293730336N12154274WA0015400139005010004024000
B1934303730337N12154273WA0015400139005010004048000
B1934313730337N12154273WA0015400139005010005048000
B1934323730338N12154272WA0015400138005010005042000
B1934333730338N12154271WA0015400138005010006036000
B1934343730339N12154271WA0015400138005010004042000
B1934353730340N12154270WA0015400138005010006039000
B1934363730340N12154269WA0015400138005010006042000
B1934373730341N12154269WA0015400138005010006046000
B1934383730341N12154268WA0015400138005010005047000
B1934393730342N12154267WA0015400138005010005054000
B1934403730342N12154267WA0015400138005010004080000
B1934413730343N12154265WA0015400138005010004076000
B1934433730343N12154264WA0015400138005010005079000
B1934443730343N12154264WA0015400138005010004090000
B1934453730342N12154262WA0015400137005010005103000
B1934463730342N12154261WA0015400137005010003121000
B1934483730342N12154261WA0015400137005010000000000
B1934493730342N12154261WA0015300137005010001086000
B1934503730342N12154261WA0015300137005010001240000
B1934513730342N12154261WA0015300137005010000000000
B1934523730342N12154261WA0015300137005010001210000
B1934533730342N12154261WA0015300137005010000000000
B1934543730342N12154261WA0015300137005010000000000
B1934553730342N12154261WA0015300137005010000000000
B1934563730342N12154261WA0015300137005010000000000
B1934573730342N12154261WA0015300137005010000000000
B1934583730342N12154261WA0015300137005010000000000
B1934593730342N12154261WA0015300137005010000000000
B1935003730342N12154261WA0015300137005010000000000
B1935013730342N12154261WA0015300137005010000000000
B1935023730342N12154261WA0015300137005010000000000
B1935033730342N12154261WA0015300137005010000000000
B1935043730342N12154261WA0015300137005010000000000
B1935053730342N12154261WA0015300137005010000000000
B1935063730342N12154261WA0015300137005010000000000
B1935073730342N12154261WA0015300137005010000000000
B1935083730342N12154261WA0015300137005010000000000
B1935093730342N12154261WA0015300137005010000000000
B1935103730342N12154261WA0015300137005010000000000
B1935113730342N12154261WA0015300137005010000000000
B1935123730342N12154261WA0015300137005010000000000
B1935133730342N12154261WA0015300137005010000000000
B1935143730342N12154261WA0015300137005010000000000
B1935153730342N12154261WA0015300137005010000000000
B1935163730342N12154261WA0015300137005010001232000
B1935173730342N12154261WA0015300137005010000000000
GIHaVOW4+Lc+Z8LuXyZBr5utIwZD+8xYw5VBJS4CLcjqJW4rnOY/gOBh5XX9uAKQE
GjYjoeljI8UMZRL2+lHxhLqbVhnq3adp+94D1K6obhucnFmB0LPLC1BnmaX2z91rW
GxAw2DjWIh/EfNHxfIgRnWYmf3oboWLKDVysd8KmnA8o=

