AXFH000
HFDTE160624
HFPLTPILOT:Scott O’Brien
HFGTYGLIDERTYPE:BGD Epic
HFDTM100GPSDATUM:WGS84
HFRFWFIRMWAREVERSION:8.2.3
HFRHWHARDWAREVERSION:Unknown device (iPhone15,4)
HFFTYFRTYPE:Flyskyhy,8.2.3
HFGPS:Internal
HFPRSVARIO:Internal Vario
HFCCLCOMPETITIONCLASS:Paraglider
HFTZNTIMEZONE:-7
HFSITSITE:Dunlap,US
I053638FXA3941VXA4244GSP4547CCO4850HDT
C160624021637150624000106TASK
C0000000N00000000ETAKEOFF
C3645916N11905906W00004009999999000000360000STARTAREA DNLNCH
C3645916N11905906W00000000000400000000360000TURNAREA DNLNCH
C3644815N11904600W00000000000400000000360000TURNAREA SONTAG
C3644227N11904778W00000000000400000000360000TURNAREA LASTCH
C3645916N11905906W00000000000400000000360000TURNAREA DNLNCH
C3645983N11907769W00000000000400000000360000TURNAREA BIGCAT
C3644130N11906307W00000000000400000000360000TURNAREA DNLPLZ
C3644130N11906307W00004009999999000000360000FINISHAREA DNLPLZ
C0000000N00000000ELANDING
B0217083645908N11905884WA0142201421004003000176318
B0217093645908N11905884WA0142201421004003000176316
B0217103645908N11905884WA0142201421004003000176315
B0217113645908N11905884WA0142101421004003000176316
B0217123645908N11905884WA0142101421004003000176318
B0217133645908N11905884WA0142101420004003000176317
B0217143645907N11905884WA0142101420004003000176315
B0217153645907N11905884WA0142101420004003000176314
B0217163645907N11905884WA0142101420004003000176314
B0217173645907N11905884WA0142101420004003000176317
B0217183645907N11905884WA0142101420004003000176040
B0217193645907N11905885WA0142101421004003007220039
B0217203645906N11905885WA0142101421004003005216060
B0217213645906N11905885WA0142101421004003000216085
B0217223645906N11905885WA0142101420004003003167076
B0217233645905N11905886WA0142101420004003006168084
B0217243645905N11905886WA0142001419004003006215062
B0217253645904N11905887WA0142001419004003007220140
B0217263645903N11905888WA0142001417004003009223232
B0217273645901N11905890WA0141901415004003017222233
B0217283645899N11905892WA0141801414004003017214225
B0217293645896N11905894WA0141601411004003018215231
B0217303645893N11905897WA0141401410004003030217233
B0217313645890N11905900WA0141201410004003030213231
B0217323645886N11905903WA0141001409004003028209232
B0217333645883N11905905WA0140801409004003024212248
B0217343645880N11905908WA0140801408004003025210263
B0217353645877N11905910WA0140801407004003025220260
B0217363645876N11905913WA0140701405004003021251276
B0217373645875N11905918WA0140601403004003021266267
B0217383645874N11905924WA0140601403004003035264260
B0217393645873N11905930WA0140501404004003035256268
B0217403645872N11905935WA0140401405004003034247266
B0217413645871N11905939WA0140301407004003027246274
B0217423645870N11905942WA0140301410004003017265264
B0217433645871N11905946WA0140301411004003020284276
B0217443645871N11905950WA0140401412004003020286275
B0217453645872N11905953WA0140601413004003020280289
B0217463645873N11905957WA0140701415004003020282297
B0217473645874N11905961WA0140901416004003021293308
B0217483645875N11905964WA0141001416004003020308304
B0217493645877N11905967WA0141201415004003021315303
B0217503645880N11905971WA0141201413004003027304302
B0217513645882N11905975WA0141201413004003030297293
B0217523645884N11905980WA0141301414004003028298304
B0217533645886N11905983WA0141301415004003028308302
B0217543645888N11905985WA0141201414004003016324313
B0217553645890N11905988WA0141201413004003023326308
B0217563645894N11905991WA0141101410004003023323298
B0217573645897N11905996WA0141101409004003033310296
B0217583645899N11906001WA0141101410004003032287282
B0217593645900N11906005WA0141001411004003032275286
B0218003645901N11906009WA0141001412004003023284284
B0218013645902N11906013WA0140901410004003020297285
B0218023645903N11906016WA0140901408004003023292276
B0218033645904N11906021WA0140801406004003025272259
B0218043645903N11906025WA0140801404004003025245248
B0218053645900N11906030WA0140701402004003027227242
B0218063645897N11906034WA0140501400004003032225241
B0218073645894N11906038WA0140501399004003032227242
B0218083645891N11906042WA0140301397004003029230242
B0218093645889N11906046WA0140101396004003029228247
B0218103645886N11906050WA0140001395004003030228244
B0218113645883N11906054WA0139801394004003030237244
B0218123645881N11906059WA0139701392004003030246258
B0218133645879N11906065WA0139601391004003031246258
B0218143645876N11906072WA0139501392004003044242257
B0218153645874N11906078WA0139401396004003044243268
B0218163645873N11906081WA0139301399004003029254268
B0218173645873N11906083WA0139301400004003012275269
B0218183645872N11906086WA0139401400004003017260272
B0218193645872N11906091WA0139501399004003029258272
B0218203645871N11906095WA0139601401004003026266278
B0218213645872N11906099WA0139801402004003026292277
B0218223645873N11906101WA0139901402004003014309284
B0218233645873N11906104WA0139901402004003014281268
B0218243645873N11906107WA0139901401004003014255248
B0218253645872N11906110WA0139901399004003017235243
B0218263645869N11906113WA0140001397004003022209226
B0218273645865N11906114WA0140001395004003032191214
B0218283645860N11906115WA0139901393004003036182187
B0218293645855N11906114WA0139801392004003036170166
B0218303645850N11906112WA0139601390004003036150142
B0218313645844N11906107WA0139401388004003047146127
B0218323645840N11906098WA0139201386004003058119119
B0218333645837N11906089WA0139001384004003058107099
B0218343645835N11906079WA0138801385004003058098091
B0218353645834N11906070WA0138701385004003048092079
B0218363645834N11906063WA0138501386004003048087076
B0218373645834N11906056WA0138401385004003037079064
B0218383645836N11906049WA0138301383004003037071059
B0218393645839N11906043WA0138301381004003042053047
B0218403645844N11906039WA0138301379004003044023020
B0218413645850N11906038WA0138201378004003044353349
B0218423645855N11906040WA0138201378004003044329324
B0218433645859N11906044WA0138101379004003034311306
B0218443645862N11906048WA0138001379004003034293294
B0218453645863N11906052WA0137901379004003028283283
B0218463645864N11906057WA0137801378004003023279278
B0218473645865N11906061WA0137801375004003024277274
B0218483645864N11906065WA0137801374004003024264273
B0218493645864N11906070WA0137801374004003024253274
B0218503645863N11906073WA0137701375004003024260277
B0218513645864N11906075WA0137601375004003007305279
B0218523645864N11906076WA0137601373004003007297280
B0218533645864N11906079WA0137501371004003007272274
B0218543645864N11906083WA0137501369004003015270274
B0218553645864N11906087WA0137401369004003025270277
B0218563645864N11906090WA0137301369004003025270283
B0218573645864N11906094WA0137201368004003019270280
B0218583645864N11906096WA0137201367004003015278284
B0218593645865N11906100WA0137101365004003018278283
B0219003645865N11906104WA0137001363004003024271282
B0219013645865N11906109WA0136901362004003024266285
B0219023645864N11906113WA0136801362004003025262292
B0219033645864N11906117WA0136601364004003017268279
B0219043645865N11906119WA0136501364004003017293282
B0219053645865N11906122WA0136401363004003015285284
B0219063645866N11906126WA0136401363004003015270279
B0219073645865N11906129WA0136401365004003016260295
B0219083645865N11906130WA0136401365004003016268281
B0219093645866N11906131WA0136401364004003005020279
B0219103645866N11906132WA0136401361004003005304283
B0219113645866N11906135WA0136401357004003020267279
B0219123645866N11906139WA0136401355004003026264279
B0219133645866N11906142WA0136301354004003021278286
B0219143645867N11906145WA0136101354004003021285285
B0219153645867N11906148WA0136101353004003013277280
B0219163645867N11906151WA0135901350004003018275278
B0219173645868N11906155WA0135701349004003018277279
B0219183645868N11906159WA0135501347004003021285288
B0219193645869N11906163WA0135401346004003027283283
B0219203645870N11906168WA0135301346004003028280283
E021920Waypoint DNLNCH reached
B0219213645871N11906173WA0135101344004003027277285
B0219223645871N11906178WA0135001343004003026275292
B0219233645871N11906182WA0134901341004003021275292
B0219243645872N11906186WA0134801339004003021279294
B0219253645873N11906190WA0134601336004003021287293
B0219263645874N11906194WA0134501334004003024295301
B0219273645876N11906199WA0134301333004003026299292
B0219283645877N11906202WA0134101333004003026294294
B0219293645878N11906206WA0133801333004003021282282
B0219303645879N11906209WA0133601332004003018281281
B0219313645880N11906213WA0133501330004003020288290
B0219323645881N11906216WA0133501329004003024294290
B0219333645883N11906220WA0133401328004003024301297
B0219343645885N11906224WA0133301327004003024302298
B0219353645886N11906228WA0133201327004003021298296
B0219363645888N11906231WA0133101326004003021293293
B0219373645889N11906235WA0133001325004003021295292
B0219383645891N11906239WA0132901324004003021295291
B0219393645892N11906243WA0132801322004003023288292
B0219403645892N11906247WA0132801321004003024271290
B0219413645893N11906253WA0132701318004003024270286
B0219423645893N11906258WA0132601317004003029281296
B0219433645895N11906263WA0132401318004003028291292
B0219443645896N11906267WA0132301319004003028293291
B0219453645897N11906270WA0132201319004003020284286
B0219463645897N11906274WA0132201319004003016278284
B0219473645898N11906277WA0132101317004003021290289
B0219483645900N11906281WA0132101317004003023299293
B0219493645901N11906284WA0132101317004003021301294
B0219503645902N11906287WA0132101317004003020299297
B0219513645903N11906289WA0132101316004003013303293
B0219523645905N11906291WA0132001315004003015308292
B0219533645906N11906294WA0132001313004003015303297
B0219543645907N11906298WA0131901312004003019296296
B0219553645909N11906301WA0131801311004003022296292
B0219563645910N11906304WA0131701310004003022293292
B0219573645911N11906307WA0131601310004003019291289
B0219583645912N11906310WA0131501310004003016294288
B0219593645913N11906313WA0131401309004003016300288
B0220003645915N11906316WA0131301308004003019302296
B0220013645916N11906319WA0131301307004003019301294
B0220023645918N11906322WA0131201306004003022302297
B0220033645920N11906325WA0131101307004003018301291
B0220043645921N11906328WA0131101307004003018291284
B0220053645921N11906330WA0131001307004003014280281
B0220063645921N11906333WA0131001307004003014271277
B0220073645922N11906336WA0131001306004003015269278
B0220083645922N11906339WA0131001306004003016270281
B0220093645922N11906342WA0131001305004003016271279
B0220103645922N11906345WA0131001306004003017275281
B0220113645922N11906348WA0131001306004003015277285
B0220123645923N11906350WA0131001306004003015293287
B0220133645924N11906352WA0130901306004003013326300
B0220143645926N11906353WA0130901305004003013346304
B0220153645929N11906354WA0130901304004003019341300
B0220163645931N11906356WA0130901304004003020322294
B0220173645933N11906359WA0130901305004003019300277
B0220183645933N11906361WA0130901305004003018275271
B0220193645933N11906364WA0130801305004003016246263
B0220203645931N11906367WA0130801304004003018230259
B0220213645930N11906369WA0130801304004003016224257
B0220223645929N11906372WA0130801302004003016238257
B0220233645928N11906375WA0130801300004003021253260
B0220243645926N11906379WA0130801298004003025252264
B0220253645925N11906384WA0130801298004003025244263
B0220263645923N11906387WA0130701298004003025241271
B0220273645922N11906390WA0130601299004003013246277
B0220283645922N11906392WA0130401298004003013271281
B0220293645923N11906394WA0130301297004003011296287
B0220303645923N11906397WA0130301296004003011303289
B0220313645925N11906400WA0130201295004003018300290
B0220323645926N11906403WA0130201296004003019297291
B0220333645927N11906406WA0130201296004003018296292
B0220343645928N11906408WA0130101297004003018296287
B0220353645929N11906410WA0130001297004003011298285
B0220363645930N11906412WA0130001296004003012294283
B0220373645931N11906415WA0130001295004003012288285
B0220383645931N11906419WA0130001295004003018283289
B0220393645932N11906422WA0130001296004003019280286
B0220403645932N11906425WA0130001297004003015280287
B0220413645933N11906427WA0130001298004003015286288
B0220423645934N11906429WA0130001297004003012297290
B0220433645934N11906431WA0130001297004003012305287
B0220443645936N11906434WA0130001296004003013298285
B0220453645936N11906437WA0130101296004003017281275
B0220463645936N11906440WA0130101296004003017262270
B0220473645936N11906442WA0130101296004003015243265
B0220483645935N11906445WA0130101297004003015233256
B0220493645933N11906447WA0130001297004003016222248
B0220503645931N11906449WA0130001297004003020211234
B0220513645927N11906451WA0130001297004003027202219
B0220523645923N11906452WA0130101297004003027192208
B0220533645919N11906452WA0130101296004003031177192
B0220543645913N11906451WA0130101295004003033166173
B0220553645908N11906449WA0130101294004003041158157
B0220563645902N11906445WA0130001293004003046148143
B0220573645897N11906439WA0130001292004003046135131
B0220583645891N11906432WA0130001291004003052133123
B0220593645887N11906424WA0129901291004003052116123
B0221003645884N11906416WA0129801291004003050118121
B0221013645880N11906408WA0129701291004003050123125
B0221023645875N11906401WA0129601291004003050127128
B0221033645871N11906392WA0129601292004003052124122
B0221043645867N11906384WA0129601292004003053116110
B0221053645864N11906375WA0129601292004003050106098
B0221063645863N11906366WA0129601292004003050097087
B0221073645862N11906357WA0129601292004003050092081
B0221083645862N11906347WA0129601291004003050088077
B0221093645862N11906338WA0129701292004003051086082
B0221103645862N11906329WA0129701293004003045088081
B0221113645862N11906321WA0129701293004003045094091
B0221123645861N11906314WA0129701292004003041097103
B0221133645860N11906305WA0129701289004003041103110
B0221143645858N11906297WA0129701288004003047112116
B0221153645854N11906288WA0129701287004003051120120
B0221163645850N11906281WA0129601287004003051129123
B0221173645846N11906275WA0129501285004003047130134
B0221183645842N11906268WA0129401284004003043128132
B0221193645837N11906262WA0129301283004003043132138
B0221203645832N11906256WA0129201283004003047137140
B0221213645827N11906251WA0129101283004003047139140
B0221223645823N11906245WA0129001284004003044138140
B0221233645819N11906240WA0129001284004003040134145
B0221243645815N11906236WA0128901285004003037133147
B0221253645811N11906231WA0128901284004003038143146
B0221263645805N11906228WA0128901284004003041154163
B0221273645801N11906225WA0128901285004003038161167
B0221283645796N11906223WA0129001284004003037168190
B0221293645791N11906223WA0129001283004003029176196
B0221303645786N11906223WA0129001280004003033182198
B0221313645781N11906223WA0129001276004003033184202
B0221323645775N11906223WA0128901272004003038181196
B0221333645769N11906223WA0128801269004003040178183
B0221343645762N11906223WA0128601267004003047176171
B0221353645755N11906221WA0128301266004003047167168
B0221363645749N11906218WA0128001265004003045152163
B0221373645744N11906214WA0127701265004003043147153
B0221383645739N11906211WA0127401264004003038153156
B0221393645733N11906209WA0127301263004003038160166
B0221403645728N11906206WA0127201263004003038158162
B0221413645723N11906203WA0127101262004003039152152
B0221423645717N11906199WA0127001261004003041148149
B0221433645712N11906195WA0126901259004003043143149
B0221443645707N11906190WA0126801258004003043139146
B0221453645703N11906185WA0126701257004003043136147
B0221463645698N11906180WA0126601255004003038133150
B0221473645694N11906174WA0126501252004003045132147
B0221483645689N11906168WA0126501249004003045138154
B0221493645683N11906163WA0126301248004003047145163
B0221503645677N11906158WA0126201246004003046150169
B0221513645671N11906154WA0126001245004003046152173
B0221523645666N11906150WA0125801244004003044153181
B0221533645660N11906147WA0125601243004003042157186
B0221543645654N11906145WA0125401241004003041163195
B0221553645648N11906143WA0125201239004003041167202
B0221563645642N11906141WA0125101237004003041169206
B0221573645636N11906140WA0125001236004003042171209
B0221583645630N11906139WA0124801234004003040175217
B0221593645624N11906139WA0124701233004003040180222
B0222003645618N11906139WA0124501231004003038183226
B0222013645613N11906139WA0124301230004003038183224
B0222023645607N11906140WA0124201230004003037185229
B0222033645602N11906140WA0124001229004003037184226
B0222043645597N11906141WA0123901229004003034183225
B0222053645592N11906141WA0123901227004003033183224
B0222063645586N11906142WA0123801225004003038184222
B0222073645581N11906143WA0123801223004003041187227
B0222083645575N11906144WA0123601221004003040194227
B0222093645569N11906146WA0123501220004003040198230
B0222103645564N11906148WA0123301219004003037198227
B0222113645558N11906150WA0123201218004003039196228
B0222123645553N11906152WA0123001217004003038195231
B0222133645548N11906154WA0122801216004003038196230
B0222143645543N11906157WA0122701215004003036199232
B0222153645537N11906159WA0122601213004003038199233
B0222163645532N11906161WA0122501211004003038196228
B0222173645526N11906163WA0122401210004003040195231
B0222183645520N11906165WA0122301209004003042196224
B0222193645514N11906167WA0122201209004003042197221
B0222203645508N11906170WA0122001209004003040196218
B0222213645503N11906171WA0121901208004003038195221
B0222223645498N11906173WA0121901207004003035195223
B0222233645493N11906175WA0121801205004003037196220
B0222243645487N11906177WA0121701204004003037196219
B0222253645481N11906179WA0121701202004003039194218
B0222263645475N11906181WA0121601200004003045193211
B0222273645468N11906183WA0121401199004003045189209
B0222283645462N11906184WA0121301198004003044183204
B0222293645456N11906184WA0121101197004003043181202
B0222303645449N11906184WA0121001195004003044183202
B0222313645443N11906185WA0120801193004003046185203
B0222323645436N11906186WA0120701192004003046183202
B0222333645429N11906186WA0120601192004003046177197
B0222343645423N11906185WA0120401192004003042172201
B0222353645416N11906184WA0120301191004003042174201
B0222363645410N11906184WA0120201189004003040180204
B0222373645404N11906185WA0120201188004003040184207
B0222383645398N11906185WA0120101187004003042183208
B0222393645392N11906185WA0120101186004003043181207
B0222403645386N11906185WA0120001186004003042179205
B0222413645380N11906185WA0119901185004003040180208
B0222423645374N11906185WA0119801185004003039181209
B0222433645368N11906186WA0119701183004003041182209
B0222443645362N11906186WA0119701182004003043184209
B0222453645355N11906187WA0119601181004003042188214
B0222463645349N11906188WA0119501180004003042189216
B0222473645343N11906189WA0119401179004003041188217
B0222483645337N11906190WA0119301178004003040186217
B0222493645332N11906191WA0119101178004003040187219
B0222503645326N11906192WA0119001177004003038189220
B0222513645320N11906194WA0118901176004003038190226
B0222523645314N11906195WA0118901175004003038190224
B0222533645309N11906196WA0118801174004003038192225
B0222543645303N11906198WA0118801173004003038195228
B0222553645298N11906200WA0118701171004003038198230
B0222563645293N11906202WA0118701170004003037199229
B0222573645288N11906204WA0118601169004003035197227
B0222583645282N11906206WA0118501168004003036196226
B0222593645277N11906208WA0118301166004003036195223
B0223003645272N11906210WA0118201165004003036196222
B0223013645267N11906212WA0118101164004003036196224
B0223023645261N11906214WA0117901163004003036196231
B0223033645256N11906216WA0117801162004003039197225
B0223043645251N11906218WA0117701161004003039198233
B0223053645246N11906220WA0117601160004003036198232
B0223063645241N11906223WA0117501159004003033202236
B0223073645237N11906225WA0117401158004003033205236
B0223083645232N11906228WA0117301156004003034207238
B0223093645228N11906230WA0117201155004003034206240
B0223103645223N11906233WA0117001155004003034207239
B0223113645219N11906236WA0116901153004003031209238
B0223123645216N11906239WA0116801152004003029210240
B0223133645212N11906242WA0116801150004003031211238
B0223143645208N11906245WA0116601149004003032211239
B0223153645204N11906247WA0116501148004003031211243
B0223163645200N11906250WA0116401147004003030211244
B0223173645196N11906253WA0116201146004003028215243
B0223183645193N11906256WA0116101145004003027218244
B0223193645190N11906259WA0116001143004003028215242
B0223203645186N11906262WA0115901142004003028214241
B0223213645183N11906265WA0115801141004003029214241
B0223223645179N11906269WA0115701139004003029217242
B0223233645176N11906272WA0115501138004003026217245
B0223243645173N11906274WA0115401137004003026214241
B0223253645169N11906277WA0115301136004003026211241
B0223263645166N11906280WA0115101135004003027211241
B0223273645162N11906283WA0115001134004003028212242
B0223283645159N11906286WA0114901133004003028214239
B0223293645155N11906289WA0114801132004003028212240
B0223303645152N11906291WA0114801131004003028210240
B0223313645148N11906294WA0114701130004003028210239
B0223323645145N11906297WA0114601129004003028210241
B0223333645141N11906299WA0114501128004003030210242
B0223343645137N11906302WA0114401127004003031209239
B0223353645133N11906305WA0114301126004003030206238
B0223363645129N11906307WA0114201125004003030204236
B0223373645125N11906310WA0114101124004003030206236
B0223383645121N11906312WA0114001123004003032207232
B0223393645116N11906315WA0113901122004003033203229
B0223403645111N11906317WA0113801122004003033196214
B0223413645106N11906318WA0113701120004003035185200
B0223423645099N11906318WA0113601119004003039175186
B0223433645093N11906317WA0113501118004003047169177
B0223443645086N11906315WA0113401117004003049165170
B0223453645079N11906313WA0113301116004003049161165
B0223463645072N11906309WA0113201115004003049155158
B0223473645065N11906305WA0113201114004003050151154
B0223483645058N11906300WA0113101113004003053150155
B0223493645051N11906296WA0113001112004003053151155
B0223503645044N11906291WA0112801111004003053152159
B0223513645037N11906287WA0112701110004003052150161
B0223523645031N11906282WA0112601109004003049146155
B0223533645025N11906277WA0112501107004003050146156
B0223543645018N11906272WA0112501104004003054148156
B0223553645011N11906266WA0112301103004003054148156
B0223563645005N11906261WA0112201102004003054146158
B0223573644998N11906256WA0112101100004003053145158
B0223583644991N11906250WA0111901099004003056148162
B0223593644983N11906245WA0111701098004003059152162
B0224003644976N11906240WA0111601097004003056155165
B0224013644969N11906236WA0111501097004003056155167
B0224023644962N11906232WA0111401097004003052154169
B0224033644955N11906228WA0111301096004003049154174
B0224043644948N11906224WA0111301094004003051156175
B0224053644941N11906220WA0111201093004003051156177
B0224063644933N11906216WA0111101092004003054156170
B0224073644926N11906212WA0111001091004003055156168
B0224083644919N11906208WA0110901091004003052153169
B0224093644912N11906203WA0110801090004003052151171
B0224103644904N11906199WA0110701090004003052154171
B0224113644897N11906195WA0110601089004003053158173
B0224123644889N11906191WA0110601089004003053160175
B0224133644882N11906188WA0110501089004003049158172
B0224143644875N11906184WA0110401088004003049154173
B0224153644869N11906180WA0110401087004003049153173
B0224163644862N11906176WA0110301086004003050155174
B0224173644854N11906172WA0110301085004003052156169
B0224183644847N11906168WA0110201085004003053155169
B0224193644840N11906164WA0110101085004003053152169
B0224203644834N11906159WA0110001084004003051152171
B0224213644827N11906155WA0110001083004003051153172
B0224223644820N11906151WA0110001082004003051155171
B0224233644812N11906147WA0109901081004003053155174
B0224243644805N11906143WA0109801081004003053156174
B0224253644798N11906139WA0109701081004003052158178
B0224263644791N11906136WA0109701081004003051160180
B0224273644784N11906133WA0109601080004003049158180
B0224283644778N11906129WA0109501079004003048155174
B0224293644771N11906125WA0109501078004003049153172
B0224303644764N11906121WA0109501077004003049156175
B0224313644757N11906117WA0109401075004003050156171
B0224323644750N11906113WA0109301075004003051153167
B0224333644743N11906108WA0109201074004003054149166
B0224343644737N11906103WA0109101074004003054148166
B0224353644730N11906099WA0109001073004003053150169
B0224363644724N11906094WA0108901072004003050152169
B0224373644717N11906090WA0108801070004003050152169
B0224383644710N11906085WA0108801068004003055150163
B0224393644703N11906080WA0108701067004003057150167
B0224403644695N11906075WA0108701066004003056152167
B0224413644688N11906071WA0108501066004003056155172
B0224423644682N11906067WA0108401064004003051155171
B0224433644675N11906063WA0108301063004003050153169
B0224443644667N11906059WA0108201061004003054155170
B0224453644660N11906054WA0108101060004003054157175
B0224463644652N11906050WA0108001059004003056156172
B0224473644645N11906046WA0107801058004003056153171
B0224483644638N11906042WA0107701057004003052152170
B0224493644631N11906037WA0107601056004003052152172
B0224503644623N11906033WA0107501055004003052154174
B0224513644616N11906029WA0107401054004003052155170
B0224523644609N11906024WA0107301053004003053153168
B0224533644602N11906020WA0107201052004003054150167
B0224543644595N11906015WA0107101051004003054149165
B0224553644588N11906010WA0107101050004003054151167
B0224563644581N11906005WA0107001049004003054153168
B0224573644573N11906001WA0106901047004003054154169
B0224583644566N11905996WA0106801046004003054153167
B0224593644559N11905991WA0106701044004003055151168
B0225003644551N11905987WA0106501043004003054150166
B0225013644544N11905982WA0106401042004003054151169
B0225023644537N11905977WA0106301041004003054152168
B0225033644530N11905973WA0106201040004003053152170
B0225043644523N11905968WA0106001039004003053152169
B0225053644516N11905963WA0105901038004003052151166
B0225063644509N11905959WA0105801036004003051151169
B0225073644502N11905954WA0105701034004003051152173
B0225083644495N11905950WA0105601033004003052155175
B0225093644488N11905946WA0105401031004003052158182
B0225103644481N11905943WA0105301030004003051159179
B0225113644474N11905939WA0105201029004003051158177
B0225123644467N11905936WA0105001027004003050154172
B0225133644461N11905931WA0105001025004003051151172
B0225143644453N11905927WA0104901024004003053153171
B0225153644446N11905923WA0104701022004003052156176
B0225163644439N11905919WA0104601021004003052158177
B0225173644433N11905916WA0104501020004003050155170
B0225183644426N11905911WA0104301019004003050151168
B0225193644419N11905906WA0104201017004003052148162
B0225203644413N11905901WA0104001015004003052147159
B0225213644406N11905896WA0103901014004003053145157
B0225223644400N11905889WA0103701013004003054139146
B0225233644394N11905882WA0103601011004003055133140
B0225243644388N11905875WA0103501010004003056129137
B0225253644383N11905866WA0103301008004003056127135
B0225263644378N11905858WA0103201007004003056126132
B0225273644372N11905850WA0103001006004003056126131
B0225283644367N11905841WA0102901004004003056126134
B0225293644362N11905833WA0102901003004003056126132
B0225303644357N11905824WA0102701002004003056128135
B0225313644352N11905816WA0102601001004003056129132
B0225323644347N11905809WA0102401000004003055129134
B0225333644342N11905801WA0102300998004003055130134
B0225343644336N11905793WA0102200997004003055132143
B0225353644330N11905786WA0102000996004003055137155
B0225363644324N11905779WA0101900994004003055144168
B0225373644317N11905774WA0101800993004003055152181
B0225383644310N11905770WA0101600992004003052159193
B0225393644303N11905767WA0101500991004003052165204
B0225403644296N11905766WA0101400989004003049171214
B0225413644289N11905765WA0101200989004003046177220
B0225423644283N11905765WA0101100988004003043183223
B0225433644278N11905766WA0101000987004003037188228
B0225443644272N11905767WA0100900985004003037193235
B0225453644267N11905769WA0100800984004003035198237
B0225463644263N11905771WA0100800983004003034201241
B0225473644258N11905773WA0100700983004003033203243
B0225483644254N11905776WA0100600982004003030209249
B0225493644251N11905779WA0100600981004003030217252
B0225503644248N11905782WA0100500980004003028223256
B0225513644245N11905785WA0100400980004003026223256
B0225523644242N11905788WA0100300979004003025220256
B0225533644239N11905791WA0100200979004003024222261
B0225543644237N11905794WA0100100978004003024229266
B0225553644235N11905797WA0100100977004003022241272
B0225563644234N11905801WA0100000976004003020252276
B0225573644234N11905804WA0099900975004003019259278
B0225583644233N11905807WA0099900974004003016263282
B0225593644233N11905810WA0099800973004003016269282
B0226003644233N11905812WA0099700972004003015278288
B0226013644234N11905815WA0099600972004003015284290
B0226023644234N11905818WA0099500971004003015290294
B0226033644235N11905820WA0099500970004003015296296
B0226043644236N11905823WA0099400969004003015302299
B0226053644238N11905825WA0099400969004003014307294
B0226063644239N11905827WA0099300968004003013306295
B0226073644240N11905829WA0099200967004003013300294
B0226083644241N11905831WA0099100966004003015298292
B0226093644242N11905834WA0099100965004003016299297
B0226103644243N11905836WA0099000965004003015299294
B0226113644244N11905838WA0098900964004003014299292
B0226123644245N11905840WA0098900963004003012295289
B0226133644245N11905842WA0098800962004003013288290
B0226143644246N11905847WA0098600961004003014284288
B0226153644247N11905850WA0098500960004003014283288
B0226163644247N11905852WA0098500959004003014279287
B0226173644247N11905855WA0098400958004003015273284
B0226183644247N11905858WA0098300957004003015270287
B0226193644247N11905861WA0098300956004003015270287
B0226203644247N11905864WA0098200955004003016272286
B0226213644247N11905867WA0098100954004003016276288
B0226223644248N11905869WA0098000953004003015278286
B0226233644248N11905872WA0097900952004003015278286
B0226243644248N11905875WA0097800951004003014276287
B0226253644249N11905877WA0097700950004003014274289
B0226263644249N11905880WA0097600948004003014279290
B0226273644249N11905883WA0097500947004003017285289
B0226283644250N11905886WA0097400946004003017287286
B0226293644251N11905889WA0097300945004003016284284
B0226303644251N11905891WA0097200944004003015280284
B0226313644252N11905894WA0097000942004003013281285
B0226323644252N11905896WA0096900941004003015287286
B0226333644253N11905899WA0096800940004003017291287
B0226343644254N11905902WA0096700940004003016291287
B0226353644255N11905905WA0096600939004003016287287
B0226363644255N11905907WA0096500939004003015284289
B0226373644256N11905910WA0096500938004003013285290
B0226383644257N11905912WA0096400936004003014292292
B0226393644258N11905914WA0096300935004003014298291
B0226403644259N11905917WA0096300933004003016298290
B0226413644260N11905920WA0096200933004003018294298
B0226423644261N11905923WA0096100932004003017293295
B0226433644262N11905926WA0096000932004003017297297
B0226443644263N11905928WA0095900932004003015303290
B0226453644264N11905930WA0095800932004003012306289
B0226463644265N11905932WA0095700930004003012297285
B0226473644266N11905935WA0095700928004003018277289
B0226493644266N11905938WA0095600927004003019277293
B0226503644266N11905941WA0095500926004003018279290
B0226513644267N11905944WA0095400926004003018277286
B0226523644267N11905947WA0095300925004003014266280
B0226533644267N11905950WA0095200924004003014260278
B0226543644266N11905952WA0095200922004003014262280
B0226553644266N11905955WA0095100920004003016273280
B0226563644267N11905959WA0095000919004003017279283
B0226573644267N11905961WA0094900919004003015275282
B0226583644267N11905964WA0094700918004003015263281
B0226593644267N11905967WA0094600917004003014261283
B0227003644267N11905970WA0094500915004003014274284
B0227013644267N11905973WA0094400913004003016283287
B0227023644268N11905976WA0094300913004003018280284
B0227033644268N11905979WA0094200912004003018266283
B0227043644267N11905981WA0094100912004003015251279
B0227053644267N11905983WA0094000910004003012258281
B0227063644267N11905985WA0093900909004003012277284
B0227073644267N11905988WA0093800907004003015280283
B0227083644267N11905991WA0093700906004003016272283
B0227093644267N11905994WA0093600905004003015258281
B0227103644267N11905996WA0093500904004003015254281
B0227113644267N11905998WA0093300903004003013261280
B0227123644267N11906001WA0093300901004003013270282
B0227133644266N11906003WA0093200900004003016267280
B0227143644266N11906006WA0093100898004003016266280
B0227153644266N11906010WA0093000897004003017262279
B0227163644266N11906012WA0092900897004003017259278
B0227173644265N11906015WA0092700896004003014257276
B0227183644265N11906017WA0092600895004003014256272
B0227193644264N11906020WA0092500894004003014253273
B0227203644263N11906022WA0092400892004003014251275
B0227213644262N11906025WA0092300891004003015249276
B0227223644262N11906027WA0092200889004003014252278
B0227233644261N11906030WA0092100888004003015257279
B0227243644261N11906033WA0092000887004003015262278
B0227253644261N11906036WA0091800886004003016262277
B0227263644260N11906039WA0091700885004003016260275
B0227273644260N11906042WA0091600884004003016255272
B0227283644259N11906045WA0091500883004003016252269
B0227293644258N11906048WA0091500882004003016249270
B0227303644257N11906051WA0091400881004003017247271
B0227313644256N11906053WA0091300880004003017247270
E022731Waypoint DNLPLZ reached
B0227323644255N11906056WA0091200879004003016249273
B0227333644255N11906059WA0091100878004003018260274
B0227343644254N11906063WA0090900877004003018262276
B0227353644254N11906067WA0090800876004003020262276
B0227363644254N11906070WA0090700875004003020265276
B0227373644254N11906073WA0090500874004003016267277
B0227383644254N11906076WA0090400873004003017272279
B0227393644254N11906080WA0090300872004003017274281
B0227403644254N11906083WA0090200870004003018275280
B0227413644254N11906087WA0090100869004003019273278
B0227423644254N11906090WA0090000868004003019269279
B0227433644254N11906094WA0089900867004003019266278
B0227443644254N11906097WA0089800866004003019268279
B0227453644254N11906101WA0089700865004003018270276
B0227463644254N11906105WA0089700863004003018266272
B0227473644253N11906108WA0089600862004003021258272
B0227483644253N11906112WA0089500861004003022253271
B0227493644252N11906116WA0089300860004003021255272
B0227503644252N11906119WA0089200859004003020261273
B0227513644251N11906123WA0089100857004003019262272
B0227523644251N11906126WA0089000856004003020260273
B0227533644250N11906130WA0088800855004003021257274
B0227543644250N11906134WA0088700854004003020257274
B0227553644249N11906136WA0088600853004003018261274
B0227563644249N11906139WA0088500852004003015264273
B0227573644249N11906142WA0088400851004003016264275
B0227583644248N11906145WA0088200849004003018261277
B0227593644248N11906149WA0088100848004003018265279
B0228003644248N11906152WA0088000847004003018269280
B0228013644248N11906154WA0087900846004003016276280
B0228023644248N11906157WA0087800845004003012281278
B0228033644249N11906159WA0087800843004003014274277
B0228043644249N11906162WA0087600842004003014266279
B0228053644248N11906169WA0087400839004003017270282
B0228063644249N11906172WA0087300838004003016273286
B0228073644249N11906175WA0087200837004003016271284
B0228083644249N11906178WA0087000836004003016268280
B0228093644249N11906181WA0086900834004003016269284
B0228103644248N11906184WA0086800833004003017266280
B0228113644248N11906188WA0086700832004003019267282
B0228123644248N11906191WA0086600831004003019271287
B0228133644249N11906194WA0086400829004003018276281
B0228143644249N11906197WA0086300828004003017279283
B0228153644249N11906201WA0086200827004003017275282
B0228163644249N11906204WA0086000826004003017271279
B0228173644249N11906207WA0085900825004003017268278
B0228183644249N11906210WA0085800824004003017267278
B0228193644249N11906213WA0085700823004003017268277
B0228203644249N11906217WA0085700822004003018270284
B0228213644249N11906220WA0085600821004003018268281
B0228223644249N11906223WA0085600820004003018269284
B0228233644249N11906226WA0085500818004003017272284
B0228243644249N11906229WA0085400817004003016273282
B0228253644249N11906232WA0085300815004003015270278
B0228263644249N11906235WA0085100814004003016262275
B0228273644249N11906238WA0085000812004003017256280
B0228283644248N11906241WA0084900811004003017259282
B0228293644248N11906244WA0084700810004003017271285
B0228303644249N11906248WA0084600809004003018287283
B0228313644249N11906251WA0084500808004003019287283
B0228323644250N11906255WA0084300807004003020272279
B0228333644249N11906258WA0084200807004003019257277
B0228343644249N11906261WA0084100806004003019254274
B0228353644248N11906264WA0084000805004003017262277
B0228363644248N11906268WA0084000804004003018269281
B0228373644248N11906271WA0083900802004003020274280
B0228383644248N11906275WA0083900802004003020277288
B0228393644249N11906279WA0083800803004003020276279
B0228403644249N11906282WA0083700803004003019274279
B0228413644249N11906284WA0083600802004003010275276
B0228423644250N11906286WA0083600801004003012275279
B0228433644250N11906289WA0083500799004003012272274
B0228443644249N11906293WA0083500797004003017265270
B0228453644249N11906297WA0083400797004003023251268
B0228463644247N11906300WA0083300798004003020234266
B0228473644245N11906302WA0083200798004003020219254
B0228483644244N11906304WA0083100797004003015212248
B0228493644242N11906306WA0083100794004003015214245
B0228503644239N11906308WA0083000792004003018215233
B0228513644235N11906311WA0082900789004003033213240
B0228523644231N11906314WA0082800789004003033209237
B0228533644228N11906317WA0082700788004003033209240
B0228553644224N11906320WA0082700787004003027209241
B0228563644221N11906322WA0082500786004003024208240
B0228573644217N11906324WA0082300784004003028209241
B0228583644214N11906327WA0082200782004003028212243
B0228593644210N11906331WA0082000781004003030216243
B0229003644207N11906334WA0081900780004003030219246
B0229013644204N11906336WA0081700779004003025215244
B0229023644200N11906339WA0081600778004003027210241
B0229033644196N11906342WA0081400776004003027210244
B0229043644193N11906345WA0081300774004003030213242
B0229053644189N11906348WA0081100773004003030214239
B0229063644185N11906351WA0081000772004003029206232
B0229073644181N11906353WA0080900771004003032195220
B0229083644176N11906354WA0080700769004003032187211
B0229093644170N11906355WA0080600768004003037184207
B0229103644164N11906355WA0080400766004003040184204
B0229113644158N11906356WA0080300765004003039183201
B0229123644152N11906356WA0080300764004003040179199
B0229133644146N11906355WA0080200763004003040176195
B0229143644139N11906355WA0080000762004003042174192
B0229153644133N11906354WA0079900761004003044172189
B0229163644126N11906353WA0079700761004003044168181
B0229173644120N11906351WA0079600761004003044165175
B0229183644114N11906349WA0079500760004003044163170
B0229193644108N11906346WA0079400759004003044158161
B0229203644101N11906342WA0079400757004003046151148
B0229213644094N11906337WA0079300755004003053144140
B0229223644088N11906330WA0079200754004003057136129
B0229233644082N11906323WA0079100754004003056129116
B0229243644078N11906315WA0079000754004003056120112
B0229253644074N11906307WA0078900753004003050114101
B0229263644072N11906299WA0078700752004003046111094
B0229273644069N11906291WA0078600751004003047107088
B0229283644068N11906282WA0078600750004003047099088
B0229293644067N11906273WA0078600748004003047092070
B0229303644068N11906265WA0078500748004003046085068
B0229313644068N11906258WA0078400747004003039079063
B0229323644069N11906251WA0078300746004003039075060
B0229333644071N11906244WA0078300744004003038073052
B0229343644073N11906237WA0078200742004003038070048
B0229353644075N11906231WA0078100740004003038065043
B0229363644077N11906225WA0077900738004003037061038
B0229373644080N11906219WA0077800737004003037059037
B0229383644082N11906213WA0077600735004003037058038
B0229393644085N11906207WA0077500734004003037059034
B0229403644088N11906201WA0077300733004003037058035
B0229413644091N11906195WA0077100732004003035057036
B0229423644093N11906190WA0076900730004003036059029
B0229433644097N11906184WA0076800729004003036057029
B0229443644100N11906178WA0076700728004003038052020
B0229453644103N11906173WA0076500728004003038046010
B0229463644107N11906170WA0076500728004003026035342
B0229473644109N11906169WA0076400726004003026003319
B0229483644111N11906170WA0076300723004003018303299
B0229493644111N11906174WA0076200720004003018260279
B0229503644106N11906184WA0076000718004003035228254
B0229513644104N11906188WA0075800718004003035227252
B0229523644102N11906191WA0075600718004003025226251
B0229533644100N11906194WA0075400717004003020230248
B0229543644098N11906197WA0075300715004003020234253
B0229553644095N11906201WA0075200713004003028231253
B0229563644093N11906205WA0075200712004003028229253
B0229573644090N11906208WA0075100711004003027229254
B0229583644088N11906212WA0075000710004003023232253
B0229593644086N11906215WA0074800708004003023236257
B0230003644084N11906219WA0074700707004003023238267
B0230013644083N11906222WA0074600706004003023246265
B0230023644082N11906226WA0074600704004003021256272
B0230033644081N11906229WA0074400703004003020259277
B0230043644081N11906232WA0074300701004003017269280
B0230053644081N11906236WA0074200699004003019270281
B0230063644081N11906239WA0074000697004003020266280
B0230073644081N11906243WA0073900696004003020271271
B0230083644081N11906247WA0073700696004003020273273
B0230093644081N11906250WA0073600696004003020267269
B0230103644082N11906254WA0073400695004003017279295
B0230113644083N11906256WA0073300694004003017323333
B0230123644087N11906256WA0073200690004003017003350
B0230133644091N11906254WA0073200685004003028029004
B0230143644097N11906248WA0073100684004003043043020
B0230153644101N11906242WA0072900685004003048050028
B0230163644105N11906236WA0072700687004003048057033
B0230173644107N11906231WA0072500687004003035061033
B0230183644110N11906227WA0072300685004003028057031
B0230193644113N11906222WA0072300683004003028050029
B0230203644116N11906217WA0072200681004003037049027
B0230213644119N11906211WA0072200680004003038051025
B0230223644123N11906207WA0072100680004003037045027
B0230233644127N11906203WA0072000680004003035030006
B0230243644131N11906200WA0071900680004003033022001
B0230253644135N11906199WA0071800679004003024014345
B0230263644138N11906198WA0071700678004003024355327
B0230273644141N11906199WA0071600676004003019327323
B0230283644143N11906202WA0071600675004003019313325
B0230293644145N11906204WA0071500674004003019322318
B0230303644147N11906205WA0071400673004003013334308
B0230313644149N11906206WA0071300671004003013314290
B0230323644149N11906209WA0071200669004003013274277
B0230333644149N11906214WA0071100667004003019256260
B0230343644148N11906219WA0071000666004003027248255
B0230353644145N11906223WA0070800666004003028234249
B0230363644143N11906226WA0070800665004003028217235
B0230373644140N11906229WA0070700664004003027213229
B0230383644137N11906233WA0070500663004003026223236
B0230393644134N11906237WA0070400661004003026232246
B0230403644132N11906240WA0070300661004003027235247
B0230413644129N11906245WA0070200661004003027236249
B0230423644127N11906249WA0070100660004003027238262
B0230433644126N11906252WA0070000660004003024246261
B0230443644125N11906256WA0069900658004003021257261
B0230453644124N11906260WA0069800656004003023258268
B0230463644123N11906265WA0069700654004003026252270
B0230473644122N11906269WA0069600652004003026256286
B0230483644122N11906274WA0069500652004003026271304
B0230493644123N11906277WA0069300651004003023310319
B0230503644126N11906279WA0069200648004003025344338
B0230513644130N11906279WA0069000646004003032008351
B0230523644134N11906278WA0068900645004003031018352
B0230533644138N11906277WA0068900644004003031011341
B0230543644142N11906278WA0068700642004003025334323
B0230553644144N11906281WA0068600639004003028307298
B0230563644146N11906286WA0068500638004003029293294
B0230573644148N11906290WA0068300638004003028285284
B0230583644149N11906293WA0068100637004003024283273
B0230593644149N11906297WA0068000635004003019274272
B0231013644150N11906302WA0067800632004003026274259
B0231023644150N11906308WA0067700630004003034275272
B0231033644150N11906314WA0067500629004003034272265
B0231043644150N11906319WA0067300629004003034263274
B0231053644149N11906325WA0067100629004003026258266
B0231063644149N11906329WA0066900628004003026266277
B0231073644149N11906332WA0066700628004003022274298
B0231083644149N11906334WA0066600627004003016275346
B0231093644149N11906336WA0066600627004003007247043
B0231103644149N11906336WA0066600627004003005303027
B0231113644149N11906337WA0066600627004003005300020
B0231123644150N11906337WA0066600627004003004291007
B0231133644149N11906337WA0066600627004003003291237
B0231143644149N11906338WA0066600627004003000291342
B0231153644150N11906337WA0066600627004003001291257
B0231163644150N11906338WA0066600628004003002291265
B0231173644150N11906337WA0066600628004003002291319
B0231183644150N11906337WA0066600628004003000291273
B0231193644150N11906337WA0066600628004003000291279
B0231203644150N11906337WA0066600628004003001291281
B0231213644150N11906337WA0066600628004003000291283
B0231223644150N11906337WA0066600628004003000291285
B0231233644150N11906337WA0066600628004003000291286
B0231243644150N11906337WA0066600628004003000291286
B0231253644150N11906337WA0066600628004003000291285
B0231263644150N11906337WA0066600628004003000291284
B0231273644150N11906337WA0066600628004003000291284
B0231283644150N11906337WA0066600628004003000291284
B0231293644150N11906337WA0066600628004003000291283
B0231303644150N11906337WA0066600628004003000291283
B0231313644150N11906337WA0066600629004003000291283
B0231323644150N11906337WA0066600629004003000291283
B0231333644150N11906337WA0066600629004003000291283
B0231343644150N11906337WA0066600629004003000291283
B0231353644150N11906337WA0066600629004003001291282
B0231363644150N11906337WA0066600629004003001291283
B0231373644150N11906337WA0066600628004003000291283
B0231383644150N11906337WA0066600628004003000291283
B0231393644150N11906337WA0066600628004003000165283
B0231403644149N11906336WA0066600628004003003164278
B0231413644149N11906336WA0066600628004003003165265
B0231423644149N11906336WA0066600629004003002164260
B0231433644149N11906336WA0066600629004003001164257
Gl6gN6IFSIaTdNKM09QHRgvvGDvZJlZdkm4zHZSAjkYR90duYItB6PXAbX/XIPAkC
GM/818If/868hGho8H5dIqpN44r7hhO5tj3IgBu3DulM7w0W5BWFvZT/Nh0JBrpZo
GiAJLlCWHUQ2rwv91aI+WSgv73uHx+uMy0b9kmaQarzA=

