AXFH000
HFDTE120226
HFPLTPILOT:Scott O’Brien
HFGTYGLIDERTYPE:Ozone Swift 6
HFDTM100GPSDATUM:WGS84
HFRFWFIRMWAREVERSION:9.4
HFRHWHARDWAREVERSION:iPhone 15
HFFTYFRTYPE:Flyskyhy,9.4
HFGPS:Bluetooth vario
HFPRSVARIO:Bluetooth vario
HFCCLCOMPETITIONCLASS:Paraglider
HFTZNTIMEZONE:-6
HFSITSITE:Gravedad Cero, Tapalpa, Jalisco,MX
I053638FXA3941VXA4244GSP4547CCO4850HDT
C120226161133120226000102TASK
C0000000N00000000ETAKEOFF
C1956332N10339238W00010009999999000000360000STARTAREA Tapalpa
C2003837N10343513W00000000001000000000360000TURNAREA ATV
C1958948N10346610W00000000001000000000360000TURNAREA Rocks
C1956335N10336845W00000000001000000000360000FINISHAREA TapalpaLZ
C0000000N00000000ELANDING
B1612031956526N10339237WA0222802228001100000118261
B1612041956526N10339237WA0222802228001100000118269
B1612051956526N10339237WA0222802228001100000118275
B1612061956526N10339237WA0222802228001100000118265
B1612071956526N10339237WA0222802228001100000118272
B1612081956527N10339237WA0222802228001100001118290
B1612091956527N10339237WA0222802228001100000118282
B1612101956527N10339237WA0222802228001100000118282
B1612111956527N10339236WA0222802228001100002092220
B1612121956527N10339236WA0222802228001100001040257
B1612131956527N10339237WA0222802228001100001040268
B1612141956527N10339237WA0222802228001100000040264
B1612151956527N10339237WA0222802228001100000040242
B1612161956527N10339237WA0222802228001100000040250
B1612171956527N10339237WA0222802228001100000040256
B1612181956527N10339237WA0222802228001100001040233
B1612191956527N10339237WA0222802228001100001271275
B1612201956527N10339237WA0222902228001100003275256
B1612211956527N10339238WA0222902228001100003274250
B1612221956527N10339238WA0222802228001100002230146
B1612231956527N10339238WA0222802228001100001242084
B1612241956527N10339238WA0222702228001100000242058
B1612251956527N10339238WA0222702228001100000242064
B1612261956527N10339238WA0222602228001100001242056
B1612271956527N10339237WA0222502228001100002062045
B1612281956527N10339237WA0222402228001100002066053
B1612291956527N10339236WA0222402228001100004081070
B1612301956528N10339235WA0222202228001100009080063
B1612311956528N10339232WA0222402228001100014082164
B1612321956529N10339228WA0222502228001100019082058
B1612331956530N10339223WA0222502228001100023083051
B1612341956532N10339218WA0222302228001100024076044
B1612351956534N10339213WA0222102227001100025067058
B1612361956536N10339208WA0222002227001100025062079
B1612371956538N10339204WA0221902226001100025064096
B1612381956539N10339200WA0221802226001100026075092
B1612391956540N10339195WA0221502225001100028088098
B1612401956539N10339190WA0221502224001100031098094
B1612411956539N10339185WA0221302224001100031103097
B1612421956538N10339180WA0221202223001100031097086
B1612431956537N10339174WA0221102222001100033092093
B1612441956538N10339169WA0220902220001100037087095
B1612451956538N10339162WA0220702218001100039087089
B1612461956538N10339156WA0220802217001100038090089
B1612471956538N10339150WA0220902216001100035094095
B1612481956537N10339145WA0220902216001100032097092
B1612491956537N10339140WA0220802216001100028100091
B1612501956537N10339136WA0220802215001100028098086
B1612511956536N10339132WA0220802214001100030093072
B1612521956537N10339127WA0220602212001100030087068
B1612531956537N10339122WA0220502210001100032080069
B1612541956538N10339117WA0220302208001100034079073
B1612551956539N10339111WA0220302207001100034078083
B1612561956540N10339106WA0220402206001100033081101
B1612571956541N10339102WA0220302205001100028086096
B1612581956541N10339097WA0220102202001100028089075
B1612591956541N10339093WA0219802200001100030087069
B1613001956542N10339088WA0219702197001100032079068
B1613011956542N10339083WA0219602195001100032083073
B1613021956543N10339078WA0219702195001100030085067
B1613031956544N10339074WA0219602194001100024083071
B1613041956544N10339070WA0219402192001100025075066
B1613051956546N10339066WA0219202190001100028071067
B1613061956548N10339062WA0218902187001100030070069
B1613071956550N10339058WA0218802185001100030068062
B1613081956552N10339054WA0218702183001100029065063
B1613091956554N10339050WA0218702182001100026064074
B1613101956555N10339046WA0218602181001100023067063
B1613111956557N10339043WA0218402180001100025072070
B1613121956558N10339039WA0218102177001100031068063
B1613131956560N10339034WA0218002176001100035067062
B1613141956562N10339028WA0218102175001100036070078
B1613151956565N10339023WA0218302174001100036074099
B1613161956566N10339017WA0218502173001100035075080
B1613171956568N10339013WA0218402172001100031076064
B1613181956569N10339008WA0218402173001100028078059
B1613191956570N10339004WA0218202171001100031073062
B1613201956572N10338999WA0218102170001100034072092
B1613211956573N10338994WA0218002169001100034077094
B1613221956574N10338989WA0217802167001100032084084
B1613231956574N10338984WA0217702167001100031089074
B1613241956574N10338979WA0217602165001100031084076
B1613251956575N10338974WA0217302163001100032081087
B1613261956576N10338969WA0217202162001100034083090
B1613271956576N10338964WA0217202160001100033087093
B1613281956577N10338959WA0217102160001100030092096
B1613291956577N10338954WA0217002160001100028094093
B1613301956576N10338950WA0216902159001100028092092
B1613311956576N10338945WA0216802158001100029093094
B1613321956576N10338941WA0216602157001100030096095
B1613331956575N10338936WA0216502156001100031098089
B1613341956575N10338931WA0216402154001100031098098
B1613351956574N10338926WA0216302154001100030099103
B1613361956573N10338922WA0216202152001100030101114
B1613371956572N10338917WA0216002151001100030105126
B1613381956570N10338912WA0215902149001100032111125
B1613391956568N10338908WA0215802148001100032118129
B1613401956566N10338903WA0215702147001100031121116
B1613411956563N10338899WA0215602147001100030122118
B1613421956561N10338895WA0215502146001100030122120
B1613431956558N10338891WA0215402144001100031122121
B1613441956556N10338887WA0215202143001100032124113
B1613451956553N10338883WA0215102142001100032122108
B1613461956551N10338879WA0215102141001100032120106
B1613471956548N10338874WA0214902140001100032121116
B1613481956546N10338870WA0214802138001100032120105
B1613491956543N10338865WA0214702137001100033116099
B1613501956541N10338861WA0214702136001100032113102
B1613511956540N10338856WA0214602135001100030112110
B1613521956538N10338852WA0214602134001100028112112
B1613531956536N10338848WA0214502133001100027114094
B1613541956535N10338844WA0214602133001100029117088
B1613551956533N10338839WA0214602133001100033113105
B1613561956531N10338834WA0214702133001100035108103
B1613571956530N10338829WA0214802133001100034110126
B1613581956528N10338824WA0214702133001100033116123
B1613591956525N10338819WA0214602132001100033120104
B1614001956522N10338815WA0214402131001100033120086
B1614011956520N10338810WA0214202130001100034114093
B1614021956518N10338805WA0214102129001100033106091
B1614031956517N10338800WA0213902127001100032100091
B1614041956517N10338796WA0213802126001100031097087
B1614051956516N10338791WA0213602124001100031096074
B1614061956516N10338786WA0213402122001100031092078
B1614071956516N10338781WA0213302120001100031089072
B1614081956516N10338776WA0213202118001100030087072
B1614091956516N10338772WA0213002116001100028084071
B1614101956517N10338767WA0212802115001100029084068
B1614111956517N10338762WA0212602113001100031084069
B1614121956518N10338757WA0212502111001100032082055
B1614131956519N10338753WA0212402110001100030082070
B1614141956519N10338748WA0212302109001100028081068
B1614151956520N10338744WA0212102108001100027082074
B1614161956520N10338739WA0211902106001100028082072
B1614171956521N10338735WA0211802104001100030084089
B1614181956521N10338730WA0211702103001100030090096
B1614191956521N10338725WA0211602102001100030098111
B1614201956520N10338721WA0211502101001100028104087
B1614211956519N10338716WA0211302100001100029103088
B1614221956518N10338712WA0211102098001100031100098
B1614231956517N10338707WA0211002096001100033097089
B1614241956517N10338701WA0210802095001100035095076
B1614251956516N10338696WA0210802093001100033092062
B1614261956516N10338691WA0210802092001100031089070
B1614271956517N10338686WA0210702091001100027084077
B1614281956517N10338682WA0210602090001100026082076
B1614291956518N10338678WA0210402088001100029081070
B1614301956518N10338673WA0210202086001100033079067
B1614311956520N10338668WA0210002085001100036073080
B1614321956522N10338662WA0209902083001100036070074
B1614331956524N10338657WA0210202081001100036073073
B1614341956525N10338651WA0210302081001100036074076
B1614351956527N10338646WA0210202080001100031077073
B1614361956528N10338641WA0210002079001100031075073
B1614371956529N10338637WA0209602078001100032075073
B1614381956530N10338631WA0209402077001100038072072
B1614391956533N10338625WA0209302075001100040068069
B1614401956535N10338619WA0209402073001100037068080
B1614411956537N10338613WA0209602072001100039072073
B1614421956539N10338608WA0209602071001100035073075
B1614431956540N10338604WA0209502071001100030076065
B1614441956541N10338599WA0209402071001100032073069
B1614451956543N10338594WA0209502070001100035066076
B1614461956545N10338589WA0209702070001100034067080
B1614471956547N10338584WA0209902070001100033067079
B1614481956549N10338579WA0210002070001100031070086
B1614491956550N10338574WA0210102071001100029079079
B1614501956551N10338570WA0209902071001100030077082
B1614511956552N10338565WA0209702071001100031074078
B1614521956553N10338560WA0209402069001100035075075
B1614531956554N10338554WA0209402068001100040077073
B1614541956555N10338547WA0209302068001100042078083
B1614551956556N10338541WA0209302069001100039084088
B1614561956556N10338535WA0209202069001100037089080
B1614571956556N10338529WA0209102069001100037089074
B1614581956556N10338523WA0209002069001100037085071
B1614591956557N10338517WA0208902068001100040079069
B1615001956558N10338510WA0208802068001100040077053
B1615011956560N10338504WA0208902068001100037077054
B1615021956561N10338499WA0208902068001100033077066
B1615031956562N10338494WA0208902068001100029068069
B1615041956564N10338490WA0208902068001100025068079
B1615051956565N10338487WA0208702067001100024072068
B1615061956566N10338483WA0208302066001100025072063
B1615071956567N10338479WA0208102064001100027074052
B1615081956569N10338474WA0207902064001100035068063
B1615091956571N10338468WA0208002064001100034069078
B1615101956573N10338464WA0208102063001100030068070
B1615111956574N10338460WA0207902063001100024074063
B1615121956575N10338456WA0207502062001100025081051
B1615131956576N10338453WA0207102060001100025080055
B1615141956578N10338448WA0206902058001100035064056
B1615151956581N10338443WA0207002058001100033061060
B1615161956584N10338439WA0207202057001100031057060
B1615171956586N10338436WA0207102056001100023062046
B1615181956588N10338433WA0206702055001100020056049
B1615191956589N10338430WA0206202053001100021066045
B1615201956592N10338426WA0205902051001100033059046
B1615211956595N10338422WA0206002051001100031060056
B1615221956599N10338418WA0206202050001100031056064
B1615231956601N10338415WA0206202049001100018064053
B1615241956602N10338413WA0205902049001100016060047
B1615251956603N10338411WA0205402047001100016054053
B1615261956605N10338407WA0204802044001100027060054
B1615271956609N10338402WA0204602042001100035056058
B1615281956612N10338397WA0204702040001100035057058
B1615291956616N10338393WA0204802039001100032055058
B1615301956619N10338389WA0204602037001100026053055
B1615311956621N10338386WA0204302036001100025054054
B1615321956624N10338383WA0203802033001100028048058
B1615331956628N10338378WA0203302027001100039059058
B1615341956631N10338372WA0203002024001100044062062
B1615351956635N10338366WA0203002022001100042063058
B1615361956638N10338359WA0203102020001100043067055
B1615371956641N10338353WA0203102018001100041063061
B1615381956644N10338348WA0202902016001100039056065
B1615391956648N10338342WA0202702013001100040059068
B1615401956651N10338337WA0202402009001100042064061
B1615411956654N10338330WA0202302007001100044063057
B1615421956658N10338324WA0202202004001100044056051
B1615431956662N10338319WA0202102002001100042053055
B1615441956666N10338314WA0202102001001100041050059
B1615451956670N10338309WA0202002000001100040052055
B1615461956674N10338304WA0201901997001100042051047
B1615471956679N10338299WA0201801995001100042047044
B1615481956684N10338294WA0201601993001100042040049
B1615491956688N10338290WA0201701992001100040040042
B1615501956693N10338286WA0201701989001100037039044
B1615511956697N10338283WA0201701988001100033037042
B1615521956700N10338281WA0201701986001100025035041
B1615531956703N10338278WA0201401985001100024036043
B1615541956706N10338276WA0200901984001100024030044
B1615551956709N10338274WA0200501982001100024036040
B1615561956714N10338270WA0200501980001100039039047
B1615571956719N10338265WA0200701978001100040042062
B1615581956722N10338263WA0200701977001100025042046
B1615591956725N10338260WA0200501976001100024043043
B1616001956727N10338257WA0200001973001100024048042
B1616011956730N10338254WA0199501971001100032049036
B1616021956734N10338250WA0199401971001100032043054
B1616031956738N10338246WA0199601970001100027051077
B1616041956740N10338243WA0199701969001100023056065
B1616051956742N10338241WA0199501968001100020055051
B1616061956744N10338238WA0199001966001100020054043
B1616071956747N10338235WA0198401964001100025053039
B1616081956752N10338231WA0198301961001100039041047
B1616091956757N10338227WA0198301959001100039040044
B1616101956762N10338223WA0198501958001100033040049
B1616111956766N10338220WA0198501956001100029040045
B1616121956769N10338217WA0198301955001100029041043
B1616131956773N10338214WA0198001953001100030041056
B1616141956777N10338211WA0197801951001100035043087
B1616151956781N10338207WA0197701950001100033051100
B1616161956782N10338200WA0197601949001100036082105
B1616171956782N10338194WA0197401947001100040095112
B1616181956780N10338188WA0197301946001100037104092
B1616191956779N10338182WA0197301945001100034101077
B1616201956778N10338177WA0197101943001100034093075
B1616211956779N10338172WA0196701942001100033077067
B1616221956782N10338167WA0196601939001100034051053
B1616231956787N10338164WA0196401939001100030041034
B1616241956792N10338165WA0196301937001100024359034
B1616251956797N10338167WA0196301936001100023339014
B1616261956801N10338168WA0196101935001100026352005
B1616271956805N10338168WA0195701933001100029016013
B1616281956810N10338164WA0195301930001100039036032
B1616291956815N10338160WA0195201928001100038043050
B1616301956820N10338155WA0195301927001100037049046
B1616311956824N10338150WA0195401926001100036050053
B1616321956827N10338145WA0195301924001100036053053
B1616331956831N10338140WA0195001924001100037053056
B1616341956834N10338135WA0194601921001100037056057
B1616351956839N10338129WA0194401918001100044055058
B1616361956844N10338122WA0194301916001100041051030
B1616371956848N10338116WA0194401913001100049052053
B1616381956853N10338110WA0194601913001100038045057
B1616391956857N10338106WA0194501912001100032048052
B1616401956861N10338103WA0194201910001100031044052
B1616411956864N10338099WA0193801909001100032045043
B1616421956868N10338094WA0193701908001100036045044
B1616431956873N10338090WA0193701906001100040040048
B1616441956878N10338085WA0193801905001100037041050
B1616451956882N10338082WA0193701904001100031040048
B1616461956885N10338078WA0193401903001100032041051
B1616471956889N10338075WA0193001901001100034042036
B1616481956893N10338071WA0192801900001100038043046
B1616491956898N10338066WA0192701898001100042042047
B1616501956902N10338062WA0192601897001100038044049
B1616511956906N10338057WA0192501895001100038049053
B1616521956910N10338052WA0192201894001100040050052
B1616531956914N10338047WA0191901892001100042051049
B1616541956919N10338042WA0191601890001100044046054
B1616551956925N10338037WA0191401887001100048041050
B1616561956931N10338031WA0191401885001100047042044
B1616571956936N10338026WA0191401884001100045042046
B1616581956941N10338022WA0191301883001100040042050
B1616591956946N10338017WA0191101881001100041042058
B1617001956950N10338013WA0190901878001100042043060
B1617011956955N10338008WA0190501875001100045046059
B1617021956960N10338003WA0190401874001100046049064
B1617031956964N10337997WA0190301872001100045050059
B1617041956969N10337991WA0190301871001100044050059
B1617051956973N10337986WA0190401871001100041050076
B1617061956977N10337981WA0190401870001100039056073
B1617071956980N10337975WA0190301870001100039061060
B1617081956983N10337970WA0190201868001100042057049
B1617091956987N10337964WA0190001867001100043052047
B1617101956991N10337959WA0190001867001100044046055
B1617111956995N10337953WA0189901866001100043048063
B1617121956999N10337948WA0189801865001100042050058
B1617131957003N10337943WA0189701864001100042053054
B1617141957007N10337938WA0189601863001100040056060
B1617151957010N10337932WA0189401862001100041056050
B1617161957013N10337927WA0189301861001100041058064
B1617171957016N10337921WA0189101860001100042064072
B1617181957019N10337914WA0188901859001100043071063
B1617191957020N10337908WA0188901857001100043075075
B1617201957022N10337901WA0188801857001100041074075
B1617211957024N10337895WA0188601856001100041073074
B1617221957025N10337889WA0188401854001100042074074
B1617231957027N10337882WA0188101853001100043079080
B1617241957027N10337875WA0187901850001100046083080
B1617251957027N10337867WA0187301846001100045086078
B1617261957028N10337858WA0187101844001100057070079
B1617271957032N10337849WA0187001843001100057066084
B1617281957035N10337841WA0187001842001100055066087
B1617291957038N10337834WA0186801840001100048075077
B1617301957039N10337826WA0186501838001100047076064
B1617311957041N10337819WA0186101834001100049074060
B1617321957045N10337811WA0185701830001100059061060
B1617331957050N10337803WA0185501825001100061060064
B1617341957054N10337794WA0185401823001100061060069
B1617351957058N10337786WA0185201820001100055064066
B1617361957061N10337778WA0185001817001100048067063
B1617371957064N10337772WA0184701814001100048066065
B1617381957067N10337764WA0184301809001100055064057
B1617391957071N10337756WA0184101806001100053065060
B1617401957074N10337749WA0184001803001100053064056
B1617411957078N10337741WA0184001802001100052060064
B1617421957082N10337734WA0183901801001100050056058
B1617431957086N10337727WA0183701799001100050057063
B1617441957090N10337720WA0183301796001100052059061
B1617451957094N10337713WA0183101793001100054059059
B1617461957098N10337705WA0183001792001100053058056
B1617471957103N10337698WA0182901791001100053057065
B1617481957107N10337691WA0183001791001100054060066
B1617491957110N10337685WA0182901791001100047065063
B1617511957113N10337678WA0182701790001100046067061
B1617521957115N10337671WA0182501789001100046066053
B1617531957118N10337664WA0182201787001100045062055
B1617551957123N10337657WA0182001785001100054058093
B1617571957133N10337626WA0182001782001100046077059
B1617581957134N10337620WA0181901781001100039078054
B1617591957135N10337614WA0181701780001100038076070
B1618001957137N10337608WA0181501780001100037073084
B1618011957139N10337603WA0181301778001100039071073
B1618021957141N10337597WA0181101777001100043071052
B1618031957143N10337591WA0181101776001100041066039
B1618041957146N10337585WA0181001776001100039057042
B1618051957150N10337581WA0180901775001100036049046
B1618061957154N10337578WA0180801773001100034040047
B1618071957159N10337575WA0180601771001100035033038
B1618081957164N10337572WA0180401769001100038028035
B1618091957169N10337570WA0180301767001100037023039
B1618101957174N10337568WA0180301767001100034019048
B1618111957179N10337567WA0180301766001100030021052
B1618121957183N10337565WA0180101765001100030030052
B1618131957187N10337562WA0179901764001100031037057
B1618141957190N10337559WA0179701763001100034040060
B1618151957194N10337556WA0179601761001100034040062
B1618161957198N10337552WA0179401760001100033041076
B1618171957202N10337549WA0179401759001100031048070
B1618181957205N10337545WA0179301758001100030060072
B1618191957207N10337540WA0179101756001100032065062
B1618201957209N10337536WA0178901755001100035061057
B1618211957212N10337531WA0178801754001100036053050
B1618221957215N10337526WA0178701753001100037047054
B1618231957219N10337522WA0178601751001100036044064
B1618241957223N10337518WA0178601751001100035046071
B1618251957226N10337514WA0178501749001100035054070
B1618261957229N10337509WA0178401749001100035059063
B1618271957232N10337504WA0178301748001100036058058
B1618281957235N10337500WA0178201746001100037054067
B1618291957238N10337495WA0178101745001100037051074
B1618301957242N10337491WA0178201744001100035055075
B1618311957245N10337486WA0178201744001100033058074
B1618321957247N10337481WA0178101744001100033061074
B1618331957250N10337476WA0178101745001100035060052
B1618341957252N10337471WA0178201746001100035062087
B1618351957255N10337467WA0178401747001100031064084
B1618361957256N10337462WA0178401748001100029068090
B1618371957258N10337458WA0178501748001100030068081
B1618381957259N10337453WA0178501748001100033069071
B1618391957261N10337449WA0178401748001100034064083
B1618401957264N10337444WA0178401748001100031061089
B1618411957266N10337440WA0178401748001100029062088
B1618421957267N10337436WA0178301747001100029070101
B1618431957269N10337431WA0178201746001100031075090
B1618441957270N10337426WA0178101745001100030078097
B1618451957270N10337422WA0178001744001100029078086
B1618461957271N10337418WA0177901744001100027076094
B1618471957272N10337413WA0177701742001100029079089
B1618481957273N10337409WA0177501740001100030082079
B1618491957273N10337404WA0177301738001100032087062
B1618501957273N10337399WA0177101736001100032083057
B1618511957274N10337394WA0176901734001100031076067
B1618521957276N10337389WA0176801733001100031071087
B1618531957277N10337385WA0176701732001100032074087
B1618541957278N10337380WA0176501730001100035079101
B1618551957279N10337374WA0176401729001100035085105
B1618561957279N10337368WA0176301728001100034090105
B1618571957279N10337363WA0176201727001100034092112
B1618581957279N10337358WA0176001725001100034095104
B1618591957278N10337352WA0175901724001100035096105
B1619001957277N10337346WA0175701722001100037099110
B1619011957276N10337341WA0175601721001100038102108
B1619021957275N10337335WA0175501719001100037106108
B1619031957273N10337329WA0175401718001100037107108
B1619041957271N10337324WA0175301716001100036111108
B1619051957269N10337318WA0175201715001100035111113
B1619061957267N10337313WA0175101714001100035113106
B1619071957265N10337308WA0174901713001100037112097
B1619081957263N10337303WA0174801711001100038110094
B1619091957261N10337297WA0174601710001100037105072
B1619101957260N10337291WA0174601709001100035096070
B1619111957260N10337286WA0174401708001100033086078
B1619121957261N10337281WA0174301707001100034077076
B1619131957263N10337275WA0174201705001100036071072
B1619141957265N10337270WA0174101703001100036069068
B1619151957267N10337265WA0174001702001100035066068
B1619161957269N10337259WA0173901700001100035062076
B1619171957272N10337255WA0173801699001100034062082
B1619181957274N10337250WA0173701697001100034067084
B1619191957276N10337245WA0173501696001100034070056
B1619201957278N10337240WA0173401694001100033070075
B1619211957279N10337235WA0173301692001100034066071
B1619221957282N10337230WA0173201691001100034058070
B1619231957285N10337225WA0172901690001100037051069
B1619241957289N10337221WA0172901689001100039050069
B1619251957292N10337216WA0173001688001100037052072
B1619261957296N10337211WA0173001687001100036054077
B1619271957298N10337206WA0173001686001100033064080
B1619281957299N10337202WA0172901685001100031074076
B1619291957300N10337197WA0172701684001100033073063
B1619301957302N10337192WA0172501684001100033066073
B1619311957305N10337187WA0172301682001100037055079
B1619321957308N10337182WA0172401682001100037060086
B1619331957310N10337177WA0172301681001100037068085
B1619341957312N10337171WA0172301680001100037076077
B1619351957313N10337165WA0172201681001100035078078
B1619361957314N10337159WA0172101680001100037071079
B1619371957316N10337154WA0172101680001100038066076
B1619381957318N10337148WA0172001680001100041065075
B1619391957321N10337142WA0172001680001100042067081
B1619401957323N10337136WA0171901679001100040072084
B1619411957325N10337130WA0171801677001100041074081
B1619421957326N10337124WA0171601676001100041073072
B1619431957328N10337118WA0171301674001100042072075
B1619441957330N10337111WA0171201672001100042072091
B1619451957332N10337105WA0171001670001100043069068
B1619461957335N10337099WA0170901669001100043067083
B1619471957337N10337093WA0170801668001100040063054
B1619481957340N10337087WA0170601667001100038061100
B1619491957343N10337082WA0170401664001100037063078
B1619501957345N10337077WA0170201662001100038066077
B1619511957347N10337071WA0170001659001100040070075
B1619521957349N10337065WA0169801657001100041070072
B1619531957351N10337059WA0169701655001100041069075
B1619541957353N10337053WA0169601653001100040070079
B1619551957355N10337047WA0169501652001100038072075
B1619561957357N10337041WA0169301651001100037072079
B1619571957359N10337036WA0169101649001100038071078
B1619581957361N10337030WA0168801646001100040071079
B1619591957362N10337024WA0168601644001100041073081
B1620001957364N10337018WA0168401642001100041074088
B1620011957366N10337011WA0168401641001100039074082
B1620021957367N10337006WA0168201639001100037075081
B1620031957369N10337000WA0168101638001100036074101
B1620041957370N10336994WA0167801636001100038077085
B1620051957371N10336988WA0167601633001100040081082
B1620061957372N10336982WA0167401631001100042082092
B1620071957373N10336975WA0167301630001100040081068
B1620081957373N10336969WA0167201630001100036083087
B1620091957374N10336964WA0167001629001100034080081
B1620101957375N10336959WA0166901628001100033080100
B1620111957375N10336954WA0166801626001100031082105
B1620121957376N10336949WA0166601623001100032088103
B1620131957375N10336944WA0166401621001100033094087
B1620141957375N10336938WA0166101619001100034092063
B1620151957376N10336933WA0166001616001100031081068
B1620161957377N10336929WA0165801614001100029067089
B1620171957379N10336925WA0165601613001100029059090
B1620181957381N10336921WA0165501610001100030063094
B1620191957383N10336916WA0165301609001100033071101
B1620201957384N10336911WA0165201607001100033073090
B1620211957386N10336906WA0165101605001100031069108
B1620221957388N10336902WA0165001605001100028070091
B1620231957389N10336897WA0164901603001100028073101
B1620241957390N10336893WA0164701606001100031077095
B1620251957391N10336888WA0164501605001100033078094
B1620261957392N10336883WA0164401604001100034078080
B1620271957393N10336877WA0164401604001100033075094
B1620281957394N10336872WA0164501604001100031075104
B1620291957396N10336868WA0164601604001100028070102
B1620301957397N10336864WA0164601603001100027075105
B1620311957398N10336860WA0164501602001100029083110
B1620321957398N10336855WA0164301601001100030097113
B1620331957396N10336850WA0164001601001100034110124
B1620341957393N10336846WA0163801598001100038131132
B1620351957388N10336842WA0163601597001100038139143
B1620361957382N10336840WA0163601596001100037161139
B1620371957377N10336839WA0163601595001100033168145
B1620381957372N10336838WA0163401593001100030164136
B1620391957368N10336836WA0163101591001100031147137
B1620401957365N10336832WA0162901589001100034127125
B1620411957362N10336828WA0162801587001100034119121
B1620421957360N10336823WA0162801586001100033117126
B1620431957358N10336818WA0162701585001100030119113
B1620441957355N10336814WA0162701585001100029121131
B1620451957353N10336811WA0162601584001100028122139
B1620461957351N10336807WA0162501583001100027126135
B1620471957348N10336804WA0162301581001100028132136
B1620481957345N10336801WA0162001580001100031138140
B1620491957341N10336798WA0161901578001100035147139
B1620501957336N10336795WA0162001577001100035154150
B1620511957331N10336793WA0162101576001100033159154
B1620521957327N10336792WA0162001576001100027165150
B1620531957323N10336791WA0162001574001100027161150
B1620541957319N10336790WA0161801571001100030158152
B1620551957314N10336788WA0161501569001100035154154
B1620561957309N10336786WA0161301567001100035153161
B1620571957305N10336783WA0161101566001100034152156
B1620581957300N10336781WA0161001564001100034155165
B1620591957295N10336779WA0160801562001100035159148
B1621011957285N10336776WA0160401559001100035159147
B1621021957280N10336774WA0160101557001100036152165
B1621031957276N10336771WA0159901555001100037147165
B1621041957271N10336768WA0159801553001100037150185
B1621051957266N10336765WA0159601551001100039156164
B1621061957260N10336763WA0159401549001100038163169
B1621071957255N10336762WA0159201547001100036166170
B1621081957249N10336761WA0159101546001100035171181
B1621091957244N10336760WA0159001544001100036181192
B1621101957238N10336761WA0158701541001100039191200
B1621111957233N10336765WA0158401539001100043215211
B1621121957229N10336770WA0158101536001100040231233
B1621131957227N10336776WA0157701534001100041244249
B1621141957225N10336782WA0157401536001100038248263
B1621151957229N10336788WA0157001534001100032271218
B1621161957233N10336789WA0156701532001100019282253
B1621171957235N10336786WA0156601532001100000282280
B1621181957234N10336776WA0156601530001100030130283
B1621191957232N10336771WA0156601529001100029140123
B1621201957230N10336767WA0156501526001100029139125
B1621211957227N10336762WA0156201524001100033133122
B1621221957225N10336758WA0156001522001100034124123
B1621231957222N10336753WA0155901520001100034125122
B1621241957220N10336748WA0155901518001100033129118
B1621251957217N10336744WA0155801516001100031124109
B1621261957215N10336739WA0155701515001100028116096
B1621271957214N10336735WA0155601513001100027108094
B1621281957213N10336731WA0155501511001100028102090
B1621291957213N10336726WA0155401510001100029095073
B1621301957213N10336721WA0155201508001100028086059
B1621311957214N10336717WA0155001507001100028074048
B1621321957217N10336713WA0154801505001100030045032
B1621331957220N10336710WA0154701503001100030040014
B1621341957225N10336709WA0154601501001100029001005
B1621351957230N10336711WA0154401499001100027341342
B1621361957233N10336714WA0154101497001100024315327
B1621371957234N10336720WA0153801495001100032275307
B1621381957233N10336726WA0153501492001100032252265
B1621391957229N10336732WA0153201489001100040235237
B1621401957224N10336734WA0152701486001100031222218
B1621411957219N10336733WA0152301488001100023212239
B1621421957218N10336729WA0151901486001100012193218
B1621431957221N10336727WA0151601485001100000193171
B1621441957224N10336728WA0151401486001100000316166
B1621451957225N10336729WA0151201484001100010310164
B1621461957225N10336732WA0150801483001100014280351
B1621471957225N10336733WA0150201480001100011280312
B1621481957222N10336730WA0149701477001100000280314
B1621491957224N10336727WA0149501476001100001280312
B1621501957227N10336727WA0149101474001100010020304
B1621511957229N10336728WA0148701472001100007353355
B1621521957229N10336729WA0148201469001100007316028
B1621531957228N10336730WA0147901466001100006263357
B1621541957227N10336729WA0147401464001100000263330
B1621551957227N10336728WA0146801462001100000263324
B1621561957228N10336727WA0146301460001100009044313
B1621571957230N10336727WA0146001459001100010017000
B1621581957232N10336729WA0146101456001100011344346
B1621591957232N10336734WA0146301455001100012307343
B1622001957231N10336739WA0146601453001100020278322
B1622011957231N10336743WA0146401452001100021272300
B1622021957229N10336748WA0146001450001100023277302
B1622031957229N10336753WA0145801448001100025272290
B1622041957231N10336759WA0145701447001100035282303
B1622051957233N10336766WA0146001444001100036285311
B1622061957234N10336774WA0146201442001100037282327
B1622071957236N10336780WA0146301440001100035290308
B1622081957238N10336785WA0146201437001100033303322
B1622091957241N10336790WA0145901435001100034305313
B1622101957244N10336795WA0145801431001100038307338
B1622111957248N10336800WA0145601428001100037315005
B1622121957252N10336803WA0145401426001100033338007
B1622131957257N10336803WA0145101423001100033359007
B1622141957262N10336802WA0144801419001100033012355
B1622151957267N10336802WA0144601416001100031004348
B1622161957272N10336803WA0144101412001100034351345
B1622171957277N10336805WA0143801409001100031336343
B1622181957281N10336810WA0143601405001100036319332
B1622191957283N10336816WA0143801402001100037302322
B1622201957285N10336823WA0143901400001100036293311
B1622211957285N10336828WA0143801398001100031279309
B1622221957286N10336834WA0143501394001100030280303
B1622231957287N10336839WA0143201390001100030283300
B1622241957289N10336844WA0143001387001100038293309
B1622251957292N10336851WA0142801384001100041298289
B1622261957295N10336857WA0142901381001100042298311
B1622271957297N10336863WA0143001379001100040297305
B1622281957300N10336868WA0143001378001100036297305
B1622291957302N10336873WA0143001377001100036304306
B1622301957306N10336878WA0142901376001100036312315
B1622311957310N10336881WA0143001374001100040325326
B1622321957315N10336884WA0143001378001100038327330
B1622331957319N10336888WA0143001377001100036322333
B1622341957323N10336892WA0143001378001100034316349
B1622351957327N10336895WA0142801375001100030328352
B1622361957330N10336896WA0142301374001100023337000
B1622371957335N10336895WA0142001373001100032010003
B1622381957341N10336893WA0142001371001100038012023
B1622391957347N10336891WA0142101370001100036009027
B1622401957352N10336889WA0142101369001100030014034
B1622411957356N10336888WA0141701367001100032023044
B1622421957361N10336885WA0141401365001100033030044
B1622431957364N10336879WA0141201363001100038044052
B1622441957368N10336874WA0141101363001100040048059
B1622451957372N10336868WA0141201362001100039050065
B1622461957375N10336863WA0141201360001100036057074
B1622471957377N10336858WA0141201359001100033065072
B1622481957378N10336853WA0141101358001100029072078
B1622491957379N10336848WA0140901354001100030078083
B1622501957380N10336843WA0140701352001100032079091
B1622511957381N10336838WA0140501351001100031086090
B1622521957381N10336834WA0140701349001100028081098
B1622531957381N10336830WA0140701348001100021084101
B1622541957381N10336830WA0140701347001100006085215
B1622551957381N10336829WA0140701346001100003085349
B1622561957382N10336829WA0140701345001100005085042
B1622571957382N10336829WA0140701345001100005085073
B1622581957383N10336829WA0140701344001100000085073
B1622591957382N10336829WA0140701347001100000085073
B1623001957382N10336829WA0140701348001100000085073
B1623011957382N10336829WA0140701348001100000085073
B1623021957382N10336829WA0140701348001100000085073
B1623031957382N10336829WA0140701348001100000085073
B1623041957382N10336829WA0140701348001100000085073
B1623051957382N10336829WA0140701348001100000085073
B1623061957382N10336829WA0140701348001100000085073
B1623071957382N10336829WA0140701348001100000085073
B1623081957382N10336829WA0140701348001100000085073
B1623091957382N10336829WA0140701348001100000085073
B1623101957382N10336829WA0140701348001100000085073
B1623111957382N10336829WA0140701348001100000085073
B1623121957382N10336829WA0140701348001100000085073
B1623131957382N10336829WA0140701348001100000085073
B1623141957382N10336829WA0140701348001100000085073
B1623151957382N10336829WA0140701348001100000085073
B1623161957382N10336829WA0140701348001100000085073
B1623171957382N10336829WA0140701348001100000085069
B1623181957382N10336829WA0140701348001100000085066
B1623191957382N10336829WA0140701348001100000085051
B1623201957382N10336829WA0140701348001100000085058
B1623211957382N10336829WA0140701348001100000085058
B1623221957382N10336829WA0140701348001100000085061
B1623231957382N10336829WA0140701348001100000085064
B1623241957382N10336829WA0140701348001100000085067
B1623251957382N10336829WA0140701348001100000085068
B1623261957382N10336829WA0140701348001100000085069
B1623271957382N10336829WA0140701348001100000085072
B1623281957382N10336829WA0140701348001100000085063
GEoTjmKTTjsLihoCjkU+x56VjhXi+H4BzEVneNDgZjy/kBi31BCl9/xv8w9vBpXLr
GXRYAAeG1WyqJe0XHWo2y3AhS+1YZS6uSLXR894eB6wRnYuzKP9BT+J2PN49Itpu8
GgMx6KobdAl3zePPPpQKydHxz1nxLlIgjMx6ZTie9FUo=

