AXFH000
HFDTE110724
HFPLTPILOT:Scott O’Brien
HFGTYGLIDERTYPE:BGD Epic
HFDTM100GPSDATUM:WGS84
HFRFWFIRMWAREVERSION:8.2.3
HFRHWHARDWAREVERSION:Unknown device (iPhone15,4)
HFFTYFRTYPE:Flyskyhy,8.2.3
HFGPS:Internal
HFPRSVARIO:Internal Vario
HFCCLCOMPETITIONCLASS:Paraglider
HFTZNTIMEZONE:-7
HFSITSITE:Tollhouse,US
I053638FXA3941VXA4244GSP4547CCO4850HDT
C110724012819100724000106TASK
C0000000N00000000ETAKEOFF
C3645916N11905906W00004009999999000000360000STARTAREA DNLNCH
C3645916N11905906W00000000000400000000360000TURNAREA DNLNCH
C3644815N11904600W00000000000400000000360000TURNAREA SONTAG
C3644227N11904778W00000000000400000000360000TURNAREA LASTCH
C3645916N11905906W00000000000400000000360000TURNAREA DNLNCH
C3645983N11907769W00000000000400000000360000TURNAREA BIGCAT
C3644130N11906307W00000000000400000000360000TURNAREA DNLPLZ
C3644130N11906307W00004009999999000000360000FINISHAREA DNLPLZ
C0000000N00000000ELANDING
B0128503700899N11922392WA0124401244010019001010359
B0128513700899N11922393WA0124401244010019000000006
B0128523700900N11922393WA0124401244010019000000031
B0128533700900N11922393WA0124401244010019000000054
B0128543700900N11922393WA0124401244010019001229057
B0128553700900N11922393WA0124401244010019002245064
B0128563700899N11922394WA0124401244010019003261081
B0128573700899N11922394WA0124401244010019001118060
B0128583700899N11922394WA0124401244010019001156044
B0128593700899N11922394WA0124401244010019003216069
B0129003700898N11922393WA0124401244010019002192072
B0129013700898N11922393WA0124401243010019002187077
B0129023700897N11922393WA0124401243010019001126066
B0129033700897N11922393WA0124401243010019001238076
B0129043700897N11922393WA0124301243010019001095021
B0129053700897N11922393WA0124301243010019001286249
B0129063700897N11922394WA0124301242010019004202229
B0129073700897N11922395WA0124301242010019007219249
B0129083700896N11922396WA0124201242010019009238236
B0129093700895N11922399WA0124201241010019013237241
B0129103700894N11922402WA0124101240010019016231232
B0129113700892N11922405WA0124101240010019018225233
B0129123700890N11922407WA0124001240010019021221224
B0129133700887N11922410WA0124001240010019024217213
B0129143700884N11922413WA0124001240010019025208197
B0129153700881N11922415WA0124001240010019026192188
B0129163700876N11922415WA0123901239010019029178178
B0129173700872N11922414WA0123901239010019034165175
B0129193700867N11922412WA0123801238010019036162170
B0129203700856N11922407WA0123601235010019037156165
B0129213700851N11922404WA0123601234010019039153163
B0129223700845N11922400WA0123501233010019041152153
B0129233700840N11922396WA0123401232010019041148146
B0129243700835N11922392WA0123401231010019042138139
B0129253700831N11922386WA0123301230010019042128136
B0129263700827N11922380WA0123301229010019042123146
B0129273700824N11922373WA0123401229010019037119143
B0129283700821N11922367WA0123401229010019034120154
B0129293700818N11922362WA0123401228010019033124148
B0129303700816N11922357WA0123501228010019033123147
B0129313700813N11922351WA0123601228010019034122151
B0129333700810N11922346WA0123701228010019035126148
B0129343700807N11922341WA0123701228010019035132145
B0129353700803N11922336WA0123801228010019036136148
B0129363700799N11922331WA0123801228010019038134151
B0129373700795N11922326WA0123801228010019038130153
B0129383700792N11922321WA0123901228010019035129152
B0129393700788N11922316WA0123901229010019034131153
B0129403700785N11922311WA0123901229010019033134153
B0129413700781N11922307WA0123901229010019032139153
B0129423700778N11922304WA0123901230010019031147157
B0129433700774N11922301WA0123901230010019029151163
B0129443700770N11922299WA0123901230010019026160168
B0129453700764N11922299WA0124001230010019022213174
B0129463700761N11922303WA0124001230010019026232214
B0129473700760N11922307WA0123901230010019023258231
B0129483700760N11922311WA0123901230010019021290253
B0129493700762N11922314WA0123801230010019025312278
B0129503700765N11922318WA0123801230010019029317294
B0129513700769N11922322WA0123801230010019028318294
B0129523700772N11922326WA0123801231010019028314290
B0129533700775N11922331WA0123801231010019027306287
B0129543700778N11922335WA0123801231010019025302283
B0129553700780N11922339WA0123801231010019022305284
B0129563700782N11922343WA0123801231010019022301282
B0129573700784N11922347WA0123901232010019024293272
B0129583700785N11922351WA0123901232010019025292275
B0129593700787N11922355WA0123901232010019024295276
B0130003700788N11922359WA0123901233010019024296274
B0130013700790N11922363WA0124001233010019024299274
B0130023700792N11922367WA0124001234010019021305268
B0130033700794N11922370WA0124101234010019020306272
B0130043700796N11922373WA0124301235010019022298264
B0130053700797N11922377WA0124401236010019025294278
B0130063700799N11922382WA0124501236010019027300292
B0130073700802N11922386WA0124601237010019031313302
B0130083700806N11922390WA0124601238010019033329317
B0130093700810N11922393WA0124701239010019033339315
B0130103700815N11922394WA0124801240010019032345311
B0130113700819N11922396WA0124901241010019032347319
B0130123700824N11922397WA0125101242010019032345316
B0130133700829N11922399WA0125101244010019035343319
B0130143700834N11922401WA0125201244010019037342316
B0130153700839N11922403WA0125301245010019036340314
B0130163700844N11922405WA0125401246010019035338305
B0130173700849N11922408WA0125401247010019034336307
B0130183700853N11922410WA0125501248010019031331298
B0130193700857N11922413WA0125501249010019031326297
B0130203700861N11922416WA0125601250010019028321298
B0130213700864N11922420WA0125701251010019029318297
B0130223700867N11922423WA0125801251010019028319312
B0130233700871N11922427WA0125901252010019027322308
B0130243700874N11922430WA0125901253010019028330309
B0130253700878N11922432WA0126001254010019031334310
B0130263700882N11922435WA0126201255010019032333315
B0130273700886N11922438WA0126301256010019032333310
B0130283700890N11922440WA0126401257010019029334323
B0130293700894N11922442WA0126501258010019027337316
B0130303700898N11922444WA0126501259010019028341313
B0130313700902N11922446WA0126601260010019031338311
B0130323700906N11922449WA0126701261010019033329312
B0130333700910N11922452WA0126801262010019032324319
B0130343700914N11922455WA0126801263010019030326325
B0130353700918N11922458WA0126801264010019031331325
B0130363700922N11922461WA0126801264010019032335319
B0130373700927N11922463WA0126901265010019034337315
B0130383700932N11922466WA0126901265010019035336315
B0130393700936N11922469WA0126901265010019032333319
B0130403700940N11922471WA0126901266010019029332316
B0130413700945N11922474WA0126901266010019031336322
B0130423700949N11922476WA0127001267010019031341321
B0130433700954N11922478WA0127001267010019033342320
B0130443700958N11922480WA0127101268010019036341317
B0130453700964N11922482WA0127101268010019037341320
B0130463700969N11922484WA0127201269010019035340315
B0130473700973N11922486WA0127201270010019031337309
B0130483700977N11922489WA0127201271010019029332304
B0130493700982N11922492WA0127301271010019032330299
B0130503700986N11922495WA0127401272010019035328305
B0130513700990N11922498WA0127501272010019035326300
B0130523700995N11922502WA0127501273010019035324301
B0130533700999N11922505WA0127601274010019029326307
B0130543701002N11922508WA0127701275010019027330306
B0130553701006N11922511WA0127901276010019029330300
B0130563701010N11922514WA0128001277010019031323290
B0130573701013N11922518WA0128101277010019030311270
B0130583701015N11922522WA0128201278010019025292250
B0130593701016N11922527WA0128301279010019022265231
B0131003701014N11922530WA0128401280010019022223213
B0131013701011N11922531WA0128401281010019031176190
B0131023701006N11922529WA0128401282010019041143162
B0131033701002N11922522WA0128401282010019048116134
B0131043701000N11922513WA0128401283010019048094111
B0131053701001N11922505WA0128301283010019047071090
B0131063701004N11922497WA0128301284010019047052068
B0131073701009N11922490WA0128301284010019045041043
B0131083701014N11922485WA0128301284010019044035034
B0131093701020N11922481WA0128401284010019043036029
B0131103701025N11922476WA0128401285010019043038026
B0131113701030N11922471WA0128401285010019046039024
B0131123701035N11922465WA0128501285010019047036025
B0131133701041N11922460WA0128501285010019044033019
B0131143701046N11922456WA0128601285010019041028015
B0131153701052N11922453WA0128601286010019041027008
B0131163701057N11922450WA0128701287010019041024358
B0131173701063N11922447WA0128801287010019039016343
B0131183701068N11922446WA0128901288010019039005335
B0131193701074N11922446WA0129001289010019035351319
B0131203701079N11922448WA0129101290010019032338299
B0131213701083N11922450WA0129201291010019026326289
B0131223701085N11922453WA0129301291010019018304269
B0131233701086N11922456WA0129401292010019015270253
B0131243701085N11922458WA0129401293010019016220237
B0131253701082N11922459WA0129401294010019025184218
B0131263701078N11922459WA0129501295010019031162197
B0131273701073N11922456WA0129601296010019029154196
B0131283701070N11922454WA0129701297010019023159199
B0131293701067N11922454WA0129801298010019017184203
B0131303701064N11922455WA0129801299010019017213222
B0131313701062N11922457WA0129901300010019018223228
B0131323701060N11922459WA0130001301010019015222227
B0131333701059N11922460WA0130101302010019011202227
B0131343701057N11922461WA0130301303010019010205226
B0131353701056N11922462WA0130401304010019011205218
B0131363701054N11922463WA0130501305010019014206214
B0131373701052N11922464WA0130701305010019018189205
B0131383701049N11922464WA0130801306010019022177198
B0131393701045N11922463WA0130801307010019025172192
B0131403701042N11922462WA0130901308010019024170188
B0131413701038N11922461WA0130901309010019024159185
B0131423701035N11922459WA0130901310010019023158182
B0131433701031N11922458WA0131001311010019022163191
B0131443701028N11922457WA0131101312010019024168182
B0131453701025N11922456WA0131201313010019025167181
B0131463701021N11922454WA0131301314010019024161178
B0131473701018N11922453WA0131301314010019024155181
B0131483701014N11922451WA0131301315010019024153183
B0131493701011N11922449WA0131301316010019023154192
B0131503701008N11922447WA0131301316010019025156205
B0131513701004N11922445WA0131301317010019027163225
B0131523701001N11922445WA0131301317010019021186245
B0131533700998N11922447WA0131201318010019019231264
B0131543700999N11922450WA0131201318010019025292288
B0131553701002N11922455WA0131101319010019037326313
B0131563701008N11922457WA0131001319010019049002334
B0131573701015N11922454WA0131001319010019050026356
B0131583701022N11922449WA0131001319010019050038014
B0131593701028N11922443WA0130901318010019044035015
B0132003701033N11922439WA0130901318010019040026002
B0132013701039N11922436WA0130901317010019042013347
B0132023701046N11922434WA0130901316010019042001333
B0132033701052N11922435WA0130801315010019038345321
B0132043701057N11922438WA0130801314010019030322304
B0132053701059N11922442WA0130701314010019023280282
B0132063701058N11922446WA0130701313010019022238255
B0132073701056N11922449WA0130701313010019024200235
B0132083701052N11922449WA0130801313010019025172209
B0132093701048N11922448WA0130801312010019023162198
B0132103701045N11922447WA0130901312010019020167197
B0132113701042N11922447WA0131001312010019021180199
B0132123701039N11922447WA0131001312010019026184199
B0132133701035N11922447WA0131001311010019027179197
B0132143701031N11922447WA0131001311010019026174200
B0132153701027N11922446WA0131001311010019025174200
B0132163701023N11922446WA0131001311010019023174197
B0132173701020N11922445WA0130901311010019023176199
B0132183701016N11922445WA0130901311010019024178200
B0132193701013N11922445WA0130901311010019028179202
B0132203701008N11922445WA0130901311010019031177201
B0132213701004N11922445WA0130901311010019030176205
B0132223700999N11922445WA0130901311010019029176208
B0132233700995N11922444WA0130901311010019024179204
B0132243700992N11922444WA0130901311010019024178203
B0132253700988N11922444WA0130901311010019023175203
B0132263700985N11922444WA0131001311010019023169200
B0132273700982N11922443WA0131101311010019025175195
B0132283700978N11922443WA0131101311010019026176192
B0132293700974N11922442WA0131201311010019025170186
B0132303700971N11922441WA0131301311010019025157193
B0132313700967N11922439WA0131301312005010024157213
B0132323700964N11922438WA0131401312005010023167227
B0132333700961N11922437WA0131401312005010020180239
B0132343700958N11922438WA0131501312005010020197245
B0132353700956N11922439WA0131501313005010017223258
B0132363700955N11922442WA0131501313005010016272271
B0132373700956N11922445WA0131401313005010009318289
B0132383700957N11922446WA0131301313005010009347297
B0132393700960N11922447WA0131301313005010015354299
B0132403700963N11922446WA0131201314005010014013312
B0132413700968N11922444WA0131201314005010023027314
B0132423700973N11922441WA0131301314005010036029348
B0132433700979N11922438WA0131301314005010036021358
B0132443700986N11922436WA0131401313005010036004345
B0132453700993N11922436WA0131501313005010034343328
B0132463700998N11922438WA0131601313005010032342306
B0132473701002N11922440WA0131601313005010028337303
B0132483701006N11922442WA0131601312005010026332297
B0132493701009N11922445WA0131501312005010022318293
B0132503701010N11922448WA0131501312005010019305283
B0132513701011N11922450WA0131401313005010013317274
B0132523701010N11922450WA0131401314005010017135274
B0132533701007N11922447WA0131401314005010022130188
B0132543701004N11922443WA0131501314005010023147174
B0132553700998N11922439WA0131601313005010028173189
B0132563700991N11922437WA0131601312005010031175201
B0132573700986N11922436WA0131601312005010029178201
B0132583700979N11922435WA0131501311005010023180200
B0132593700975N11922434WA0131401311005010023176200
B0133013700970N11922433WA0131401311005010026173199
B0133023700959N11922430WA0131301310005010029172190
B0133043700954N11922429WA0131201310005010029167184
B0133053700945N11922425WA0131201309005010028156185
B0133073700940N11922422WA0131201309005010030155185
B0133083700931N11922418WA0131201308005010034162182
B0133103700926N11922416WA0131201307005010031160177
B0133113700917N11922411WA0131101307005010029150181
B0133133700913N11922408WA0131101306005010032153180
B0133143700903N11922403WA0131001304005010036157168
B0133163700899N11922400WA0130901303005010034148167
B0133173700891N11922393WA0130701301005010030136176
B0133193700887N11922389WA0130601299005010029143180
B0133203700879N11922383WA0130501297005010032152181
B0133223700875N11922380WA0130401296005010031152183
B0133243700867N11922375WA0130301295005010028146182
B0133253700860N11922369WA0130301294005010029150176
B0133263700856N11922366WA0130301294005010029147182
B0133273700852N11922363WA0130401294005010029147188
B0133283700849N11922360WA0130401295005010028146196
B0133293700845N11922358WA0130501295005010026155199
B0133303700841N11922356WA0130601296005010026164210
B0133323700838N11922355WA0130701296005010024167226
B0133333700834N11922354WA0130801297005010021173237
B0133353700830N11922356WA0130901297005010018253260
B0133373700831N11922363WA0130901297010019018319289
B0133383700834N11922364WA0130801298010019020349304
B0133393700838N11922365WA0130801298005010030358318
B0133403700844N11922364WA0130801299005010037012334
B0133413700849N11922363WA0130801299005010037008339
B0133423700855N11922363WA0130801299005010038001332
B0133433700861N11922363WA0130801299005010038354321
B0133443700867N11922364WA0130801299005010034345312
B0133453700871N11922366WA0130801299005010029338307
B0133463700875N11922368WA0130801298005010027326300
B0133473700878N11922371WA0130801298005010026315296
B0133483700881N11922375WA0130701298005010027308300
B0133493700884N11922379WA0130701298005010030310300
B0133503700887N11922383WA0130601297005010030313298
B0133513700891N11922387WA0130501297005010030316299
B0133523700894N11922391WA0130401296005010030314299
B0133533700897N11922395WA0130401296005010031312300
B0133543700901N11922400WA0130301295005010032313303
B0133553700904N11922404WA0130101295005010034319305
B0133563700908N11922408WA0130101294005010034323300
B0133573700912N11922412WA0130001294005010033324304
B0133583700916N11922415WA0129901294005010032323305
B0133593700920N11922419WA0129901293005010032323310
B0134003700924N11922422WA0129901293005010035326312
B0134013700929N11922426WA0129801293005010037329310
B0134023700934N11922429WA0129801293005010037331312
B0134033700939N11922433WA0129801293005010036333315
B0134043700944N11922435WA0129801293005010034334319
B0134053700949N11922438WA0129801294005010033340321
B0134063700953N11922440WA0129801294005010032346322
B0134073700958N11922441WA0129801295005010033350323
B0134083700963N11922442WA0129801295005010035350327
B0134093700969N11922443WA0129801294005010038348335
B0134103700975N11922444WA0129801294005010042349337
B0134113700981N11922446WA0129801294005010042352339
B0134123700987N11922446WA0129801295005010039000337
B0134133700993N11922446WA0129801295005010036002335
B0134143700999N11922446WA0129801296005010035358338
B0134153701004N11922446WA0129801296005010042359342
B0134163701011N11922446WA0129801295005010044000343
B0134173701017N11922445WA0129801294005010044004340
B0134183701024N11922445WA0129701293005010041005335
B0134193701029N11922444WA0129601293005010037003332
B0134203701035N11922444WA0129501292005010036357327
B0134213701040N11922445WA0129501291005010036353332
B0134223701046N11922446WA0129401291005010039349328
B0134233701051N11922447WA0129301290005010039348327
B0134243701057N11922449WA0129301290005010038347323
B0134253701062N11922450WA0129301290005010035346322
B0134263701067N11922452WA0129301290005010035345314
B0134273701073N11922454WA0129401290005010037341308
B0134283701078N11922456WA0129401290005010038337289
B0134293701083N11922460WA0129401289005010036328278
B0134303701087N11922463WA0129401289005010031315268
B0134313701089N11922468WA0129401289005010024295261
B0134323701090N11922472WA0129401289005010021278252
B0134333701090N11922475WA0129401288005010018258249
B0134343701089N11922478WA0129401288005010015241239
B0134353701088N11922480WA0129401288005010016231229
B0134363701086N11922482WA0129401288005010017219221
B0134373701083N11922483WA0129301288005010016202206
B0134383701081N11922484WA0129301288005010015193197
B0134393701079N11922483WA0129301288005010015164196
B0134403701077N11922482WA0129401288005010016150197
B0134413701074N11922480WA0129401288005010016157200
B0134423701071N11922479WA0129401287005010019171202
B0134433701068N11922478WA0129401287005010020180201
B0134443701065N11922478WA0129401287005010020182206
B0134453701062N11922478WA0129401287005010020179209
B0134463701058N11922478WA0129301286005010020183213
B0134473701055N11922478WA0129201286005010019192215
B0134483701052N11922479WA0129201286005010019198211
B0134493701049N11922480WA0129101285005010020197208
B0134503701046N11922481WA0129001285005010021191205
B0134513701043N11922481WA0129001285005010020186202
B0134523701040N11922482WA0129001284005010020183203
B0134533701037N11922482WA0128901284005010019182201
B0134543701034N11922482WA0128801284005010020180209
B0134553701031N11922482WA0128801283005010020182223
B0134563701028N11922482WA0128701283005010021191238
B0134573701025N11922484WA0128601282010019021209240
B0134583701022N11922486WA0128501281010019023218238
B0134593701020N11922489WA0128401281010019020239242
B0135003701019N11922492WA0128301280010019018241247
B0135013701018N11922495WA0128301280010019017241250
B0135023701016N11922498WA0128201280010019018247254
B0135033701016N11922502WA0128101279010019022256257
B0135043701015N11922506WA0128101278010019024262253
B0135053701015N11922511WA0128001278010019024262254
B0135063701014N11922515WA0127901277010019023259252
B0135073701013N11922519WA0127901277005010022256248
B0135083701012N11922523WA0127901277005010021253246
B0135093701012N11922527WA0127901276005010023253240
B0135103701011N11922531WA0127901276005010024252238
B0135113701009N11922535WA0127801275005010024247235
B0135123701008N11922539WA0127801275005010024238233
B0135133701006N11922543WA0127801275005010023233232
B0135143701004N11922546WA0127801275005010022233226
B0135153701002N11922550WA0127801274005010022232213
B0135163701000N11922553WA0127801274005010022231201
B0135173700998N11922556WA0127801274005010023222195
B0135183700994N11922558WA0127801274005010027194191
B0135193700990N11922558WA0127701273005010028178181
B0135203700985N11922557WA0127701272005010030164171
B0135213700981N11922555WA0127601272005010032152161
B0135223700977N11922551WA0127501271005010035137152
B0135233700973N11922545WA0127401270005010039121143
B0135243700971N11922538WA0127401269005010043109131
B0135253700969N11922530WA0127401268005010044100120
B0135263700968N11922522WA0127301267005010041097117
B0135273700967N11922515WA0127201266005010038098121
B0135283700966N11922508WA0127201266005010038105130
B0135293700964N11922501WA0127101265005010039114142
B0135303700961N11922495WA0127101265005010039121154
B0135313700958N11922489WA0127101264005010036129164
B0135323700955N11922484WA0127101264005010031139171
B0135333700951N11922481WA0127101263005010030148175
B0135343700947N11922478WA0127101263005010030150175
B0135353700943N11922475WA0127101262005010030149175
B0135363700939N11922473WA0127101262005010029149175
B0135373700936N11922470WA0127101262005010029150173
B0135383700932N11922467WA0127001262005010029151167
B0135393700928N11922465WA0127001261005010031149163
B0135403700924N11922461WA0127001261005010032146159
B0135413700920N11922458WA0127001261005010031142158
B0135423700916N11922455WA0127001261005010032140160
B0135433700913N11922451WA0127001261005010033141160
B0135443700909N11922447WA0127001261005010034141160
B0135453700905N11922443WA0127001261005010034140158
B0135463700901N11922439WA0127001261005010033139159
B0135473700897N11922435WA0127001261005010032137162
B0135483700894N11922431WA0127001261005010032137174
B0135493700890N11922427WA0127001262005010032140186
B0135503700886N11922423WA0127001262005010032148204
B0135513700882N11922421WA0127001262005010031163216
B0135523700878N11922420WA0127001261005010027184228
B0135533700874N11922421WA0127001261010019029199241
B0135543700870N11922424WA0126901261010019026220250
B0135553700868N11922427WA0126901260010019020250259
B0135563700868N11922430WA0126801260010019012286271
B0135573700869N11922432WA0126701260010019010308277
B0135583700872N11922434WA0126701260010019010338278
B0135593700875N11922436WA0126701259005010020343288
B0136003700881N11922437WA0126701259005010029357314
B0136013700886N11922438WA0126701259005010032351329
B0136023700892N11922439WA0126701258005010034343324
B0136033700898N11922441WA0126701257005010035335321
B0136043700903N11922444WA0126701257005010032329317
B0136053700908N11922447WA0126601257005010028328312
B0136063700912N11922449WA0126601256005010026331311
B0136073700916N11922451WA0126601256005010026330309
B0136083700920N11922454WA0126701256005010026329314
B0136093700924N11922456WA0126701256005010029327320
B0136103700929N11922459WA0126801257005010031329316
B0136113700934N11922462WA0126801257005010031335318
B0136123700939N11922465WA0126801257005010030339320
B0136133700943N11922467WA0126801257005010029341319
B0136143700948N11922468WA0126801258005010030339326
B0136153700953N11922471WA0126801258005010033338323
B0136163700958N11922473WA0126801258005010034340327
B0136173700963N11922475WA0126801258005010032344323
B0136183700967N11922476WA0126801258005010031347311
B0136193700972N11922478WA0126701258005010031347297
B0136203700977N11922479WA0126701258005010030337282
B0136213700981N11922482WA0126701258005010029319273
B0136223700983N11922486WA0126701257005010027294262
B0136233700985N11922491WA0126601257005010028273243
B0136243700984N11922496WA0126601257005010025255230
B0136253700983N11922500WA0126501257005010018215221
B0136263700980N11922501WA0126501257005010015192204
B0136273700978N11922500WA0126401257005010012159198
B0136283700977N11922497WA0126401256005010016127191
B0136293700975N11922493WA0126401256005010029116167
B0136303700972N11922486WA0126401255005010034126150
B0136313700969N11922480WA0126401254005010032135160
B0136323700965N11922475WA0126401254005010031147170
B0136333700960N11922472WA0126401253005010032154181
B0136343700955N11922469WA0126401252005010032163189
B0136353700950N11922467WA0126301251005010028174192
B0136363700945N11922466WA0126301250005010025176194
B0136373700941N11922465WA0126301249005010025174194
B0136383700937N11922464WA0126201249005010025173191
B0136393700933N11922463WA0126201248005010028173190
B0136403700928N11922462WA0126201247005010036172191
B0136413700922N11922461WA0126201247005010036172188
B0136423700917N11922459WA0126201247005010029175188
B0136433700913N11922459WA0126201247005010026168186
B0136443700909N11922457WA0126301248005010025164177
B0136453700905N11922456WA0126301248005010026164178
B0136463700900N11922454WA0126301249005010029166164
B0136473700896N11922452WA0126301249005010035157160
B0136483700887N11922445WA0126301250005010033139160
B0136503700883N11922441WA0126201250005010031134153
B0136513700876N11922433WA0126201252005010032138146
B0136523700873N11922428WA0126201252005010033129136
B0136533700870N11922423WA0126301253005010035118136
B0136543700867N11922417WA0126401254005010036117142
B0136553700864N11922411WA0126401255005010035124156
B0136563700861N11922406WA0126501255005010030136168
B0136573700858N11922403WA0126601256005010031146178
B0136583700853N11922400WA0126601256005010031157196
B0136593700849N11922398WA0126601256005010031170214
B0137003700845N11922398WA0126601255005010027190228
B0137013700841N11922400WA0126501255005010028215246
B0137023700839N11922404WA0126401254005010025248261
B0137033700839N11922409WA0126301254005010022286279
B0137043700840N11922413WA0126101253005010022299295
B0137053700842N11922416WA0126001253005010024310298
B0137063700846N11922418WA0125901252005010027346301
B0137073700850N11922419WA0125801251005010028348325
B0137083700855N11922420WA0125801251005010030348329
B0137093700860N11922421WA0125801250005010032346325
B0137103700865N11922422WA0125801250005010033342319
B0137113700870N11922424WA0125801250005010030336313
B0137123700874N11922426WA0125901249005010027324309
B0137133700878N11922429WA0125901249005010024318304
B0137143700881N11922432WA0125901249005010024319303
B0137153700884N11922435WA0125901249005010027320304
B0137163700888N11922438WA0125901248005010029317305
B0137173700891N11922442WA0125901248005010029314303
B0137183700895N11922446WA0125801248005010028313303
B0137193700898N11922449WA0125701248005010027316301
B0137203700901N11922452WA0125701248005010026318297
B0137213700904N11922455WA0125701248005010027317303
B0137223700907N11922459WA0125601248005010028314303
B0137233700910N11922463WA0125601248005010027313308
B0137243700913N11922466WA0125701248005010027320318
B0137253700917N11922469WA0125701248005010025334332
B0137263700920N11922471WA0125701248005010025345341
B0137273700924N11922471WA0125801248005010029000338
B0137283700929N11922471WA0125801248005010035003340
B0137293700934N11922471WA0125801248005010037000335
B0137303700940N11922471WA0125801248005010035356332
B0137313700945N11922471WA0125801248005010033356330
B0137323700950N11922472WA0125701247005010031355323
B0137333700954N11922472WA0125601247005010029351318
B0137343700958N11922474WA0125601247005010030341318
B0137353700963N11922476WA0125501246005010032332315
B0137363700967N11922479WA0125401245005010032329323
B0137373700971N11922482WA0125401245005010028334323
B0137383700974N11922483WA0125401246005010023349320
B0137393700978N11922484WA0125401246005010022349313
B0137403700981N11922485WA0125401246005010024339310
B0137413700985N11922487WA0125401247005010032327311
B0137423700989N11922491WA0125401247005010033323306
B0137433700992N11922494WA0125401247005010029322304
B0137443700996N11922498WA0125301247005010026320302
B0137453700998N11922501WA0125201247005010026319300
B0137463701001N11922504WA0125101247005010026318304
B0137473701004N11922507WA0125101247005010027313295
B0137483701007N11922511WA0125101247005010031307293
B0137493701010N11922516WA0125001246005010029303289
B0137503701012N11922520WA0125001246005010027299282
B0137513701014N11922525WA0124901246005010025297277
B0137523701015N11922529WA0124801246005010024294273
B0137533701017N11922533WA0124701246005010024291269
B0137543701018N11922537WA0124601245005010023283261
B0137553701018N11922541WA0124601245005010024273253
B0137563701018N11922546WA0124501244005010025261231
B0137573701017N11922551WA0124401244005010026246225
B0137583701015N11922555WA0124201244005010026229213
B0137593701011N11922558WA0124001243005010028206203
B0138003701007N11922559WA0123801243005010028181192
B0138013701003N11922558WA0123701242005010029163180
B0138023700998N11922555WA0123501241005010030150169
B0138043700995N11922552WA0123401240005010030144159
B0138053700991N11922548WA0123301239005010028143159
B0138063700987N11922545WA0123201238005010028145157
B0138073700984N11922542WA0123101238005010031149156
B0138083700979N11922539WA0123001236005010033151154
B0138093700975N11922536WA0122901235005010034146152
B0138103700971N11922532WA0122801234005010034142153
B0138113700967N11922528WA0122701233005010034142152
B0138123700963N11922524WA0122701232005010032145154
B0138133700959N11922521WA0122601231005010032147161
B0138143700954N11922518WA0122501230005010033148159
B0138153700950N11922515WA0122401229010019035151165
B0138163700945N11922512WA0122301228010019035155164
B0138173700940N11922509WA0122301227010019033155169
B0138183700936N11922507WA0122201226010019031156175
B0138193700931N11922504WA0122201225010019031160187
B0138203700927N11922503WA0122101224010019032163190
B0138213700922N11922502WA0122101223010019033176191
B0138223700917N11922502WA0122001222010019034181193
B0138233700912N11922502WA0121901221010019033182188
B0138243700907N11922502WA0121801220010019031177186
B0138253700903N11922502WA0121701219010019030174178
B0138263700898N11922501WA0121701218010019031172170
B0138273700893N11922500WA0121601217010019033171175
B0138283700888N11922499WA0121601216010019035171175
B0138293700883N11922498WA0121601215010019034174179
B0138303700878N11922498WA0121501215010019033175178
B0138313700874N11922497WA0121501214010019031169179
B0138323700869N11922496WA0121501213010019030167183
B0138333700865N11922495WA0121501212010019030170181
B0138343700860N11922494WA0121601211010019032175182
B0138353700855N11922494WA0121601210010019033173172
B0138363700850N11922492WA0121601209010019032165172
B0138373700846N11922491WA0121501208010019031161172
B0138383700841N11922489WA0121401207010019032162170
B0138393700837N11922487WA0121401206005010032163163
B0138403700832N11922485WA0121301205010019032159153
B0138413700828N11922483WA0121101204005010031153148
B0138423700824N11922480WA0121001203005010032145139
B0138433700820N11922476WA0120901202005010035139140
B0138443700816N11922471WA0120801201005010037138136
B0138453700812N11922467WA0120701199005010037139137
B0138463700808N11922462WA0120701198005010037138131
B0138473700804N11922457WA0120501196005010039134135
B0138483700800N11922452WA0120401195005010039131138
B0138493700796N11922446WA0120301194005010041131139
B0138503700791N11922440WA0120201192005010042134143
B0138513700787N11922435WA0120101191005010043137143
B0138523700782N11922429WA0120001189005010044137145
B0138533700777N11922424WA0119901188005010044137150
B0138543700773N11922418WA0119801186005010041137156
B0138553700768N11922413WA0119701185005010039138160
B0138563700764N11922409WA0119501184005010039140163
B0138573700759N11922404WA0119401183005010041143166
B0138583700754N11922400WA0119401182005010039144174
B0138593700750N11922396WA0119301181005010036148176
B0139003700745N11922393WA0119301181005010036155176
B0139013700740N11922390WA0119301181005010036159182
B0139023700735N11922388WA0119301181005010035159191
B0139033700730N11922385WA0119301181005010033159206
B0139043700726N11922383WA0119401182005010032164212
B0139053700721N11922383WA0119501182005010028182219
B0139063700717N11922384WA0119601183005010025207227
B0139073700714N11922387WA0119701183005010026216240
B0139083700712N11922390WA0119801184005010023227249
B0139093700710N11922393WA0119901184005010019246252
B0139103700709N11922396WA0120001184005010014261264
B0139113700711N11922399WA0120101185005010016309272
B0139123700714N11922402WA0120101186005010023340301
B0139133700718N11922403WA0120201187005010027354330
E013913Waypoint TOLLLN reached
B0139143700723N11922403WA0120401188005010026017344
B0139153700727N11922401WA0120501188005010034028007
B0139163700732N11922397WA0120601188005010036033022
B0139173700736N11922393WA0120701189005010030046028
B0139183700736N11922387WA0120701189010019048115039
B0139193700733N11922378WA0120701188005010047116126
B0139203700729N11922370WA0120701188005010040119126
B0139213700726N11922365WA0120801187005010032124132
B0139223700722N11922363WA0120801187010019022175141
B0139233700718N11922363WA0120901188010019021179205
B0139243700714N11922364WA0121101188010019024196215
B0139253700711N11922366WA0121201187010019026213229
B0139263700707N11922370WA0121301187010019027229242
B0139273700704N11922374WA0121401187010019024242250
B0139283700702N11922378WA0121401187010019019249254
B0139293700701N11922381WA0121401187010019017250262
B0139303700700N11922384WA0121501187010019016250275
B0139313700699N11922387WA0121501187010019017258285
B0139323700699N11922391WA0121501187010019023269289
B0139333700700N11922396WA0121501187010019028298289
B0139343700702N11922400WA0121501187010019028314302
B0139353700705N11922404WA0121501187010019029315303
B0139363700708N11922408WA0121501187005010024316301
B0139373700710N11922411WA0121501187005010021317297
B0139383700712N11922414WA0121601188005010021316291
B0139393700715N11922417WA0121701188005010021310287
B0139403700716N11922420WA0121801188005010022297293
B0139413700718N11922424WA0122001189005010023290299
B0139423700719N11922428WA0122101189005010024297304
B0139433700721N11922432WA0122201190005010024313316
B0139443700723N11922435WA0122301191005010024324324
B0139453700726N11922437WA0122401191005010025330340
B0139463700730N11922440WA0122501193005010027340356
B0139473700734N11922441WA0122601193005010031357006
B0139483700738N11922441WA0122701194005010025006020
B0139493700742N11922440WA0122701195005010034015026
B0139503700748N11922437WA0122701195005010044030039
B0139513700752N11922431WA0122601195005010041065054
B0139523700751N11922423WA0122401196005010051113084
B0139533700748N11922414WA0122201195005010050116132
B0139543700743N11922408WA0122101195005010042163131
B0139553700737N11922406WA0122101196005010039166178
B0139563700731N11922404WA0122101197005010025166178
B0139573700728N11922403WA0122201197005010023163182
B0139583700724N11922401WA0122301198005010023159186
B0139593700720N11922400WA0122601199005010031165186
B0140003700715N11922399WA0122701199005010035171189
B0140013700710N11922398WA0122901200005010031177192
B0140023700706N11922398WA0122901201005010028176203
B0140033700701N11922397WA0122901202005010027176223
B0140043700697N11922397WA0123001203005010027187232
B0140053700693N11922399WA0123001203005010027211243
B0140063700690N11922402WA0123001204005010029228257
B0140073700688N11922407WA0123001205005010026252267
B0140083700688N11922411WA0123001205010019027291279
B0140093700690N11922416WA0123001206010019028317297
B0140103700693N11922419WA0122901207010019027333314
B0140113700697N11922420WA0122901208005010027347324
B0140123700701N11922422WA0122901209005010028347333
B0140133700705N11922423WA0122901210005010031346339
B0140143700710N11922424WA0122901211005010032353342
B0140153700715N11922424WA0123001212005010030001341
B0140163700719N11922424WA0123001214005010028008348
B0140173700723N11922423WA0123101217005010027010355
B0140183700727N11922422WA0123201219005010029011356
B0140193700731N11922421WA0123401221005010033015354
B0140203700736N11922419WA0123501223005010037021358
B0140213700741N11922416WA0123601225005010037027358
B0140223700745N11922413WA0123701226005010032028003
B0140233700750N11922411WA0123701227005010032022003
B0140243700754N11922408WA0123601228005010033021004
B0140253700759N11922406WA0123601229005010037021005
B0140263700764N11922404WA0123501229005010036020006
B0140273700769N11922401WA0123301228005010035020005
B0140283700774N11922399WA0123201228005010036017004
B0140293700780N11922397WA0123201227005010036017004
B0140303700785N11922395WA0123101227005010036014002
B0140313700790N11922393WA0123001226005010035014355
B0140323700795N11922392WA0122901226005010034013352
B0140333700800N11922391WA0122801225005010034010345
B0140343700805N11922390WA0122801224005010034004340
B0140353700810N11922390WA0122701224005010034355333
B0140363700815N11922391WA0122701223005010034346321
B0140373700820N11922393WA0122601222005010033338313
B0140383700824N11922395WA0122501221005010031330302
B0140393700827N11922399WA0122501221005010029322301
B0140403700830N11922402WA0122401220005010026312294
B0140413700833N11922406WA0122401219005010025304295
B0140423700835N11922410WA0122301219005010026302301
B0140433700837N11922415WA0122301218005010028303308
B0140443700841N11922423WA0122201217005010025313307
B0140463700844N11922426WA0122201216005010027321315
B0140473700848N11922429WA0122201216005010030327317
B0140483700856N11922435WA0122201215010019032330312
B0140493700860N11922438WA0122201215010019034332311
B0140503700864N11922441WA0122201214010019034331313
B0140513700869N11922444WA0122201214010019030327309
B0140523700872N11922447WA0122101214010019029324306
B0140533700876N11922450WA0122101213010019030328317
B0140543700880N11922453WA0122201213010019031333311
B0140553700884N11922456WA0122201213010019032331310
B0140563700888N11922459WA0122201212010019031325311
B0140573700892N11922462WA0122201212010019029323308
B0140583700895N11922466WA0122201212010019029323305
B0140593700899N11922469WA0122201212010019030324308
B0141003700903N11922472WA0122201212010019030325312
B0141013700906N11922475WA0122101211010019031322312
B0141023700910N11922479WA0122101211010019035323310
B0141033700915N11922483WA0122101211010019036328310
B0141043700919N11922486WA0122101211010019034328308
B0141053700923N11922489WA0122001210010019030329306
B0141063700927N11922492WA0122001210010019031328310
B0141073700932N11922495WA0122001210010019034329307
B0141083700936N11922499WA0122001210010019036327310
B0141093700940N11922502WA0122001210010019035323309
B0141103700944N11922506WA0122001210010019033323312
B0141113700948N11922510WA0122101211010019031327317
B0141123700953N11922513WA0122101211010019032332321
B0141133700957N11922515WA0122201211010019034337324
B0141143700962N11922518WA0122201211010019036342325
B0141153700967N11922520WA0122301211010019039344328
B0141163700973N11922522WA0122401212010019037343311
B0141173700978N11922524WA0122401212010019033340302
B0141183700982N11922526WA0122501213010019029331288
B0141193700986N11922529WA0122601213010019027314278
B0141203700988N11922533WA0122601214010019028292264
B0141213700988N11922538WA0122601214010019027260249
B0141223700986N11922542WA0122701214010019027224230
B0141233700983N11922544WA0122701214010019030181211
B0141243700978N11922543WA0122701215010019033148186
B0141253700975N11922539WA0122601215010019033129161
B0141263700972N11922534WA0122601216010019029127155
B0141273700969N11922530WA0122501216010019025139159
B0141283700966N11922527WA0122501217010019026149168
B0141293700962N11922525WA0122601217010019028157158
B0141303700958N11922523WA0122601217010019030157166
B0141313700954N11922521WA0122601218010019029151159
B0141323700950N11922518WA0122701218010019028146159
B0141333700947N11922515WA0122701219010019028140150
B0141343700944N11922511WA0122801220010019029137151
B0141353700940N11922508WA0122801220010019029136147
B0141363700937N11922504WA0122901221010019028133148
B0141373700934N11922500WA0122901222010019029133149
B0141383700931N11922496WA0122901222010019030137154
B0141393700928N11922493WA0122901222010019031144157
B0141403700924N11922489WA0122901223010019032149156
B0141413700920N11922486WA0122901223010019034149155
B0141423700915N11922483WA0122901223010019035143141
B0141433700911N11922478WA0122901224010019034132137
B0141443700908N11922473WA0123001224010019031124142
B0141453700905N11922469WA0123001225010019029127149
B0141463700902N11922465WA0123001225010019030135152
B0141473700899N11922461WA0123001225010019031139151
B0141483700895N11922457WA0123001225010019035138157
B0141493700891N11922452WA0122901225010019034140165
B0141503700887N11922449WA0122901224010019034145173
B0141513700883N11922446WA0122801224010019033155178
B0141523700878N11922443WA0122701224010019036162179
B0141533700873N11922441WA0122601223010019037160180
B0141543700868N11922439WA0122501222010019035159181
B0141553700863N11922437WA0122501222010019033163183
B0141563700858N11922435WA0122401222010019035167181
B0141573700852N11922434WA0122301221010019037164174
B0141583700847N11922432WA0122301221010019036162166
B0141593700842N11922429WA0122301221010019035154170
B0142003700838N11922426WA0122301221010019034151159
B0142013700833N11922423WA0122301221010019036152161
B0142023700828N11922420WA0122401221010019037150155
B0142033700824N11922416WA0122401221010019038142148
B0142043700820N11922412WA0122501221005010035136152
B0142053700816N11922407WA0122601222005010031136150
B0142063700813N11922403WA0122601223005010031139159
B0142073700809N11922400WA0122701224005010030138161
B0142083700806N11922396WA0122801225005010032138162
B0142093700802N11922392WA0122901226005010034141176
B0142103700798N11922388WA0123001227005010034151180
B0142113700793N11922386WA0123101227005010035164182
B0142123700788N11922384WA0123101228005010035168181
B0142133700783N11922383WA0123101228005010032166179
B0142143700778N11922381WA0123101229005010031159181
B0142153700774N11922379WA0123101229005010030158182
B0142163700770N11922377WA0123101229005010032163177
B0142173700765N11922376WA0123101230005010036167171
B0142183700759N11922374WA0123101230005010039162163
B0142193700754N11922371WA0123001230005010040154159
B0142203700749N11922367WA0123001230005010039149160
B0142213700744N11922364WA0122901231005010037149160
B0142223700739N11922360WA0122901231005010037150161
B0142233700734N11922357WA0122901231005010039149160
B0142243700729N11922352WA0122801230005010041144158
B0142253700724N11922348WA0122801230005010040140162
B0142263700719N11922343WA0122801230005010039142171
B0142273700715N11922339WA0122701230005010038147177
B0142283700710N11922336WA0122701230005010035153179
B0142293700705N11922333WA0122701230005010033153178
B0142303700701N11922330WA0122701230005010034154181
B0142313700696N11922327WA0122801230005010036158195
B0142323700691N11922326WA0122801230005010036168199
B0142333700686N11922325WA0123001230005010032181202
B0142343700682N11922325WA0123101230005010030183199
B0142353700677N11922325WA0123201231005010029172200
B0142363700673N11922324WA0123301231005010030168207
B0142373700668N11922324WA0123401232005010030176217
B0142383700664N11922324WA0123501232005010028190225
B0142393700661N11922326WA0123501232005010026215233
B0142403700658N11922329WA0123601232005010024228243
B0142413700656N11922333WA0123601233005010022259254
B0142423700657N11922337WA0123601233005010024283272
B0142433700658N11922342WA0123601233005010029300289
B0142443700661N11922346WA0123501233005010031311298
B0142453700664N11922351WA0123501233005010027314302
B0142463700666N11922354WA0123501233005010024308299
B0142473700668N11922358WA0123501233005010021298303
B0142483700670N11922362WA0123501233005010024306312
B0142493700673N11922365WA0123501233005010027321321
B0142503700676N11922367WA0123501234005010029341333
B0142513700681N11922368WA0123501234005010028357351
B0142523700685N11922367WA0123601234005010029022359
B0142533700689N11922365WA0123701234005010037021028
B0142543700694N11922360WA0123701234005010045045036
B0142553700698N11922353WA0123801234005010051068055
B0142563700700N11922344WA0123801234005010051080081
B0142573700700N11922334WA0123801234005010048094095
B0142583700699N11922326WA0123901234005010046111108
B0142593700695N11922318WA0123901234005010043122131
B0143003700691N11922312WA0123901235005010040138145
B0143013700686N11922308WA0124001235005010037161163
B0143023700681N11922307WA0124001234005010035183184
B0143033700676N11922308WA0124101234005010030202205
B0143043700672N11922311WA0124101233010019026210223
B0143053700669N11922313WA0124101232010019020210234
B0143063700666N11922315WA0124101232010019021206236
B0143073700663N11922317WA0124001231010019023217247
B0143083700661N11922320WA0124001230010019025238250
B0143093700659N11922324WA0123901230010019024252261
B0143103700659N11922329WA0123801229010019020273270
B0143113700659N11922332WA0123801228010019019279276
B0143123700660N11922336WA0123701227010019021283280
B0143133700660N11922340WA0123701227010019024286285
B0143143700661N11922345WA0123601226010019026288289
B0143153700663N11922349WA0123601225005010024293287
B0143163700664N11922353WA0123501225005010021298290
B0143173700666N11922357WA0123501224005010021303292
B0143183700668N11922360WA0123401224005010023305296
B0143193700670N11922364WA0123401223005010025307300
B0143203700672N11922367WA0123401223005010025310303
B0143213700675N11922371WA0123301223005010025316306
B0143223700677N11922374WA0123301222005010025319306
B0143233700680N11922377WA0123301222005010026321306
B0143243700683N11922380WA0123201222005010027323309
B0143253700687N11922383WA0123201221005010028326311
B0143263700690N11922386WA0123201221005010029326312
B0143273700694N11922389WA0123101220005010030328315
B0143283700698N11922392WA0123101220005010030332315
B0143293700702N11922394WA0123001219005010029336315
B0143303700706N11922397WA0123001219005010028337309
B0143313700710N11922399WA0122901219005010028335314
B0143323700714N11922401WA0122901218005010029331319
B0143333700717N11922404WA0122801218005010030329322
B0143343700721N11922406WA0122801217005010030333324
B0143353700726N11922409WA0122801217005010031340321
B0143363700730N11922410WA0122801217005010031342319
B0143373700734N11922412WA0122801217005010030342319
B0143383700738N11922414WA0122801217010019030338316
B0143393700743N11922416WA0122701217005010031335315
B0143403700747N11922419WA0122701217005010031335314
B0143413700751N11922421WA0122801218005010029334308
B0143423700755N11922424WA0122801218005010026330299
B0143433700758N11922426WA0122801218005010026322295
B0143443700761N11922430WA0122801217005010028311292
B0143453700764N11922434WA0122801217005010027304290
B0143463700766N11922438WA0122701217005010026298290
B0143473700767N11922442WA0122601217005010023297286
B0143483700769N11922446WA0122601217005010022301285
B0143493700771N11922449WA0122501217005010021301281
B0143503700772N11922452WA0122501217005010021294273
B0143513700773N11922457WA0122401216005010028284268
B0143523700774N11922462WA0122301215005010028276248
B0143533700774N11922467WA0122201215005010027262240
B0143543700773N11922472WA0122201214005010028241227
B0143553700770N11922476WA0122001213005010030219220
B0143563700766N11922479WA0121801213005010033198211
B0143573700761N11922480WA0121601212005010034181200
B0143583700756N11922480WA0121401211005010037170190
B0143593700750N11922478WA0121301211005010037165180
B0144003700745N11922476WA0121201210005010039159175
B0144013700740N11922472WA0121001209005010041150170
B0144023700735N11922468WA0121001209005010041138162
B0144033700730N11922462WA0120901208005010041128151
B0144043700727N11922456WA0120901208005010042120135
B0144053700724N11922449WA0120901207005010043117124
B0144063700721N11922441WA0120901207005010044112118
B0144073700719N11922433WA0121001206005010044106111
B0144083700718N11922425WA0121001206005010041100110
B0144093700717N11922418WA0121001206005010039102109
B0144103700715N11922411WA0121001206005010037106112
B0144113700714N11922404WA0121001205005010038107113
B0144123700712N11922397WA0121001205005010041106112
B0144133700710N11922389WA0121001204005010045109121
B0144143700707N11922381WA0121001204005010044113121
B0144153700704N11922374WA0120901204005010044118124
B0144163700701N11922367WA0120901204005010042119134
B0144173700698N11922360WA0120801204005010041120156
B0144183700695N11922353WA0120801203005010040127165
B0144193700690N11922348WA0120801203005010040144181
B0144203700685N11922345WA0120801203005010037168195
B0144213700680N11922345WA0120801202005010029190213
B0144223700676N11922347WA0120701202005010027196232
B0144233700673N11922348WA0120601201005010019216238
B0144243700673N11922352WA0120501201005010021275252
B0144253700674N11922357WA0120401200010019025296285
B0144263700676N11922362WA0120301199010019027307295
B0144273700679N11922366WA0120201197010019027315301
B0144283700682N11922370WA0120201196010019028322305
B0144293700686N11922374WA0120101195010019029326308
B0144303700690N11922377WA0120001195010019030329306
B0144313700694N11922380WA0120001194010019028330308
B0144323700698N11922382WA0119901194010019027328308
B0144333700701N11922385WA0119901194010019031328304
B0144343700706N11922388WA0120001193010019032333304
B0144353700710N11922391WA0120001193010019029333301
B0144363700714N11922393WA0120001194010019028330303
B0144373700717N11922395WA0120001194010019026326307
B0144383700721N11922398WA0120001194010019028325310
B0144393700725N11922401WA0120001193010019035330307
B0144403700730N11922404WA0120001193010019035332302
B0144413700734N11922407WA0120001193010019028326299
B0144423700737N11922411WA0120001193010019027316304
B0144433700740N11922414WA0119901193010019028317306
B0144443700743N11922418WA0119901193010019029321308
B0144453700746N11922421WA0119901192010019029326310
B0144463700750N11922424WA0119901192010019028327313
B0144473700753N11922426WA0119901192010019026327316
B0144483700757N11922429WA0119801192010019027328315
B0144493700760N11922432WA0119801192010019030330315
B0144503700765N11922435WA0119801191010019033330311
B0144513700769N11922438WA0119801191010019032330306
B0144523700773N11922440WA0119801191010019030328301
B0144533700776N11922443WA0119801191010019026328296
B0144543700780N11922446WA0119801191010019025325302
B0144553700783N11922449WA0119801191010019028318306
B0144563700786N11922453WA0119901191010019031315305
B0144573700789N11922457WA0119901192010019030317302
B0144583700793N11922460WA0120001193010019028319290
B0144593700796N11922464WA0120201195010019025314276
B0145003700798N11922467WA0120301196010019025298259
B0145013700799N11922472WA0120401197010019024283249
B0145023700799N11922476WA0120601199010019024259239
B0145033700797N11922480WA0120601200010019024230228
B0145043700794N11922482WA0120701201010019028193215
B0145053700790N11922482WA0120701202010019033170196
B0145063700785N11922480WA0120701203010019034149175
B0145073700781N11922476WA0120601205010019034129156
B0145083700778N11922470WA0120601206010019037112134
B0145093700777N11922463WA0120601207010019041094113
B0145103700777N11922455WA0120701207010019046080088
B0145113700779N11922446WA0120701208005010046066070
B0145123700783N11922439WA0120701208005010044046052
B0145133700788N11922434WA0120701208005010043027029
B0145143700794N11922432WA0120701208005010041006008
B0145153700800N11922433WA0120601208005010039342347
B0145163700805N11922436WA0120601208005010035319326
B0145173700808N11922441WA0120501208005010029294306
B0145183700809N11922445WA0120501208010019023276282
B0145193700809N11922449WA0120501208010019018264269
B0145203700809N11922452WA0120501209010019017268261
B0145213700809N11922456WA0120601209010019019270263
B0145223700808N11922460WA0120601209010019027262264
B0145233700808N11922466WA0120701209010019030260260
B0145243700807N11922471WA0120701210010019028261266
B0145253700807N11922476WA0120801210010019021261261
B0145263700806N11922480WA0120801210010019018261257
B0145273700806N11922483WA0120801210010019020260262
B0145283700805N11922487WA0120901210010019023259266
B0145293700805N11922491WA0120901211010019024262269
B0145303700805N11922496WA0120901211010019024270273
B0145313700805N11922500WA0120901211010019022279276
B0145323700806N11922504WA0120801211010019023285275
B0145333700807N11922508WA0120801212010019026288282
B0145343700808N11922513WA0120701212010019029291288
B0145353700810N11922518WA0120701212010019029297297
B0145363700812N11922522WA0120601212010019028300301
B0145373700815N11922526WA0120601212010019026307296
B0145383700818N11922529WA0120601212010019026317295
B0145393700820N11922532WA0120701213010019025313286
B0145403700823N11922536WA0120701213010019028303272
B0145413700825N11922540WA0120801213010019027290255
B0145423700826N11922545WA0120801213010019026274248
B0145433700825N11922550WA0120801212010019025247239
B0145443700824N11922554WA0120701212010019027236231
B0145453700821N11922558WA0120701212010019027213227
B0145463700817N11922560WA0120601212010019029196214
B0145473700812N11922561WA0120501212010019028190198
B0145483700808N11922561WA0120301211010019028178192
B0145493700803N11922560WA0120201211010019032162182
B0145503700798N11922557WA0120101211010019037143168
B0145513700794N11922552WA0120001210010019040127149
B0145523700791N11922545WA0119901210005010040110134
B0145533700790N11922538WA0119901210005010039099113
B0145543700789N11922530WA0119801209005010039094104
B0145553700788N11922522WA0119801208005010040095103
B0145563700787N11922514WA0119701207005010041098104
B0145573700786N11922506WA0119701206005010041101110
B0145583700785N11922499WA0119601206005010042103113
B0145593700783N11922491WA0119601205005010042106122
B0146003700781N11922484WA0119501204005010041110127
B0146013700779N11922477WA0119401204005010041115129
B0146023700776N11922470WA0119401203005010036117139
B0146033700774N11922464WA0119401203005010034117140
B0146043700771N11922458WA0119401203005010034116139
B0146053700769N11922453WA0119501203005010036118134
B0146063700766N11922446WA0119601202005010039119128
B0146073700764N11922440WA0119701202005010039117129
B0146083700761N11922433WA0119701202005010039112142
B0146093700759N11922427WA0119801202005010037114156
B0146103700756N11922421WA0119901202005010034129163
B0146113700752N11922417WA0119901202005010033146173
B0146123700748N11922414WA0119901202005010031161185
B0146133700744N11922413WA0120001201005010027172200
B0146143700740N11922413WA0120001201005010024185211
B0146153700737N11922414WA0120001201005010023192224
B0146163700734N11922415WA0120001201005010021205232
B0146173700731N11922417WA0120001201005010019222241
B0146183700730N11922420WA0120001200005010020251250
B0146193700729N11922424WA0120001200005010022267263
B0146203700730N11922429WA0119901200005010025287273
B0146213700731N11922433WA0119901199005010025300289
B0146223700734N11922437WA0119901199005010025315300
B0146233700737N11922440WA0119801198005010026328310
B0146243700741N11922443WA0119801197005010028335319
B0146253700745N11922445WA0119801196005010031345330
B0146263700750N11922446WA0119701196005010032355339
B0146273700755N11922446WA0119701196005010034005345
B0146283700760N11922445WA0119801196005010035014350
B0146293700765N11922443WA0119801195005010034020344
B0146303700770N11922440WA0119801195005010036018339
B0146313700776N11922438WA0119801195005010038011332
B0146323700781N11922437WA0119801195005010037002331
B0146333700787N11922438WA0119801195005010035352323
B0146343700792N11922439WA0119901196005010032341314
B0146353700796N11922442WA0120001196005010026319306
B0146363700798N11922445WA0120001196005010025294289
B0146373700799N11922450WA0120001196005010024281276
B0146383700799N11922454WA0120001196005010022271266
B0146393700799N11922458WA0119901196010019017263254
B0146403700799N11922461WA0119901196010019017267240
B0146413700798N11922465WA0119801196010019017249233
B0146423700796N11922467WA0119801196010019024214223
B0146433700792N11922469WA0119801196010019031188204
B0146443700787N11922469WA0119701196010019034171187
B0146453700782N11922466WA0119701197010019034147174
B0146463700777N11922462WA0119701197010019035131157
B0146473700774N11922457WA0119701198010019035123140
B0146483700771N11922451WA0119601198010019035120131
B0146493700768N11922445WA0119601198010019037118125
B0146503700766N11922438WA0119601198010019039114120
B0146513700763N11922431WA0119601198010019041112121
B0146523700761N11922424WA0119501198010019041111124
B0146533700759N11922417WA0119501198010019040111132
B0146543700756N11922410WA0119501198010019038115142
B0146553700753N11922404WA0119401198010019038121152
B0146563700750N11922398WA0119401198010019038129162
B0146573700746N11922392WA0119401198010019036136175
B0146583700742N11922388WA0119401198010019034146181
B0146593700738N11922386WA0119401198010019029158193
B0147003700734N11922384WA0119301198010019026170201
B0147013700731N11922384WA0119301198010019024186210
B0147023700727N11922386WA0119301199010019022202223
B0147033700725N11922388WA0119401199010019019231235
B0147043700724N11922391WA0119401199010019019263251
B0147053700725N11922395WA0119401199010019024287269
B0147063700726N11922400WA0119401199010019025305283
B0147073700729N11922404WA0119401198005010025319298
B0147083700732N11922406WA0119401198005010025332307
B0147093700736N11922408WA0119401197005010026340314
B0147103700740N11922410WA0119401196005010027343318
B0147113700744N11922411WA0119501195005010028344321
B0147123700749N11922412WA0119501195005010029346327
B0147133700753N11922413WA0119601194005010032348321
B0147143700758N11922415WA0119601192005010032349318
B0147153700763N11922416WA0119601192005010031344310
B0147163700767N11922418WA0119501191005010029334301
B0147173700771N11922421WA0119501190005010028321294
B0147183700774N11922425WA0119401190005010026311284
B0147193700776N11922428WA0119401190005010022301274
B0147203700778N11922432WA0119401190005010019289268
B0147213700778N11922435WA0119401190005010018279264
B0147223700779N11922439WA0119401190010019020274263
B0147233700779N11922443WA0119501189010019022270268
B0147243700779N11922447WA0119501189010019021272270
B0147253700779N11922451WA0119501189010019022277274
B0147263700780N11922455WA0119501189010019019287274
B0147273700781N11922458WA0119501189010019019291277
B0147283700782N11922462WA0119601189010019020295278
B0147293700783N11922465WA0119601189010019022297274
B0147303700785N11922469WA0119701189010019023296268
B0147313700786N11922473WA0119701189010019022289255
B0147323700787N11922477WA0119701189010019021274244
B0147333700787N11922481WA0119801189010019023268238
B0147343700787N11922485WA0119801189010019022258234
B0147353700785N11922489WA0119801189010019021226230
B0147373700782N11922491WA0119801189010019022218218
B0147383700779N11922493WA0119701188010019026196210
B0147393700775N11922493WA0119601188005010030181196
B0147403700770N11922493WA0119501188005010034166184
B0147413700765N11922490WA0119401188005010036149171
B0147423700760N11922485WA0119401187005010038133156
B0147433700757N11922479WA0119301187005010039118139
B0147443700755N11922472WA0119201187005010041103123
B0147453700754N11922464WA0119201186005010043088106
B0147463700755N11922456WA0119101186005010044074088
B0147473700757N11922448WA0119001185005010044061070
B0147483700761N11922442WA0119001185005010042047052
B0147493700766N11922437WA0118901184005010041031035
B0147503700771N11922434WA0118901183005010040015016
B0147513700777N11922433WA0118801182010019039357358
B0147523700782N11922434WA0118801182010019033333339
B0147533700786N11922438WA0118701181010019029305316
B0147543700787N11922442WA0118701180010019023274292
B0147553700787N11922446WA0118601180010019021251268
B0147563700786N11922450WA0118601180010019020235248
B0147573700784N11922453WA0118601179010019019234237
B0147583700782N11922456WA0118601179010019021222240
B0147593700779N11922458WA0118601178010019023225245
B0148003700777N11922462WA0118501178010019025235255
B0148013700775N11922466WA0118401178010019025248260
B0148023700774N11922471WA0118401177010019025265266
B0148033700775N11922475WA0118401177010019024283276
B0148043700778N11922484WA0118301175010019026303286
B0148053700780N11922488WA0118201175010019029309292
B0148063700783N11922492WA0118101174010019030310295
B0148073700786N11922496WA0118001173010019031310300
B0148083700790N11922501WA0118001173010019031312308
B0148093700793N11922504WA0117901173010019030323314
B0148103700797N11922507WA0117801172010019031336317
B0148113700802N11922509WA0117801172010019034343323
B0148123700807N11922511WA0117801171010019036343323
B0148133700812N11922513WA0117801171010019037342324
B0148143700817N11922515WA0117801170010019036340322
B0148153700823N11922517WA0117801170010019036339325
B0148163700828N11922520WA0117801169010019037338314
B0148173700833N11922522WA0117801169010019038337309
B0148183700838N11922525WA0117701169010019037330293
B0148193700843N11922529WA0117701169010019034321296
B0148203700847N11922532WA0117801169010019033320299
B0148213700850N11922536WA0117801169010019032316302
B0148223700854N11922541WA0117801169010019031317299
B0148233700857N11922545WA0117901170010019030317298
B0148243700860N11922548WA0117901170010019027313294
B0148253700862N11922552WA0118001171010019021308284
B0148263700864N11922555WA0118101171010019021310275
B0148273700866N11922558WA0118201172010019019301265
B0148283700867N11922561WA0118301172010019023281258
B0148293700867N11922566WA0118301172010019026262245
B0148303700866N11922571WA0118301172010019026242228
B0148313700863N11922574WA0118301172010019027222213
B0148323700859N11922577WA0118201172010019029196199
B0148333700855N11922578WA0118201173010019032179185
B0148343700850N11922577WA0118101173010019034165167
B0148353700845N11922574WA0118101173010019036154152
B0148363700840N11922571WA0118001173010019038141139
B0148373700836N11922565WA0118001173010019041125126
B0148383700833N11922558WA0117901173010019044107110
B0148393700832N11922550WA0117801173010019046088093
B0148403700833N11922541WA0117801172010019045072075
B0148413700836N11922533WA0117801172010019044056057
B0148423700840N11922527WA0117701172010019044040040
B0148433700846N11922523WA0117701171010019042025023
B0148443700852N11922520WA0117601171010019039011006
B0148453700857N11922520WA0117601171010019034358352
B0148463700862N11922521WA0117601170010019032344335
B0148473700867N11922523WA0117501170010019030332319
B0148483700870N11922526WA0117501170010019026318310
B0148493700873N11922530WA0117501169010019025303297
B0148503700875N11922534WA0117401169010019026295287
B0148513700876N11922539WA0117401169010019027290280
B0148523700877N11922544WA0117401168010019026282274
B0148533700878N11922549WA0117301168010019024272266
B0148543700878N11922553WA0117301168010019024266265
B0148553700877N11922558WA0117301168010019024266268
B0148563700877N11922562WA0117401168010019025276267
B0148573700878N11922567WA0117401167010019025281267
B0148583700878N11922571WA0117401167010019025274266
B0148593700878N11922576WA0117301167010019027266268
B0149003700878N11922582WA0117301166010019029268272
B0149013700878N11922587WA0117201165010019029271268
B0149023700878N11922592WA0117101165010019027274265
B0149033700878N11922597WA0117001164010019027270266
B0149043700878N11922602WA0116801163010019029268278
B0149053700878N11922607WA0116701163010019029272284
B0149063700879N11922613WA0116601162010019029281288
B0149073700880N11922618WA0116601162010019029291287
B0149083700882N11922623WA0116501161010019028303285
B0149093700884N11922627WA0116401160010019028304285
B0149103700887N11922631WA0116401159010019029300287
B0149113700889N11922636WA0116301158010019029298289
B0149123700891N11922641WA0116201157010019030301288
B0149133700893N11922645WA0116101157010019030303289
B0149143700896N11922650WA0116001156010019030301289
B0149153700898N11922655WA0115901155010019031300293
B0149163700901N11922660WA0115801154010019033302300
B0149173700904N11922665WA0115801152010019035307300
B0149183700907N11922670WA0115701151010019034310299
B0149193700911N11922675WA0115701151010019032310297
B0149203700914N11922679WA0115601150010019031310301
B0149213700917N11922684WA0115501149010019033313298
B0149223700921N11922688WA0115401147010019036317299
B0149233700925N11922693WA0115301146010019037316293
B0149243700929N11922698WA0115201145010019037313296
B0149253700933N11922703WA0115101144010019036310293
B0149263700936N11922707WA0114901143010019034309294
B0149273700939N11922712WA0114801142010019033310293
B0149283700943N11922717WA0114701141010019034311291
B0149293700946N11922722WA0114601140010019035311292
B0149303700949N11922727WA0114501138010019035308289
B0149313700953N11922732WA0114401137010019036306288
B0149323700956N11922738WA0114301136010019036305284
B0149333700959N11922743WA0114201135010019035302278
B0149343700962N11922748WA0114101133010019033297275
B0149353700964N11922754WA0114001132010019033292270
B0149363700965N11922760WA0113901131010019032287270
B0149373700967N11922765WA0113901130010019032284263
B0149383700968N11922771WA0113801128010019032280262
B0149393700968N11922777WA0113701127010019030273254
B0149403700968N11922782WA0113601126010019028264245
B0149413700967N11922787WA0113501125010019026257230
B0149423700966N11922792WA0113501124010019025256226
B0149433700965N11922797WA0113401123010019026253219
B0149453700964N11922801WA0113301122010019025230218
B0149473700957N11922805WA0113201120010019027188202
B0149483700953N11922805WA0113001119010019028176190
B0149493700948N11922804WA0112901118010019028162182
B0149503700944N11922802WA0112901117010019029155173
B0149513700940N11922799WA0112801116010019031144166
B0149533700932N11922789WA0112601114010019036127146
B0149543700929N11922783WA0112501112010019038119139
B0149553700927N11922777WA0112401112010019037110126
B0149563700925N11922770WA0112401111010019037107121
B0149573700923N11922764WA0112401110010019037105121
B0149583700922N11922757WA0112301109010019035107128
B0149593700920N11922751WA0112201108010019034118140
B0150003700917N11922746WA0112101107010019033122157
B0150013700915N11922741WA0112001106010019032123166
B0150023700912N11922736WA0111901105010019028122171
B0150033700910N11922732WA0111901104010019022137172
B0150043700907N11922730WA0111801103010019021143187
B0150053700905N11922728WA0111801102010019017163189
B0150063700902N11922729WA0111701102010019018195203
B0150073700900N11922730WA0111601101010019018206219
B0150083700897N11922732WA0111501100010019018211225
B0150093700895N11922734WA0111401099010019017218228
B0150103700893N11922737WA0111301098010019016232232
B0150113700892N11922740WA0111201098010019018241239
B0150123700891N11922745WA0111201097010019026253244
B0150133700890N11922754WA0111101095010019034270257
B0150143700891N11922767WA0110901093010019034275268
B0150153700891N11922778WA0110801091010019033278273
B0150163700892N11922786WA0110701089010019031282272
B0150173700894N11922793WA0110601088010019030285277
B0150183700895N11922800WA0110501086010019030288282
B0150193700897N11922806WA0110501085010019030292287
B0150203700899N11922812WA0110401084010019032300284
B0150213700902N11922818WA0110401082010019032306286
B0150223700905N11922824WA0110301081010019032307289
B0150233700909N11922829WA0110301079010019033306294
B0150243700912N11922835WA0110201078010019035304301
B0150253700915N11922841WA0110101077010019036307310
B0150263700919N11922846WA0110101076010019035312317
B0150273700923N11922851WA0110001075010019034320319
B0150283700927N11922855WA0109901074010019033327324
B0150293700931N11922858WA0109901074010019034333329
B0150303700936N11922861WA0109901073010019033341333
B0150313700942N11922863WA0109901072010019035347330
B0150323700948N11922865WA0109801071010019038347324
B0150333700954N11922866WA0109801070010019040345322
B0150343700960N11922869WA0109701069010019040345321
B0150353700966N11922871WA0109601068010019040344321
B0150363700972N11922873WA0109501067010019039341317
B0150373700978N11922876WA0109401066010019037337314
B0150383700983N11922879WA0109301065010019036334307
B0150393700988N11922882WA0109301064010019036332301
B0150403700992N11922886WA0109201063010019036326298
B0150413700997N11922890WA0109201062010019037316291
B0150423701000N11922896WA0109101062010019036311286
B0150433701004N11922901WA0109001061010019036307286
B0150443701007N11922907WA0109001060010019036304287
B0150453701009N11922912WA0109001060010019035301288
B0150463701012N11922918WA0109001059010019036299290
B0150473701015N11922924WA0109101059010019035299293
B0150483701017N11922930WA0109101058010019029297297
B0150493701019N11922934WA0109201058010019031301304
B0150503701021N11922939WA0109301057010019031302320
B0150513701024N11922944WA0109401057010019030304327
B0150523701026N11922949WA0109501056010019029306327
B0150533701030N11922952WA0109501056010019031337325
B0150543701034N11922953WA0109501055010019035351338
B0150553701040N11922954WA0109501055010019036002345
B0150563701045N11922953WA0109501054010019039004349
B0150573701051N11922952WA0109401053010019040006343
B0150583701058N11922952WA0109301052010019039005332
B0150593701063N11922951WA0109201052010019036357331
B0151003701068N11922952WA0109101052010019033344321
B0151013701073N11922954WA0109001051010019031329307
B0151023701077N11922958WA0108901051005010029310291
B0151033701079N11922963WA0108901051010019029300275
B0151043701081N11922968WA0108901051010019028282263
B0151053701081N11922973WA0108801050010019026264251
B0151063701080N11922978WA0108701050010019027260242
B0151073701079N11922983WA0108601049010019028253235
B0151083701078N11922987WA0108501048010019029244231
B0151093701075N11922992WA0108301047010019030237231
B0151103701072N11922997WA0108201046010019034229230
B0151113701069N11923001WA0108001045010019035229223
B0151123701065N11923006WA0107901044010019034227214
B0151133701061N11923010WA0107801043010019033222203
B0151143701058N11923014WA0107701042010019030209196
B0151153701053N11923016WA0107601042010019032201185
B0151163701049N11923017WA0107501041010019032193182
B0151173701044N11923018WA0107401040010019032184167
B0151183701039N11923018WA0107301040010019031171162
B0151193701034N11923016WA0107301039010019034159158
B0151203701030N11923012WA0107301039010019036147151
B0151213701025N11923007WA0107201039010019038136146
B0151223701022N11923002WA0107101038010019038126140
B0151233701019N11922996WA0107001038010019038119135
B0151243701016N11922989WA0106901037010019039118139
B0151253701013N11922983WA0106801036010019038119149
B0151263701010N11922977WA0106801035010019038124159
B0151273701006N11922971WA0106701034010019038136164
B0151283701002N11922967WA0106601034010019038139171
B0151293700998N11922962WA0106501033010019035143174
B0151303700993N11922960WA0106401032010019031166175
B0151313700989N11922959WA0106301031010019030178192
B0151323700984N11922959WA0106201030010019029185199
B0151333700980N11922960WA0106101029010019028194203
B0151343700976N11922962WA0106001028010019026205208
B0151353700973N11922964WA0105901028010019025208216
B0151363700970N11922967WA0105801027010019027219217
B0151373700967N11922971WA0105701026010019027221230
B0151383700964N11922974WA0105701025010019027224235
B0151393700961N11922979WA0105501024010019033240239
B0151403700959N11922986WA0105401023010019032246245
B0151413700957N11922992WA0105301022010019031250248
B0151423700955N11922999WA0105201021010019029252247
B0151433700954N11923006WA0105201020010019029251251
B0151443700952N11923012WA0105101019010019029249253
B0151453700951N11923019WA0105101018010019030250256
B0151463700949N11923025WA0105001017010019032255259
B0151473700948N11923032WA0104901016010019034262260
B0151483700948N11923040WA0104901015010019035266269
B0151493700948N11923047WA0104801014010019035269263
B0151503700948N11923054WA0104701013010019035270272
B0151513700948N11923061WA0104701013010019033270270
B0151523700949N11923067WA0104701012010019031270271
B0151533700949N11923073WA0104701012010019031273275
B0151543700950N11923080WA0104701012010019031278276
B0151553700951N11923086WA0104701011010019031282279
B0151563700952N11923092WA0104701011010019031283293
B0151573700953N11923097WA0104601011010019030286298
B0151583700954N11923103WA0104601011010019030289305
B0151593700956N11923108WA0104601011010019030297304
B0152003700958N11923113WA0104601011010019030306299
B0152013700961N11923117WA0104601011010019031312294
B0152023700965N11923122WA0104501010010019031311289
B0152033700968N11923127WA0104501010010019031306286
B0152043700971N11923132WA0104501010010019032300285
B0152053700973N11923137WA0104401010010019033297281
B0152063700975N11923143WA0104301010010019034292278
B0152073700977N11923149WA0104201010010019033290273
B0152083700979N11923155WA0104101010010019033288271
B0152093700980N11923161WA0104001010010019033286272
B0152103700982N11923168WA0103901010010019034283270
B0152113700983N11923174WA0103901009010019033280264
B0152123700983N11923180WA0103901009010019033280269
B0152133700984N11923187WA0103901010010019030277263
B0152143700985N11923192WA0103901010010019026282261
B0152153700985N11923197WA0103901009010019026279258
B0152163700986N11923202WA0103901009010019026275256
B0152173700986N11923207WA0103901009010019029265252
B0152183700985N11923212WA0103901009010019029261251
B0152193700984N11923217WA0103901009010019027256251
B0152203700983N11923222WA0103801008010019025255248
B0152213700982N11923227WA0103701008010019026253246
B0152223700981N11923231WA0103701008010019027249245
B0152233700979N11923236WA0103601007010019029246239
B0152243700977N11923241WA0103501007010019029243236
B0152253700975N11923246WA0103401007010019026241229
B0152263700973N11923250WA0103301006010019024237230
B0152273700971N11923254WA0103301006010019025238235
B0152283700969N11923257WA0103201006010019026228238
B0152293700966N11923261WA0103201005010019028231236
B0152303700963N11923265WA0103101005010019029235233
B0152313700961N11923269WA0102901004010019030231231
B0152323700958N11923274WA0102801004010019030227233
B0152333700955N11923278WA0102701004010019029225239
B0152343700951N11923281WA0102601003010019029224239
B0152353700948N11923285WA0102601003010019028224242
B0152363700945N11923289WA0102501002010019030231242
B0152373700942N11923294WA0102401002010019033236242
B0152383700940N11923299WA0102301002010019034239241
B0152393700937N11923305WA0102201001010019033239244
B0152403700935N11923310WA0102101001010019032239242
B0152413700932N11923315WA0102001001010019030239238
B0152423700930N11923320WA0101901000010019029239244
B0152433700928N11923324WA0101801000010019028237238
B0152443700926N11923329WA0101601000010019029236244
B0152453700923N11923334WA0101600999010019031235239
B0152463700921N11923339WA0101500998010019032235242
B0152473700918N11923344WA0101300998010019031233246
B0152483700915N11923348WA0101200997010019031235246
B0152493700913N11923353WA0101000997010019030237245
B0152503700910N11923358WA0100900996010019030237243
B0152513700908N11923362WA0100700996010019031238245
B0152523700906N11923367WA0100600995010019031239249
B0152533700903N11923372WA0100500994010019031241251
B0152543700901N11923378WA0100300994010019031244249
B0152553700899N11923383WA0100200993010019029245247
B0152563700898N11923388WA0100100993010019028246247
B0152573700896N11923392WA0100100992010019027245248
B0152583700894N11923397WA0100000991010019028244247
B0152593700892N11923402WA0100000990010019030245255
B0153003700891N11923407WA0099900989010019031248252
B0153013700889N11923413WA0099800989010019031251251
B0153023700888N11923418WA0099700988010019030252247
B0153033700886N11923424WA0099700988010019029251248
B0153043700885N11923429WA0099600987010019029250251
B0153053700883N11923434WA0099600986010019029246245
B0153063700882N11923439WA0099500986010019029244246
B0153073700880N11923444WA0099500985010019029244241
B0153083700878N11923449WA0099400985010019030241243
B0153093700875N11923454WA0099300984005010031240242
B0153103700873N11923459WA0099200983005010031240243
B0153113700871N11923464WA0099100983005010031240245
B0153123700868N11923469WA0099100982005010031239244
B0153133700866N11923474WA0099000981005010030239246
B0153143700864N11923479WA0098900981005010030240243
B0153153700862N11923483WA0098800980005010030240242
B0153163700859N11923488WA0098800979005010030239239
B0153173700857N11923493WA0098700978005010029237242
B0153183700855N11923497WA0098600978005010029236244
B0153193700852N11923502WA0098500977005010028232252
B0153203700849N11923506WA0098500976005010028234249
B0153213700847N11923510WA0098400975005010029237254
B0153223700845N11923515WA0098300975005010029239254
B0153233700842N11923519WA0098200974005010029240255
B0153243700840N11923524WA0098100973005010029240256
B0153253700838N11923529WA0097900972005010029241254
B0153263700836N11923533WA0097800972005010029242257
B0153273700834N11923538WA0097700971005010030244258
B0153283700832N11923543WA0097500970005010029245260
B0153293700831N11923548WA0097400970005010029247263
B0153303700829N11923553WA0097300969005010030250263
B0153313700828N11923559WA0097100968005010031253262
B0153323700827N11923564WA0097000967005010030256262
B0153333700826N11923569WA0096900967005010029258262
B0153343700825N11923575WA0096800966005010029260261
B0153353700824N11923580WA0096800965005010028260259
B0153363700824N11923585WA0096700965005010028259262
B0153373700823N11923590WA0096700964005010029258262
B0153383700822N11923596WA0096600963005010030258263
B0153393700821N11923601WA0096500963005010029259261
B0153403700820N11923606WA0096400962005010028260263
B0153413700820N11923612WA0096300961005010029260265
B0153423700819N11923617WA0096200960005010031261265
B0153433700819N11923623WA0096100960005010035265262
B0153443700818N11923630WA0095900959005010036267260
B0153453700818N11923637WA0095700958005010035268261
B0153463700818N11923643WA0095500958005010033266268
B0153473700818N11923649WA0095400957005010032266268
B0153483700818N11923655WA0095300956005010030264267
B0153493700817N11923660WA0095200955005010030265264
B0153503700817N11923666WA0095100955005010033267264
B0153513700818N11923673WA0094900951005010036268269
B0153523700818N11923680WA0094700950005010036269273
B0153533700818N11923686WA0094600948005010034270269
B0153543700818N11923692WA0094600947005010032271273
B0153553700818N11923698WA0094500946005010031274266
B0153563700819N11923704WA0094500943005010028278265
B0153573700820N11923709WA0094500940005010026281263
B0153583700822N11923714WA0094500938005010025282264
B0153593700823N11923718WA0094500936005010024280262
B0154003700823N11923722WA0094500934005010023277268
B0154013700824N11923726WA0094400932005010021278266
B0154023700825N11923730WA0094400931005010021278265
B0154033700825N11923734WA0094400929005010020277267
B0154043700826N11923738WA0094300928005010019271266
B0154053700826N11923742WA0094300927005010020266273
B0154063700825N11923745WA0094200926005010020268276
B0154073700826N11923749WA0094200925005010020278280
B0154083700826N11923753WA0094100924005010021289279
B0154093700828N11923757WA0094000923005010024292278
E015409Waypoint TOLLLZ reached
B0154103700829N11923761WA0093900922005010025286282
B0154113700830N11923765WA0093900921005010025283284
B0154123700831N11923770WA0093800919005010024283288
B0154133700832N11923774WA0093700918005010024290285
B0154143700834N11923778WA0093600917005010027301278
B0154153700836N11923783WA0093400915005010030298275
B0154163700838N11923788WA0093200913005010030289278
B0154173700839N11923793WA0093100911005010028283280
B0154183700840N11923798WA0093000910005010028284273
B0154193700842N11923803WA0092800908005010027290274
B0154203700845N11923813WA0092700905010019027289267
B0154213700846N11923818WA0092600903010019026282265
B0154223700846N11923822WA0092500902010019024280270
B0154233700847N11923827WA0092400901010019024287275
B0154243700849N11923831WA0092300900010019026296277
B0154253700851N11923836WA0092200898010019026297277
B0154263700852N11923840WA0092100897010019027291269
B0154273700854N11923845WA0092000896010019027286280
B0154283700855N11923851WA0092000894010019029284280
B0154293700856N11923856WA0091900893010019029287286
B0154303700857N11923861WA0091800892010019028288279
B0154313700858N11923866WA0091700891010019026281278
B0154323700859N11923871WA0091600889010019027273276
B0154333700859N11923876WA0091500888010019026270279
B0154343700859N11923880WA0091400887010019025273285
B0154353700859N11923885WA0091300886010019023277279
B0154363700860N11923889WA0091200885010019023281279
B0154373700860N11923893WA0091000883010019025280279
B0154383700861N11923897WA0090900882010019026279284
B0154393700861N11923902WA0090800881010019026279287
B0154403700862N11923907WA0090700880010019025282286
B0154413700863N11923911WA0090600879010019024286286
B0154423700864N11923916WA0090400877010019025290285
B0154433700866N11923920WA0090300876005010026291287
B0154443700867N11923924WA0090200874005010027291287
B0154453700869N11923929WA0090200873005010027292289
B0154463700870N11923933WA0090000871005010026296290
B0154473700872N11923938WA0089900870005010026299292
B0154483700874N11923942WA0089700868005010026301286
B0154493700876N11923946WA0089500867005010027302292
B0154503700878N11923950WA0089300865005010028301288
B0154513700880N11923954WA0089200863005010029301294
B0154523700882N11923959WA0089000861005010029303295
B0154533700885N11923963WA0088800859005010028305291
B0154543700887N11923968WA0088700858005010028304284
B0154553700889N11923972WA0088500856005010026297275
B0154563700891N11923976WA0088400854005010025293267
B0154573700892N11923980WA0088200853005010024287264
B0154583700892N11923985WA0088100851005010024271263
B0154593700892N11923989WA0088000850005010022262259
B0155013700891N11923997WA0087700847005010020254251
B0155023700889N11924001WA0087600846005010022247243
B0155033700888N11924005WA0087600844005010024239237
B0155043700886N11924009WA0087500843010019025229230
B0155053700883N11924013WA0087400841010019026219223
B0155063700880N11924016WA0087200840010019026210217
B0155073700876N11924019WA0087000838010019028205214
B0155083700871N11924021WA0086900837010019031202212
B0155093700867N11924023WA0086700835010019031200200
B0155103700862N11924025WA0086600833005010032191171
B0155113700857N11924026WA0086400832005010036170151
B0155123700851N11924023WA0086300830005010045149140
B0155133700845N11924017WA0086200829005010052130141
B0155143700840N11924009WA0086000828005010058121154
B0155153700836N11924000WA0085700826005010056121171
B0155163700831N11923993WA0085500825010019054144189
B0155173700825N11923987WA0085300824010019045140204
B0155183700820N11923983WA0085000823010019031150197
B0155193700816N11923980WA0084600822010019031150199
B0155203700811N11923979WA0084600822010019032159180
B0155213700807N11923977WA0084400822010019032151176
B0155223700803N11923974WA0084100822010019031147171
B0155233700799N11923971WA0083800822010019032141175
B0155243700796N11923967WA0083500822010019031137178
B0155253700793N11923963WA0083200822010019031137180
B0155263700790N11923959WA0083000822030057030137183
B0155273700786N11923955WA0082800822050095031135183
B0155283700783N11923951WA0082700822050095030129181
B0155293700781N11923947WA0082700822010019033122180
B0155303700778N11923941WA0082600822010019036118173
B0155313700776N11923935WA0082500822010019038119167
B0155323700773N11923930WA0082300822010019039116166
B0155333700771N11923924WA0082200822010019038118162
B0155343700768N11923918WA0082100822010019038117166
B0155403700768N11923932WA0081500766004003045275192
B0155413700771N11923938WA0081300764004003049315261
B0155423700777N11923941WA0081100764004003047349284
B0155433700782N11923941WA0080900765004003047010304
B0155443700786N11923942WA0080700764004003020356324
B0155453700788N11923944WA0080500760004003020302252
B0155463700789N11923949WA0080400754004003020272248
B0155473700788N11923956WA0080400751004003032255243
B0155483700787N11923963WA0080300750004003040254247
B0155493700787N11923968WA0080100751004003040268255
B0155503700788N11923974WA0079900750004003030283256
B0155513700788N11923978WA0079600749004003026283256
B0155523700789N11923984WA0079400747004003030272258
B0155533700788N11923990WA0079300745004003034261258
B0155543700787N11923995WA0079200744004003031255258
B0155553700786N11924000WA0079100744004003031254253
B0155563700786N11924005WA0079000744004003025259251
B0155573700785N11924010WA0078900743004003025259251
B0155583700784N11924015WA0078800739010019028250228
B0155593700782N11924019WA0078800739010019027249199
B0156003700780N11924023WA0078700739010019025222184
B0156013700776N11924025WA0078600739010019024206170
B0156023700772N11924026WA0078500738010019018194162
B0156033700770N11924026WA0078400738010019014171159
B0156043700767N11924023WA0078200736010019016151156
B0156053700765N11924018WA0078100733010019019136154
B0156063700763N11924013WA0077900732010019025124150
B0156073700761N11924008WA0077700732010019032117142
B0156083700761N11924000WA0077600731010019036103129
B0156093700760N11923993WA0077500731010019037101116
B0156103700760N11923985WA0077400731010019041100113
B0156113700759N11923977WA0077300731010019041100116
B0156123700758N11923969WA0077300731010019041101119
B0156133700757N11923960WA0077200729010019040104118
B0156143700755N11923952WA0077100727010019039105121
B0156153700753N11923944WA0077000726010019038106125
B0156163700751N11923935WA0076900725010019038107132
B0156173700749N11923928WA0076800724010019038108139
B0156183700747N11923920WA0076700724010019037108147
B0156193700745N11923913WA0076600723010019036109155
B0156203700743N11923907WA0076500723010019035110154
B0156213700742N11923901WA0076400723010019032113152
B0156223700739N11923896WA0076300723010019030117156
B0156233700737N11923892WA0076200723010019028142150
B0156243700733N11923889WA0076100723010019028148167
B0156253700729N11923886WA0076100723010019027148171
B0156263700726N11923884WA0076000723010019027148176
B0156273700722N11923881WA0075900722010019027147183
B0156283700718N11923879WA0075900722010019027148184
B0156293700714N11923876WA0075900722010019027155181
B0156303700711N11923874WA0075800722010019027156181
B0156313700707N11923872WA0075600722010019027158179
B0156323700703N11923871WA0075500722010019026160179
B0156333700699N11923869WA0075400722010019025163179
B0156343700695N11923868WA0075200722010019024166181
B0156353700691N11923867WA0075100721010019024169184
B0156363700687N11923866WA0074900721010019023173189
B0156373700684N11923866WA0074800721010019022176198
B0156383700680N11923866WA0074600721010019021180203
B0156393700677N11923866WA0074400720010019020183208
B0156403700673N11923866WA0074300720010019017191211
B0156413700671N11923867WA0074100720010019016204216
B0156423700669N11923869WA0074000720010019015220220
B0156433700667N11923871WA0073900719010019015235226
B0156443700666N11923874WA0073800719010019014242232
B0156453700666N11923879WA0073700718010019020259233
B0156463700666N11923885WA0073700717010019024268245
B0156473700667N11923893WA0073600716010019027273252
B0156483700667N11923900WA0073500715010019027275257
B0156493700668N11923907WA0073400715010019026279257
B0156503700670N11923915WA0073300713010019025287259
B0156513700674N11923921WA0073200712010019027305265
B0156523700679N11923926WA0073100711010019029314285
B0156533700684N11923932WA0073000712010019032331296
B0156543700693N11923932WA0072900707010019032331306
B0156553700700N11923934WA0072800706010019031328306
B0156563700706N11923937WA0072800705010019031326305
B0156573700712N11923940WA0072700705010019031325300
B0156583700718N11923944WA0072600702010019031327296
B0156593700724N11923948WA0072500699010019031332293
B0157003700729N11923950WA0072300697010019031329292
B0157013700734N11923953WA0072100695010019032324292
B0157023700739N11923958WA0071900692010019033321291
B0157033700744N11923962WA0071900690010019032316295
B0157043700748N11923966WA0071700688010019031315290
B0157053700752N11923970WA0071500686010019028313281
B0157063700755N11923975WA0071400684010019030311275
B0157073700758N11923979WA0071200682010019026309273
B0157083700761N11923983WA0071100680010019028305273
B0157093700764N11923987WA0071000679010019028300270
B0157103700766N11923991WA0070900678010019027299267
B0157113700767N11923996WA0070800678010019024294258
B0157123700769N11924000WA0070700677010019024292256
B0157133700770N11924004WA0070500677010019023287263
B0157143700771N11924008WA0070400676010019024283269
B0157153700772N11924012WA0070300676010019025282270
B0157163700773N11924017WA0070200676010019025281271
B0157173700774N11924022WA0070000676010019027285266
B0157183700775N11924026WA0069900676010019026287257
B0157193700776N11924031WA0069800676010019026287246
B0157203700777N11924035WA0069800675010019023283235
B0157213700778N11924040WA0069700674010019025281226
B0157223700779N11924045WA0069600673010019025280220
B0157233700780N11924050WA0069500671010019019275215
B0157243700780N11924053WA0069400670010019015263209
B0157253700779N11924056WA0069300670010019012244204
B0157263700776N11924057WA0069100668010019011216197
B0157273700773N11924056WA0068900667010019011164187
B0157283700768N11924054WA0068700665010019019137172
B0157293700764N11924050WA0068600665010019022121156
B0157303700761N11924045WA0068400664010019025116143
B0157313700759N11924040WA0068300663010019026121139
B0157323700756N11924035WA0068200663010019028127141
B0157333700753N11924031WA0068100662010019030129142
B0157343700749N11924026WA0067900662010019029126145
B0157353700746N11924021WA0067800661010019028125153
B0157363700743N11924016WA0067700661010019027131161
B0157373700740N11924012WA0067500660010019027136173
B0157383700737N11924009WA0067400660010019027143185
B0157393700734N11924006WA0067300660010019026152189
B0157403700730N11924004WA0067200659010019025161193
B0157413700726N11924002WA0067000659010019025169195
B0157423700723N11924002WA0067000659010019026178195
B0157433700719N11924002WA0066900659010019026193197
B0157443700715N11924004WA0066700659010019026199208
B0157463700711N11924005WA0066500659010019026201215
B0157473700708N11924007WA0066300659010019026205219
B0157483700704N11924009WA0066100659010019026209222
B0157493700701N11924012WA0066000658010019026213219
B0157503700697N11924016WA0065800658010019026220219
B0157513700694N11924021WA0065700657010019026222218
B0157523700691N11924024WA0065600657010019026220216
B0157533700688N11924027WA0065500657010019026218219
B0157543700685N11924030WA0065400657010019026217223
B0157553700682N11924034WA0065200656010019027219221
B0157563700680N11924038WA0065000656010019027222221
B0157573700677N11924042WA0064900656010019027223220
B0157583700674N11924046WA0064700655010019026223217
B0157593700671N11924050WA0064600655010019026222217
B0158003700668N11924054WA0064500654010019026221220
B0158013700665N11924057WA0064400654010019026221231
B0158023700662N11924061WA0064400654010019025224231
B0158033700659N11924065WA0064300653010019024226234
B0158043700657N11924068WA0064300653010019023226241
B0158053700655N11924071WA0064200653010019020226245
B0158063700654N11924074WA0064100653010019019233237
B0158073700653N11924077WA0063900653010019021247222
B0158083700652N11924082WA0063800651010019024251208
B0158093700650N11924089WA0063700649010019024215210
B0158103700647N11924091WA0063500649010019027208218
B0158113700644N11924094WA0063300648010019024211220
B0158123700642N11924096WA0063100648010019014228297
B0158133700641N11924096WA0062900647010019008219313
B0158143700642N11924094WA0062800643010019004234304
B0158153700644N11924093WA0062700640010019001236309
B0158163700644N11924093WA0062700640010019001269293
B0158173700644N11924093WA0062700640010019001042300
B0158183700644N11924093WA0062700640010019001324307
B0158193700645N11924092WA0062700636010019001351298
B0158203700645N11924092WA0062700636010019001046299
B0158213700645N11924092WA0062700636010019001065296
B0158223700645N11924092WA0062700636010019001070294
B0158233700645N11924092WA0062700636010019001073293
B0158243700645N11924092WA0062700636010019001071291
B0158253700645N11924092WA0062700636010019000077290
B0158263700645N11924092WA0062700636010019000000289
B0158273700645N11924092WA0062700636010019000000288
B0158283700645N11924092WA0062700636010019000293287
B0158293700645N11924092WA0062700636010019001301287
B0158303700645N11924092WA0062700636010019001283289
B0158313700645N11924092WA0062700636010019001213288
B0158323700645N11924092WA0062700636010019001178288
B0158333700645N11924092WA0062700636010019001177288
B0158343700645N11924092WA0062700636010019001172287
B0158353700645N11924092WA0062700636010019000197287
B0158363700645N11924092WA0062700636010019000189287
B0158373700645N11924092WA0062700636010019000171287
B0158383700645N11924092WA0062700636010019000000286
B0158393700645N11924092WA0062700636010019000000286
B0158403700645N11924092WA0062700636010019000000286
B0158413700645N11924092WA0062700636010019000000286
B0158423700645N11924092WA0062700636010019000000286
B0158433700645N11924092WA0062700636010019000000286
B0158443700645N11924092WA0062700636010019000000286
GMdJGwGVCZ2bdcmdRxcw88oYy769zDj91yDCyPEAlIceF36TVK0NBlWqqIw1e5gLa
GhjRKBJ2ycc7FXy01ZH379Jxfvk47GaIA79ieQ8pUdSiE7gALr2RFoUNiA8Q0ioMp
GARfnLYtpfNgYBc2zrLwG0B6vq1eonMs+naxNttol5so=

