AXFH000
HFDTE300826
HFPLTPILOT:Scott O’Brien
HFGTYGLIDERTYPE:Ozone Swift 6
HFDTM100GPSDATUM:WGS84
HFRFWFIRMWAREVERSION:9.7.1
HFRHWHARDWAREVERSION:iPhone 15
HFFTYFRTYPE:Flyskyhy,9.7.1
HFGPS:Bluetooth vario
HFPRSVARIO:Bluetooth vario
HFCCLCOMPETITIONCLASS:Paraglider,EN-B
HFTZNTIMEZONE:-7
HFSITSITE:Dunlap,US
I053638FXA3941VXA4244GSP4547CCO4850HDT
B0128163645903N11905877WA0140901409001010000080349
B0128173645904N11905877WA0140901409001010000080349
B0128183645904N11905877WA0140901409001010000080348
B0128193645904N11905877WA0140901409001010000080349
B0128203645904N11905877WA0140901409001010000080348
B0128213645904N11905877WA0140801409001010000080348
B0128223645904N11905877WA0140901409001010000080342
B0128233645904N11905877WA0140801409001010000080340
B0128243645904N11905877WA0140901409001010000080339
B0128253645904N11905877WA0140901409001010000080340
B0128263645904N11905877WA0140901409001010000080340
B0128273645904N11905877WA0140801409001010000080334
B0128283645904N11905877WA0140901409001010000080331
B0128293645904N11905877WA0140801409001010000080331
B0128303645904N11905877WA0140801409001010000080332
B0128313645904N11905877WA0140901409001010000080018
B0128323645904N11905878WA0140901409001010001280066
B0128333645904N11905877WA0140901409001010001280094
B0128343645904N11905877WA0140901409001010001043069
B0128353645904N11905877WA0140901409001010001043068
B0128363645904N11905877WA0140901409001010001043300
B0128373645904N11905878WA0140801409001010001229211
B0128383645903N11905878WA0140701409001010003223216
B0128393645903N11905879WA0140701409001010004223226
B0128403645902N11905880WA0140601408001010005226234
B0128413645902N11905881WA0140401408001010007252240
B0128423645901N11905883WA0140501408001010014246238
B0128433645900N11905886WA0140601408001010016237248
B0128443645899N11905888WA0140901409001010012236268
B0128453645897N11905890WA0140901409001010013240332
B0128463645896N11905892WA0140801408001010012247266
B0128473645895N11905895WA0140701408001010016251304
B0128483645895N11905899WA0140801408001010019268308
B0128493645896N11905904WA0140801408001010023285292
B0128503645899N11905909WA0141001408001010024309256
B0128513645902N11905912WA0141201409001010025319272
B0128523645905N11905915WA0141301410001010021322276
B0128533645907N11905918WA0141501411001010019306304
B0128543645909N11905922WA0141601413001010020299278
B0128553645911N11905925WA0141801415001010018297276
B0128563645912N11905928WA0141901417001010016304277
B0128573645914N11905930WA0142101418001010014300278
B0128593645916N11905936WA0142401421001010014290295
B0129003645917N11905938WA0142601424001010013306280
B0129013645918N11905940WA0142801424001010014329264
B0129023645920N11905941WA0142901427001010010332266
B0129033645921N11905942WA0142801428001010011321258
B0129043645922N11905943WA0142701428001010005310260
B0129053645921N11905943WA0142701429001010004310249
B0129063645916N11905940WA0142901429001010020143251
B0129073645913N11905936WA0143101430001010024134169
B0129083645909N11905931WA0143401432001010029130168
B0129093645905N11905926WA0143501433001010030132155
B0129103645901N11905922WA0143501434001010034140154
B0129113645896N11905917WA0143601435001010037146155
B0129123645891N11905913WA0143701438001010036142158
B0129133645886N11905908WA0143801440001010035141160
B0129143645882N11905904WA0144001440001010034142172
B0129153645877N11905900WA0144101443001010033146171
B0129163645873N11905897WA0144101444001010031154172
B0129173645868N11905894WA0144201445001010030156176
B0129183645864N11905892WA0144401447001010030157183
B0129193645859N11905890WA0144601449001010031160197
B0129203645855N11905888WA0144701451001010031165202
B0129213645850N11905887WA0145001452001010029174211
B0129223645846N11905887WA0145201454001010028184215
B0129233645842N11905888WA0145401456001010026193221
B0129243645838N11905889WA0145701458001010024197212
B0129253645836N11905891WA0145901460001010021203218
B0129263645832N11905892WA0146101463001010022196242
B0129273645829N11905894WA0146301464001010021204244
B0129283645827N11905896WA0146601466001010020221237
B0129293645825N11905899WA0146801468001010018233233
B0129303645823N11905901WA0147001470001010018221230
B0129313645821N11905903WA0147201472001010019204245
B0129323645819N11905904WA0147301474001010016201260
B0129333645816N11905906WA0147501475001010016211235
B0129343645814N11905908WA0147501476001010019214221
B0129353645811N11905910WA0147501477001010024202218
B0129363645807N11905911WA0147601479001010027189202
B0129373645803N11905911WA0147901481001010027181201
B0129383645799N11905910WA0148101483001010028167189
B0129393645794N11905908WA0148301485001010028159200
B0129403645790N11905906WA0148401486001010026165188
B0129413645787N11905906WA0148401487001010026178194
B0129423645782N11905906WA0148501488001010027187211
B0129433645778N11905907WA0148801490001010027192214
B0129443645774N11905908WA0148901493001010026193213
B0129453645770N11905910WA0149101495001010024194214
B0129463645767N11905911WA0149401498001010024191214
B0129473645763N11905911WA0149701500001010024189209
B0129483645760N11905912WA0149801502001010023191213
B0129493645757N11905913WA0149801503001010021197226
B0129503645753N11905914WA0150001504001010022195216
B0129513645750N11905915WA0150101505001010023195222
B0129523645747N11905916WA0150101506001010021193242
B0129533645744N11905917WA0150101507001010018199250
B0129543645742N11905918WA0150101507001010017211236
B0129553645739N11905920WA0150001507001010019219233
B0129563645737N11905923WA0149901506001010022224229
B0129573645735N11905926WA0149801506001010024222226
B0129583645732N11905929WA0149801506001010023224229
B0129593645730N11905932WA0149901507001010021227244
B0130003645728N11905934WA0150001508001010019226217
B0130013645726N11905937WA0150101509001010017224236
B0130023645724N11905939WA0150301510001010018231256
B0130033645723N11905942WA0150401511001010019241254
B0130043645722N11905945WA0150501512001010019251249
B0130053645721N11905949WA0150601513001010017251243
B0130063645720N11905951WA0150701515001010017236230
B0130073645718N11905954WA0150801515001010018221240
B0130083645716N11905956WA0150801516001010019211243
B0130093645713N11905958WA0150801516001010021215236
B0130103645710N11905960WA0150601516001010024217238
B0130113645707N11905963WA0150601515001010027217233
B0130123645704N11905966WA0150601513001010031213230
B0130133645699N11905969WA0150401513001010035209230
B0130143645695N11905973WA0150401512001010034210239
B0130153645691N11905976WA0150301512001010030214244
B0130163645688N11905979WA0150301511001010027219234
B0130173645684N11905982WA0150101509001010027218227
B0130183645681N11905985WA0149901508001010030215221
B0130193645677N11905988WA0149801506001010035207221
B0130203645672N11905991WA0149901505001010038204228
B0130213645666N11905994WA0149901504001010038205238
B0130223645661N11905997WA0150001504001010036206237
B0130233645657N11906000WA0150001504001010032213224
B0130243645653N11906004WA0150001503001010033214213
B0130253645648N11906007WA0150001502001010037210212
B0130263645643N11906011WA0150001502001010040205223
B0130273645637N11906014WA0150101502001010037204232
B0130283645633N11906017WA0150101503001010033205216
B0130293645628N11906019WA0150201503001010032202200
B0130303645624N11906021WA0150101503001010033199203
B0130313645618N11906023WA0150001501001010037195189
B0130323645613N11906025WA0149801501001010041190124
B0130333645606N11906026WA0150001501001010040188192
B0130343645601N11906027WA0150201500001010037187186
B0130353645595N11906027WA0150401501001010037183181
B0130363645590N11906026WA0150401502001010032170188
B0130373645586N11906025WA0150301502001010033170193
B0130383645580N11906024WA0150301502001010037171180
B0130393645574N11906023WA0150201501001010042171169
B0130403645568N11906021WA0150201502001010040169214
B0130413645563N11906019WA0150301502001010037166204
B0130423645558N11906018WA0150201502001010035169191
B0130433645553N11906017WA0150101501001010035172197
B0130443645547N11906016WA0150101501001010036175192
B0130453645542N11906015WA0150001501001010034174188
B0130463645537N11906014WA0150101502001010033170181
B0130473645532N11906013WA0150101502001010033166164
B0130483645527N11906011WA0150001502001010035160143
B0130493645522N11906008WA0149801501001010036154135
B0130503645517N11906005WA0149601500001010038149137
B0130513645512N11905997WA0149501499001010053131153
B0130523645507N11905989WA0149601499001010053129159
B0130533645502N11905981WA0149601499001010053130152
B0130543645497N11905974WA0149601499001010045133143
B0130553645492N11905967WA0149401499001010044135143
B0130563645488N11905962WA0149201499001010043135156
B0130573645483N11905955WA0149201497001010050133161
B0130583645477N11905947WA0149101497001010050135160
B0130593645471N11905941WA0149201496001010049138165
B0131003645466N11905936WA0149201497001010042145155
B0131013645461N11905932WA0149101496001010038150164
B0131023645456N11905928WA0148901495001010039152166
B0131033645450N11905925WA0148701493001010040159171
B0131043645444N11905924WA0148601492001010038177180
B0131053645439N11905925WA0148401491001010036190198
B0131063645435N11905928WA0148201489001010028198207
B0131073645432N11905931WA0148401488001010027204206
B0131083645428N11905934WA0148301487001010029200202
B0131093645424N11905934WA0147801486001010029182197
B0131103645418N11905932WA0147401483001010036164183
B0131113645414N11905927WA0147401482001010036142178
B0131123645410N11905922WA0147801481001010038140157
B0131133645406N11905916WA0147901481001010036136155
B0131143645402N11905911WA0147701481001010037142148
B0131153645397N11905906WA0147401480001010037146151
B0131163645393N11905902WA0147301477001010037147157
B0131173645387N11905898WA0147001476001010042155162
B0131183645381N11905894WA0147101476001010043159170
B0131193645374N11905892WA0147101476001010042166174
B0131203645368N11905891WA0147001476001010038175180
B0131213645362N11905891WA0146901473001010038183189
B0131223645356N11905892WA0146701472001010041187199
B0131233645350N11905892WA0146801472001010044184204
B0131243645343N11905893WA0146801471001010043183201
B0131253645336N11905893WA0146801471001010041183194
B0131263645330N11905893WA0146901471001010040180192
B0131273645324N11905893WA0146801469001010040177188
B0131283645317N11905892WA0146601468001010043174187
B0131293645310N11905891WA0146501466001010053171188
B0131303645302N11905889WA0146501466001010051170186
B0131313645294N11905888WA0146601466001010049172189
B0131323645287N11905887WA0146601467001010045173197
B0131333645280N11905885WA0146501466001010044172174
B0131343645274N11905884WA0146401466001010044171172
B0131353645267N11905883WA0146201463001010047171178
B0131363645259N11905881WA0146001462001010051171191
B0131373645252N11905880WA0145801461001010050172074
B0131383645244N11905878WA0145901460001010047171178
B0131393645238N11905877WA0146001460001010042168180
B0131403645232N11905875WA0145901460001010038163180
B0131413645227N11905873WA0145701460001010038162184
B0131423645221N11905870WA0145401460001010039163183
B0131433645215N11905869WA0145201458001010042168178
B0131443645209N11905867WA0145201456001010042170169
B0131453645202N11905866WA0145001455001010040167170
B0131463645197N11905864WA0144801454001010040164171
B0131473645191N11905862WA0144701451001010042163184
B0131483645185N11905860WA0144501449001010043163185
B0131493645178N11905858WA0144201447001010045164181
B0131503645172N11905856WA0144001445001010044166188
B0131513645165N11905854WA0143901443001010042165184
B0131523645159N11905852WA0143701442001010042165193
B0131533645153N11905850WA0143601440001010042166199
B0131543645146N11905848WA0143401438001010043168194
B0131553645140N11905846WA0143301436001010044167193
B0131563645134N11905845WA0143201435001010043167197
B0131573645127N11905843WA0143001434001010043168200
B0131583645121N11905841WA0142901432001010045170191
B0131593645114N11905840WA0142701430001010048171192
B0132003645107N11905839WA0142501428001010048171184
B0132013645100N11905837WA0142401427001010048170200
B0132023645093N11905836WA0142401426001010045170214
B0132033645086N11905835WA0142401426001010043170211
B0132043645080N11905833WA0142201424001010041170201
B0132053645074N11905832WA0142101422001010042168183
B0132063645068N11905830WA0141901420001010044166192
B0132073645061N11905828WA0141801419001010045165187
B0132083645055N11905826WA0141701418001010045166196
B0132093645048N11905824WA0141601418001010044167192
B0132103645041N11905822WA0141601417001010044168186
B0132113645035N11905821WA0141401416001010046168181
B0132123645028N11905819WA0141301414001010046169198
B0132133645021N11905818WA0141201413001010045169186
B0132143645015N11905816WA0141001411001010044170205
B0132153645008N11905815WA0140901410001010044168197
B0132163645002N11905813WA0140801408001010045167200
B0132173644995N11905811WA0140601407001010045167193
B0132183644988N11905809WA0140501406001010046166178
B0132193644982N11905807WA0140401405001010046164185
B0132203644975N11905805WA0140301404001010047161192
B0132213644968N11905802WA0140201403001010047162200
B0132223644962N11905800WA0140101401001010047166194
B0132233644954N11905798WA0139901399001010048172182
B0132243644947N11905797WA0139901398001010048173169
B0132253644940N11905796WA0139901397001010046171171
B0132263644933N11905794WA0139901398001010043166174
B0132273644927N11905792WA0139901397001010041163189
B0132283644922N11905790WA0139801396001010041162182
B0132293644916N11905788WA0139501395001010042162165
B0132303644909N11905785WA0139401393001010046159181
B0132313644903N11905781WA0139301392001010049156187
B0132323644896N11905778WA0139301392001010048157212
B0132333644889N11905775WA0139401392001010045160183
B0132343644883N11905772WA0139501393001010042163178
B0132353644877N11905770WA0139401393001010041164164
B0132363644871N11905768WA0139401392001010041163177
B0132373644865N11905766WA0139301391001010043161178
B0132383644859N11905763WA0139101390001010047158178
B0132393644852N11905759WA0139101389001010049157184
B0132403644845N11905756WA0139101389001010049157186
B0132413644839N11905753WA0139101389001010045161191
B0132423644832N11905751WA0139101389001010044163180
B0132433644826N11905748WA0139001389001010043163173
B0132443644820N11905746WA0138901388001010044160175
B0132453644814N11905743WA0138801388001010046155170
B0132463644807N11905739WA0138801387001010046153180
B0132473644801N11905735WA0138701387001010046153159
B0132483644795N11905731WA0138701387001010046154159
B0132493644788N11905727WA0138701386001010047156161
B0132503644782N11905724WA0138601385001010047155160
B0132513644775N11905720WA0138501383001010053155164
B0132523644767N11905716WA0138401383001010055157165
B0132533644760N11905712WA0138501382001010054160181
B0132543644752N11905709WA0138501383001010055164176
B0132553644745N11905707WA0138701385001010048163170
B0132563644738N11905704WA0138801386001010047158176
B0132573644732N11905700WA0139001388001010045155173
B0132583644726N11905697WA0138901388001010042159169
B0132593644720N11905695WA0138901388001010041162174
B0133003644714N11905695WA0138701387001010040182178
B0133013644709N11905697WA0138601385001010039191199
B0133023644704N11905699WA0138501384001010034198208
B0133033644699N11905701WA0138301383001010032205217
B0133043644696N11905704WA0138201382001010026222224
B0133053644694N11905708WA0138001381001010023236243
B0133063644693N11905712WA0137901381001100019252255
B0133073644694N11905715WA0137801380001100016276270
B0133083644696N11905718WA0137801379001100017305287
B0133093644699N11905719WA0137701378001100021335305
B0133103644704N11905719WA0137701377001100020354326
B0133113644708N11905718WA0137801377001100022019339
B0133123644712N11905715WA0137701376001100025031358
B0133133644716N11905710WA0137601374001100031046009
B0133143644720N11905703WA0137501373001100037058026
B0133153644722N11905695WA0137501372001100044071040
B0133163644723N11905685WA0137301371001100048081056
B0133173644723N11905675WA0137201370001100050091069
B0133183644723N11905666WA0137001369001100047092079
B0133193644722N11905657WA0137001368001100045088079
B0133203644723N11905648WA0136801366001100049085082
B0133213644723N11905638WA0136801365001100048090087
B0133223644723N11905628WA0136901366001100055095099
B0133233644721N11905618WA0137001367001100053103097
B0133243644719N11905608WA0137201368001100050104094
B0133253644717N11905600WA0137301369001100047104111
B0133263644715N11905592WA0137301370001100046108109
B0133273644712N11905584WA0137201370001100047113116
B0133283644708N11905576WA0137201369001100052119120
B0133293644704N11905567WA0137201369001100053123128
B0133303644699N11905559WA0137301370001100051126135
B0133313644694N11905552WA0137401371001100049131135
B0133323644689N11905546WA0137401371001100047136141
B0133333644684N11905540WA0137401372001100048139147
B0133343644678N11905534WA0137401372001100047144158
B0133353644672N11905530WA0137401373001100045149163
B0133363644666N11905526WA0137501373001100043154173
B0133373644660N11905523WA0137501374001100042157177
B0133383644655N11905520WA0137501374001100041159183
B0133393644649N11905518WA0137501373001100042162181
B0133403644643N11905516WA0137501373001100042163181
B0133413644637N11905513WA0137501373001100041161186
B0133423644631N11905511WA0137501373001100041160204
B0133433644625N11905509WA0137501373001100041161214
B0133443644619N11905506WA0137501373001100041164203
B0133453644613N11905505WA0137401372001100043168209
B0133463644607N11905503WA0137401372001100043169201
B0133473644600N11905502WA0137301372001100042169208
B0133483644594N11905500WA0137301372001100039170202
B0133493644589N11905499WA0137201371001100037172204
B0133503644584N11905499WA0137101370001100035179205
B0133513644578N11905499WA0136901368001100035187212
B0133523644573N11905500WA0136901367001100035191215
B0133533644568N11905502WA0136801367001100035186216
B0133543644563N11905502WA0136801367001100035181225
B0133553644558N11905502WA0136801366001100034179234
B0133563644553N11905502WA0136801365001100032185232
B0133573644548N11905503WA0136701364001100031192236
B0133583644544N11905505WA0136601363001100030199235
B0133593644540N11905507WA0136501363001100028203240
B0134003644536N11905509WA0136501363001100027202243
B0134013644532N11905510WA0136401362001100026199242
B0134023644528N11905512WA0136301361001100028195245
B0134033644524N11905513WA0136201360001100029193241
B0134043644520N11905514WA0136201359001100030194235
B0134053644516N11905516WA0136201359001100029195235
B0134063644511N11905517WA0136101358001100028193236
B0134073644508N11905518WA0136001357001100028192233
B0134083644504N11905520WA0135801356001100029196228
B0134093644499N11905522WA0135801355001100029205231
B0134103644496N11905524WA0135701354001100028207219
B0134113644492N11905526WA0135601353001100028201224
B0134123644488N11905528WA0135601352001100031193224
B0134133644483N11905529WA0135401351001100034192228
B0134143644478N11905531WA0135301349001100035198240
B0134153644473N11905533WA0135201348001100033205239
B0134163644469N11905536WA0135101347001100031208221
B0134173644465N11905539WA0135101346001100029208214
B0134183644461N11905541WA0135101346001100029200221
B0134193644456N11905543WA0135001345001100030193224
B0134203644452N11905544WA0134901344001100030195236
B0134213644448N11905546WA0134701342001100030203233
B0134223644444N11905549WA0134701341001100030207220
B0134233644439N11905551WA0134601340001100030202207
B0134243644435N11905553WA0134501339001100032193202
B0134253644430N11905554WA0134501338001100033184205
B0134263644425N11905554WA0134401338001100034179200
B0134273644420N11905554WA0134401337001100035172180
B0134283644415N11905552WA0134201336001100036161172
B0134293644410N11905549WA0134001336001100040151166
B0134303644405N11905544WA0133901334001100045141160
B0134313644400N11905536WA0133701333001100050131148
B0134323644396N11905528WA0133701333001100051124149
B0134333644392N11905519WA0133701333001100048124146
B0134343644388N11905512WA0133601333001100047126146
B0134353644384N11905504WA0133501332001100047130147
B0134363644379N11905498WA0133401331001100046137153
B0134373644374N11905493WA0133401329001100045144159
B0134383644368N11905489WA0133301329001100043149167
B0134393644363N11905485WA0133201328001100040151175
B0134403644358N11905481WA0133101327001100039153177
B0134413644353N11905479WA0132901325001100037160179
B0134423644347N11905477WA0132801323001100037166190
B0134433644342N11905475WA0132601322001100038173199
B0134443644336N11905475WA0132501320001100036181206
B0134453644331N11905476WA0132401319001100033192215
B0134463644327N11905478WA0132201317001100028206227
B0134473644324N11905481WA0132101316001100026217241
B0134483644321N11905485WA0132001314001100024218250
B0134493644318N11905488WA0131801312001100024223251
B0134503644316N11905491WA0131601310001100024237255
B0134513644315N11905495WA0131501308001100024262264
B0134523644316N11905499WA0131301307001100022281278
B0134533644318N11905503WA0131301306001100024301289
B0134543644321N11905506WA0131301306001100024316301
B0134553644325N11905509WA0131201305001100023330312
B0134563644328N11905511WA0131101304001100023327317
B0134573644331N11905513WA0130901302001100021326321
E013457PEVBackground
B0134583644335N11905515WA0130701300001100025330324
B0134593644338N11905518WA0130701299001100029330321
B0135003644342N11905521WA0130601298001100029329331
B0135013644346N11905523WA0130601297001100027334327
B0135023644350N11905525WA0130601296001100025342325
B0135033644354N11905526WA0130501296001100025345322
B0135043644357N11905527WA0130401295001100024343321
B0135053644361N11905529WA0130201294001100026335319
B0135063644364N11905531WA0130101293001100026328317
B0135073644368N11905534WA0130101292001100025327315
B0135083644371N11905537WA0130001292001100022327315
B0135093644373N11905539WA0130001292001100019320314
B0135103644375N11905541WA0129901291001100019311315
B0135113644377N11905544WA0129701290001100020303318
B0135123644378N11905547WA0129701289001100020302321
B0135133644380N11905550WA0129701289001100020304321
B0135143644381N11905554WA0129601289001100018298321
B0135153644382N11905557WA0129501288001100018286321
B0135163644383N11905560WA0129401287001100019278321
B0135173644383N11905563WA0129301287001100018275326
B0135183644383N11905567WA0129201286001100017270328
B0135193644383N11905570WA0129101285001100016261329
B0135203644382N11905573WA0129001284001100018256324
B0135213644381N11905577WA0128901282001100021252321
B0135223644380N11905581WA0128901282001100024252324
B0135233644379N11905585WA0128801281001100024248339
B0135243644378N11905589WA0128701281001100022244344
B0135253644376N11905593WA0128601280001100022242346
B0135263644374N11905596WA0128501279001100021245346
B0135273644373N11905600WA0128401278001100022245344
B0135283644371N11905604WA0128301277001100023240333
B0135293644370N11905607WA0128201276001100023239321
B0135303644368N11905611WA0128101275001100022240318
B0135313644366N11905615WA0128001273001100022249315
B0135323644365N11905619WA0127901272001100023253316
B0135333644364N11905623WA0127701271001100022254318
B0135343644363N11905627WA0127801270001100020254319
B0135353644363N11905631WA0127601268001100018260324
B0135363644363N11905634WA0127501267001100018267319
B0135373644363N11905637WA0127301265001100019272325
B0135383644363N11905641WA0127201263001100020270319
B0135393644363N11905644WA0127101262001100019274320
B0135403644363N11905647WA0127001261001100017283316
B0135413644364N11905650WA0126901260001100016294317
B0135423644365N11905653WA0126701259001100017298309
B0135433644367N11905656WA0126601257001100020287308
B0135443644367N11905660WA0126501256001100021281298
B0135453644368N11905663WA0126501256001100020281294
B0135463644369N11905666WA0126401255001100017292296
B0135473644370N11905669WA0126401255001100016299299
B0135483644371N11905672WA0126301254001100017295299
B0135493644372N11905675WA0126201253001100019285301
B0135503644373N11905679WA0126301253001100019283302
B0135513644374N11905682WA0126301253001100018289312
B0135523644375N11905684WA0126401253001100015295305
B0135533644376N11905687WA0126401253001100013301328
B0135543644377N11905689WA0126401253001100014291359
B0135553644378N11905692WA0126301253001100018288007
B0135563644379N11905695WA0126301254001100021290016
B0135573644380N11905699WA0126401254001100020290007
B0135583644381N11905702WA0126401255001100018283355
B0135593644381N11905705WA0126401256001100017273348
B0136003644381N11905708WA0126301255001100018269343
B0136013644381N11905712WA0126401254001100023273338
B0136023644381N11905717WA0126301254001100025267333
B0136033644381N11905721WA0126301254001100025255326
B0136043644379N11905725WA0126201253001100025234324
B0136053644376N11905728WA0126101253001100026218321
B0136063644373N11905731WA0126001251001100026222321
B0136073644370N11905735WA0125801250001100024236320
B0136083644369N11905739WA0125701248001100025251317
B0136093644367N11905744WA0125701248001100026249316
B0136103644366N11905748WA0125501247001100026236315
B0136113644364N11905752WA0125501246001100024239315
B0136123644362N11905756WA0125401246001100023254315
B0136133644362N11905760WA0125201245001100023277314
B0136143644365N11905764WA0125101244001100025299314
B0136153644367N11905768WA0125101244001100023298313
B0136163644368N11905772WA0125101243001100021291313
B0136173644370N11905775WA0125001242001100020302313
B0136183644372N11905778WA0124901241001100021316313
B0136193644375N11905781WA0124801240001100023320313
B0136203644378N11905784WA0124701238001100024314312
B0136213644380N11905787WA0124801237001100024306312
B0136223644382N11905790WA0124801237001100023310312
B0136233644385N11905793WA0124801236001100022318312
B0136243644387N11905796WA0124701236001100022321312
B0136253644390N11905798WA0124601235001100022317312
B0136263644392N11905801WA0124601234001100022309312
B0136273644394N11905805WA0124401234001100023304314
B0136283644396N11905808WA0124501233001100022307322
B0136293644398N11905812WA0124401233001100022311307
B0136303644400N11905815WA0124401232001100021304291
B0136313644401N11905818WA0124301231001100020286284
B0136323644401N11905821WA0124201230001100019265282
B0136333644400N11905825WA0124101230001100021245281
B0136343644397N11905828WA0124001229001100025217283
B0136353644391N11905830WA0123901227001100032198284
B0136363644385N11905830WA0123901227001100036180290
B0136373644378N11905827WA0123701226001100043160294
B0136383644371N11905823WA0123801227001100046149301
B0136393644365N11905818WA0123801228001100043145301
B0136403644360N11905814WA0123801228001100041146303
B0136413644355N11905809WA0123701228001100042146304
B0136423644349N11905804WA0123701227001100046144305
B0136433644344N11905799WA0123601227001100047143306
B0136443644338N11905794WA0123501227001100047143307
B0136453644332N11905789WA0123501227001100045142308
B0136463644327N11905783WA0123601227001100044140309
B0136473644322N11905778WA0123601227001100045140309
B0136483644316N11905773WA0123601227001100047143310
B0136493644311N11905768WA0123501227001100046147310
E013649PEVForeground
B0136503644305N11905764WA0123501226001100044154311
B0136513644299N11905761WA0123401226001100042159176
B0136523644293N11905758WA0123301226001100043162185
B0136533644287N11905756WA0123301225001100043163194
B0136543644281N11905754WA0123301225001100040165198
B0136553644275N11905752WA0123301225001100038170202
B0136563644270N11905752WA0123301224001100035178206
B0136573644265N11905752WA0123201223001100034186218
B0136583644260N11905753WA0123201222001100033192227
B0136593644255N11905755WA0123201222001100032198238
B0137003644251N11905757WA0123101222001100030203242
B0137013644247N11905760WA0123101221001100030207245
B0137023644243N11905763WA0123001220001100032208243
B0137033644238N11905766WA0123001219001100033210248
B0137043644234N11905769WA0123001218001100032214256
B0137053644230N11905773WA0122901217001100032217255
B0137073644227N11905776WA0122901217001100030216250
B0137083644223N11905779WA0122801216001100030210255
E013708PEVBackground
B0137093644215N11905784WA0122701215001100030207264
B0137103644211N11905787WA0122601213001100029209272
B0137113644207N11905790WA0122501212001100031218328
B0137123644204N11905794WA0122401211001100031219318
B0137133644200N11905797WA0122401211001100031218306
B0137143644196N11905801WA0122301211001100030217296
B0137153644193N11905804WA0122301210001100029216286
B0137163644190N11905807WA0122101209001100029218279
B0137173644186N11905811WA0122001208001100031220272
B0137183644182N11905815WA0122001206001100033224264
B0137193644179N11905819WA0122001206001100033226257
B0137203644176N11905823WA0122001205001100029228253
B0137213644173N11905827WA0122001206001100025228252
B0137223644171N11905831WA0122001206001100022230250
B0137233644169N11905834WA0121801205001100020230248
B0137243644167N11905837WA0121701204001100020228246
B0137253644165N11905840WA0121501202001100021230245
B0137263644163N11905843WA0121301201001100024238244
B0137273644162N11905847WA0121201199001100025236243
B0137283644159N11905850WA0121201199001100025232242
B0137293644157N11905854WA0121201199001100024229241
B0137303644155N11905857WA0121201198001100021237241
B0137323644153N11905864WA0121101198001100022247240
B0137333644151N11905868WA0121101198001100024241240
B0137343644150N11905873WA0121101198001100025239240
B0137353644148N11905877WA0121201199001100026245239
B0137363644146N11905881WA0121301199001100025249239
B0137373644145N11905885WA0121401201001100022250239
B0137383644144N11905889WA0121501202001100021251239
B0137393644143N11905893WA0121501202001100022250239
B0137403644142N11905896WA0121501202001100023250239
B0137413644141N11905900WA0121501202001100022252239
B0137423644140N11905904WA0121501202001100021253239
B0137433644139N11905907WA0121401202001100020255238
B0137443644138N11905911WA0121401202001100021264238
B0137453644138N11905915WA0121301201001100023271238
B0137463644139N11905919WA0121301201001100024281238
B0137473644140N11905923WA0121301201001100024292239
B0137483644142N11905927WA0121401201001100022306239
B0137493644144N11905930WA0121401202001100021315239
B0137503644147N11905932WA0121401202001100022321239
B0137513644150N11905935WA0121401202001100026328239
B0137523644154N11905937WA0121401202001100028337239
B0137533644158N11905939WA0121401202001100028345239
B0137543644162N11905939WA0121501203001100028354239
B0137553644166N11905939WA0121501204001100028003239
B0137563644171N11905938WA0121501204001100029015239
B0137573644175N11905936WA0121401203001100033024239
B0137583644180N11905932WA0121301203001100037032239
B0137593644185N11905927WA0121301203001100041038239
B0138003644189N11905922WA0121301203001100042046239
B0138013644193N11905915WA0121301203001100042055239
B0138023644196N11905908WA0121301203001100043066236
B0138033644198N11905900WA0121201203001100045076235
B0138043644199N11905891WA0121201202001100045082235
B0138053644200N11905882WA0121201201001100046089240
B0138063644199N11905874WA0121101201001100047097244
B0138073644198N11905865WA0121101201001100050104251
B0138083644195N11905856WA0121101201001100048106261
B0138093644193N11905848WA0121201201001100045112258
B0138103644189N11905840WA0121201202001100044118258
B0138113644186N11905834WA0121101203001100043121259
B0138123644182N11905828WA0120901202001100043130257
B0138133644176N11905823WA0120901202001100045138258
B0138143644170N11905818WA0120901201001100044149257
B0138153644164N11905815WA0120901201001100042157256
B0138163644158N11905814WA0120901201001100036165254
B0138173644153N11905815WA0121001201001100032182244
B0138183644148N11905816WA0121101202001100033185241
B0138193644143N11905817WA0121101203001100032189251
B0138203644139N11905819WA0121001203001100029200252
B0138213644135N11905822WA0121201203001100027213252
B0138223644132N11905825WA0121201204001100026220255
B0138233644129N11905828WA0121301204001100023223250
B0138243644127N11905831WA0121301205001100020233250
B0138253644126N11905835WA0121301205001100019250249
B0138263644125N11905839WA0121201204001100021270248
B0138273644126N11905843WA0121101204001100023290248
B0138283644128N11905847WA0121201204001100024304247
B0138293644131N11905850WA0121201204001100024318246
B0138303644135N11905852WA0121201204001100025336245
B0138313644139N11905852WA0121201205001100026348244
B0138323644143N11905853WA0121201204001100028359243
B0138333644147N11905852WA0121301204001100032012243
B0138343644152N11905850WA0121201204001100035023235
B0138353644157N11905846WA0121301205001100036038236
B0138363644161N11905841WA0121201205001100037051237
B0138373644164N11905835WA0121101204001100040059237
B0138383644167N11905828WA0121101203001100042067237
B0138393644169N11905820WA0121001202001100044074238
B0138403644170N11905812WA0120901201001100047084238
B0138413644170N11905803WA0120801200001100048093238
B0138423644168N11905794WA0120801199001100048102238
B0138433644166N11905785WA0120801199001100049111238
B0138443644163N11905777WA0120801198001100048117238
B0138453644159N11905769WA0120801198001100047122238
B0138463644155N11905762WA0120801197001100045126239
B0138473644151N11905756WA0120701197001100044130239
B0138483644146N11905750WA0120601196001100045135239
B0138493644141N11905745WA0120601196001100046143237
B0138503644135N11905740WA0120601196001100045148236
B0138513644129N11905736WA0120601196001100043155237
B0138523644123N11905734WA0120701196001100040163245
B0138533644117N11905733WA0120701197001100036172244
B0138543644113N11905733WA0120701196001100032181252
B0138553644108N11905733WA0120601196001100032188260
B0138563644103N11905734WA0120701196001100030191256
B0138573644099N11905736WA0120701197001100028190254
B0138583644095N11905737WA0120601196001100027192251
B0138593644091N11905738WA0120601195001100028199253
B0139003644087N11905740WA0120501195001100028210254
B0139013644084N11905744WA0120501194001100027224255
B0139023644082N11905748WA0120501194001100025237252
B0139033644080N11905752WA0120501195001100022243249
B0139043644079N11905755WA0120601195001100020242248
B0139053644077N11905758WA0120601196001100019246247
B0139063644077N11905762WA0120601196001100020253246
B0139073644076N11905766WA0120601196001100020268246
B0139083644077N11905769WA0120601196001100020286245
B0139093644078N11905772WA0120601196001100020306244
B0139103644081N11905775WA0120701196001100020325244
B0139113644083N11905777WA0120601196001100021340243
B0139123644087N11905777WA0120601196001100023349242
B0139133644090N11905778WA0120501195001100026357242
B0139143644095N11905777WA0120501195001100032007241
B0139153644100N11905776WA0120401194001100034017236
B0139163644104N11905773WA0120401195001100036027237
B0139173644109N11905769WA0120401195001100038039237
B0139183644113N11905764WA0120501195001100040049237
B0139193644117N11905758WA0120401194001100041056238
B0139203644120N11905751WA0120401194001100041063238
B0139213644122N11905744WA0120301193001100043068238
B0139223644124N11905736WA0120201192001100043075238
B0139233644124N11905727WA0120101191001100045088238
B0139243644121N11905718WA0120001191001100047102238
B0139253644117N11905710WA0120001191001100046118239
B0139263644113N11905703WA0120001191001100042132239
B0139273644108N11905699WA0119901190001100040140235
B0139283644102N11905695WA0119901190001100039153235
B0139293644097N11905692WA0119801189001100037161239
B0139303644091N11905691WA0119801188001100037171246
B0139313644086N11905691WA0119701188001100035179256
B0139323644081N11905691WA0119701188001100033186256
B0139333644076N11905692WA0119801188001100030194256
B0139343644072N11905694WA0119801189001100028201257
B0139353644068N11905696WA0119801189001100025211255
B0139363644065N11905699WA0119801188001100025221254
B0139373644063N11905702WA0119701188001100022237254
B0139383644062N11905706WA0119701188001100020257253
B0139393644062N11905709WA0119701188001100019278251
B0139403644063N11905713WA0119701188001100021296249
B0139413644065N11905716WA0119601187001100020301246
B0139423644066N11905719WA0119501187001100020296250
B0139433644067N11905723WA0119501186001100020288239
B0139443644068N11905727WA0119401185001100022285239
B0139453644070N11905731WA0119301184001100025289239
B0139463644072N11905735WA0119201182001100029299239
B0139473644074N11905740WA0119101181001100031301239
B0139483644076N11905745WA0119101181001100030298239
B0139493644078N11905750WA0119101181001100027292239
B0139503644080N11905755WA0119201182001100025284239
B0139513644080N11905759WA0119201182001100023282239
B0139523644081N11905763WA0119101182001100023282239
B0139533644082N11905768WA0119001181001100025283239
B0139543644083N11905773WA0118801180001100030282239
B0139553644084N11905779WA0118801179001100032282239
B0139563644085N11905784WA0118801178001100030286239
B0139573644086N11905789WA0118701178001100028293239
B0139583644088N11905794WA0118601177001100027298239
B0139593644090N11905798WA0118501175001100028300239
B0140003644093N11905803WA0118401174001100029298239
B0140013644095N11905807WA0118301173001100028297239
B0140023644097N11905812WA0118101172001100027303239
B0140033644099N11905816WA0118001171001100028309239
B0140043644102N11905820WA0117801170001100028309239
B0140053644105N11905824WA0117901170001100028306239
B0140063644107N11905828WA0118001169001100025306239
B0140073644109N11905832WA0118001169001100020312239
B0140083644111N11905834WA0118001169001100015322239
B0140093644113N11905835WA0117901168001100014328239
B0140103644115N11905837WA0117801166001100018322239
B0140113644117N11905839WA0117701165001100021318239
B0140123644119N11905842WA0117601164001100021315239
B0140133644122N11905844WA0117601164001100018317239
B0140143644124N11905846WA0117601164001100017318239
B0140153644126N11905848WA0117501163001100018318239
B0140163644128N11905851WA0117401162001100020315239
B0140173644130N11905853WA0117401162001100020313239
B0140183644132N11905856WA0117401162001100019313239
B0140193644134N11905858WA0117301162001100017313239
B0140203644136N11905860WA0117301161001100016315239
B0140213644137N11905862WA0117201160001100017317239
B0140223644139N11905865WA0117001159001100019317239
B0140233644142N11905867WA0116901158001100020314239
B0140243644143N11905870WA0116901157001100020308239
B0140253644145N11905873WA0116801157001100020302239
B0140263644147N11905876WA0116801156001100020296239
B0140273644148N11905880WA0116801155001100017291239
B0140283644148N11905883WA0116701155001100017285239
B0140293644149N11905886WA0116701155001100019276239
B0140303644149N11905890WA0116601153001100024268239
B0140313644148N11905895WA0116601152001100028259239
B0140323644147N11905900WA0116601152001100028252239
B0140333644145N11905905WA0116701152001100026242239
B0140343644143N11905909WA0116701153001100024234239
B0140353644141N11905913WA0116801153001100025234239
B0140363644139N11905916WA0116701152001100025236239
B0140373644136N11905921WA0116601152001100026235239
B0140383644134N11905925WA0116601152001100028230239
B0140393644131N11905929WA0116601152001100027227239
B0140403644128N11905932WA0116701152001100025228239
B0140413644126N11905936WA0116601152001100024231239
B0140423644124N11905939WA0116501151001100024234239
B0140433644121N11905943WA0116501150001100025231239
B0140443644119N11905947WA0116301150001100026228239
B0140453644116N11905950WA0116101148001100027225244
B0140463644113N11905954WA0116001147001100026225243
B0140473644111N11905957WA0115801146001100026226243
B0140483644108N11905961WA0115701144001100025226242
B0140493644105N11905964WA0115601143001100024228241
B0140503644103N11905967WA0115601143001100023228240
B0140513644101N11905970WA0115601143001100023224244
B0140523644098N11905973WA0115501143001100023219246
B0140533644095N11905976WA0115501142001100024212245
B0140543644092N11905978WA0115401141001100024216246
B0140553644090N11905981WA0115201139001100021230247
B0140563644088N11905984WA0115201138001100020252247
B0140573644089N11905987WA0115001137001100019281247
B0140583644090N11905991WA0114901136001100022301247
B0140593644094N11905993WA0114901135001100023324246
B0141003644098N11905994WA0114901135001100025353244
B0141013644103N11905992WA0114801134001100028008243
B0141023644107N11905991WA0114801134001100029006242
B0141033644112N11905991WA0114601133001100030002242
B0141043644117N11905991WA0114701133001100032003241
B0141053644122N11905990WA0114701133001100034011241
B0141063644127N11905988WA0114601133001100034023241
B0141073644131N11905984WA0114701133001100034033240
B0141083644136N11905981WA0114601132001100034034240
B0141093644140N11905977WA0114501132001100036032240
B0141103644145N11905974WA0114401131001100038031239
B0141113644150N11905970WA0114401131001100040031239
B0141123644155N11905966WA0114301130001100038029239
B0141133644160N11905963WA0114301130001100037025239
B0141143644165N11905960WA0114101129001100036023238
B0141153644170N11905957WA0114101128001100038020239
B0141163644175N11905955WA0114101128001100039018239
B0141173644181N11905953WA0114001127001100040013239
B0141183644187N11905951WA0114001126001100040013239
B0141193644193N11905949WA0114001126001100041017239
B0141203644198N11905946WA0114001126001100042024239
B0141213644204N11905942WA0114001126001100041026239
B0141223644209N11905939WA0114001126001100040022239
B0141233644215N11905937WA0114001125001100038016239
B0141243644220N11905935WA0114001125001100039013239
B0141253644226N11905933WA0114001125001100040013239
B0141263644232N11905931WA0114001125001100039014239
B0141273644237N11905930WA0114101126001100038013239
B0141283644243N11905929WA0114101126001100035010239
B0141293644248N11905928WA0114201126001100034005239
B0141303644253N11905927WA0114101126001100033000239
B0141313644258N11905927WA0114101125001100033357239
B0141323644263N11905928WA0114001124001100034354239
B0141333644268N11905928WA0113901124001100035353239
B0141343644274N11905929WA0114001123001100036351239
B0141353644279N11905931WA0113901123001100035351239
B0141363644284N11905932WA0113901123001100033347239
B0141373644289N11905934WA0113901122001100031342239
B0141383644293N11905936WA0113801122001100030335239
B0141393644297N11905938WA0113801121001100029327239
B0141403644300N11905942WA0113801121001100028319239
B0141413644303N11905945WA0113701121001100027312239
B0141423644306N11905949WA0113701120001100026304239
B0141433644308N11905953WA0113601120001100026296239
B0141443644309N11905957WA0113601119001100026288239
B0141453644310N11905962WA0113501119001100026275239
B0141463644309N11905967WA0113501118001100028257242
B0141473644307N11905972WA0113301117001100029240244
B0141483644304N11905977WA0113301117001100030223244
B0141493644300N11905980WA0113301117001100028213244
B0141503644297N11905982WA0113301117001100028201238
B0141513644293N11905984WA0113201116001100029198230
B0141523644288N11905986WA0113101115001100032193233
B0141533644283N11905987WA0113001114001100038192238
B0141543644277N11905988WA0112901113001100040191236
B0141553644271N11905990WA0112901113001100041190240
B0141563644265N11905991WA0112901113001100040187233
B0141573644259N11905992WA0112801113001100040183274
B0141583644253N11905992WA0112901113001100039179236
B0141593644247N11905992WA0112901112001100034175222
B0142003644242N11905991WA0112901112001100033166174
B0142013644237N11905989WA0112701111001100035158164
B0142023644233N11905984WA0112301110001100037144158
B0142033644230N11905976WA0112001108001100041114305
B0142043644231N11905965WA0111601106001100042079280
B0142053644236N11905957WA0111501106001100041054267
B0142063644242N11905952WA0111601105001100037034252
B0142073644247N11905951WA0111701104001100026022244
B0142083644250N11905952WA0111601103001100013007237
B0142093644250N11905955WA0111401102001100004007230
B0142103644248N11905957WA0111201100001100013212222
B0142113644241N11905958WA0111001098001100035173213
B0142123644235N11905957WA0110901097001100035165235
B0142133644229N11905953WA0110901096001100040154241
B0142143644223N11905951WA0110801094001100036162261
B0142153644218N11905950WA0110501091001100034169273
B0142163644214N11905951WA0110001088001100030189265
B0142173644212N11905956WA0109901086001100023218255
B0142183644211N11905961WA0110001083001100023219219
B0142193644209N11905964WA0109901081001100022209216
B0142203644206N11905966WA0109501079001100023196217
B0142213644202N11905964WA0108901075001100028158235
B0142223644196N11905959WA0108901074001100037148238
B0142233644190N11905956WA0109001073001100037157256
B0142243644184N11905955WA0108801070001100037173268
B0142253644180N11905958WA0108501069001100027186270
B0142263644180N11905961WA0108501068001100012204273
B0142273644183N11905965WA0108601068001100013330268
B0142283644187N11905967WA0108701068001100015350260
B0142293644191N11905969WA0108701069001100015356248
B0142303644195N11905970WA0108501068001100014352245
B0142313644197N11905972WA0108301066001100013332244
B0142323644198N11905975WA0108201065001100014302242
B0142333644198N11905980WA0108101063001100016263241
B0142343644197N11905984WA0108001062001100020241240
B0142353644194N11905988WA0107901061001100021222242
B0142363644191N11905990WA0107801059001100022216246
B0142373644188N11905993WA0107601057001100026216248
B0142383644185N11905997WA0107501055001100031215250
B0142393644180N11906000WA0107401053001100033214256
B0142403644176N11906004WA0107401053001100032214258
B0142413644172N11906007WA0107501053001100029215252
B0142423644169N11906010WA0107501054001100025219246
B0142433644166N11906013WA0107501053001100025217245
B0142443644163N11906016WA0107501054001100029211250
B0142453644159N11906019WA0107501054001100032204249
B0142463644154N11906021WA0107601055001100032201255
B0142473644150N11906024WA0107601055001100030204251
B0142483644146N11906026WA0107701055001100030205258
B0142493644142N11906028WA0107601055001100029205256
B0142503644138N11906031WA0107701055001100030204259
B0142513644134N11906033WA0107701054001100029204258
B0142523644130N11906035WA0107701054001100028203251
B0142533644126N11906037WA0107701054001100028197235
B0142543644122N11906038WA0107701054001100031190234
B0142553644117N11906039WA0107601054001100035184238
B0142563644112N11906039WA0107601054001100036184243
B0142573644106N11906039WA0107701054001100035181244
B0142583644101N11906039WA0107701055001100034179229
B0142593644096N11906039WA0107601055001100034173221
B0143003644091N11906038WA0107501054001100036170223
B0143013644086N11906037WA0107501054001100037170238
B0143023644080N11906036WA0107401053001100037173241
B0143033644075N11906036WA0107301052001100036179249
B0143043644070N11906036WA0107301052001100033186251
B0143053644065N11906037WA0107201051001100031192257
B0143063644061N11906039WA0107201051001100030196262
B0143073644057N11906040WA0107201051001100029199267
B0143083644053N11906042WA0107101051001100027206274
B0143093644050N11906045WA0107001050001100027218272
B0143103644047N11906049WA0106901049001100027233273
B0143113644045N11906053WA0106801048001100025246267
B0143123644044N11906057WA0106801047001100023253264
B0143133644043N11906061WA0106701046001100022254258
B0143143644042N11906065WA0106701045001100023255257
B0143153644041N11906069WA0106501044001100024263258
B0143163644042N11906073WA0106501043001100023275255
B0143173644043N11906077WA0106401042001100022290253
B0143183644044N11906080WA0106401042001100020303253
B0143193644046N11906083WA0106401042001100019323250
B0143203644049N11906085WA0106401042001100020338249
B0143213644053N11906085WA0106301041001100023351249
B0143223644057N11906084WA0106201040001100028012230
B0143233644062N11906080WA0106001038001100033033232
B0143243644067N11906073WA0105901037001100044050233
B0143253644071N11906066WA0105801036001100044054234
B0143263644075N11906059WA0105801036001100041051235
B0143273644079N11906053WA0105701035001100039047242
B0143283644083N11906048WA0105701034001100039045236
B0143293644087N11906042WA0105601033001100042045237
B0143303644091N11906036WA0105501032001100044048237
B0143313644096N11906029WA0105501032001100045051237
B0143323644100N11906023WA0105601032001100044052237
B0143333644104N11906017WA0105501033001100042051238
B0143343644108N11906010WA0105501032001100042050238
B0143353644112N11906004WA0105401032001100042052238
B0143363644115N11905998WA0105401032001100043054239
B0143373644119N11905991WA0105301032001100045054238
B0143383644123N11905984WA0105401032001100045053238
B0143393644127N11905978WA0105501033001100041052238
B0143403644130N11905972WA0105501033001100038052238
B0143413644134N11905966WA0105501033001100037050239
B0143423644137N11905961WA0105401032001100038048239
B0143433644142N11905956WA0105401032001100040043239
B0143443644146N11905951WA0105401032001100039037239
B0143453644151N11905947WA0105501032001100037031239
B0143463644156N11905944WA0105601033001100034029239
B0143473644160N11905941WA0105501033001100032028239
B0143483644164N11905938WA0105501033001100033024239
B0143493644169N11905936WA0105401032001100035014239
B0143503644174N11905936WA0105401031001100037006239
B0143513644180N11905935WA0105401031001100035002239
B0143523644185N11905935WA0105501032001100032001239
B0143533644190N11905935WA0105601033001100030002239
B0143543644194N11905935WA0105601034001100030001239
B0143553644199N11905935WA0105601034001100030355239
B0143563644203N11905936WA0105501034001100031352239
B0143573644208N11905937WA0105601034001100032350239
B0143583644213N11905938WA0105601035001100031350239
B0143593644217N11905939WA0105701036001100028347239
B0144003644221N11905941WA0105701036001100026340239
B0144013644224N11905943WA0105701036001100023328239
B0144023644227N11905945WA0105701035001100021313239
B0144033644229N11905948WA0105601035001100020291239
B0144043644229N11905952WA0105501034001100021267241
B0144053644227N11905956WA0105501034001100023244243
B0144063644225N11905960WA0105501034001100026222245
B0144073644221N11905963WA0105501034001100027209250
B0144083644217N11905965WA0105501034001100026205253
B0144093644213N11905967WA0105401034001100027203248
B0144103644209N11905969WA0105301033001100029203244
B0144113644205N11905972WA0105301032001100031200241
B0144123644201N11905974WA0105201033001100032198247
B0144133644196N11905976WA0105301034001100031196254
B0144143644192N11905977WA0105401034001100029195258
B0144153644188N11905979WA0105401035001100026197265
B0144163644184N11905980WA0105401034001100025201254
B0144173644180N11905982WA0105301034001100027205252
B0144183644177N11905985WA0105301034001100028206250
B0144193644173N11905987WA0105301034001100028202264
B0144203644169N11905988WA0105401035001100025197264
B0144213644166N11905990WA0105401036001100022196258
B0144223644163N11905991WA0105401036001100022201253
B0144233644159N11905993WA0105301035001100024208252
B0144243644156N11905995WA0105201034001100027210255
B0144253644152N11905998WA0105301034001100027205246
B0144263644149N11905999WA0105301034001100027194218
B0144273644145N11906000WA0105201034001100027184207
B0144283644140N11905999WA0105101033001100030170193
B0144293644136N11905997WA0105101032001100035157195
B0144303644130N11905993WA0105001031001100040145196
B0144313644126N11905988WA0105001031001100042135200
B0144323644122N11905981WA0105001031001100043125206
B0144333644118N11905975WA0105001031001100041118208
B0144343644116N11905967WA0105001030001100042111215
B0144353644114N11905960WA0104901029001100044107216
B0144363644112N11905952WA0104901028001100045102219
B0144373644111N11905943WA0104801028001100045096220
B0144383644110N11905935WA0104801027001100045090224
B0144393644111N11905926WA0104801027001100045083226
B0144403644112N11905918WA0104801026001100043081228
B0144413644113N11905910WA0104701026001100043081230
B0144423644114N11905902WA0104701025001100043080231
B0144433644115N11905894WA0104601025001100044074232
B0144443644117N11905886WA0104601025001100043068233
B0144453644120N11905879WA0104601024001100041059234
B0144463644123N11905872WA0104501024001100040055235
B0144473644127N11905866WA0104401023001100038054241
B0144483644130N11905861WA0104401023001100037047241
B0144493644134N11905856WA0104301022001100037037240
B0144503644139N11905853WA0104201020001100034027240
B0144513644144N11905852WA0104101019001100031000239
B0144523644148N11905854WA0104001018001100028342239
B0144533644152N11905858WA0104001017001100026323239
B0144543644154N11905862WA0104001016001100022300239
B0144553644155N11905866WA0103901016001100021281239
B0144563644155N11905870WA0103901016001100020270239
B0144573644154N11905874WA0103801015001100020257239
B0144583644153N11905878WA0103701014001100023244239
B0144593644151N11905883WA0103701013001100025239239
B0145003644149N11905887WA0103601013001100024239239
B0145013644147N11905890WA0103701013001100022240239
B0145023644146N11905894WA0103701013001100021241239
B0145033644144N11905898WA0103601013001100021242239
B0145043644142N11905901WA0103501012001100023244239
B0145053644141N11905905WA0103401012001100025246239
B0145063644139N11905910WA0103401011001100025248239
B0145073644138N11905915WA0103301011001100025252239
B0145083644137N11905919WA0103301011001100025262239
B0145093644137N11905924WA0103301011001100024278239
B0145103644138N11905928WA0103301011001100025293239
B0145113644141N11905932WA0103201010001100027309239
B0145123644144N11905935WA0103201010001100029320239
B0145133644147N11905938WA0103101009001100029329239
B0145143644151N11905941WA0103101009001100031336239
B0145153644156N11905943WA0103101009001100031344239
B0145163644161N11905944WA0103101008001100033352239
B0145173644166N11905944WA0103001008001100035356239
B0145183644171N11905944WA0103001007001100037356239
B0145193644177N11905944WA0103001007001100036356239
B0145203644182N11905944WA0102901007001100036002239
B0145213644188N11905943WA0103001007001100038011239
B0145223644193N11905941WA0102901007001100039022239
B0145233644199N11905936WA0103001006001100044034239
B0145243644204N11905930WA0102901007001100044046239
B0145253644207N11905923WA0103101007001100042056239
B0145263644210N11905916WA0103101008001100041066239
B0145273644212N11905908WA0103101008001100042074239
B0145283644214N11905900WA0103101008001100045077239
B0145293644215N11905891WA0103001008001100047072239
B0145303644218N11905883WA0103001008001100047063239
B0145313644222N11905875WA0103001009001100045055239
B0145323644226N11905869WA0103101009001100042048239
B0145333644230N11905864WA0103201009001100040045239
B0145343644234N11905858WA0103201010001100037042239
B0145353644238N11905854WA0103201009001100036036239
B0145363644242N11905850WA0103101009001100036028239
B0145373644247N11905848WA0103101008001100036021239
B0145383644252N11905845WA0103101008001100034015239
B0145393644257N11905844WA0103001008001100030009239
B0145403644261N11905844WA0103001007001100027003239
B0145413644265N11905844WA0102901006001100027355239
B0145423644270N11905845WA0102701004001100029347239
B0145433644274N11905846WA0102601003001100029337239
B0145443644277N11905849WA0102601002001100028327239
B0145453644280N11905852WA0102601002001100025312239
B0145463644282N11905856WA0102601002001100020291239
B0145473644283N11905859WA0102601002001100018281239
B0145483644283N11905863WA0102601001001100018280239
B0145493644284N11905866WA0102501000001100020277239
B0145503644284N11905870WA0102400999001100022268239
B0145513644283N11905874WA0102400998001100023260239
B0145523644283N11905879WA0102400999001100023253239
B0145533644282N11905883WA0102300999001100021248239
B0145543644280N11905886WA0102300999001100021244239
B0145553644279N11905890WA0102400999001100023246239
B0145563644277N11905894WA0102300999001100025248239
B0145573644276N11905899WA0102401000001100026247239
B0145583644274N11905903WA0102401000001100026243239
B0145593644273N11905907WA0102501001001100024239239
B0146003644271N11905911WA0102501002001100022235239
B0146013644269N11905915WA0102601003001100020228239
B0146023644267N11905917WA0102601003001100019219240
B0146033644264N11905919WA0102501003001100020210242
B0146043644261N11905921WA0102501003001100023200240
B0146053644257N11905922WA0102401002001100027193236
B0146063644253N11905923WA0102401001001100031190236
B0146073644248N11905925WA0102301001001100032189239
B0146083644244N11905926WA0102401001001100031190253
B0146093644239N11905927WA0102401001001100030187239
B0146103644235N11905927WA0102301001001100030186239
B0146113644230N11905928WA0102201000001100033186239
B0146123644225N11905929WA0102101000001100035186247
B0146133644220N11905929WA0102201000001100034186251
B0146143644215N11905930WA0102201000001100033189258
B0146153644210N11905932WA0102201000001100031195254
B0146163644206N11905933WA0102201000001100030201254
B0146173644202N11905935WA0102201000001100029202257
B0146183644198N11905938WA0102201000001100028202260
B0146193644194N11905939WA0102201000001100027202265
B0146203644190N11905941WA0102101000001100027204265
B0146213644187N11905944WA0102100999001100026213264
B0146223644184N11905947WA0102100998001100026221257
B0146233644181N11905950WA0102000998001100027228258
B0146243644179N11905954WA0102100998001100025226256
B0146253644176N11905957WA0102100998001100022224253
B0146263644174N11905960WA0102000998001100021224250
B0146273644172N11905963WA0101900997001100021225248
B0146283644169N11905966WA0101800996001100023231246
B0146293644167N11905970WA0101600995001100025232244
B0146303644165N11905973WA0101500994001100026228243
B0146313644162N11905977WA0101500994001100025221242
B0146323644159N11905980WA0101500993001100025218242
B0146333644156N11905982WA0101400992001100024220241
B0146343644153N11905985WA0101300991001100024223241
B0146353644151N11905988WA0101300991001100024225240
B0146363644148N11905992WA0101200990001100025225240
B0146373644146N11905995WA0101200989001100025224240
B0146383644143N11905998WA0101200989001100025222240
B0146393644140N11906001WA0101200989001100024223239
B0146403644138N11906004WA0101100988001100024225239
B0146413644135N11906008WA0101100988001100025229239
B0146423644133N11906011WA0101000988001100025232239
B0146433644131N11906015WA0101000987001100025233239
B0146443644129N11906019WA0101000987001100024238239
B0146453644127N11906023WA0101000987001100023244239
B0146463644126N11906027WA0101100988001100024250239
B0146473644125N11906031WA0101200989001100022254239
B0146483644124N11906035WA0101300990001100019257239
B0146493644124N11906038WA0101400991001100019259239
B0146503644123N11906041WA0101300991001100019268239
B0146513644124N11906045WA0101300991001100022290239
B0146523644126N11906049WA0101300990001100024311239
B0146533644130N11906051WA0101200990001100027331239
B0146543644135N11906052WA0101300990001100029353239
B0146553644141N11906050WA0101400990001100033014239
B0146563644146N11906047WA0101400990001100034027238
B0146573644151N11906042WA0101300989001100036038239
B0146583644155N11906037WA0101200989001100041049239
B0146593644159N11906029WA0101200989001100045058239
B0147003644162N11906021WA0101200988001100046069239
B0147013644163N11906012WA0101200988001100046080239
B0147023644163N11906004WA0101200987001100043090239
B0147033644162N11905996WA0101100986001100042100239
B0147043644160N11905988WA0101000986001100043110239
B0147053644156N11905981WA0100900985001100044123239
B0147063644151N11905975WA0100900984001100043137238
B0147073644145N11905971WA0100900984001100041152236
B0147083644140N11905969WA0100800983001100038164239
B0147093644134N11905969WA0100800983001100034176243
B0147103644129N11905969WA0100800983001100030191249
B0147113644125N11905972WA0100900983001100029203254
B0147123644122N11905974WA0100900983001100027213261
B0147133644119N11905977WA0101000984001100024224262
B0147143644117N11905981WA0101100985001100023232257
B0147153644115N11905984WA0101200986001100021234252
B0147163644113N11905987WA0101200986001100021235250
B0147173644111N11905991WA0101200985001100022237246
B0147183644109N11905994WA0101000985001100024239247
B0147193644107N11905998WA0101000985001100025237245
B0147203644105N11906002WA0101000985001100025230244
B0147213644102N11906006WA0101100985001100024220243
B0147223644099N11906008WA0101000985001100025208243
B0147233644095N11906010WA0101000984001100026198246
B0147243644091N11906012WA0100900984001100028193245
B0147253644087N11906013WA0100800983001100030192247
B0147263644083N11906014WA0100700983001100031192253
B0147273644078N11906015WA0100700983001100031194255
B0147283644074N11906017WA0100700983001100029197257
B0147293644070N11906018WA0100700983001100028200261
B0147303644066N11906020WA0100600983001100027204269
B0147313644062N11906023WA0100500982001100027210266
B0147323644059N11906026WA0100500981001100025220264
B0147333644057N11906029WA0100400980001100025233262
B0147343644055N11906033WA0100300980001100025242260
B0147353644053N11906037WA0100300979001100024248259
B0147363644052N11906042WA0100200978001100024257256
B0147373644052N11906046WA0100200978001100023267253
B0147383644052N11906050WA0100100977001100022271251
B0147393644052N11906055WA0100100977001100023270247
B0147403644052N11906059WA0100200977001100023273246
B0147413644053N11906063WA0100200978001100021281246
B0147423644054N11906067WA0100200978001100020288245
B0147433644055N11906070WA0100200977001100021294244
B0147443644056N11906073WA0100200977001100022298243
B0147453644058N11906077WA0100200977001100023306243
B0147463644061N11906080WA0100100977001100025317242
B0147473644064N11906083WA0100100977001100026330242
B0147483644068N11906085WA0100100977001100027346242
B0147493644072N11906085WA0100100976001100030001242
B0147503644077N11906083WA0099900976001100033017236
B0147513644082N11906077WA0099900975001100045044237
B0147523644086N11906070WA0100000975001100046051237
B0147533644090N11906062WA0100100976001100045060238
B0147543644091N11906054WA0100100976001100042072238
B0147553644092N11906046WA0100100976001100039078238
B0147563644093N11906039WA0100000975001100042078238
B0147573644095N11906030WA0099900974001100048079238
B0147583644096N11906021WA0099800974001100050081238
B0147593644096N11906011WA0099800974001100050085238
B0148003644097N11906002WA0099900975001100046088238
B0148013644097N11905994WA0099900975001100042087238
B0148023644097N11905986WA0099800974001100042084238
B0148033644098N11905978WA0099800973001100043082238
B0148043644098N11905970WA0099700973001100045082238
B0148053644099N11905962WA0099600972001100046082239
B0148063644100N11905953WA0099600971001100045082239
B0148073644101N11905945WA0099500970001100044080239
B0148083644102N11905937WA0099400970001100044079239
B0148093644104N11905929WA0099400969001100045079239
B0148103644105N11905920WA0099400969001100046080239
B0148113644106N11905912WA0099300969001100047081239
B0148123644107N11905903WA0099400969001100046078239
B0148133644109N11905895WA0099400969001100045074239
B0148143644111N11905887WA0099400969001100045070239
B0148153644113N11905879WA0099400969001100045067239
B0148163644116N11905872WA0099500969001100044063239
B0148173644119N11905864WA0099500969001100043058239
B0148183644123N11905858WA0099500969001100042052239
B0148193644127N11905852WA0099600970001100040046239
B0148203644131N11905847WA0099600970001100039041239
B0148213644136N11905842WA0099600970001100038038239
B0148223644140N11905838WA0099500969001100038035239
B0148233644145N11905834WA0099500969001100038030239
B0148243644150N11905831WA0099500969001100038022239
B0148253644155N11905829WA0099500969001100037016239
B0148263644161N11905828WA0099500969001100035011239
B0148273644166N11905827WA0099500970001100033009239
B0148283644171N11905826WA0099600970001100031003239
B0148293644175N11905826WA0099600971001100031357239
B0148303644180N11905827WA0099600971001100031353239
B0148313644184N11905828WA0099700972001100029350239
B0148323644189N11905829WA0099700972001100029345239
B0148333644193N11905831WA0099700972001100029338239
B0148343644197N11905833WA0099700973001100029334239
B0148353644201N11905835WA0099700973001100029333239
B0148363644204N11905838WA0099800974001100026334239
B0148373644208N11905840WA0099800974001100025335239
B0148383644211N11905842WA0099800973001100025336239
B0148393644215N11905844WA0099700973001100027334239
B0148403644219N11905846WA0099700972001100031330239
B0148413644223N11905850WA0099700972001100032326239
B0148423644226N11905853WA0099800973001100029321239
B0148433644230N11905856WA0099800974001100025322239
B0148443644233N11905859WA0099900974001100025325239
B0148453644236N11905861WA0099900974001100026327239
B0148463644239N11905864WA0099900974001100026329239
B0148473644242N11905867WA0099900974001100026328239
B0148483644246N11905869WA0099900974001100025327239
B0148493644249N11905872WA0099900974001100025327239
B0148503644252N11905874WA0099800974001100027327239
B0148513644255N11905877WA0099800973001100027325239
B0148523644259N11905880WA0099800973001100025321239
B0148533644261N11905883WA0099800973001100023318239
B0148543644264N11905886WA0099800973001100023318239
B0148553644267N11905889WA0099700973001100024321239
B0148563644270N11905892WA0099600972001100024321239
B0148573644272N11905895WA0099600971001100024317239
B0148583644275N11905898WA0099500971001100023312239
B0148593644277N11905901WA0099500970001100022310239
B0149003644279N11905904WA0099400970001100020311239
B0149013644281N11905906WA0099400969001100020310239
B0149023644283N11905909WA0099200968001100020305239
B0149033644284N11905913WA0099200967001100022298239
B0149043644286N11905916WA0099100966001100022293239
B0149053644287N11905920WA0099000965001100020287239
B0149063644287N11905923WA0099000965001100018276239
B0149073644287N11905926WA0099000964001100017266239
B0149083644287N11905930WA0098900963001100018260239
B0149093644286N11905933WA0098800963001100020255239
B0149103644285N11905937WA0098700962001100020250239
B0149113644284N11905940WA0098700961001100020240239
B0149123644282N11905943WA0098600961001100020229239
B0149133644280N11905946WA0098600960001100020223239
B0149143644278N11905949WA0098500960001100022219243
B0149153644275N11905951WA0098400959001100023217247
B0149163644272N11905954WA0098300958001100024213248
B0149173644269N11905956WA0098200957001100024208248
B0149183644265N11905958WA0098200956001100027205249
B0149193644262N11905960WA0098000955001100028205257
B0149203644258N11905962WA0097900954001100030209261
B0149213644254N11905965WA0097800953001100029212262
B0149223644251N11905968WA0097800953001100027217262
B0149233644247N11905971WA0097700952001100026217257
B0149243644244N11905974WA0097700952001100026218259
B0149253644241N11905977WA0097600951001100026222258
B0149263644238N11905980WA0097500950001100026222257
B0149273644235N11905983WA0097600949001100027221262
B0149283644232N11905987WA0097400948001100027220252
B0149293644229N11905990WA0097400947001100027220256
B0149303644226N11905993WA0097300947001100028219257
B0149313644222N11905996WA0097200946001100028217283
B0149323644219N11905999WA0097200946001100027214279
B0149333644216N11906002WA0097100945001100028210274
B0149343644212N11906005WA0097100944001100030209265
B0149353644208N11906008WA0097000943001100031212258
B0149363644204N11906011WA0096900943001100032211255
B0149373644200N11906014WA0096900943001100030209254
B0149383644196N11906017WA0096900943001100027208251
B0149393644193N11906019WA0096900942001100027214247
B0149403644190N11906022WA0096800941001100027220247
B0149413644186N11906026WA0096600941001100028217244
B0149423644183N11906029WA0096600940001100029209244
B0149433644179N11906031WA0096500939001100029202242
B0149443644175N11906033WA0096500939001100027208243
B0149453644172N11906036WA0096400938001100026220242
B0149463644169N11906040WA0096400937001100026234241
B0149473644167N11906044WA0096300936001100026238241
B0149483644165N11906048WA0096300936001100026230240
B0149493644162N11906051WA0096300936001100025228240
B0149503644160N11906055WA0096300935001100023237240
B0149513644159N11906059WA0096300935001100023245240
B0149523644157N11906063WA0096200934001100025237239
B0149533644154N11906067WA0096200934001100027223239
B0149543644151N11906070WA0096200934001100028210239
B0149553644147N11906072WA0096200934001100028202239
B0149563644144N11906074WA0096200934001100026202239
B0149573644140N11906076WA0096100932001100026208239
B0149583644137N11906079WA0096000930001100027213239
B0149593644133N11906081WA0095800928001100030209239
B0150003644129N11906084WA0095700927001100033206239
B0150013644125N11906087WA0095600925001100033211239
B0150023644121N11906091WA0095500925001100029219239
B0150033644118N11906094WA0095400924001100025220239
B0150043644115N11906097WA0095300923001100026214239
B0150053644112N11906100WA0095200922001100030215239
B0150063644108N11906103WA0095200921001100031221239
B0150073644105N11906107WA0095100921001100030232239
B0150083644102N11906112WA0095100921001100028240239
B0150093644100N11906117WA0095100920001100028241239
B0150103644098N11906121WA0095000920001100028238239
B0150113644096N11906126WA0094900919001100028240239
B0150123644094N11906130WA0094900918001100028245239
B0150133644093N11906135WA0094700917001100025253239
B0150143644092N11906139WA0094600916001100025256239
B0150153644091N11906144WA0094400915001100024257239
B0150163644091N11906148WA0094400914001100026260239
B0150173644091N11906153WA0094200912001100026272239
B0150183644091N11906158WA0094100912001100026283239
B0150193644092N11906162WA0094200911001100024291239
B0150203644094N11906166WA0094200911001100021290239
B0150213644095N11906169WA0094100911001100020285239
B0150223644096N11906173WA0093900910001100021290239
B0150233644097N11906177WA0093800908001100023299239
B0150243644099N11906181WA0093700907001100026303239
B0150253644101N11906185WA0093700907001100026300239
B0150263644103N11906189WA0093700906001100025291239
B0150273644104N11906193WA0093600906001100023286239
B0150283644105N11906197WA0093600905001100021285239
B0150293644106N11906201WA0093500904001100022288239
B0150303644108N11906205WA0093400904001100024296239
B0150313644110N11906209WA0093400903001100026300239
B0150323644112N11906213WA0093300903001100026299239
B0150333644113N11906217WA0093300903001100025293239
B0150343644115N11906221WA0093200902001100022292239
B0150353644116N11906225WA0093200902001100021294239
B0150363644118N11906228WA0093100901001100021298239
B0150373644119N11906232WA0093000899001100024297239
B0150383644121N11906236WA0092900899001100025291239
B0150393644122N11906241WA0092800898001100026285239
B0150403644123N11906245WA0092800898001100025287239
B0150413644124N11906249WA0092800898001100023291239
B0150423644125N11906253WA0092800898001100022294239
B0150433644127N11906257WA0092700897001100021289239
B0150443644128N11906261WA0092600896001100022285239
B0150453644128N11906264WA0092500895001100024285239
B0150463644129N11906268WA0092400894001100024290239
B0150473644131N11906272WA0092400893001100023293239
B0150483644132N11906276WA0092300892001100022294239
B0150493644133N11906280WA0092200891001100022293239
B0150503644135N11906283WA0092100890001100023294239
B0150513644136N11906287WA0091900889001100024298239
B0150523644138N11906291WA0091900888001100025303239
B0150533644140N11906295WA0091800888001100024308239
B0150543644143N11906298WA0091700887001100022311239
B0150553644145N11906301WA0091600886001100021315239
B0150563644148N11906304WA0091400884001100023319239
B0150573644151N11906307WA0091300883001100027326239
B0150583644155N11906309WA0091100881001100031335239
B0150593644159N11906312WA0091000880001100032339239
B0151003644164N11906314WA0091000880001100030340239
B0151013644168N11906315WA0091100880001100026346239
B0151023644171N11906316WA0091000880001100024352239
B0151033644175N11906316WA0090900879001100025359239
B0151043644179N11906316WA0090800878001100028005239
B0151053644184N11906315WA0090600876001100033005239
B0151063644189N11906314WA0090500875001100035006239
B0151073644194N11906314WA0090400874001100035007239
B0151083644199N11906313WA0090300873001100035006239
B0151093644204N11906312WA0090400873001100035006239
B0151103644210N11906311WA0090300873001100035009239
B0151113644215N11906309WA0090300872001100036013239
B0151123644220N11906308WA0090200873001100035017239
B0151133644225N11906306WA0090200872001100033017239
B0151143644229N11906304WA0090100872001100031017239
B0151153644234N11906303WA0090100871001100031014239
B0151163644239N11906301WA0090000870001100034015239
B0151173644244N11906299WA0089800869001100035018239
B0151183644249N11906297WA0089800869001100036023239
B0151193644253N11906295WA0089800868001100034024239
B0151203644258N11906292WA0089700867001100034024239
B0151213644263N11906289WA0089500866001100035027239
B0151223644267N11906286WA0089400865001100038031239
B0151233644272N11906282WA0089200863001100042033239
B0151243644278N11906277WA0089200863001100043037239
B0151253644283N11906272WA0089200862001100042039239
B0151263644287N11906267WA0089100862001100039041239
B0151273644292N11906262WA0089100861001100038041239
B0151283644296N11906257WA0088900860001100041043239
B0151293644300N11906251WA0088800858001100044047239
B0151303644304N11906244WA0088600856001100049056239
B0151313644308N11906236WA0088400855001100050061239
B0151323644311N11906228WA0088300854001100049068239
B0151333644314N11906219WA0088200853001100051074239
B0151343644315N11906210WA0088100851001100049080239
B0151353644316N11906201WA0087900849001100049088239
B0151363644315N11906191WA0087800848001100049093239
B0151373644314N11906182WA0087800847001100047100239
B0151383644313N11906174WA0087700846001100046105239
B0151393644311N11906166WA0087600844001100046110239
B0151403644308N11906158WA0087400843001100046113239
B0151413644305N11906150WA0087300841001100048117239
B0151423644301N11906142WA0087300840001100047122239
B0151433644297N11906135WA0087200839001100045126239
B0151443644293N11906129WA0087100838001100044129239
B0151453644289N11906123WA0087100837001100043132239
B0151463644284N11906117WA0086900836001100043135239
B0151473644280N11906111WA0086900835001100043137239
B0151483644275N11906106WA0086800833001100042141235
B0151493644270N11906102WA0086700832001100041143231
B0151503644265N11906097WA0086500830001100042145228
B0151513644260N11906093WA0086400829001100042147228
B0151523644254N11906089WA0086300828001100042151232
B0151533644248N11906086WA0086200827001100041157234
B0151543644243N11906083WA0086200826001100040160237
B0151553644237N11906081WA0086100826001100038160238
B0151563644232N11906078WA0086100826001100036160241
B0151573644227N11906077WA0086000824001100036163243
B0151583644222N11906075WA0085900823001100036170248
B0151593644216N11906074WA0085900822001100035173247
B0152003644211N11906074WA0085800822001100035175246
B0152013644206N11906073WA0085800821001100032172242
B0152023644201N11906072WA0085800821001100031166230
B0152033644197N11906071WA0085700821001100032162240
B0152043644192N11906069WA0085600820001100034162239
B0152053644187N11906067WA0085500820001100033168251
B0152063644182N11906067WA0085500819001100032176253
B0152073644177N11906067WA0085500818001100031183256
B0152083644173N11906067WA0085400818001100030186262
B0152093644168N11906068WA0085400817001100030187263
B0152103644164N11906069WA0085300816001100029190269
B0152113644160N11906070WA0085200816001100028196266
B0152123644156N11906071WA0085200815001100026204269
B0152133644153N11906074WA0085100815001100025214266
B0152143644150N11906076WA0085100814001100024224265
B0152153644148N11906080WA0084900813001100024239266
B0152163644147N11906084WA0084900813001100023257265
B0152173644147N11906089WA0084800812001100024281264
B0152183644149N11906093WA0084800811001100025302262
B0152193644152N11906096WA0084800812001100024317258
B0152203644155N11906099WA0084800812001100024327255
B0152213644158N11906101WA0084700811001100023331252
B0152223644161N11906103WA0084600810001100025335249
B0152233644165N11906105WA0084500808001100028337248
B0152243644169N11906107WA0084300807001100030336246
B0152253644173N11906109WA0084300805001100031339245
B0152263644178N11906110WA0084300805001100029346244
B0152273644182N11906111WA0084200805001100029354243
B0152283644187N11906112WA0084100804001100031357242
B0152293644192N11906112WA0084000803001100033355241
B0152303644197N11906113WA0084000802001100035356241
B0152313644202N11906113WA0083900802001100035001241
B0152323644207N11906112WA0083900802001100033005240
B0152333644212N11906112WA0083800801001100031005240
B0152343644217N11906111WA0083700800001100031001240
B0152353644221N11906111WA0083600799001100032358239
B0152363644226N11906111WA0083500798001100035358239
B0152373644232N11906111WA0083300797001100036359239
B0152383644237N11906111WA0083300796001100034358239
B0152393644242N11906112WA0083300796001100030356239
B0152403644246N11906112WA0083200795001100028354239
B0152413644250N11906113WA0083100795001100029354239
B0152423644255N11906114WA0083000794001100031353239
B0152433644260N11906114WA0082900793001100031352239
B0152443644264N11906115WA0082900793001100030352239
B0152453644269N11906116WA0082800793001100029353239
B0152463644273N11906117WA0082800792001100029352239
B0152473644277N11906117WA0082600791001100029349239
B0152483644282N11906118WA0082600790001100029346239
B0152493644286N11906119WA0082600789001100029347239
B0152503644290N11906121WA0082600789001100028348239
B0152513644294N11906122WA0082500789001100027345239
B0152523644298N11906123WA0082400788001100027334239
B0152533644301N11906126WA0082400788001100026323239
B0152543644304N11906129WA0082300788001100025322239
B0152553644307N11906132WA0082300787001100024328239
B0152563644310N11906134WA0082300787001100022331239
B0152573644313N11906136WA0082200786001100020324239
B0152583644315N11906139WA0082000784001100021305239
B0152593644316N11906142WA0081900783001100023292239
B0153003644317N11906146WA0081900782001100023287239
B0153013644318N11906150WA0081800781001100020274239
B0153023644317N11906153WA0081700780001100018248241
B0153033644316N11906156WA0081600779001100020230240
B0153043644313N11906158WA0081400778001100025210240
B0153053644309N11906160WA0081300776001100030193235
B0153063644304N11906160WA0081300776001100031180234
B0153073644299N11906159WA0081300775001100033167219
B0153083644293N11906157WA0081200774001100037157225
B0153093644288N11906154WA0081000773001100039154216
B0153103644282N11906151WA0081100772001100041156224
B0153113644277N11906149WA0080900771001100041159222
B0153123644271N11906146WA0080900771001100039156215
B0153133644266N11906143WA0081000772001100037152221
B0153143644261N11906140WA0080900772001100035150217
B0153153644256N11906137WA0080800771001100034151215
B0153163644252N11906134WA0080700769001100036155214
B0153173644246N11906131WA0080600768001100039156215
B0153183644241N11906128WA0080600768001100040154227
B0153193644236N11906125WA0080600767001100038152225
B0153203644231N11906122WA0080500767001100036151222
B0153213644226N11906119WA0080500767001100035154222
B0153223644221N11906116WA0080400766001100036155226
B0153233644216N11906113WA0080400766001100036156231
B0153243644211N11906111WA0080300765001100035157233
B0153253644206N11906108WA0080300765001100033160238
B0153263644202N11906106WA0080300765001100032162235
B0153273644197N11906104WA0080300764001100032164241
B0153283644192N11906103WA0080200764001100033167238
B0153293644187N11906101WA0080100763001100034168248
B0153303644182N11906100WA0080100762001100034169254
B0153313644177N11906098WA0080000761001100031172251
B0153323644173N11906098WA0080000761001100028173252
B0153333644169N11906097WA0080000761001100028172251
B0153343644165N11906096WA0079800759001100029172246
B0153353644160N11906096WA0079800758001100031177259
B0153363644156N11906096WA0079800757001100030186265
B0153373644152N11906097WA0079700757001100027195270
B0153383644148N11906098WA0079600756001100024201266
B0153393644145N11906100WA0079500755001100023204264
B0153403644142N11906102WA0079400754001100021209262
B0153413644139N11906104WA0079300753001100023220258
B0153423644137N11906107WA0079200752001100024230257
B0153433644135N11906111WA0079200751001100024236255
B0153443644133N11906115WA0079100752001100022235251
B0153453644131N11906118WA0079100751001100022233250
B0153463644129N11906121WA0079100751001100021233247
B0153473644127N11906124WA0079100751001100020243247
B0153483644126N11906128WA0079000750001100020255246
B0153493644126N11906131WA0079000750001100021264245
B0153503644126N11906135WA0079000750001100020273244
B0153513644126N11906139WA0079000750001100019283243
B0153523644127N11906142WA0078900750001100020290242
B0153533644128N11906145WA0078800749001100021291242
B0153543644129N11906149WA0078800748001100022295242
B0153553644131N11906153WA0078700747001100022307241
B0153563644134N11906156WA0078700747001100024323241
B0153573644137N11906158WA0078600746001100026338241
B0153583644142N11906159WA0078500746001100028344240
B0153593644146N11906160WA0078500746001100029346240
B0154003644150N11906161WA0078500745001100029349240
B0154013644154N11906162WA0078500745001100029355240
B0154023644159N11906162WA0078500745001100031005240
B0154033644164N11906161WA0078500745001100032015238
B0154043644168N11906158WA0078400744001100034024238
B0154053644173N11906155WA0078200743001100036030239
B0154063644178N11906152WA0078100742001100035024239
B0154073644182N11906151WA0077800740001100027007239
B0154083644184N11906153WA0077400738001100021343239
B0154093644184N11906158WA0077400738001100024296239
B0154103644186N11906163WA0077400737001100025306239
B0154113644189N11906167WA0077000735001100026315238
B0154123644194N11906166WA0076700733001100025355239
B0154133644200N11906163WA0076800730001100031011239
B0154143644206N11906161WA0076700729001100031001239
B0154153644211N11906161WA0076400727001100032357241
B0154163644212N11906165WA0076100724001100016326237
B0154173644211N11906170WA0075900721001100018268232
B0154183644206N11906173WA0075900721001100022198235
B0154193644201N11906173WA0076000720001100027172239
B0154203644195N11906169WA0076000720001100030153238
B0154213644190N11906166WA0075900718001100029154252
B0154223644186N11906164WA0075600716001100029161265
B0154233644182N11906166WA0075200714001100027197276
B0154243644178N11906169WA0075100712001100025213287
B0154253644178N11906174WA0074900710001100017275290
B0154263644183N11906178WA0074800708001100028336292
B0154273644189N11906178WA0074700707001100033359193
B0154283644196N11906177WA0074800706001100036008271
B0154293644201N11906175WA0074800705001100032007250
B0154303644206N11906175WA0074600704001100031004244
B0154313644209N11906176WA0074200702001100025355244
B0154323644209N11906181WA0073900698001100014270239
B0154333644205N11906187WA0073700696001100022224224
B0154343644199N11906190WA0073600694001100025204227
B0154353644193N11906189WA0073600693001100027166230
B0154363644187N11906186WA0073600692001100033152241
B0154373644182N11906184WA0073400691001100032160248
B0154383644177N11906182WA0073200689001100031169259
B0154393644172N11906182WA0073100686001100031185266
B0154403644168N11906185WA0072900685001100028210277
B0154413644166N11906189WA0072800684001100023237281
B0154423644166N11906193WA0072500682001100017277282
B0154433644171N11906196WA0072400680001100027336278
B0154443644176N11906197WA0072300678001100030349273
B0154453644182N11906197WA0072200677001100032358264
B0154463644186N11906197WA0072200676001100030003256
B0154473644191N11906197WA0072000675001100028356252
B0154483644195N11906197WA0071900674001100027343246
B0154493644199N11906199WA0071800672001100024326241
B0154503644200N11906203WA0071600671001100022294239
B0154513644200N11906208WA0071400669001100022267231
B0154523644195N11906212WA0071100667001100030215222
B0154533644189N11906213WA0071100666001100031189237
B0154543644182N11906211WA0071000666001100037154233
B0154553644177N11906206WA0071000666001100035144231
B0154563644172N11906202WA0071000665001100034147241
B0154573644167N11906200WA0070700663001100032158270
B0154583644162N11906202WA0070400662001100030194278
B0154593644159N11906207WA0070200661001100024219281
B0155003644160N11906212WA0070000659001100021283283
B0155013644163N11906218WA0069900658001100026304291
B0155023644167N11906221WA0070000656001100025315281
B0155033644170N11906224WA0070000655001100022320205
B0155043644173N11906227WA0069800653001100020314239
B0155053644175N11906231WA0069700650001100022306239
B0155063644178N11906234WA0069600649001100026318239
B0155073644181N11906237WA0069500647001100026328239
B0155083644185N11906239WA0069400647001100025330239
B0155093644187N11906242WA0069400646001100020309239
B0155103644188N11906245WA0069200645001100021287239
B0155113644186N11906252WA0069000644001100033243240
B0155123644183N11906257WA0069000644001100035225239
B0155133644178N11906261WA0069000643001100035210231
B0155143644173N11906263WA0068900642001100033192228
B0155153644167N11906262WA0068800642001100032176226
B0155163644163N11906262WA0068700640001100031171233
B0155173644158N11906261WA0068600639001100030183239
B0155183644154N11906263WA0068500638001100032202241
B0155193644149N11906266WA0068500638001100033212248
B0155203644145N11906270WA0068500638001100030209264
B0155213644142N11906272WA0068400638001100021206250
B0155223644139N11906274WA0068200637001100021209270
B0155233644137N11906277WA0067900635001100019222283
B0155243644136N11906281WA0067600633001100024255282
B0155253644137N11906288WA0067400632001100031277280
B0155263644139N11906295WA0067400630001100032292273
B0155273644143N11906301WA0067400631001100029304268
B0155283644145N11906305WA0067400629001100025302261
B0155293644147N11906310WA0067200628001100027291254
B0155303644148N11906315WA0067100627001100028284252
B0155313644149N11906320WA0067100626001100026279251
B0155323644150N11906324WA0067100626001100021273239
B0155333644150N11906327WA0067200626001100013273239
B0155343644150N11906328WA0067100625001100007266239
B0155353644150N11906329WA0067100625001100005266239
B0155363644150N11906329WA0067100625001100000266239
B0155373644149N11906328WA0067100625001100000266239
B0155383644149N11906328WA0067100624001100000266239
B0155393644149N11906327WA0067100624001100000266239
B0155403644149N11906327WA0067100624001100000266239
B0155413644149N11906327WA0067100624001100000266239
B0155423644149N11906327WA0067100624001100000266239
B0155433644149N11906327WA0067100624001100000266239
B0155443644149N11906327WA0067100624001100000266239
B0155453644149N11906327WA0067100624001100000266239
B0155463644149N11906327WA0067100624001100000266239
B0155473644149N11906327WA0067100624001100000266239
B0155483644149N11906327WA0067100624001100000266239
B0155493644149N11906327WA0067100624001100000266239
B0155503644149N11906327WA0067100624001100000266239
B0155513644149N11906327WA0067100624001100000266239
B0155523644149N11906327WA0067100624001100000266239
B0155533644149N11906327WA0067100624001100000266239
B0155543644149N11906327WA0067100624001100000266239
B0155553644149N11906327WA0067100624001100000266239
B0155563644149N11906327WA0067100624001100000266239
B0155573644149N11906327WA0067100624001100000266239
B0155583644149N11906327WA0067100624001100000266239
B0155593644149N11906327WA0067100624001100000266239
B0156003644150N11906326WA0067100624001100002266239
B0156013644150N11906326WA0067100624001100002266239
B0156023644150N11906326WA0067100624001100002266239
B0156033644150N11906325WA0067100624001100002266239
B0156043644150N11906325WA0067100624001100000266239
B0156053644150N11906325WA0067100624001100000266239
GJ1J9C9ZSMyCKTDTsMzWrS3cgF5G0DT69DLoi9ArOtVof4Z1Tio095z82rPJmLdZZ
GOSpxHULqdgiI1mU4lboG/jQNMilhacsVjn1W76/whPuBtWnuuzKT6EGQVSacepof
Gykp+0Wj/lFQ7b65y33dfRfYxgh3G6dF0l6/EuDoEWUo=

