AXCS001
HFDTE200626
HFPLTPILOT:N89EL
HFGTYGLIDERTYPE:Plane
HFGIDGLIDERID:UNKNOWN
HFDTM100GPSDATUM:WGS-84
HFRFWFIRMWAREVERSION:synthetic-adsb-igc-2
HFRHWHARDWAREVERSION:FlightAware ADS-B reconstructed track
HFFTYFRTYPE:XCS,Synthetic ADS-B to IGC
HFCIDCOMPETITIONID:
HFCM2CREW2:
LCONORIGIN:FlightAware ADS-B table; times converted from PDT to UTC; altitudes ft to m
B1756553720316N12149440WA0007600076
B1757013720424N12149530WA0010700107
B1757073720562N12149614WA0012200122
B1757143720748N12149716WA0014500145
B1757213720928N12149806WA0018300183
B1757273721078N12149866WA0020600206
B1757333721240N12149938WA0022900229
B1757423721498N12150052WA0025900259
B1757483721648N12150124WA0028200282
B1757563721876N12150226WA0032800328
B1758033722044N12150316WA0034300343
B1758103722248N12150424WA0036600366
B1758163722434N12150514WA0039600396
B1758223722608N12150574WA0041100411
B1758303722830N12150688WA0042700427
B1758373722992N12150772WA0046500465
B1758453723220N12150886WA0050300503
B1758523723436N12151006WA0052600526
B1759003723634N12151144WA0056400564
B1759063723760N12151228WA0057900579
B1759123723946N12151318WA0059400594
B1759183724114N12151378WA0059400594
B1759243724336N12151420WA0063200632
B1759303724486N12151474WA0066300663
B1759463724936N12151648WA0070100701
B1800013725416N12151840WA0074700747
B1800113725740N12151942WA0077000770
B1800173725938N12151990WA0078500785
B1800233726136N12152062WA0080000800
B1800413726718N12152362WA0083100831
B1800563727186N12152614WA0083100831
B1801073727642N12152866WA0082300823
B1801203728104N12153178WA0083100831
B1801353728596N12153568WA0086900869
B1801503729154N12154036WA0083800838
B1801593729472N12154300WA0080000800
B1802063729748N12154486WA0080800808
B1802223730342N12154972WA0082300823
B1802293730582N12155158WA0081500815
B1802353730840N12155290WA0083800838
B1802423731158N12155356WA0087600876
B1802593731812N12155176WA0086100861
B1803053731986N12154984WA0086900869
B1803203732358N12154336WA0086900869
B1803353732754N12153640WA0087600876
B1803423732964N12153352WA0088400884
B1803483733150N12153238WA0088400884
B1803553733522N12153226WA0087600876
B1804053733912N12153472WA0090700907
B1804123734086N12153718WA0093000930
B1804203734272N12154042WA0093000930
B1804283734542N12154276WA0091400914
B1804353734896N12154318WA0091400914
B1804453735298N12154000WA0082300823
B1804513735400N12153646WA0083100831
B1805013735292N12153106WA0083100831
B1805083735094N12152842WA0082300823
B1805243734506N12152308WA0085300853
B1805393733996N12151918WA0088400884
B1805543733480N12151528WA0089200892
B1806193732520N12150886WA0084600846
B1806343731998N12150574WA0081500815
B1806503731410N12150256WA0079200792
B1807063730906N12150010WA0080000800
B1807213730366N12149764WA0080000800
B1807333729934N12149560WA0078500785
B1807493729400N12149314WA0077700777
B1807563729112N12149212WA0077700777
B1808053728752N12149122WA0078500785
B1808133728464N12149080WA0079200792
B1808223728140N12149074WA0077700777
B1808293727846N12149110WA0076200762
B1808423727342N12149176WA0073900739
B1808583726730N12149380WA0072400724
B1809073726364N12149500WA0072400724
B1809163726028N12149590WA0073200732
B1809243725728N12149638WA0070900709
B1809333725368N12149650WA0068600686
B1809493724768N12149560WA0064000640
B1810013724288N12149464WA0064800648
B1810073724114N12149434WA0063200632
B1810133723874N12149392WA0061000610
B1810203723670N12149356WA0059400594
B1810263723484N12149314WA0057900579
B1810333723220N12149272WA0053300533
B1810393723046N12149248WA0051100511
B1810453722854N12149224WA0048800488
B1810533722548N12149176WA0045700457
B1810593722380N12149152WA0043400434
B1811053722146N12149116WA0038900389
B1811133721840N12149062WA0034300343
B1811193721648N12149050WA0032000320
B1811253721438N12149056WA0029700297
B1811323721186N12149062WA0028200282
B1811393720922N12149026WA0027400274
B1811453720760N12148960WA0027400274
B1811523720556N12148798WA0029000290
B1811583720370N12148618WA0030500305
B1812053720238N12148480WA0030500305
B1812113720100N12148342WA0030500305
B1812193719902N12148156WA0031200312
B1812273719728N12148000WA0032000320
B1812343719554N12147856WA0030500305
B1812413719392N12147826WA0029700297
B1812473719260N12147928WA0026700267
B1812533719206N12148078WA0023600236
B1812593719212N12148240WA0019800198
B1813053719266N12148402WA0016800168
B1813113719350N12148528WA0013700137
B1813173719464N12148660WA0010700107
B1813233719566N12148756WA0009100091
B1813293719662N12148852WA0007600076
GThis-is-a-synthetic-reconstruction-not-valid-for-competition
