AXFH000
HFDTE071124
HFPLTPILOT:Scott O’Brien
HFGTYGLIDERTYPE:Ozone Swift 6
HFDTM100GPSDATUM:WGS84
HFRFWFIRMWAREVERSION:8.2.5
HFRHWHARDWAREVERSION:iPhone 15
HFFTYFRTYPE:Flyskyhy,8.2.5
HFGPS:Internal
HFPRSVARIO:Internal Vario
HFCCLCOMPETITIONCLASS:Paraglider
HFTZNTIMEZONE:-3
I053638FXA3941VXA4244GSP4547CCO4850HDT
C071124224639071124000105TASK
C0000000N00000000ETAKEOFF
C3832449N11204411W00000000001000000000360000STARTAREA T04
C3832449N11204411W00030009999999000000360000TURNAREA T04
C3833533N11148217W00000000002000000000360000TURNAREA P30
C3845304N11125100W00000000006000000000360000TURNAREA S08
C3913309N11109083W00000000002000000000360000TURNAREA F04
C3935774N11050460W00000000003000000000360000TURNAREA G14
C3935774N11050460W00000000000400000000360000FINISHAREA G14
C0000000N00000000ELANDING
B2247102022944S07008427WA0062700628010019002025339
B2247112022944S07008426WA0062700627010019003015314
B2247122022943S07008425WA0062700627010019003011271
B2247132022942S07008426WA0062700627010019004357296
B2247142022941S07008426WA0062700626010019002059295
B2247152022940S07008426WA0062700626010019001110354
B2247162022940S07008426WA0062700626010019002347005
B2247172022939S07008426WA0062600625010019001299213
B2247182022938S07008426WA0062600625010019001195192
B2247192022938S07008426WA0062600625010019002187324
B2247202022939S07008426WA0062600625010019001175282
B2247212022939S07008426WA0062500625010019001114290
B2247222022939S07008426WA0062500625010019001120326
B2247232022939S07008426WA0062500625010019001168316
B2247242022939S07008426WA0062500625010019002188338
B2247252022939S07008425WA0062500624010019001298229
B2247262022939S07008425WA0062500624010019002314171
B2247272022939S07008426WA0062500624010019003292187
B2247282022940S07008426WA0062400624010019005221189
B2247292022942S07008426WA0062300624010019013186198
B2247302022944S07008427WA0062300623010019015194200
B2247312022947S07008428WA0062300623010019017195196
B2247322022950S07008429WA0062300623010019019203188
B2247332022953S07008431WA0062300623010019020198187
B2247342022956S07008432WA0062400623010019020193188
B2247352022960S07008433WA0062400623010019022189185
B2247362022964S07008434WA0062400623010019024186180
B2247372022968S07008434WA0062500623010019026184180
B2247382022971S07008434WA0062500623010019021197186
B2247392022977S07008436WA0062600625010019017196191
B2247402022979S07008437WA0062700625010019018195185
B2247412022982S07008438WA0062900626010019019205192
B2247422022984S07008439WA0062900626010019018214214
B2247432022986S07008441WA0063000627010019017229219
B2247442022988S07008443WA0063100627010019015244230
B2247452022988S07008446WA0063200627010019025262241
B2247462022988S07008450WA0063200628010019024266247
B2247472022988S07008454WA0063200628010019024290268
B2247482022986S07008458WA0063200628010019025300276
B2247492022984S07008462WA0063100628010019026298293
B2247502022982S07008466WA0063100629010019025300309
B2247512022979S07008470WA0063000629010019032333310
B2247522022973S07008473WA0062900629010019038331293
B2247532022968S07008477WA0062800630010019034321291
B2247542022963S07008480WA0062800630010019031309281
B2247552022959S07008484WA0062700630010019027293269
B2247562022958S07008487WA0062600630010019021261254
B2247572022958S07008490WA0062600630010019019224230
B2247582022961S07008490WA0062600630010019025164201
B2247592022964S07008488WA0062500630010019026162160
B2248002022968S07008487WA0062400630010019020162168
B2248012022970S07008485WA0062300630010019012144197
B2248022022971S07008485WA0062300630010019005174196
B2248032022972S07008485WA0062300630030057006197214
B2248042022973S07008485WA0062300630030057008210215
B2248052022972S07008487WA0062300629010019009231215
B2248062022973S07008489WA0062400629010019012232198
B2248072022973S07008490WA0062400629010019006188196
B2248082022974S07008490WA0062400628010019009111184
B2248092022975S07008487WA0062400628010019021119159
B2248102022977S07008483WA0062500628010019023115152
B2248112022978S07008479WA0062600627010019022110154
B2248122022980S07008476WA0062600628010019017109137
B2248132022981S07008474WA0062600628010019022112145
B2248142022983S07008471WA0062600628010019037132140
B2248152022987S07008467WA0062400628010019034134144
B2248162022991S07008463WA0062200628010019029127147
B2248172022993S07008460WA0062100627010019017121148
B2248182022994S07008458WA0061900627010019017115152
B2248192022996S07008456WA0061800627010019019136148
B2248202022999S07008454WA0061700626010019032142152
B2248212023004S07008450WA0061600625010019030143155
B2248222023007S07008448WA0061500625010019021137157
B2248232023009S07008446WA0061500625010019017130155
B2248242023011S07008444WA0061400625010019018134148
B2248252023013S07008443WA0061300625010019023142147
B2248262023017S07008440WA0061300624010019027137148
B2248272023019S07008437WA0061200624010019028120132
B2248282023021S07008433WA0061100623010019029100116
B2248292023022S07008428WA0061000623010019029089111
B2248302023022S07008424WA0060800622010019027087112
B2248312023022S07008420WA0060700621010019028088117
B2248322023022S07008415WA0060600620010019031088118
B2248332023021S07008410WA0060600619010019032084108
B2248342023021S07008405WA0060500618010019030079109
B2248352023020S07008400WA0060500618010019029074112
B2248362023019S07008396WA0060500617010019029075113
B2248372023018S07008391WA0060500616010019030084127
B2248382023018S07008386WA0060500616010019031093131
B2248392023019S07008381WA0060500615010019032099133
B2248402023020S07008376WA0060500615010019030101142
B2248412023021S07008371WA0060500614010019028106145
B2248422023022S07008368WA0060500614010019025120164
B2248432023025S07008365WA0060500613010019024141180
B2248442023027S07008363WA0060500612010019018155198
B2248452023030S07008363WA0060400612010019018201208
B2248462023032S07008365WA0060400611010019023237229
B2248472023034S07008369WA0060300611010019027253250
B2248482023035S07008373WA0060200610010019030268260
B2248492023034S07008378WA0060100609010019032293272
B2248502023032S07008383WA0060100609010019034300276
B2248512023028S07008388WA0060100609005010032314275
B2248522023025S07008391WA0060200609005010029320288
B2248532023021S07008394WA0060300609005010026315272
B2248542023019S07008397WA0060400609005010025302263
B2248552023017S07008401WA0060500608005010024290240
B2248562023016S07008404WA0060600608005010022288244
B2248572023015S07008408WA0060600608005010019271228
B2248582023016S07008410WA0060700609005010015247220
B2248592023017S07008412WA0060700609005010016233214
B2249002023018S07008414WA0060700609005010017212204
B2249012023021S07008415WA0060700609005010020193196
B2249032023024S07008415WA0060800609005010022188190
B2249042023030S07008416WA0060900609005010018194196
B2249052023033S07008416WA0061000610005010016192184
B2249062023035S07008417WA0061000610005010016186185
B2249072023038S07008416WA0061100610005010019183184
B2249082023041S07008416WA0061100610005010020181188
B2249102023044S07008416WA0061100610005010019178193
B2249112023049S07008417WA0061000610005010013190233
B2249122023050S07008417WA0060900610005010010201242
B2249132023051S07008419WA0060800609005010014262246
B2249142023051S07008422WA0060700609005010021273265
B2249152023050S07008425WA0060600609005010022303273
B2249162023046S07008432WA0060400610005010026324284
B2249172023042S07008437WA0060400611005010030321287
B2249182023038S07008441WA0060400611005010033317290
B2249192023034S07008446WA0060400611005010036312287
B2249202023030S07008451WA0060400611005010037310277
B2249212023026S07008455WA0060400611005010029299274
B2249222023024S07008459WA0060400611005010023287262
B2249242023022S07008463WA0060500612010019024282260
B2249252023021S07008467WA0060600612010019026281262
B2249262023018S07008476WA0060700612010019033292270
B2249272023016S07008481WA0060800612010019031293268
B2249292023014S07008485WA0060900613010019027296272
B2249302023012S07008489WA0060900613010019028301272
B2249312023010S07008492WA0061000614010019026297265
B2249322023008S07008497WA0061000614010019028291259
B2249332023006S07008501WA0061000614010019027287258
B2249342023005S07008505WA0061000614010019026282263
B2249352023004S07008509WA0061000614010019024283267
B2249362023004S07008512WA0060900614010019024282258
B2249372023002S07008516WA0060900614010019026285281
B2249382023001S07008520WA0060900615010019028290289
B2249392022999S07008524WA0060800615010019031313298
B2249402022995S07008528WA0060700614010019032323305
B2249412022991S07008530WA0060600614010019032329308
B2249422022987S07008532WA0060400614010019031328300
B2249432022983S07008534WA0060300613010019030324293
B2249442022979S07008537WA0060200612010019030321291
B2249452022975S07008540WA0060200612010019030321289
B2249462022971S07008542WA0060100611010019031319279
B2249472022968S07008545WA0060100611010019029314266
B2249482022965S07008549WA0060200610010019026304257
B2249492022964S07008552WA0060200610010019024274244
B2249502022965S07008556WA0060300610010019023237222
B2249512022968S07008557WA0060300610010019024190203
B2249522022971S07008556WA0060400610010019029143176
B2249532022975S07008552WA0060400610010019034121144
B2249542022975S07008547WA0060400611010019039083125
B2249552022974S07008540WA0060500612010019041079092
B2249562022973S07008535WA0060500613010019031073098
B2249572022972S07008530WA0060600613010019026078101
B2249582022971S07008526WA0060800614010019026084109
B2249592022971S07008522WA0060900614010019027092116
B2250002022971S07008517WA0061000615010019028102129
B2250012022972S07008513WA0061000615010019026108129
B2250022022974S07008509WA0061000615010019025118144
B2250032022976S07008506WA0060900616010019024128148
B2250042022978S07008503WA0060800616010019022139152
B2250052022981S07008501WA0060700616010019020147161
B2250062022983S07008500WA0060600616010019021153166
B2250072022986S07008499WA0060600616010019022164180
B2250082022990S07008498WA0060500616010019021183198
B2250092022993S07008499WA0060400617010019022197218
B2250102022996S07008501WA0060300617010019023215230
B2250112022998S07008503WA0060200617010019026237235
B2250122023000S07008508WA0060200617010019029258246
B2250132022999S07008513WA0060100617010019028266236
B2250142022999S07008518WA0060000617010019027269241
B2250152022998S07008523WA0059900616010019028269249
B2250162022998S07008528WA0059800616010019029270237
B2250172022997S07008533WA0059700616010019033271251
B2250182022997S07008539WA0059600616010019033271243
B2250192022997S07008544WA0059500615010019032270244
B2250202022997S07008549WA0059400615010019031267241
B2250212022997S07008554WA0059300615010019030265241
B2250222022997S07008559WA0059300614010019031267249
B2250232022996S07008564WA0059200614010019031273248
B2250242022996S07008569WA0059200614010019030275249
B2250252022995S07008574WA0059200614010019031273237
B2250262022995S07008579WA0059200614010019031265242
B2250272022995S07008584WA0059200614010019030256227
B2250282022996S07008589WA0059200613010019029252237
B2250292022997S07008593WA0059200613010019029253237
B2250302022998S07008598WA0059200612010019030253226
B2250312023000S07008602WA0059200612010019033254243
B2250322023001S07008608WA0059200612010019033254240
B2250332023002S07008613WA0059200612010019030255245
B2250342023003S07008618WA0059200613010019027262246
B2250352023003S07008622WA0059400613010019024273252
B2250362023003S07008626WA0059600614010019025275263
B2250372023002S07008630WA0059700614010019027273246
B2250382023002S07008634WA0059900614010019028274242
B2250392023002S07008639WA0060000614010019030266242
B2250402023002S07008644WA0060000614010019031272251
B2250412023001S07008649WA0060100615005010028278256
B2250422022999S07008653WA0060100615005010026281250
B2250432022998S07008657WA0060200615005010024280242
B2250442022996S07008660WA0060200615005010026277248
B2250452022995S07008664WA0060200615005010033275245
B2250462022994S07008670WA0060200615005010033274255
B2250472022993S07008675WA0060200615005010031274244
B2250482022992S07008680WA0060200615005010031273240
B2250492022992S07008685WA0060100615005010031273246
B2250502022991S07008690WA0060000615005010030270251
B2250512022991S07008695WA0060000615005010027266233
B2250522022991S07008699WA0060100615005010026263226
B2250532022992S07008704WA0060200616005010027261233
B2250542022992S07008708WA0060300616005010029258228
B2250552022994S07008713WA0060400616005010033250223
B2250562022996S07008718WA0060400617005010035244226
B2250572022998S07008723WA0060500617005010035243230
B2250582023000S07008728WA0060500618005010032247240
B2250592023002S07008733WA0060600618005010030254245
B2251002023003S07008737WA0060800619005010028258241
B2251012023004S07008742WA0061000620005010028254239
B2251022023004S07008746WA0061200620005010027258237
B2251032023005S07008750WA0061400621005010028258240
B2251042023006S07008754WA0061600622005010029259243
B2251052023007S07008759WA0061600622005010029261243
B2251062023007S07008764WA0061700623005010029263242
B2251072023007S07008768WA0061800624010019028265241
B2251082023007S07008773WA0061800624010019029267237
B2251092023008S07008777WA0061900625005010029267243
B2251102023008S07008782WA0062000626005010029262233
B2251112023009S07008786WA0062100627005010029257241
B2251122023010S07008791WA0062300628005010028257229
B2251132023010S07008795WA0062400629005010027262236
B2251142023011S07008799WA0062500630005010028260238
B2251152023012S07008804WA0062600631005010029257234
B2251162023013S07008808WA0062600631005010027250222
B2251172023014S07008812WA0062700632005010024249225
B2251182023016S07008815WA0062700633005010024253232
B2251192023017S07008819WA0062700634005010025255228
B2251202023018S07008823WA0062700635005010026254231
B2251212023019S07008827WA0062800636005010024251220
B2251222023020S07008830WA0062800637005010023247224
B2251232023021S07008833WA0062800637005010023245224
B2251242023023S07008837WA0062900638005010023242221
B2251252023025S07008840WA0062900639005010021241217
B2251262023026S07008843WA0062900640005010022244217
B2251272023028S07008846WA0062900640005010023246218
B2251282023029S07008850WA0062900641005010023244221
B2251292023031S07008853WA0062900641005010021239208
B2251302023032S07008856WA0062900642005010019236217
B2251312023034S07008858WA0063000643005010017237210
B2251322023035S07008860WA0063000644005010017241221
B2251332023036S07008863WA0063100644005010020245219
B2251342023037S07008866WA0063100645005010024249229
B2251352023039S07008870WA0063100645005010025252232
B2251362023040S07008873WA0063000646005010025249237
B2251372023042S07008877WA0062900646005010026252244
B2251382023043S07008882WA0062800647005010028258237
B2251392023043S07008886WA0062700647005010031267241
B2251402023044S07008892WA0062600647005010035271239
B2251412023044S07008897WA0062600648005010035271244
B2251422023043S07008903WA0062500648005010034271242
B2251432023043S07008908WA0062400648005010034271249
B2251442023043S07008914WA0062300649005010033269242
B2251452023043S07008919WA0062200649005010032263236
B2251462023044S07008924WA0062100649005010033260241
B2251472023044S07008929WA0062000649005010034263244
B2251482023045S07008934WA0061900650005010032265247
B2251492023045S07008939WA0061900650005010027265239
B2251502023046S07008944WA0062000650005010027262234
B2251512023047S07008948WA0062000650005010029257230
B2251522023048S07008952WA0062000650005010030253230
B2251532023049S07008957WA0062000650005010030249223
B2251542023051S07008961WA0061900650005010031246218
B2251552023053S07008965WA0061800649005010029242216
B2251562023055S07008969WA0061700649005010028239216
B2251572023057S07008973WA0061700649005010026238214
B2251582023059S07008976WA0061600648005010026239221
B2251592023062S07008980WA0061600648005010027240218
B2252002023064S07008984WA0061600647005010030242210
B2252012023067S07008988WA0061500647005010029234206
B2252022023069S07008992WA0061400647005010029226196
B2252032023073S07008995WA0061300646005010028225197
B2252042023076S07008998WA0061200645005010027229199
B2252052023078S07009001WA0061000645005010026228205
B2252062023081S07009004WA0060900644005010026228200
B2252072023084S07009007WA0060800644005010029231213
B2252082023087S07009011WA0060600643005010032234232
B2252092023090S07009016WA0060500643005010032241254
B2252102023092S07009020WA0060500643005010031249265
B2252112023091S07009025WA0060400642005010034275249
B2252122023090S07009030WA0060300641005010033281243
B2252132023090S07009035WA0060300640005010031266220
B2252142023092S07009040WA0060200638005010027237211
B2252152023095S07009043WA0060000637005010029202213
B2252162023099S07009044WA0060000636005010026199208
B2252172023103S07009046WA0059900635005010025222223
B2252182023105S07009049WA0059800635005010022240235
B2252192023106S07009053WA0059700635005010029249235
B2252202023107S07009058WA0059600634005010034264233
B2252212023109S07009062WA0059500632005010024246202
B2252222023110S07009066WA0059500631005010025241210
B2252232023114S07009070WA0059400629005010027216216
B2252242023118S07009072WA0059200629005010026215219
B2252252023121S07009075WA0059200628005010025222233
B2252262023123S07009078WA0059100627005010025234228
B2252272023124S07009081WA0059000626010019026253230
B2252282023124S07009085WA0058900625010019027252216
B2252292023125S07009089WA0058900624005010029250207
B2252302023128S07009093WA0058700623005010025193210
B2252312023132S07009093WA0058600622010019026186190
B2252322023136S07009094WA0058600621005010025182198
B2252332023140S07009094WA0058500620005010024181209
B2252342023143S07009094WA0058500619005010022187197
B2252352023146S07009095WA0058400618005010021213191
B2252362023148S07009098WA0058300616005010024212178
B2252372023152S07009100WA0058300615005010021213169
B2252382023154S07009102WA0058200613010019020206163
B2252392023157S07009103WA0058000612010019020192241
B2252402023159S07009103WA0057700611010019015208213
B2252412023161S07009105WA0057400609010019019226208
B2252422023163S07009107WA0057000608010019026246205
B2252432023165S07009111WA0056500608030057024229203
B2252442023166S07009114WA0056100607030057021233251
B2252452023166S07009116WA0055500606030057019242235
B2252462023166S07009118WA0054900606050095019253228
B2252472023166S07009121WA0054200606050095023271218
B2252482023166S07009125WA0053500606030057025265224
B2252542023123S07009092WA0049600505020032043015263
B2252552023117S07009090WA0049200506021032043015013
B2252562023114S07009091WA0049000499012024043353004
B2252572023111S07009085WA0049000485006012038348344
B2252582023104S07009088WA0048900487005008037354338
B2252592023097S07009087WA0048900488004006042358353
B2253002023090S07009089WA0048900484004006046355346
B2253012023088S07009089WA0048900484005006043342328
B2253022023085S07009092WA0048900487007012043322303
B2253032023076S07009097WA0048800480009016039301283
B2253042023078S07009103WA0048700480005008035286267
B2253052023078S07009108WA0048700481004006035272247
B2253062023079S07009111WA0048700484004004030256233
B2253072023081S07009117WA0048600498005010021234224
B2253082023083S07009119WA0048600497005010021222206
B2253092023086S07009121WA0048600497005010022216202
B2253102023088S07009123WA0048700496005010022216202
B2253112023091S07009125WA0048700495005010021218200
B2253122023093S07009127WA0048700495005010019222201
B2253132023095S07009129WA0048700494005010018225201
B2253142023096S07009131WA0048700494005010019228201
B2253152023098S07009133WA0048700493005010020229198
B2253162023100S07009135WA0048700493005010022232205
B2253172023102S07009138WA0048700492005010022234209
B2253182023103S07009141WA0048700492005010023238217
B2253192023104S07009144WA0048700491005010024242219
B2253202023106S07009147WA0048600490005010027246218
B2253212023107S07009151WA0048500489005010029250222
B2253222023108S07009155WA0048400489005010029251215
B2253232023109S07009160WA0048400488005010028248208
B2253242023111S07009164WA0048200488005010027250226
B2253252023112S07009168WA0048200487005010029257245
B2253262023113S07009173WA0048100487005010030261293
B2253272023113S07009178WA0048000487005010035291306
B2253282023110S07009183WA0048000487010019040305337
B2253292023106S07009187WA0048000487010019039320003
B2253302023101S07009191WA0047800487010019038325241
B2253312023097S07009194WA0047800487030057037324276
B2253322023092S07009198WA0047500487030057036324298
B2253382023076S07009165WA0044900440004003045096339
B2253392023076S07009162WA0044900438004003019088115
B2253402023075S07009157WA0044600436004003019086118
B2253412023076S07009152WA0044500434004003029098118
B2253422023078S07009147WA0044400434004003032116126
B2253432023080S07009144WA0044400435004003032138136
B2253442023082S07009141WA0044400436004003024145153
B2253452023084S07009139WA0044300436004003018129157
B2253462023086S07009137WA0044300435004003018119156
B2253472023088S07009133WA0044300434004004023122144
B2253482023089S07009131WA0044200433004004023125152
B2253492023092S07009129WA0044200432004004023146156
B2253502023095S07009127WA0044100433004004021146162
B2253512023097S07009124WA0044100434004004021135161
B2253522023099S07009122WA0044100434004004018129155
B2253532023101S07009120WA0044100432004004018135160
B2253542023104S07009118WA0044000432004004018144159
B2253552023106S07009116WA0044000432004004018145161
B2253562023108S07009114WA0043900432004006019144162
B2253572023111S07009113WA0043900432004006018145163
B2253582023113S07009111WA0043800432004006021142170
B2253592023115S07009110WA0043800431004004018153166
B2254002023118S07009108WA0043800431004004019152165
B2254012023121S07009107WA0043700433010019018155172
B2254022023123S07009106WA0043700432010019017164175
B2254032023126S07009105WA0043700432010019016180201
B2254042023128S07009105WA0043600432010019016182219
B2254052023131S07009106WA0043600432010019015185230
B2254062023133S07009107WA0043600432005010016206217
B2254072023135S07009108WA0043600431005010015209218
B2254082023135S07009111WA0043500430005010017240190
B2254092023136S07009114WA0043400429005010018233202
B2254102023137S07009117WA0043300429005010019225198
B2254112023138S07009120WA0043100428005010019229212
B2254122023140S07009123WA0043000428005010019230232
B2254132023142S07009126WA0042800428005010022242224
B2254142023143S07009129WA0042700428005010021243226
B2254152023144S07009132WA0042500427005010022243195
B2254162023145S07009135WA0042400426005010020245198
B2254172023146S07009138WA0042200426005010018231198
B2254182023148S07009140WA0042000426005010016210210
B2254192023150S07009141WA0041900426005010015210209
B2254202023150S07009143WA0041700424005010017231222
B2254212023151S07009145WA0041600422005010020246220
B2254222023151S07009148WA0041400421005010019247220
B2254232023152S07009151WA0041300421005010017246218
B2254242023153S07009154WA0041300421005010017252221
B2254252023153S07009157WA0041200421005010018259243
B2254262023153S07009160WA0041100421005010018263250
B2254272023153S07009163WA0041000420005010019265255
B2254282023152S07009167WA0040800419005010021279255
B2254292023150S07009171WA0040700417005010021284248
B2254302023148S07009174WA0040600416005010020286240
B2254312023147S07009178WA0040500414005010021270234
B2254322023147S07009182WA0040500413005010021256219
B2254332023147S07009185WA0040400412005010018241206
B2254342023149S07009187WA0040300411005010014219163
B2254352023150S07009188WA0040200410005010010187150
B2254362023152S07009187WA0040100410005010014139166
B2254372023153S07009185WA0039900409005010021125160
B2254382023155S07009182WA0039800409005010020135170
B2254392023158S07009181WA0039700408005010015186164
B2254402023160S07009180WA0039600407005010014168161
B2254412023162S07009179WA0039500405005010010122144
B2254422023162S07009178WA0039500405005010012083139
B2254432023162S07009175WA0039400404005010021089133
B2254442023162S07009171WA0039200403005010023101163
B2254452023163S07009167WA0039100402005010018098150
B2254462023164S07009165WA0038900401010019010144152
B2254472023166S07009164WA0038800401005010010162152
B2254482023167S07009164WA0038600400010019008157151
B2254492023168S07009164WA0038500399010019008161148
B2254502023170S07009163WA0038300399010019008155163
B2254512023171S07009162WA0038100399010019011145164
B2254522023173S07009160WA0038000399010019013148171
B2254532023174S07009158WA0037800399005010013137138
B2254542023175S07009157WA0037700399005010013136133
B2254552023178S07009153WA0037600397005010015125134
B2254562023179S07009151WA0037400397005010016119142
B2254572023180S07009148WA0037200397010019016115152
B2254582023182S07009145WA0037100396010019016115152
B2254592023184S07009141WA0037100395010019017138153
B2255002023186S07009136WA0036900393010019017130130
B2255012023188S07009132WA0036700392010019018129119
B2255022023191S07009129WA0036600391010019021135125
B2255032023194S07009124WA0036400389010019021130136
B2255042023195S07009117WA0036200389005010023110154
B2255052023196S07009111WA0036100387005010025104144
B2255062023197S07009106WA0035900385010019021134143
B2255072023200S07009103WA0035600385010019021131143
B2255082023202S07009101WA0035500384005010020138120
B2255092023204S07009098WA0035400384005010020111129
B2255102023205S07009093WA0035300382010019023101127
B2255112023205S07009088WA0035200382010019023101142
B2255122023205S07009083WA0035100381010019022115138
B2255132023207S07009080WA0035000380010019018114146
B2255142023208S07009077WA0034800379010019016124138
B2255152023210S07009075WA0034800379010019018150130
B2255162023213S07009074WA0034600379010019025149144
B2255172023216S07009071WA0034600379010019025142147
B2255182023219S07009068WA0034500379010019025143157
B2255192023222S07009065WA0034400379010019024143162
B2255202023225S07009064WA0034300378010019021176170
B2255212023227S07009062WA0034200376010019018163172
B2255222023231S07009061WA0034100376010019024174135
B2255232023227S07009059WA0034100373010019013111140
B2255242023223S07009055WA0034000371010019025081131
B2255252023212S07009044WA0033900370005010023077130
B2255262023210S07009039WA0033800370005010022074139
B2255272023208S07009036WA0033700370010019019072142
B2255282023207S07009033WA0033400370005010019062139
B2255292023203S07009030WA0033100369005010016036061
B2255302023196S07009027WA0033000368010019019007050
B2255312023190S07009026WA0032900367010019022001024
B2255322023185S07009026WA0032900367010019024358007
B2255332023181S07009026WA0033000367010019026357000
B2255342023176S07009027WA0033000367010019028355358
B2255352023174S07009033WA0033100364010019030334355
B2255362023171S07009038WA0033100363010019032327325
B2255372023167S07009045WA0033100362010019032325314
B2255382023162S07009051WA0033000362010019033325310
B2255392023158S07009057WA0033000361010019035326313
B2255402023153S07009062WA0033000361010019036326317
B2255412023149S07009066WA0033000361010019036327326
B2255422023144S07009069WA0033000360010019036328341
B2255432023139S07009074WA0033000359005010033342350
B2255442023135S07009075WA0032900357010019033353001
B2255452023130S07009076WA0032800356010019032356009
B2255462023125S07009078WA0032800355005010033011035
B2255472023119S07009078WA0032900353005010035012054
B2255482023114S07009077WA0032900352005010034017066
B2255492023109S07009076WA0032800351005010030025075
B2255502023106S07009073WA0032800351005010024065087
B2255512023105S07009068WA0032700349010019024064120
B2255522023103S07009065WA0032600349010019019044119
B2255532023101S07009064WA0032600348005010012009037
B2255542023102S07009066WA0032400347010019016315029
B2255552023102S07009070WA0032300345010019023300294
B2255562023101S07009074WA0032300344010019023287263
B2255572023101S07009077WA0032200343010019020266256
B2255582023102S07009080WA0032200342010019020250232
B2255592023105S07009084WA0032200342010019023245242
B2256002023107S07009088WA0032200340010019027259239
B2256012023107S07009093WA0032200339010019027287256
B2256022023107S07009098WA0032100338010019027286249
B2256032023107S07009104WA0032100337010019033277236
B2256042023108S07009108WA0032000336005010019225241
B2256052023111S07009110WA0031900335005010020209211
B2256062023113S07009112WA0031800334005010017229221
B2256072023115S07009114WA0031700334010019024233226
B2256082023117S07009118WA0031600333010019026274232
B2256092023115S07009122WA0031400331010019026282242
B2256102023115S07009126WA0031300330010019029276252
B2256112023116S07009130WA0031300329005010017210248
B2256122023119S07009130WA0031200327005010016209207
B2256132023122S07009131WA0031000325005010015210211
B2256142023123S07009133WA0031000324010019024255210
B2256152023123S07009138WA0030900323010019027276234
B2256162023123S07009142WA0030800321005010030273244
B2256172023124S07009145WA0030700320005010023185243
B2256182023128S07009145WA0030600318005010018168186
B2256192023130S07009145WA0030500317005010013200188
B2256202023131S07009145WA0030400316005010011244204
B2256212023131S07009148WA0030300314005010019275228
B2256222023130S07009152WA0030200313010019021284243
B2256232023130S07009156WA0030100311005010027272249
B2256242023130S07009159WA0030100309005010014221245
B2256252023133S07009159WA0030000308005010015187209
B2256262023135S07009160WA0029900306005010014221203
B2256272023136S07009161WA0029800306005010012238221
B2256282023136S07009164WA0029700304005010017303228
B2256292023133S07009167WA0029700302005010015309277
B2256302023131S07009169WA0029600301005010014303273
B2256312023130S07009171WA0029600300005010009280268
B2256322023130S07009173WA0029500298005010009280236
B2256332023130S07009175WA0029400297005010014274249
B2256342023130S07009177WA0029400296005010015276274
B2256352023129S07009180WA0029400295005010017279291
B2256362023128S07009184WA0029300294005010019293305
B2256372023127S07009187WA0029200293010019022302246
B2256382023125S07009190WA0028900292010019024308273
B2256392023122S07009193WA0028600291030057024305292
B2256402023120S07009196WA0028200291010019030304301
B2256412023117S07009200WA0027700291010019033306315
B2256422023114S07009205WA0027300291010019033306327
B2256472023105S07009187WA0025300225006012023311316
B2256482023096S07009186WA0025000232005008037349319
B2256492023090S07009189WA0025000234004006037335347
B2256502023087S07009192WA0025100233004008028319311
B2256512023084S07009199WA0025200237004006045288302
B2256522023081S07009205WA0025200238004006038291274
B2256532023079S07009210WA0025200240004004038290269
B2256542023078S07009213WA0025200240004004033285264
B2256552023077S07009217WA0025100240004006020282259
B2256562023077S07009220WA0025100240004006020282251
B2256572023076S07009224WA0025000238004004020276250
B2256582023075S07009229WA0025000238004003029271248
B2256592023075S07009233WA0025000239004003029267244
B2257002023073S07009237WA0025000267010019030275242
B2257012023073S07009241WA0024900267010019028270242
B2257022023072S07009245WA0024800266010019023268240
B2257032023072S07009248WA0024700265005010023265244
B2257042023072S07009252WA0024700265005010026268242
B2257052023072S07009256WA0024600264005010028268243
B2257062023072S07009260WA0024600263005010029265243
B2257072023072S07009265WA0024600262005010026264240
B2257082023072S07009269WA0024600262005010025264237
B2257092023072S07009273WA0024500261005010024262231
B2257102023073S07009277WA0024500261005010023263236
B2257112023074S07009281WA0024500259005010022263233
B2257122023074S07009284WA0024500258005010023263234
B2257132023075S07009288WA0024500257005010024263235
B2257142023075S07009292WA0024500256005010023260226
B2257152023076S07009295WA0024400255005010023256223
B2257162023077S07009298WA0024300255005010022255222
B2257172023078S07009302WA0024200254005010023252221
B2257182023079S07009305WA0024200254005010024252221
B2257192023080S07009309WA0024100254005010024250220
B2257202023081S07009312WA0024000253005010023249219
B2257212023082S07009315WA0023900253005010022247218
B2257222023083S07009319WA0023900253005010022246217
B2257232023085S07009322WA0023800252005010022245215
B2257242023086S07009325WA0023700252005010023244218
B2257252023088S07009328WA0023700252005010022241213
B2257262023090S07009331WA0023600252005010021237211
B2257272023092S07009334WA0023600251005010020234208
B2257282023093S07009337WA0023500251005010020232206
B2257292023095S07009339WA0023500251005010020230210
B2257302023097S07009341WA0023400250005010020227202
B2257312023099S07009344WA0023300250005010021223204
B2257322023102S07009346WA0023300249005010021218199
B2257332023104S07009348WA0023200249005010019214195
B2257342023107S07009349WA0023200249005010018217207
B2257352023109S07009351WA0023200248005010017225219
B2257362023111S07009353WA0023200248005010020242231
B2257372023112S07009357WA0023100247005010025256239
B2257382023112S07009360WA0023100247005010026270250
B2257392023113S07009365WA0023000246005010028274260
B2257402023113S07009369WA0022900245005010028282271
B2257412023111S07009373WA0022900245005010031295278
B2257422023109S07009378WA0022900244005010033296289
B2257432023107S07009383WA0022800244005010034306300
B2257442023102S07009387WA0022700243005010038319310
B2257452023097S07009391WA0022600243005010040321322
B2257462023092S07009395WA0022500242005010041329338
B2257472023086S07009398WA0022400242005010040337353
B2257482023080S07009400WA0022300241005010043347015
B2257492023074S07009399WA0022300240005010043023031
B2257502023068S07009396WA0022100239005010044026062
B2257512023063S07009392WA0022000238005010046044074
B2257522023059S07009387WA0021800237010019039056090
B2257542023056S07009382WA0021600236010019030076102
B2257552023055S07009377WA0021400235010019029077115
B2257562023056S07009373WA0021300234010019016134112
B2257572023059S07009372WA0021200232010019017136151
B2257582023061S07009370WA0021200230010019017136147
B2257592023065S07009368WA0021100228010019019127150
B2258002023068S07009366WA0021100226010019020124144
B2258012023071S07009363WA0021000224010019023117137
B2258022023073S07009360WA0021000223010019026106126
B2258032023075S07009355WA0021000220010019028096120
B2258042023076S07009351WA0020900219010019028085115
B2258052023077S07009346WA0020800217010019030082108
B2258062023077S07009341WA0020700216010019031077105
B2258072023076S07009336WA0020700215010019035069093
B2258082023074S07009331WA0020700214010019036064079
B2258092023071S07009325WA0020700213010019041053067
B2258102023067S07009320WA0020700212010019041048057
B2258112023063S07009316WA0020700212010019041044058
B2258122023059S07009311WA0020700211010019039042058
B2258132023055S07009307WA0020800210010019039043066
B2258142023051S07009302WA0020800209010019039052077
B2258152023048S07009297WA0020800208010019041054078
B2258162023044S07009292WA0020800208010019041056086
B2258172023041S07009286WA0020900207010019037054092
B2258182023038S07009282WA0020900207010019029054099
B2258192023037S07009278WA0021000206010019025076113
B2258202023036S07009275WA0021000205010019023078119
B2258212023035S07009271WA0021100205010019025083123
B2258222023035S07009267WA0021200204010019025091130
B2258232023036S07009263WA0021200203010019024099139
B2258242023039S07009257WA0021100202010019019127148
B2258252023041S07009255WA0021100201010019019132145
B2258262023043S07009253WA0021100201010019019133150
B2258272023046S07009250WA0021000200010019019133154
B2258282023048S07009248WA0021000200010019017129154
B2258292023051S07009246WA0021000200010019017121143
B2258302023053S07009243WA0021000200010019019112133
B2258312023054S07009240WA0021000199010019024100121
B2258322023055S07009235WA0020900199010019029089110
B2258332023055S07009230WA0020900199010019031080098
B2258342023054S07009225WA0020900198010019033069080
B2258352023051S07009220WA0020900198010019037054065
B2258362023048S07009216WA0020800197010019039047053
B2258372023044S07009211WA0020800197010019039041047
B2258382023040S07009207WA0020700196010019041036042
B2258392023035S07009203WA0020700195010019041035041
B2258402023030S07009199WA0020600194010019041035044
B2258412023025S07009195WA0020600194010019041038057
B2258422023020S07009191WA0020600193010019041046073
B2258432023017S07009186WA0020500193010019036057096
B2258442023014S07009181WA0020500192010019033066117
B2258452023014S07009176WA0020500192010019029114131
B2258462023017S07009173WA0020500191010019026145162
B2258472023020S07009171WA0020400191010019021166183
B2258482023023S07009171WA0020400190010019021191200
B2258492023026S07009173WA0020400190010019021219206
B2258502023028S07009175WA0020300189010019023242221
B2258512023030S07009179WA0020300188010019023242223
B2258522023031S07009182WA0020200188010019020240220
B2258532023033S07009184WA0020200187010019016228210
B2258542023034S07009186WA0020200187010019014212193
B2258552023036S07009187WA0020200186010019015200191
B2258562023038S07009188WA0020200185010019015187185
B2258572023040S07009188WA0020200185010019014171177
B2258582023041S07009187WA0020200185010019010162196
B2258592023042S07009187WA0020300184010019007200207
B2259002023043S07009187WA0020300184010019009212226
B2259012023043S07009189WA0020300183010019013244226
B2259022023043S07009191WA0020300183010019023274234
B2259032023043S07009195WA0020300182010019025280243
B2259042023042S07009200WA0020300181010019023280251
B2259052023041S07009204WA0020300181010019022282253
B2259062023040S07009208WA0020300180010019022283239
B2259072023038S07009211WA0020300180010019024283247
B2259082023037S07009215WA0020400179010019026286247
B2259092023035S07009220WA0020400179010019026286252
B2259102023033S07009224WA0020400179010019025286254
B2259112023032S07009228WA0020500179010019024287258
B2259122023030S07009231WA0020500178010019026288264
B2259132023029S07009236WA0020500178010019028292265
B2259142023026S07009240WA0020600178010019028302272
B2259152023023S07009244WA0020700178010019029312277
B2259162023020S07009248WA0020800178010019028314273
B2259172023017S07009251WA0020900178010019027311264
B2259182023014S07009255WA0020900179010019026308256
B2259192023011S07009258WA0021200179010019024302243
B2259202023010S07009262WA0021300180010019022296241
B2259212023008S07009265WA0021300180010019020290238
B2259222023007S07009268WA0021500181010019017285234
B2259232023006S07009270WA0021600181010019013283231
B2259242023006S07009272WA0021700182010019010272224
B2259252023006S07009274WA0021800182010019010264219
B2259262023006S07009275WA0021800183010019013266219
B2259272023006S07009277WA0021800183005010015268220
B2259282023007S07009280WA0021800184005010016264222
B2259292023007S07009282WA0021800185005010015267221
B2259302023007S07009284WA0021800185005010015269220
B2259312023008S07009287WA0021800185005010016269222
B2259322023008S07009289WA0021700186005010017269221
B2259332023008S07009292WA0021700186005010018269219
B2259342023008S07009295WA0021600186005010017271217
B2259352023008S07009298WA0021600187005010016272212
B2259362023008S07009300WA0021500187005010013269210
B2259372023008S07009302WA0021400187005010010252208
B2259382023009S07009303WA0021300187005010008229204
B2259392023010S07009304WA0021300187005010008211192
B2259402023011S07009304WA0021200187005010007192183
B2259412023012S07009304WA0021100187005010007183182
B2259422023013S07009304WA0021000187005010007167178
B2259432023015S07009304WA0020900187005010008160173
B2259442023016S07009303WA0020800187005010010164178
B2259452023017S07009303WA0020800186005010010163174
B2259462023019S07009302WA0020700186005010009149167
B2259482023020S07009301WA0020700187005010008136165
B2259492023021S07009300WA0020700187005010009140166
B2259502023022S07009299WA0020600187005010011149165
B2259512023023S07009298WA0020600187005010013151163
B2259522023025S07009297WA0020600186005010013145155
B2259532023027S07009296WA0020600186005010014137154
B2259542023028S07009295WA0020500187005010015131154
B2259552023030S07009293WA0020500187010019016130154
B2259562023031S07009291WA0020500187010019016132156
B2259572023032S07009289WA0020500187010019017133152
B2259582023034S07009287WA0020500187010019017132150
B2259592023036S07009285WA0020400187010019017131146
B2300002023037S07009283WA0020400187010019019131143
B2300012023039S07009280WA0020400187010019021130143
B2300022023041S07009278WA0020300187010019022130143
B2300032023043S07009275WA0020300187010019023129149
B2300042023045S07009273WA0020200187010019022129147
B2300052023047S07009270WA0020200187010019021129148
B2300062023049S07009267WA0020100187010019020129147
B2300072023051S07009265WA0020100187010019020127145
B2300082023053S07009262WA0020100187010019020125145
B2300092023054S07009260WA0020100187010019021122143
B2300102023056S07009257WA0020100187010019021119137
B2300112023059S07009250WA0020000187010019023095118
B2300122023059S07009246WA0020000187010019029077102
B2300132023057S07009242WA0019900186010019033069096
B2300142023056S07009237WA0019800186010019033078107
B2300152023056S07009232WA0019700186010019026108140
B2300162023058S07009228WA0019700185010019026109174
B2300172023059S07009226WA0019500184010019011149192
B2300182023061S07009225WA0019300184010019013198217
B2300192023063S07009226WA0019100183010019015195235
B2300202023065S07009227WA0019000182010019006162235
B2300212023065S07009227WA0018800181010019004047222
B2300222023064S07009228WA0018800181010019014320209
B2300232023061S07009231WA0018800180010019010311253
B2300242023059S07009235WA0018800179010019013278230
B2300252023058S07009239WA0018700178010019009276222
B2300262023058S07009244WA0018700177010019005251213
B2300272023058S07009246WA0018600177010019006207203
B2300282023059S07009246WA0018400177010019009148200
B2300292023061S07009246WA0018300176010019010158193
B2300302023063S07009246WA0018200175010019011163202
B2300312023064S07009246WA0018200175010019010171206
B2300322023066S07009246WA0018200174010019011180211
B2300332023068S07009247WA0018100173010019008186214
B2300342023068S07009249WA0018000173010019013355214
B2300352023066S07009252WA0017800172010019027337245
B2300362023061S07009258WA0017800171010019031312285
B2300372023058S07009264WA0017700170010019031280264
B2300382023056S07009271WA0017700170010019031268241
B2300392023055S07009278WA0017600169010019034261238
B2300412023055S07009284WA0017500168010019030250227
B2300422023056S07009288WA0017500167010019016240220
B2300432023056S07009291WA0017500166010019014239218
B2300442023056S07009294WA0017500165010019014242233
B2300452023057S07009297WA0017500164010019021252243
B2300462023058S07009300WA0017400163010019023256258
B2300472023058S07009304WA0017300162010019016278258
B2300482023056S07009307WA0017300162010019023313253
B2300492023053S07009311WA0017300161010019022299238
B2300502023052S07009315WA0017400160010019019254228
B2300512023054S07009317WA0017400159010019020191206
B2300522023056S07009317WA0017400159010019027142173
B2300532023059S07009313WA0017300158010019034107141
B2300542023059S07009308WA0017200157010019034086116
B2300552023058S07009303WA0017000157010019028080114
B2300562023058S07009299WA0016900157010019024086127
B2300572023058S07009295WA0016800156010019021099138
B2300582023059S07009292WA0016800156010019019116143
B2300592023060S07009290WA0016700156010019018122160
B2301002023062S07009288WA0016600155010019013140168
B2301012023063S07009288WA0016500155010019011162185
B2301022023065S07009288WA0016400154010019011172198
B2301032023067S07009288WA0016300154010019013179201
B2301042023069S07009288WA0016300153010019009161201
B2301052023070S07009288WA0016200152010019005129190
B2301062023071S07009288WA0016200152010019008183180
B2301072023073S07009289WA0016100151010019014198198
B2301082023075S07009290WA0016100150010019015200197
B2301092023077S07009291WA0016100149010019015200187
B2301102023078S07009296WA0016000149010019021156181
B2301112023079S07009298WA0015900151010019023122155
B2301122023079S07009300WA0015700152010019023119148
B2301132023080S07009298WA0015700152010019015129156
B2301142023080S07009298WA0015600152010019011150165
B2301152023080S07009299WA0015500152010019011175182
B2301172023081S07009301WA0015300151010019015197200
B2301182023087S07009305WA0015200152010019017212216
B2301192023089S07009308WA0015200152010019018220226
B2301202023091S07009311WA0015100152010019018228216
B2301212023092S07009315WA0015000152010019018242216
B2301222023093S07009318WA0015000152010019015236211
B2301232023094S07009321WA0014900151010019011212198
B2301242023094S07009322WA0014900151010019009197192
B2301252023095S07009324WA0014800151010019009196193
B2301262023097S07009326WA0014800150010019011196182
B2301272023099S07009328WA0014700149010019013199181
B2301282023099S07009330WA0014600147010019013197283
B2301292023100S07009330WA0014500146010019009199196
B2301302023101S07009331WA0014400146010019006230197
B2301312023101S07009332WA0014300145010019007262213
B2301322023101S07009333WA0014300144010019002216231
B2301332023101S07009333WA0014300144010019001103200
B2301342023101S07009333WA0014200144010019001002191
B2301352023101S07009333WA0014200144010019000000191
B2301362023101S07009333WA0014200144010019000295191
B2301372023101S07009333WA0014200144010019000000191
B2301382023101S07009333WA0014200144010019000000191
B2301392023101S07009333WA0014200144010019000000191
B2301402023101S07009333WA0014200144010019000000191
B2301412023101S07009333WA0014200144010019000000191
B2301422023101S07009333WA0014200144010019000000191
B2301432023101S07009333WA0014200144010019000000191
B2301442023101S07009333WA0014200144005010000000191
B2301452023101S07009333WA0014200144005010000000191
B2301462023101S07009333WA0014200144005010001100191
B2301472023101S07009333WA0014200144005010001084191
B2301482023101S07009333WA0014200144005010002096191
B2301492023101S07009332WA0014200143005010001135191
B2301502023101S07009332WA0014200143005010000182193
B2301512023101S07009332WA0014200143005010000000193
B2301522023101S07009332WA0014200143005010000000193
B2301532023101S07009332WA0014200143010019000000193
B2301542023101S07009332WA0014200143010019000000193
B2301552023101S07009332WA0014200143010019000000193
B2301562023101S07009332WA0014200143010019000000193
B2301572023101S07009332WA0014200143010019000000193
B2301582023101S07009332WA0014200143010019000000193
B2301592023101S07009332WA0014200143010019000000193
B2302002023101S07009332WA0014200143010019000000193
B2302012023101S07009332WA0014200143010019000000193
B2302022023101S07009332WA0014200143010019000000193
Gl5J7KKGwUiBXNnfQA/aAAnU39wqK/fyte60RBRTjAavc5l19VujIant//0k9eOy5
GPLRhtfFaQg6DIst09CnUHU09rgTBwSP+yM8HVVbj8HsR4SrJwI2bQayhOOl21ggu
GAQCumfsnFFxdY+wDiyng3POPcluGhvRsBiKanwfQyHo=

