AXFH000
HFDTE020725
HFPLTPILOT:Scott O’Brien
HFGTYGLIDERTYPE:Ozone Swift 6
HFDTM100GPSDATUM:WGS84
HFRFWFIRMWAREVERSION:9.0
HFRHWHARDWAREVERSION:iPhone 15
HFFTYFRTYPE:Flyskyhy,9.0
HFGPS:Internal
HFPRSVARIO:Internal Vario
HFCCLCOMPETITIONCLASS:Paraglider
HFTZNTIMEZONE:2
HFSITSITE:Wispile-1900 (Saanen- Gstaad),CH
I053638FXA3941VXA4244GSP4547CCO4850HDT
E083648PEVBackground
B0836484626222N00717614EA0193301933022003000184249
B0836494626221N00717614EA0193301933022003000178248
B0836504626221N00717614EA0193301933022003000195203
B0836514626221N00717614EA0193301933022003000053224
B0836524626221N00717614EA0193301934022003000026246
B0836534626221N00717614EA0193301934022003000013243
B0836544626221N00717614EA0193401934022003000222244
B0836554626221N00717614EA0193401934022003000179239
B0836564626221N00717614EA0193401934022003000170235
B0836574626222N00717614EA0193401933022003001298238
B0836584626222N00717614EA0193401933022003000296235
B0836594626222N00717614EA0193301933022003000303235
B0837004626222N00717614EA0193301933022003000303236
B0837014626222N00717614EA0193301933022003000012233
B0837024626222N00717614EA0193301933022003000050232
B0837034626222N00717614EA0193301933022003000050236
B0837044626222N00717614EA0193301933022003000136216
B0837054626221N00717614EA0193301933022003000175218
B0837064626222N00717614EA0193301933022003001050218
B0837074626222N00717614EA0193301933022003000033218
B0837084626222N00717614EA0193301934022003000086182
B0837094626222N00717614EA0193301934022003000154185
B0837104626222N00717614EA0193301934022003001273237
B0837114626222N00717614EA0193301934022003000322253
B0837124626222N00717615EA0193401933022003008085227
B0837134626222N00717617EA0193401933022003008094268
B0837144626221N00717618EA0193301932022003008096222
B0837154626221N00717620EA0193301931022003008099103
B0837164626221N00717623EA0193201929022003015093080
B0837174626221N00717627EA0193101926022003021087076
B0837184626223N00717634EA0193001923022003021082069
B0837194626224N00717641EA0192801922022003027076069
B0837204626225N00717648EA0192601921004003031073036
B0837214626226N00717654EA0192401920004003031075047
B0837224626227N00717661EA0192301919004003031079034
B0837234626227N00717668EA0192101919004003032085032
B0837244626228N00717675EA0192001921004003029074024
B0837254626229N00717679EA0191901925004003029056013
B0837264626231N00717682EA0191901928004003019038006
B0837274626233N00717684EA0191901929004003016026007
B0837284626236N00717686EA0192001930004003020012008
B0837294626239N00717687EA0192201929004003022010007
B0837304626242N00717689EA0192401929004003022019358
B0837314626247N00717691EA0192601929004003027020020
B0837324626251N00717692EA0192701929004003030011356
B0837334626255N00717692EA0192701931004003030353004
B0837344626259N00717691EA0192701933004003029343008
B0837354626262N00717690EA0192701935004003027349016
B0837364626266N00717691EA0192701937004003020009026
B0837374626268N00717692EA0192801937004003020030024
B0837384626271N00717695EA0192901937004003020041025
B0837394626274N00717699EA0193101938004003023049027
B0837404626275N00717703EA0193201939004003024072022
B0837414626276N00717708EA0193301940004003028090021
B0837424626275N00717714EA0193401942004003028098021
B0837434626275N00717719EA0193501943004003028108019
B0837444626273N00717724EA0193601944004003021118017
B0837454626271N00717728EA0193701943004003021134017
B0837464626269N00717731EA0193801941004003021145015
B0837474626264N00717733EA0193901939004003025161014
B0837484626259N00717734EA0193901937004003038180348
B0837494626254N00717732EA0193801937004003040202352
B0837504626249N00717727EA0193801937004003040223354
B0837514626246N00717720EA0193801937004003042243356
B0837524626245N00717711EA0193601937004003042264358
B0837534626245N00717703EA0193601936004003037269359
B0837544626249N00717697EA0193501937004003043319357
B0837554626253N00717693EA0193501937004003039339002
B0837564626259N00717692EA0193501937004003039004011
B0837574626263N00717694EA0193501938004003032025014
B0837584626266N00717696EA0193501940004003032035017
B0837594626269N00717698EA0193501942004003025030012
B0838004626272N00717700EA0193601942004003018021013
B0838014626275N00717701EA0193601942004003021020014
B0838024626278N00717703EA0193701941004003026014015
B0838034626282N00717704EA0193801940004003026009015
B0838044626287N00717705EA0193801940004003030012015
B0838054626291N00717708EA0193801940004003028020023
B0838064626294N00717709EA0193701940004003028025016
B0838074626297N00717711EA0193701940004003023024023
B0838084626300N00717713EA0193701939004003021024015
B0838094626304N00717716EA0193601935004003029023026
B0838104626308N00717718EA0193601933004003032026013
B0838114626312N00717722EA0193501931004003032031013
B0838124626316N00717725EA0193401930004003033032019
B0838134626320N00717729EA0193201930004003028030357
B0838144626324N00717731EA0193001931004003028025356
B0838154626327N00717734EA0192801931004003026019005
B0838164626331N00717736EA0192701929004003026024007
B0838174626334N00717739EA0192601928004003027028023
B0838184626338N00717742EA0192601927004003028038026
B0838194626341N00717746EA0192601926004003028039018
B0838204626345N00717749EA0192501924004003028031015
B0838214626349N00717752EA0192401922004003031023013
B0838224626354N00717755EA0192301921004003033018014
B0838234626358N00717757EA0192201920004003032019014
B0838244626362N00717759EA0192101920004003032020012
B0838254626366N00717761EA0192101919004003025018016
B0838264626369N00717762EA0191901918004003025014011
B0838274626373N00717764EA0191801917004003025009009
B0838284626377N00717765EA0191701915004003026007005
B0838294626381N00717766EA0191601915004003027015015
B0838304626385N00717769EA0191501916004003027036029
B0838314626387N00717773EA0191401917004003026056029
B0838324626389N00717777EA0191401918004003023071029
B0838334626390N00717781EA0191401919004003021073012
B0838344626392N00717785EA0191401918004003022056017
B0838354626394N00717788EA0191501917004003022034007
B0838364626397N00717790EA0191501916004003022015005
B0838374626400N00717791EA0191501915004003022006007
B0838384626403N00717793EA0191501913004003023014009
B0838394626407N00717795EA0191501910004003023021013
B0838404626411N00717797EA0191301907004003026024011
B0838414626416N00717800EA0191201905004003040016001
B0838424626423N00717801EA0191201903004003046008359
B0838434626430N00717803EA0190901903004003046004004
B0838444626437N00717804EA0190701906004003047008004
B0838454626443N00717806EA0190501909004003040016029
B0838464626448N00717808EA0190401914004003040016012
B0838474626453N00717809EA0190401918004003035009351
B0838484626457N00717810EA0190401922004003030359354
B0838494626460N00717809EA0190701926004003021347358
B0838504626464N00717809EA0190701928004003021352350
B0838514626467N00717809EA0191101929004003021001012
B0838524626471N00717810EA0191501930004003023014028
B0838534626475N00717814EA0191901929004003034035032
B0838544626478N00717820EA0191901928004003038062049
B0838554626478N00717827EA0192301927004003038098062
B0838564626475N00717834EA0192501926004003042134067
B0838574626469N00717837EA0192601924004003052173298
B0838584626462N00717835EA0192601924004003052206322
B0838594626457N00717829EA0192601926004003052229341
B0839004626453N00717823EA0192601924004003046221351
B0839014626457N00717815EA0192601922004003042312354
B0839024626461N00717810EA0192601922004003042331356
B0839034626467N00717807EA0192501923004003042343356
B0839044626472N00717806EA0192501925004003038002005
B0839054626475N00717807EA0192501926004003023026002
B0839064626478N00717808EA0192501927004003023024003
B0839074626481N00717809EA0192501925004003018002351
B0839084626485N00717809EA0192501923004003018355353
B0839094626489N00717809EA0192501922004003030002001
B0839104626493N00717810EA0192401920004003030010355
B0839114626497N00717810EA0192401919004003028004351
B0839134626501N00717810EA0192301917004003027355354
B0839144626505N00717810EA0192301915004003028352346
B0839154626509N00717810EA0192201912004003029356001
B0839164626514N00717810EA0191901910004003029007000
B0839174626517N00717810EA0191701908004003029358003
B0839184626522N00717812EA0191701906004003028018002
B0839194626526N00717814EA0191501904004003031012000
B0839204626531N00717817EA0191201898004003031017008
B0839214626536N00717818EA0190901895004004032011011
B0839224626542N00717821EA0190901893004003037017014
B0839234626548N00717822EA0190601890004004044007018
B0839244626553N00717824EA0190201890004003037018008
B0839254626557N00717827EA0189901890004003036020024
B0839264626561N00717830EA0189901891004003030023015
B0839274626565N00717833EA0189601892004003030031023
B0839284626569N00717836EA0189401892004003027029029
B0839294626573N00717839EA0189201892004003027026014
B0839304626577N00717841EA0189201892004003033023006
B0839314626582N00717843EA0189201893004003033013009
B0839324626586N00717844EA0189201893004003033001349
B0839334626591N00717844EA0189201894004003035354344
B0839344626597N00717843EA0189201894004003037351351
B0839354626602N00717842EA0189301895004003037349346
B0839364626606N00717841EA0189301896004003034355350
B0839374626611N00717841EA0189401897004003030358355
B0839384626615N00717840EA0189401897004003027351344
B0839394626619N00717839EA0189501895004003031343327
B0839404626624N00717836EA0189501895004003031328311
B0839414626628N00717830EA0189601892004003038310310
B0839424626630N00717822EA0189601890004003044294301
B0839434626630N00717813EA0189601892004003046261304
B0839444626630N00717805EA0189601893004004044263310
B0839454626627N00717797EA0189501892004006041241316
B0839464626622N00717797EA0189501894004004028200324
B0839474626619N00717791EA0189401895004003030219328
B0839484626614N00717788EA0189401894004003030205333
B0839494626608N00717785EA0189401895004003035197021
B0839504626603N00717785EA0189401894004003040176015
B0839514626597N00717785EA0189401896004003041173013
B0839524626591N00717787EA0189401899004003040172010
B0839534626587N00717788EA0189501900004003036172008
B0839544626582N00717789EA0189501902004003030170006
B0839554626577N00717790EA0189501905004003035169005
B0839564626571N00717791EA0189701907004003035172004
B0839574626565N00717791EA0189801911004003040181004
B0839584626559N00717791EA0189801914004003040185003
B0839594626550N00717787EA0190401918004003035209001
B0840004626546N00717786EA0190801919004003020194001
B0840014626543N00717786EA0190801916004003020170001
B0840024626539N00717789EA0191101913004003035147000
B0840034626536N00717794EA0191401910004003036126000
B0840044626534N00717800EA0191501909004003035102000
B0840054626537N00717806EA0191501908004003033058001
B0840064626540N00717810EA0191501906004003033027003
B0840074626544N00717813EA0191401904004003033030004
B0840084626547N00717818EA0191201904004003030037012
B0840094626551N00717821EA0191201902004003030029003
B0840104626556N00717823EA0190901901004003033013359
B0840114626561N00717824EA0190701901004003034005350
B0840124626565N00717824EA0190501899004003033349342
B0840134626570N00717822EA0190501897004003033347345
B0840144626576N00717821EA0190401896004003041350353
B0840154626583N00717820EA0190201899004003049352343
B0840164626589N00717820EA0190101902004003042355342
B0840174626594N00717817EA0190101903004003042339340
B0840184626599N00717815EA0190001904004003030342345
B0840194626604N00717814EA0190001904004003031347343
B0840204626608N00717813EA0190001903004003030351350
B0840214626613N00717813EA0190001903004003031359346
B0840224626618N00717811EA0190101901004003034349341
B0840234626623N00717810EA0190201900004003035338342
B0840244626628N00717808EA0190201899004003035350352
B0840254626633N00717808EA0190201898004003035357350
B0840264626638N00717808EA0190201897004003034004347
B0840274626643N00717808EA0190201896004003034355332
B0840284626648N00717807EA0190001896004003033348351
B0840294626652N00717805EA0190001896004003032350352
B0840304626657N00717805EA0189901897004003028001356
B0840314626661N00717806EA0189801897004003029008357
B0840324626666N00717806EA0189801898004003029002358
B0840334626671N00717807EA0189801897004003030005356
B0840344626676N00717808EA0189701896004003032004000
B0840354626681N00717809EA0189701895004003037009008
B0840364626687N00717811EA0189701896004003035015013
B0840374626691N00717814EA0189701897004003035027028
B0840384626695N00717817EA0189601900004003032034017
B0840394626699N00717821EA0189601902004003032030022
B0840404626704N00717825EA0189601903004003032028012
B0840414626708N00717825EA0189601905004003032007013
B0840424626714N00717828EA0189701908004003036021016
B0840434626718N00717831EA0189901911004003036030015
B0840444626722N00717835EA0190101917004003035035017
B0840454626726N00717839EA0190101920004003033036031
B0840464626730N00717842EA0190401926004003031031028
B0840474626732N00717848EA0190801929004003031064048
B0840484626734N00717855EA0191301931004003031086045
B0840494626733N00717864EA0191301932004003037104052
B0840504626731N00717871EA0191701934004003042110056
B0840514626725N00717876EA0192201933004003051141055
B0840524626717N00717877EA0192601935004004051187322
B0840534626710N00717874EA0192601936004004053195339
B0840544626703N00717866EA0192901933004004057211351
B0840554626702N00717860EA0193201935005006057249357
B0840574626719N00717850EA0193401945004003041018016
B0840584626723N00717851EA0193601949004003033023009
B0840594626724N00717857EA0193901955004003033072018
B0841004626728N00717862EA0194101960004003033058015
B0841014626730N00717867EA0194101961004003032070014
B0841024626732N00717874EA0194501960004003038071014
B0841034626732N00717882EA0194801959004003038091016
B0841054626727N00717902EA0195201957004003044112018
B0841064626721N00717910EA0195401957004004050137345
B0841094626702N00717887EA0195601954004004044231354
B0841104626700N00717880EA0195601953004003036244355
B0841114626698N00717872EA0195501953004003043252357
B0841124626698N00717862EA0195401951004003043275357
B0841144626701N00717853EA0195401953004003050303358
B0841154626706N00717848EA0195301957004003045340002
B0841164626710N00717847EA0195201961004003045005012
B0841174626712N00717850EA0195201968004003032055009
B0841184626714N00717852EA0195201971004003028052015
B0841194626716N00717853EA0195301973004003012014012
B0841204626719N00717855EA0195501975004003023025003
B0841214626723N00717859EA0195901976004003023038013
B0841224626727N00717863EA0195901979004003035034005
B0841234626731N00717866EA0196301983004003030022001
B0841244626735N00717869EA0196701986004003030026005
B0841254626739N00717872EA0197101990004003028026355
B0841264626742N00717876EA0197101990004003027040018
B0841274626745N00717880EA0197401990004003030048026
B0841284626748N00717886EA0197701990004003031055024
B0841294626750N00717892EA0197901989004003031068028
B0841304626752N00717899EA0197901988004003033081029
B0841314626751N00717906EA0198201987004003036101029
B0841324626749N00717914EA0198301986004003040116028
B0841334626745N00717919EA0198301984004003040141028
B0841344626740N00717923EA0198301983004003041156025
B0841354626734N00717926EA0198301982004003042169023
B0841364626728N00717927EA0198201981004003042173343
B0841374626723N00717923EA0198101980004003041211348
B0841384626719N00717918EA0198101978004003041227352
B0841394626716N00717912EA0197901976004003032240356
B0841404626714N00717907EA0197801974004003032260357
B0841414626714N00717901EA0197601972004003026287358
B0841424626717N00717895EA0197601969004003026308356
B0841434626720N00717890EA0197401967004003038321359
B0841444626724N00717888EA0197201969004003038349003
B0841454626728N00717888EA0197001971004003030018012
B0841464626730N00717890EA0197001973004003025049006
B0841474626732N00717892EA0196801973004003010067356
B0841484626733N00717893EA0196701971004003010039357
B0841494626734N00717894EA0196701967004003010009004
B0841504626739N00717895EA0196701962004003017009007
B0841514626743N00717898EA0196701960004003038021016
B0841524626747N00717901EA0196601960004003038033009
B0841534626751N00717904EA0196501959004003032030009
B0841544626754N00717906EA0196501957004003025021005
B0841554626758N00717908EA0196201956004003026020008
B0841564626762N00717911EA0195901953004003032020009
B0841574626766N00717914EA0195601952004003032027018
B0841584626770N00717917EA0195601951004003032031014
B0841594626774N00717920EA0195401950004003027031015
B0842004626778N00717923EA0195201949004003027031019
B0842014626781N00717926EA0195001948004003026029019
B0842024626784N00717930EA0195001948004003026040031
B0842034626787N00717933EA0194801946004003027049015
B0842044626790N00717937EA0194701945004003028042000
B0842054626795N00717943EA0194501936004004023026321
B0842064626800N00717937EA0194401933004004023324318
B0842074626803N00717929EA0194301933004006040299320
B0842084626806N00717925EA0194101932006006040313322
B0842094626804N00717916EA0194101933004004037253326
B0842104626803N00717909EA0193901932004004031252331
B0842114626803N00717903EA0193701931004003031260335
B0842124626803N00717896EA0193501930004003032262341
B0842134626802N00717888EA0193501930004003032260344
B0842144626802N00717881EA0193301929004003032259347
B0842154626801N00717874EA0193201929004003030256349
B0842164626800N00717868EA0193101928004003030258352
B0842174626799N00717861EA0193101927004003030267353
B0842184626799N00717855EA0193001927004003030265354
B0842194626798N00717848EA0192801926004003031263355
B0842204626797N00717841EA0192701925004003031259356
B0842214626796N00717835EA0192701923004003031257356
B0842224626795N00717828EA0192601922004003031254357
B0842234626794N00717822EA0192501920004003032242357
B0842244626791N00717816EA0192301919004003034232357
B0842254626788N00717811EA0192301918004003033222357
B0842264626784N00717806EA0192201916004003033212358
B0842274626780N00717803EA0192001915004003034208358
B0842284626775N00717799EA0191801914004003036206358
B0842294626769N00717798EA0191801913004003036186358
B0842304626763N00717796EA0191701912004003037189359
B0842314626758N00717795EA0191501911004003032192359
B0842324626754N00717792EA0191301909004003032210359
B0842334626750N00717787EA0191301907004003032230359
B0842354626748N00717780EA0191201905004003035253359
B0842364626748N00717772EA0191101902004003037273359
B0842374626752N00717765EA0190901900004003042314359
B0842384626756N00717761EA0190901899004003039336357
B0842394626760N00717760EA0190701899004003039001000
B0842404626764N00717760EA0190501899004003027011003
B0842414626767N00717762EA0190301898004003027018005
B0842424626771N00717763EA0190301896004003026022010
B0842434626776N00717767EA0190101894004003026031012
B0842444626780N00717771EA0190001894004003038038016
B0842454626784N00717776EA0189801893004003038041022
B0842464626788N00717781EA0189801892004003035046021
B0842474626792N00717787EA0189701891004003033045022
B0842484626795N00717792EA0189501889004003033048017
B0842494626799N00717797EA0189401887004003036045022
B0842504626804N00717803EA0189401887004003036039016
B0842514626807N00717808EA0189201886004003038038012
B0842524626812N00717813EA0189101885004003037039021
B0842534626816N00717818EA0188901883004003037041020
B0842544626820N00717824EA0188901883004003037042019
B0842554626824N00717829EA0188701881004003036039013
B0842564626829N00717835EA0188601879004003040038006
B0842574626834N00717839EA0188401878004003040030007
B0842584626839N00717842EA0188401877004003039017004
B0842594626844N00717845EA0188201877004003039019001
B0843004626849N00717846EA0188101875004003032016010
B0843014626854N00717849EA0187901874004003035026008
B0843024626858N00717852EA0187901873004003032029014
B0843034626862N00717857EA0187701871004003035036014
B0843044626866N00717861EA0187601871004003033036021
B0843054626870N00717865EA0187401872004003036036015
B0843064626873N00717869EA0187401870004003033035012
B0843074626877N00717873EA0187301870004003031036018
B0843084626881N00717878EA0187301869004003032041025
B0843094626885N00717883EA0187201868004003034046026
B0843104626889N00717888EA0187201868004003034042032
B0843114626892N00717894EA0187101865004003035056028
B0843124626894N00717901EA0187001864004003036060027
B0843134626896N00717908EA0186801862004003036070026
B0843144626898N00717914EA0186801861004003036070027
B0843154626899N00717921EA0186701860004003032079021
B0843164626900N00717929EA0186601858004003034086016
B0843174626900N00717937EA0186401857004003038080010
B0843184626902N00717944EA0186401855004003037068006
B0843194626905N00717951EA0186301854004003037055005
B0843204626907N00717957EA0186101853004003034050007
B0843214626910N00717963EA0185901852004003034053011
B0843224626914N00717969EA0185901850004003033050012
B0843234626916N00717974EA0185701848004003033048012
B0843244626919N00717979EA0185601848004003031040003
B0843254626923N00717983EA0185401846004003032031359
B0843264626927N00717986EA0185401845004003031018354
B0843274626932N00717987EA0185201843004003030008350
B0843284626937N00717988EA0185001841004003033006347
B0843294626942N00717990EA0184801839004003033004344
B0843304626946N00717989EA0184801838004003031358331
B0843314626951N00717987EA0184601836004003030342325
B0843324626954N00717983EA0184401834004003030315322
B0843334626958N00717979EA0184201831004003033313323
B0843344626958N00717973EA0184201831004003033280324
B0843354626959N00717966EA0184001830004003033271329
B0843364626959N00717960EA0183801829004003028260333
B0843374626958N00717954EA0183601827004003028255337
B0843384626957N00717948EA0183601824004003028255342
B0843394626956N00717940EA0183501823004003030255345
B0843404626955N00717933EA0183301822004003035258348
B0843414626955N00717927EA0183101821004003035259350
B0843424626954N00717920EA0183101820004003032258352
B0843434626953N00717914EA0182901819004003029259354
B0843444626953N00717908EA0182801818004003028265355
B0843454626953N00717902EA0182601817004003031274356
B0843464626954N00717895EA0182601815004003031287357
B0843474626956N00717889EA0182501814004003032299358
B0843484626958N00717884EA0182401813004003030309359
B0843494626961N00717879EA0182201813004003030319359
B0843504626964N00717875EA0182201812004003029327358
B0843514626968N00717872EA0182101812004003029335355
B0843524626972N00717870EA0182001811004003030343352
B0843534626976N00717868EA0181801810004003031352354
B0843544626981N00717867EA0181801808004003031355350
B0843554626987N00717866EA0181701807004003034353348
B0843564626992N00717865EA0181601806004003037348350
B0843574626997N00717864EA0181401805004003037350350
B0843584627002N00717863EA0181401805004003035357353
B0843594627008N00717863EA0181201804004003035000357
B0844004627013N00717863EA0181101804004003034358349
B0844014627017N00717862EA0180901803004003034353345
B0844024627022N00717861EA0180901802004003034350343
B0844034627028N00717860EA0180801801004003034353350
B0844044627033N00717860EA0180801800004003035356352
B0844054627038N00717860EA0180701800004003035001354
B0844064627043N00717861EA0180701800004003035008016
B0844074627047N00717863EA0180601800004003031024024
B0844084627050N00717865EA0180501799004003027038025
B0844094627054N00717869EA0180501797004003030043024
B0844104627057N00717874EA0180501796004003030040021
B0844114627062N00717879EA0180401793004003033038011
B0844124627066N00717883EA0180301794004003033036009
B0844134627070N00717886EA0180201793004003031027359
B0844144627074N00717889EA0180201791004003032015351
B0844154627079N00717890EA0180101790004003032006343
B0844164627084N00717890EA0180001789004003033355335
B0844174627089N00717889EA0179801789004003033347329
B0844184627093N00717886EA0179801789004003029333328
B0844194627096N00717883EA0179701788004003029320325
B0844204627099N00717879EA0179601786004003029312331
B0844214627102N00717873EA0179501784004003030305335
B0844224627105N00717867EA0179501783004003033296335
B0844234627107N00717860EA0179401782004003036285337
B0844244627107N00717852EA0179201782004003036273339
B0844254627107N00717845EA0179101781004003034266344
B0844264627107N00717839EA0179101781004003033267346
B0844274627107N00717832EA0179001780004003030268348
B0844284627107N00717825EA0178801779004003033267350
B0844294627107N00717818EA0178701778004003034264351
B0844304627106N00717811EA0178701777004003033259353
B0844314627105N00717804EA0178601777004003033255354
B0844324627103N00717798EA0178501776004003031254355
B0844334627102N00717791EA0178401775004003030255356
B0844344627101N00717784EA0178401773004003032257357
B0844354627100N00717777EA0178301772004003032259357
B0844364627100N00717770EA0178201771004003034264358
B0844374627100N00717764EA0178001770004003031275358
B0844384627101N00717757EA0178001769004003031292359
B0844394627103N00717752EA0177901767004003030304359
B0844404627106N00717746EA0177801766004003030308359
B0844414627109N00717740EA0177801765004003032308359
B0844424627112N00717735EA0177601764004003032308359
B0844434627115N00717731EA0177501764004003031314359
B0844444627118N00717726EA0177401762004003028321359
B0844454627122N00717723EA0177401760004003032330359
B0844464627126N00717719EA0177301759004003035335355
B0844474627131N00717717EA0177101758004003034342352
B0844484627136N00717715EA0177001758004003034347350
B0844494627140N00717714EA0177001757004003029351352
B0844504627145N00717713EA0176801756004003030354351
B0844514627149N00717713EA0176701754004003030001355
B0844524627154N00717714EA0176501753004003033008355
B0844534627159N00717715EA0176501752004003036014003
B0844544627164N00717717EA0176401751004003036018005
B0844554627169N00717720EA0176201751004003033024004
B0844564627173N00717723EA0176101750004003032026002
B0844574627177N00717725EA0175901748004003029023358
B0844584627182N00717727EA0175901747004003030016350
B0844594627186N00717729EA0175801746004003030010351
B0845004627191N00717730EA0175701746004003032007344
B0845014627195N00717731EA0175601745004003030002339
B0845024627200N00717730EA0175601745004003030353332
B0845034627204N00717729EA0175501744004003029345330
B0845044627208N00717727EA0175401742004003029340332
B0845054627212N00717725EA0175301741004003031338337
B0845064627217N00717722EA0175301740004003031333335
B0845074627221N00717719EA0175201738004003031325340
B0845084627224N00717714EA0175001737004003031317344
B0845094627228N00717710EA0174901736004003033316349
B0845104627231N00717705EA0174901735004003033323353
B0845114627235N00717703EA0174801735004003031335352
B0845124627239N00717700EA0174601733004003028345347
B0845134627244N00717699EA0174501733004003030346346
B0845144627248N00717697EA0174501731004003031346345
B0845154627253N00717696EA0174401730004003030351353
B0845164627257N00717696EA0174301730004003030000349
B0845174627262N00717697EA0174201729004003031011001
B0845184627266N00717698EA0174201729004003031016359
B0845194627270N00717700EA0174101729004003030018004
B0845204627275N00717702EA0174001727004003030022015
B0845214627279N00717705EA0174001726004003033031020
B0845224627283N00717710EA0173901725004003035041025
B0845234627286N00717715EA0173801724004003035048028
B0845244627290N00717721EA0173701724004003035052018
B0845254627293N00717726EA0173701724004003029052012
B0845264627295N00717730EA0173501723004003029044013
B0845274627298N00717734EA0173401722004003026033000
B0845284627302N00717736EA0173301721004003026023356
B0845294627306N00717738EA0173301718004003032015342
B0845304627311N00717739EA0173201716004003035357332
B0845314627316N00717737EA0173101714004003035335332
B0845324627320N00717734EA0173001713004003035321334
B0845334627323N00717731EA0173001713004003026321341
B0845344627327N00717727EA0172801712004003026327345
B0845354627330N00717724EA0172601710004003026328347
B0845364627334N00717721EA0172501708004003028323348
B0845374627338N00717716EA0172501707004003033317350
B0845384627341N00717712EA0172301705004003033316352
B0845394627344N00717707EA0172201704004003031319354
B0845404627347N00717703EA0172001702004003030320355
B0845414627350N00717699EA0172001700004003032317354
B0845424627353N00717694EA0171801699004003032304353
B0845434627355N00717687EA0171601697004003032279353
B0845444627355N00717679EA0171401694004003032259355
B0845454627353N00717671EA0171401693004003041251355
B0845464627353N00717664EA0171301694004003041258357
B0845474627352N00717658EA0171001693004003033266357
B0845484627352N00717652EA0170901692004003027267357
B0845494627351N00717646EA0170901691004003028261358
B0845504627351N00717639EA0170701689004003034257358
B0845514627350N00717631EA0170601687004003034256358
B0845524627348N00717624EA0170401687004003036254358
B0845534627347N00717617EA0170401687004003032253359
B0845544627346N00717611EA0170301687004003032256359
B0845554627345N00717605EA0170201686004003029259359
B0845564627344N00717598EA0170001684004003029259359
B0845574627342N00717591EA0170001682004003037251359
B0845584627341N00717583EA0169901681004003039246359
B0845594627338N00717576EA0169801682004003037241359
B0846004627336N00717570EA0169601681004003037240359
B0846014627334N00717564EA0169601681004003028241359
B0846024627332N00717558EA0169501679004003028243359
B0846034627330N00717552EA0169401677004003028244359
B0846044627328N00717546EA0169201676004003031245359
B0846054627325N00717540EA0169201674004003034243359
B0846064627324N00717534EA0169101672004003034240359
B0846074627321N00717528EA0169001671004003032236359
B0846084627318N00717521EA0168801670004003032239359
B0846094627316N00717515EA0168801669004003035240359
B0846104627313N00717509EA0168701668004003035235359
B0846114627309N00717503EA0168501667004003035224359
B0846124627305N00717499EA0168401666004003035216359
B0846134627300N00717494EA0168401664004003036214359
B0846144627296N00717490EA0168201664004003036216359
B0846154627292N00717485EA0168101663004003035217359
B0846164627288N00717480EA0167901662004003035220359
B0846174627284N00717475EA0167901661004003035226359
B0846184627281N00717468EA0167801660004003036234359
B0846194627278N00717461EA0167701659004003037242359
B0846204627277N00717454EA0167501658004003036258359
B0846214627276N00717446EA0167501657004003036264359
B0846224627275N00717439EA0167401655004003035268359
B0846234627275N00717432EA0167301655004003032274359
B0846244627276N00717425EA0167201654004003032278359
B0846254627277N00717418EA0167201652004003032290359
B0846264627279N00717411EA0167101651004003034295359
B0846274627282N00717405EA0166901650004003034301359
B0846284627284N00717400EA0166801649004003032304359
B0846294627287N00717394EA0166801648004003032307359
B0846304627290N00717389EA0166701647004003031307359
B0846314627293N00717383EA0166501646004003031306359
B0846324627295N00717377EA0166401644004003032302359
B0846334627298N00717371EA0166401643004003036300359
B0846344627301N00717364EA0166301641004003036300359
B0846354627303N00717358EA0166101641004003036303359
B0846364627306N00717352EA0166001640004003034303359
B0846374627308N00717346EA0166001639004003032299359
B0846384627311N00717340EA0165801638004003033297359
B0846394627313N00717333EA0165701636004003035298359
B0846404627316N00717327EA0165501634004003035301359
B0846414627319N00717321EA0165501633004003035303359
B0846424627321N00717314EA0165401633004003034301359
B0846434627324N00717308EA0165201631004003031297359
B0846444627326N00717302EA0165101630004003031293359
B0846454627328N00717296EA0165101628004003031292359
B0846464627329N00717289EA0164901627004003034286359
B0846474627331N00717281EA0164801626004003035285359
B0846484627332N00717275EA0164701626004003033284359
B0846494627333N00717268EA0164701625004003033283359
B0846504627334N00717261EA0164501624004003031285359
B0846514627335N00717254EA0164401623004003031282359
B0846524627336N00717247EA0164301621004003035281359
B0846534627337N00717240EA0164301620004003036281359
B0846544627339N00717233EA0164101619004003035280359
B0846554627339N00717225EA0164001618004003035278359
B0846564627340N00717218EA0163901617004003035278359
B0846574627341N00717210EA0163901615004003037276359
B0846584627341N00717202EA0163701614004003037272359
B0846594627341N00717194EA0163601614004003039270359
B0847004627342N00717186EA0163401614004003036270359
B0847014627342N00717178EA0163401613004003036271359
B0847024627342N00717171EA0163301612004003035270359
B0847034627342N00717163EA0163101610004003035267359
B0847044627341N00717155EA0163001610004003038264359
B0847054627340N00717146EA0163001609004003039262359
B0847064627340N00717138EA0162901609004003038264359
B0847074627339N00717131EA0162801609004003037259359
B0847084627338N00717124EA0162701608004003030251359
B0847094627336N00717118EA0162701607004003032240359
B0847104627333N00717112EA0162601605004003032232359
B0847114627330N00717106EA0162501604004003034223359
B0847124627326N00717102EA0162401603004003036210359
B0847134627321N00717099EA0162401600004003036195000
B0847144627316N00717097EA0162301601004003036191000
B0847154627309N00717097EA0162101601005004036180000
B0847164627306N00717103EA0162001600004003035160000
B0847174627302N00717106EA0162001598004003035144000
B0847184627298N00717111EA0161801596004003034127000
B0847194627296N00717118EA0161601594004003033111000
B0847204627295N00717124EA0161501592004003032095000
B0847214627295N00717130EA0161501591004003032086000
B0847224627295N00717137EA0161301591004003032079000
B0847234627296N00717142EA0161101590004003029073000
B0847244627297N00717147EA0161001588004003027069000
B0847254627299N00717153EA0161001587004003029063000
B0847264627301N00717159EA0160901586004003029060000
B0847274627303N00717164EA0160701586004003029061000
B0847284627305N00717170EA0160601584004003028063000
B0847294627307N00717175EA0160601584004003028062000
B0847304627309N00717181EA0160501583004003028064000
B0847314627311N00717187EA0160401582004003028062000
B0847324627312N00717192EA0160201581004003029064000
B0847334627314N00717198EA0160201581004003029065000
B0847344627316N00717204EA0160101580004003029067000
B0847354627318N00717209EA0160001579004003029067000
B0847364627319N00717215EA0159901578004003029063000
B0847374627321N00717221EA0159901577004003029058000
B0847384627324N00717227EA0159801575004003029058000
B0847394627326N00717231EA0159601576004003028057000
B0847404627328N00717237EA0159501575004003028060000
B0847414627331N00717242EA0159501574004003028061000
B0847424627332N00717248EA0159401573004003028058000
B0847434627335N00717253EA0159301571004003029057000
B0847444627337N00717259EA0159201570004003030055000
B0847454627340N00717264EA0159201569004003030058000
B0847464627342N00717269EA0159101568004003030058000
B0847474627345N00717275EA0159001567004003030056000
B0847484627347N00717280EA0158901566004003031053000
B0847494627350N00717285EA0158901566004003031048002
B0847504627352N00717290EA0158801565004003030049001
B0847514627355N00717295EA0158701565004003029049001
B0847524627358N00717299EA0158601563004003028055001
B0847534627360N00717305EA0158601561004003029054001
B0847544627363N00717310EA0158401560004003029053000
B0847554627366N00717316EA0158301560004003031052000
B0847564627369N00717321EA0158201559004003032051000
B0847574627372N00717327EA0158201559004003032053000
B0847584627374N00717332EA0158101558004003030053000
B0847594627377N00717337EA0157901557004003029055000
B0848004627380N00717342EA0157801555004003031055000
B0848014627383N00717348EA0157801554004003032055000
B0848024627385N00717354EA0157701554004003032056000
B0848034627388N00717359EA0157601553004003032054000
B0848044627390N00717364EA0157401552004003028053000
B0848054627392N00717369EA0157401550004003029054000
B0848064627395N00717375EA0157301549004003029054000
B0848074627398N00717380EA0157201548004003031053000
B0848084627400N00717385EA0157001548004003030050002
B0848094627403N00717390EA0157001547004003030047007
B0848104627406N00717395EA0156901546004003029043010
B0848114627408N00717400EA0156801544004003029042012
B0848124627412N00717405EA0156701543004003030041013
B0848134627415N00717409EA0156701542004003030042015
B0848144627418N00717413EA0156501542004003030040012
B0848154627422N00717417EA0156401541004003028037017
B0848164627426N00717420EA0156301539004003028035017
B0848174627429N00717423EA0156301537004003029037020
B0848184627432N00717427EA0156201537004003029041024
B0848194627436N00717432EA0156001536004003030047024
B0848204627439N00717437EA0155901536004003030051021
B0848214627442N00717441EA0155901536004003030051022
B0848224627444N00717445EA0155801536004003028045020
B0848234627447N00717449EA0155701534004003025038015
B0848244627450N00717452EA0155601532004003025031011
B0848254627453N00717455EA0155601531004003029026006
B0848264627457N00717457EA0155501530004003029018356
B0848274627461N00717458EA0155301530004003029004335
B0848284627465N00717458EA0155201528004003025343327
B0848294627468N00717454EA0155201526004003027319319
B0848304627471N00717449EA0155101524004003030296317
B0848314627472N00717443EA0154901523004003030278319
B0848324627471N00717436EA0154801523004003032257321
B0848334627470N00717430EA0154801522004003033244323
B0848344627467N00717424EA0154601520004003035232328
B0848354627464N00717418EA0154501519004003037225330
B0848364627460N00717413EA0154301518004003037215335
B0848374627456N00717409EA0154301517004003037210340
B0848384627452N00717404EA0154201516004003035214346
B0848394627448N00717400EA0154001515004003032226349
B0848404627445N00717394EA0153901514004003034235352
B0848414627442N00717387EA0153901512004003034240353
B0848424627440N00717381EA0153801512004003035247355
B0848434627438N00717374EA0153601511004003035256356
B0848444627438N00717368EA0153501510004003029270357
B0848454627439N00717362EA0153501508004003029287358
B0848464627440N00717355EA0153401506004003029296358
B0848474627443N00717349EA0153201504004003032296358
B0848484627444N00717342EA0153101504004003033291359
B0848494627446N00717336EA0153101502004003031294359
B0848504627449N00717331EA0152901502004003031308359
B0848514627452N00717326EA0152801501004003029319359
B0848524627455N00717323EA0152601499004003029324359
B0848534627459N00717318EA0152601498004003029319359
B0848544627462N00717314EA0152501497004003029318359
B0848554627465N00717310EA0152301496004003029323357
B0848564627469N00717307EA0152201495004003029330354
B0848574627473N00717304EA0152201494004003031337353
B0848584627477N00717302EA0152101494004003030342353
B0848594627481N00717300EA0151901493004003030347353
B0849004627485N00717299EA0151801491004003027351356
B0849014627489N00717298EA0151801490004003027355356
B0849024627494N00717298EA0151601488004003030001358
B0849034627499N00717299EA0151501487004003032007010
B0849044627503N00717301EA0151401487004003031018010
B0849054627507N00717303EA0151401487004003031031013
B0849064627511N00717306EA0151201486004003029031014
B0849074627515N00717309EA0151101485004003030025013
B0849084627519N00717311EA0151001483004003030022012
B0849094627524N00717315EA0151001482004003032029023
B0849104627527N00717320EA0150901481004003034044030
B0849114627531N00717326EA0150701481004003034058026
B0849124627533N00717331EA0150601480004003034062019
B0849134627535N00717336EA0150601480004003030058015
B0849144627538N00717341EA0150501479004003028053012
B0849154627540N00717347EA0150401477004003029062011
B0849164627541N00717353EA0150301476004003029064011
B0849174627543N00717359EA0150301475004003031069008
B0849184627545N00717365EA0150201475004003032072007
B0849194627546N00717371EA0150001473004003032072006
B0849204627547N00717378EA0149901472004003030073005
B0849214627549N00717384EA0149901471004003029073004
B0849224627550N00717390EA0149801470004003031075003
B0849234627551N00717397EA0149601468004003032074002
B0849244627552N00717403EA0149501467004003031068002
B0849254627554N00717410EA0149501467004003030068001
B0849264627555N00717414EA0149401467004003024068001
B0849274627557N00717419EA0149201465004003024063002
B0849284627559N00717422EA0149101463004003024033358
B0849294627563N00717423EA0149101460004003025354345
B0849304627568N00717420EA0149001457004003040328341
B0849314627572N00717417EA0148801455005006040331338
B0849324627575N00717412EA0148601450006006035310338
B0849334627572N00717403EA0148601454004006035251341
B0849344627571N00717396EA0148401453004004029247346
B0849354627571N00717389EA0148201449004004029265349
B0849364627571N00717382EA0148001447004004029274352
B0849374627572N00717374EA0148001446004003032275353
B0849384627572N00717366EA0147801446004003034270354
B0849394627571N00717359EA0147701445004003034260355
B0849404627571N00717353EA0147501445004003032252355
B0849414627569N00717346EA0147501444004003030251356
B0849424627568N00717340EA0147301442004003032255357
B0849434627567N00717332EA0147101440004003035259357
B0849444627566N00717325EA0147001439004003035258358
B0849454627565N00717317EA0147001438004003036255358
B0849464627563N00717310EA0146801438004003033253358
B0849474627562N00717304EA0146601437004003033253359
B0849484627561N00717297EA0146501435004003031255359
B0849494627560N00717291EA0146501434004003031261359
B0849504627560N00717284EA0146301433004003031268359
B0849514627560N00717277EA0146101431004003032274359
B0849524627561N00717270EA0146001429004003032278359
B0849534627562N00717264EA0146001428004003032284359
B0849544627563N00717257EA0145801427004003028289359
B0849554627564N00717252EA0145701426004003028291359
B0849564627566N00717246EA0145501425004003027292359
B0849574627568N00717241EA0145501424004003027294359
B0849584627569N00717236EA0145301423004003025288359
B0849594627569N00717230EA0145201422004003028274359
B0850004627569N00717224EA0145101421004003028262359
B0850014627568N00717217EA0145101420004003030252359
B0850024627566N00717211EA0144901419004003034242359
B0850034627563N00717205EA0144801417004003035233359
B0850044627560N00717199EA0144701417004003035223359
B0850054627556N00717194EA0144701416004003035216359
B0850064627552N00717190EA0144501414004003035208359
B0850074627547N00717187EA0144401413004003036204359
B0850084627542N00717183EA0144201411004003036206359
B0850094627537N00717179EA0144201410004003036208359
B0850104627533N00717175EA0144101409004003035213359
B0850114627529N00717170EA0144001407004003035222359
B0850124627526N00717164EA0143801406004003035238359
B0850134627524N00717158EA0143801405004003035259359
B0850144627524N00717151EA0143701403004003033279359
B0850154627526N00717145EA0143601402004003033299359
B0850164627528N00717140EA0143401402004003030314358
B0850174627531N00717136EA0143401399004003027320357
B0850184627534N00717136EA0143301400004003021004002
B0850194627537N00717136EA0143101399004003021015005
B0850204627540N00717138EA0143001398004003021029015
B0850214627543N00717141EA0143001396004003025042018
B0850224627546N00717147EA0142901395004003032057017
B0850234627548N00717153EA0142701395004003032069017
B0850244627549N00717159EA0142601394004003032075014
B0850254627551N00717165EA0142601393004003030075012
B0850264627552N00717171EA0142401392004003031076010
B0850274627553N00717178EA0142301390004003033076008
B0850284627554N00717185EA0142101390004003033080006
B0850294627554N00717191EA0142101389004003033080004
B0850304627555N00717198EA0142001388004003030079003
B0850314627556N00717204EA0141901387004003030075003
B0850324627558N00717211EA0141701385004003032073002
B0850334627559N00717218EA0141701384004003032069001
B0850344627561N00717224EA0141601383004003033063001
B0850354627564N00717230EA0141501382004003033056001
B0850364627566N00717236EA0141301381004003030053001
B0850374627569N00717241EA0141301380004003030049005
B0850384627572N00717245EA0141201380004003028041004
B0850394627575N00717248EA0141101380004003026029000
B0850404627578N00717249EA0140901378004003025009355
B0850414627582N00717250EA0140901377004003027357347
B0850424627586N00717249EA0140801375004003028344341
B0850434627590N00717246EA0140701373004003028329333
B0850444627593N00717242EA0140601372004003030314331
B0850454627596N00717237EA0140601371004003030302335
B0850464627598N00717231EA0140401369004003031290334
B0850474627599N00717224EA0140301368004003034282339
B0850484627600N00717217EA0140101367004003034278342
B0850494627601N00717210EA0140101367004003034270342
B0850504627600N00717204EA0139901367004003029264344
B0850514627599N00717198EA0139801366004003031244345
B0850524627597N00717192EA0139701365004003031238347
B0850534627594N00717185EA0139701363004003034233349
B0850544627590N00717179EA0139601362004003037228350
B0850554627586N00717173EA0139501360004003037225351
B0850564627582N00717169EA0139301359004003037212352
B0850574627577N00717165EA0139301358004003037208353
B0850584627572N00717161EA0139201357004003039204354
B0850594627566N00717157EA0139101356004003039202355
B0851004627561N00717154EA0138901355004003039198356
B0851014627555N00717151EA0138901354004003039204357
B0851024627551N00717146EA0138801353004003038218358
B0851034627548N00717140EA0138601351004003038241358
B0851044627546N00717132EA0138501349004003038265359
B0851054627546N00717125EA0138501346004003037279359
B0851064627550N00717121EA0138401346004003032325358
B0851074627554N00717119EA0138201344004003032356002
B0851084627557N00717120EA0138001343004003029024009
B0851094627560N00717123EA0138001342004003029043016
B0851104627563N00717127EA0137801342004003027060018
B0851114627564N00717133EA0137701341004003028075020
B0851124627565N00717139EA0137501339004003028086019
B0851134627565N00717147EA0137501338004003032097016
B0851144627564N00717155EA0137301337004003037101013
B0851154627563N00717162EA0137201337004003037101009
B0851164627562N00717169EA0137001336004003036099006
B0851174627562N00717176EA0137001335004003032091004
B0851184627562N00717182EA0136901334004003030083003
B0851194627563N00717189EA0136801332004003032080003
B0851204627563N00717196EA0136701332004003032082002
B0851214627564N00717203EA0136701331004003032083001
B0851224627565N00717209EA0136501331004003028080001
B0851234627565N00717215EA0136401330004003028075001
B0851244627566N00717221EA0136301329004003028073000
B0851254627568N00717227EA0136301327004003029061000
B0851264627571N00717232EA0136201326004003029054000
B0851274627573N00717237EA0136001325004003029051004
B0851284627575N00717240EA0135901324004003027050009
B0851294627577N00717245EA0135901323004003027056009
B0851304627580N00717250EA0135801321004003028050007
B0851314627583N00717254EA0135601320004003028039003
B0851324627586N00717257EA0135501319004003028024355
B0851334627590N00717260EA0135501318004003027015355
B0851344627593N00717261EA0135301317004003022013353
B0851354627596N00717262EA0135201316004003022011353
B0851364627600N00717263EA0135001315004003022009346
B0851374627603N00717263EA0135001313004003023355332
B0851384627607N00717261EA0134901312004003027336330
B0851394627610N00717258EA0134801310004003028315324
B0851404627612N00717253EA0134601309004003028295326
B0851414627613N00717247EA0134601307004003029276325
B0851424627613N00717241EA0134501306004003032261326
B0851434627611N00717233EA0134301305004003036243329
B0851444627609N00717227EA0134201303004003036229331
B0851454627605N00717222EA0134201302004003038215334
B0851464627600N00717218EA0134001301004003036204337
B0851474627595N00717215EA0133801300004003037196340
B0851484627590N00717213EA0133701299004003037194343
B0851494627584N00717211EA0133701298004003037191346
B0851504627578N00717210EA0133501296004003039188349
B0851514627573N00717208EA0133301295004003039187350
B0851524627566N00717208EA0133201294004003039183007
B0851534627561N00717206EA0133201293004003039191353
B0851544627556N00717205EA0133001293004003035190355
B0851554627551N00717201EA0132901292004003039213356
B0851564627548N00717196EA0132701290004003036232357
B0851574627545N00717189EA0132701288004003039245358
B0851584627543N00717181EA0132601287004003037261359
B0851594627543N00717174EA0132501287004003037274359
B0852004627545N00717168EA0132401284004003033305359
B0852014627548N00717163EA0132401283004003033318357
B0852024627552N00717160EA0132201281004003030333358
B0852034627556N00717158EA0132001280004003030349002
B0852044627561N00717158EA0131901279004003030004006
B0852054627565N00717159EA0131901279004003030017014
B0852064627569N00717161EA0131701277004003025027020
B0852074627572N00717164EA0131501276004003026036019
B0852084627575N00717168EA0131301274004003026042014
B0852094627578N00717172EA0131301273004003027044012
B0852104627581N00717176EA0131201271004003028045011
B0852114627584N00717180EA0131001270004003028049008
B0852124627586N00717185EA0130801269004003028053008
B0852134627589N00717190EA0130801268004003029056007
B0852144627591N00717195EA0130701267004003029060005
B0852154627593N00717201EA0130501266004003029062004
B0852164627596N00717206EA0130401265004003029061003
B0852174627598N00717212EA0130401264004003029056003
B0852184627601N00717217EA0130201262004003030054002
B0852194627603N00717222EA0130101261004003030053001
B0852204627606N00717228EA0129901261004003030053003
B0852214627609N00717232EA0129901259004003030041006
B0852224627613N00717237EA0129801257004003033032009
B0852234627617N00717240EA0129601256004003033025012
B0852244627621N00717243EA0129601255004003033025015
B0852254627625N00717246EA0129501254004003030025017
B0852264627629N00717248EA0129301253004003029021023
B0852274627634N00717251EA0129101252004003031017014
B0852284627638N00717253EA0129101251004003029020021
B0852294627642N00717255EA0129001249004003029026021
B0852304627645N00717258EA0128901248004003029029015
B0852314627649N00717260EA0128701246004003029023016
B0852324627654N00717262EA0128701245004003029014013
B0852334627659N00717264EA0128601243004003031005005
B0852344627664N00717265EA0128401242004003034006003
B0852354627669N00717266EA0128201241004003034008359
B0852364627673N00717267EA0128201240004003032008350
B0852374627677N00717267EA0128001240004003031357334
B0852384627681N00717266EA0127801238004003026333321
B0852394627684N00717261EA0127701235004003031309320
B0852404627686N00717255EA0127701232004003037291316
B0852414627687N00717247EA0127601230004003037271316
B0852424627686N00717240EA0127401229004003038246315
B0852434627683N00717234EA0127201227004003038226320
B0852444627675N00717225EA0127001225004003037209329
B0852454627670N00717221EA0126801224004003035202334
B0852464627666N00717219EA0126601223004003033192021
B0852474627661N00717218EA0126601223004003033187016
B0852484627656N00717217EA0126401222004003033184013
B0852494627651N00717216EA0126201221004003033183011
B0852504627646N00717215EA0126101220004003031190009
B0852514627641N00717215EA0126101219004003032187007
B0852524627636N00717214EA0126001218004003034184006
B0852534627631N00717214EA0125901216004003033181005
B0852544627626N00717213EA0125801215004003034188004
B0852554627621N00717211EA0125801214004003035196356
B0852574627617N00717209EA0125601211004004035200357
B0852584627612N00717205EA0125501212004004035204357
B0852594627608N00717203EA0125401211004003033202358
B0853004627603N00717200EA0125401209004003033204358
B0853014627599N00717197EA0125201208004003034206358
B0853024627594N00717193EA0125101206004003034208359
B0853034627590N00717190EA0124901205004003035208359
B0853044627585N00717186EA0124901202004003036207359
B0853054627580N00717183EA0124701201004003037206359
B0853064627576N00717179EA0124501200004003036207359
B0853074627571N00717175EA0124301199004003036205359
B0853084627566N00717172EA0124301197004003034204359
B0853094627561N00717169EA0124101195004003035207359
B0853104627556N00717165EA0124001195004003035207359
B0853114627552N00717162EA0123801194004003035211359
B0853124627548N00717158EA0123801193004003033215359
B0853134627544N00717153EA0123601191004003035213359
B0853144627539N00717149EA0123501190004003035209359
B0853154627534N00717146EA0123301189004003037204359
B0853164627529N00717142EA0123301188004003035206359
B0853174627524N00717139EA0123201188004003035209359
B0853184627520N00717134EA0123001185004003035218359
B0853194627517N00717129EA0122901185004003034230359
B0853204627515N00717122EA0122901184004003036252359
B0853214627515N00717115EA0122701181004003040281359
B0853224627518N00717108EA0122601178004003040311358
B0853234627522N00717103EA0122501176004003040319001
B0853244627528N00717104EA0122501177004003040011011
B0853254627532N00717106EA0122301177004003040036014
B0853264627535N00717109EA0122101177004003031051012
B0853274627538N00717113EA0122001175004003025049009
B0853284627541N00717116EA0122001173004003029041005
B0853294627545N00717121EA0121801172004003034041005
B0853304627548N00717127EA0121701170004003034047005
B0853314627551N00717132EA0121501169004003034058004
B0853324627553N00717137EA0121501169004003028061003
B0853334627555N00717142EA0121401168004003028053002
B0853344627558N00717147EA0121201166004003028044005
B0853354627562N00717151EA0121101164004003029036006
B0853364627565N00717155EA0121101164004003030031005
B0853374627569N00717158EA0120901163004003030026005
B0853384627573N00717160EA0120701162004003027021004
B0853394627577N00717163EA0120601160004003027024000
B0853404627581N00717164EA0120601158004003029014357
B0853414627585N00717166EA0120401157004003032009350
B0853424627589N00717166EA0120301156004003030356340
B0853434627593N00717165EA0120101156004003030344338
B0853444627597N00717163EA0120101155004003026341336
B0853454627601N00717162EA0119901153004003027345347
B0853464627605N00717161EA0119801151004003027351347
B0853474627610N00717160EA0119701149004003028354341
B0853484627614N00717159EA0119701148004003032349344
B0853494627619N00717157EA0119501146004003032348339
B0853504627623N00717156EA0119401146004003030348346
B0853514627628N00717156EA0119201145004003030356354
B0853524627632N00717155EA0119201144004003029359343
B0853534627636N00717155EA0119101143004003029354342
B0853544627641N00717153EA0118901142004003029342328
B0853554627645N00717150EA0118801140004003031331324
B0853564627649N00717146EA0118801140004003032319323
B0853574627652N00717141EA0118601139004003032305321
B0853584627654N00717136EA0118501138004003030285319
B0853594627654N00717129EA0118401136004003030265321
B0854004627653N00717122EA0118401135004003034248323
B0854014627651N00717116EA0118201133004003038228325
B0854024627647N00717111EA0118101132004003036213328
B0854034627642N00717108EA0117901131004003036200332
B0854044627638N00717106EA0117901130004003033189017
B0854054627633N00717105EA0117701129004003033188017
B0854064627628N00717103EA0117501128004003033189345
B0854074627623N00717102EA0117401127004003033190349
B0854084627618N00717100EA0117401126004003032192351
B0854094627613N00717098EA0117201126004003034196352
B0854104627609N00717096EA0117101124004003033205353
B0854114627605N00717092EA0116901122004003034209355
B0854124627600N00717089EA0116901122004003032209356
B0854134627596N00717086EA0116801121004003032211356
B0854144627592N00717082EA0116701121004003032210357
B0854154627588N00717078EA0116501118004003032216357
B0854164627584N00717074EA0116501117004003032216358
B0854174627580N00717069EA0116401116004003032224358
B0854184627577N00717064EA0116301114004003032232359
B0854194627574N00717058EA0116101113004003033239359
B0854204627572N00717052EA0116101111004003035242359
B0854214627570N00717045EA0115901110004003035253359
B0854224627570N00717039EA0115801108004003034268359
B0854234627572N00717032EA0115601105004003034300359
B0854244627575N00717026EA0115601103004003034315358
B0854254627580N00717025EA0115401100004003040356005
B0854264627585N00717025EA0115201097004003036009013
B0854274627589N00717030EA0115001098004003036053014
B0854284627591N00717035EA0115001097004003030061011
B0854294627594N00717039EA0114701097004003030055005
B0854304627597N00717042EA0114501095004003025026001
B0854314627601N00717044EA0114301093004003025006355
B0854324627605N00717045EA0114301091004003034356344
B0854334627609N00717043EA0114101090004003034338336
B0854344627613N00717039EA0114001088004003032314331
B0854354627616N00717033EA0113801087004003032297333
B0854364627618N00717028EA0113801086004003032294334
B0854374627619N00717021EA0113601086004003032280338
B0854384627620N00717015EA0113501086004003031272344
B0854394627620N00717008EA0113301085004003029281348
B0854404627622N00717002EA0113301082004003031297353
B0854414627625N00716996EA0113101079004003034311355
B0854424627629N00716990EA0113001078004003034315356
B0854434627632N00716986EA0112801077004003034319357
B0854444627635N00716982EA0112801076004003030326357
B0854454627638N00716978EA0112601075004003026314357
B0854464627641N00716974EA0112501074004003029312358
B0854474627644N00716970EA0112301073004003028319358
B0854484627648N00716966EA0112301072004003029322359
B0854494627651N00716962EA0112101070004003028326357
B0854504627656N00716959EA0112001068004003028339001
B0854514627660N00716960EA0111901064004003028009008
B0854524627666N00716963EA0111901060004003036029014
B0854534627671N00716969EA0111701060004003043040017
B0854544627675N00716974EA0111401060004003043045014
B0854554627678N00716978EA0111201060004003035042010
B0854564627682N00716981EA0111201058004003028037011
B0854574627685N00716985EA0111001056004003031035008
B0854584627689N00716989EA0110701055004003033034009
B0854594627693N00716994EA0110501054004003033033007
B0855004627697N00716997EA0110501054004003033032007
B0855014627700N00717000EA0110301054004003022031007
B0855024627703N00717003EA0110201055004003022030005
B0855034627704N00717003EA0110101055004003019025034
B0855044627706N00717005EA0110101054004003010010072
B0855054627706N00717004EA0110001054004003003026079
B0855064627707N00717005EA0109901054004003005014000
B0855074627707N00717005EA0109901053004003005014000
B0855084627707N00717005EA0109901053004003005014000
B0855094627708N00717005EA0110001053004003001014000
B0855104627708N00717005EA0110001054004003002019359
B0855114627708N00717005EA0110001054004003001018355
B0855124627708N00717005EA0110001054004003001018354
B0855134627707N00717006EA0110001057004003002018004
B0855144627707N00717005EA0110001057004003000018356
B0855154627707N00717006EA0110001057004003001019357
B0855164627707N00717006EA0110001056004003000019357
B0855174627707N00717005EA0110001057004004000019358
B0855184627707N00717005EA0110001056004003000019358
B0855194627707N00717005EA0110001056004003000019359
B0855204627707N00717005EA0110001056004003000019359
B0855214627707N00717004EA0109901056004003001019359
B0855224627708N00717004EA0109901056004003002019359
B0855234627708N00717004EA0109901056004003001019359
B0855244627708N00717004EA0109901056004003001019359
B0855254627708N00717004EA0109901056004003001019359
B0855264627709N00717004EA0109901055004003003019359
B0855274627709N00717004EA0109901054004003002019359
B0855284627709N00717004EA0109901055004003002019359
B0855294627709N00717004EA0109901054004003001019000
B0855304627709N00717004EA0109901053004003001019359
B0855314627709N00717004EA0109901054004003001019359
B0855324627708N00717004EA0109901054004003001019359
B0855334627708N00717004EA0109901054004003002358359
B0855344627708N00717004EA0109901054004003000358359
B0855354627709N00717004EA0109901054004003000358359
B0855364627709N00717004EA0109901054004003000358359
B0855374627709N00717004EA0109901053004003001358000
B0855384627709N00717004EA0109901053004003002358000
GrLCd3qZ3HHhsgpnAipErAeryY7ZEjjqKMkp8lend9wmgktq/G6v6ZvSE1bWHXG7c
GVTZO0h6dRur6x9jeecGW+nSk9L7IOa70Tdhp+3NJxwQEmZG1qZXTXxsDTnT7/mnh
GEx8E7SxHRAGOJDfpos972DU5epSgljoErl8PM7YJKmk=

