AXFH000
HFDTE090226
HFPLTPILOT:Scott O’Brien
HFGTYGLIDERTYPE:Ozone Swift 6
HFDTM100GPSDATUM:WGS84
HFRFWFIRMWAREVERSION:9.4
HFRHWHARDWAREVERSION:iPhone 15
HFFTYFRTYPE:Flyskyhy,9.4
HFGPS:Bluetooth vario
HFPRSVARIO:Bluetooth vario
HFCCLCOMPETITIONCLASS:Paraglider
HFTZNTIMEZONE:-6
HFSITSITE:Gravedad Cero, Tapalpa, Jalisco,MX
I053638FXA3941VXA4244GSP4547CCO4850HDT
C090226161714090226000100TASK
C0000000N00000000ETAKEOFF
C3731062N12153514W00000000000400000000360000STARTAREA 
C3726317N12149880W00000000000400000000360000FINISHAREA Big Dog Vineyards
C0000000N00000000ELANDING
B1617441956521N10339240WA0222202222001100000253305
B1617451956521N10339240WA0222302222001100000253306
B1617461956521N10339240WA0222302222001100000253306
B1617471956521N10339240WA0222302222001100000253307
B1617481956521N10339240WA0222302222001100000253308
B1617491956521N10339240WA0222302222001100000253308
B1617501956521N10339240WA0222302222001100000253304
B1617511956521N10339240WA0222302222001100000253252
B1617521956521N10339240WA0222302222001100000253230
B1617531956521N10339240WA0222302222001100000253260
B1617541956521N10339240WA0222202222001100000253243
B1617551956521N10339240WA0222202222001100000253254
B1617561956521N10339240WA0222202222001100000253250
B1617571956521N10339240WA0222202222001100000253254
B1617581956521N10339240WA0222202222001100000253230
B1617591956521N10339240WA0222302222001100001253232
B1618001956521N10339240WA0222102222001100004038059
B1618011956521N10339239WA0222102222001100004034067
B1618021956522N10339239WA0222202222001100003039076
B1618031956522N10339239WA0222102222001100003040077
B1618041956522N10339239WA0222102222001100003052086
B1618051956522N10339238WA0222102222001100004074094
B1618061956522N10339237WA0222002222001100005086087
B1618071956522N10339236WA0222002222001100008081065
B1618081956523N10339234WA0222002222001100010075068
B1618091956523N10339233WA0222002222001100011073013
B1618101956524N10339231WA0222102222001100014070169
B1618111956524N10339229WA0222102222001100014090184
B1618121956523N10339227WA0222302222001100013110151
B1618131956522N10339225WA0222302222001100013123034
B1618141956520N10339223WA0222202222001100017141072
B1618151956518N10339222WA0222102222001100017140108
B1618161956516N10339220WA0222202222001100018139212
B1618171956514N10339218WA0222102222001100018136198
B1618181956511N10339216WA0222102222001100019145086
B1618191956508N10339214WA0222002222001100022151089
B1618201956505N10339212WA0222202222001100022150104
B1618211956502N10339211WA0222202222001100020145099
B1618221956500N10339208WA0222202221001100017145103
B1618231956498N10339206WA0221802220001100017143120
B1618241956496N10339204WA0221502219001100019140118
B1618251956494N10339201WA0221302219001100021132119
B1618261956492N10339198WA0221602219001100024123124
B1618271956490N10339194WA0221602219001100025113116
B1618281956489N10339190WA0221702218001100022102106
B1618291956489N10339186WA0221602217001100021089099
B1618301956490N10339182WA0221402215001100023080090
B1618311956491N10339178WA0221602214001100024074082
B1618321956492N10339174WA0221502212001100024060077
B1618331956495N10339171WA0221402210001100027046066
B1618341956498N10339169WA0221502209001100027033052
B1618351956502N10339168WA0221702209001100024027041
B1618361956506N10339168WA0221802209001100022013037
B1618371956510N10339168WA0221802208001100024003025
B1618381956514N10339169WA0221702208001100027002014
B1618391956519N10339169WA0221502207001100032004012
B1618401956524N10339168WA0221502207001100030013011
B1618411956528N10339167WA0221402207001100025014020
B1618421956529N10339163WA0221402207001100018065019
B1618431956529N10339159WA0221402207001100025091054
B1618441956529N10339155WA0221502207001100025091071
B1618451956529N10339151WA0221402207001100023081072
B1618461956530N10339147WA0221302207001100025075070
B1618471956531N10339143WA0221102205001100028073070
B1618481956532N10339138WA0221002205001100029084071
B1618491956531N10339133WA0220902204001100032092081
B1618501956530N10339128WA0220802203001100029103090
B1618511956528N10339124WA0220802203001100027113101
B1618521956525N10339120WA0220702202001100025125110
B1618531956521N10339119WA0220502201001100031156121
B1618541956514N10339119WA0220502200001100036173148
B1618551956507N10339119WA0220402201001100040180164
B1618561956500N10339121WA0220602201001100043186172
B1618571956493N10339122WA0220702200001100039188177
B1618581956487N10339123WA0220902201001100036189179
B1618591956481N10339124WA0221002203001100033189179
B1619001956476N10339125WA0221002203001100033185179
B1619011956471N10339125WA0221102204001100032177176
B1619021956466N10339124WA0221202204001100031167168
B1619031956462N10339123WA0221402205001100028157159
B1619041956458N10339120WA0221502206001100025145150
B1619051956455N10339118WA0221602208001100027148139
B1619061956451N10339116WA0221702208001100029159142
B1619071956447N10339114WA0221702208001100034166152
B1619081956441N10339113WA0221702209001100038167160
B1619091956436N10339111WA0221802209001100038160161
B1619101956430N10339109WA0221702210001100038155154
B1619111956425N10339106WA0221902211001100038159150
B1619121956419N10339104WA0222002212001100037164154
B1619131956414N10339104WA0222002212001100038174158
B1619141956407N10339104WA0222102212001100040183168
B1619151956401N10339104WA0222002212001100038175176
B1619161956396N10339103WA0221802212001100038171169
B1619171956391N10339101WA0221602212001100037167165
B1619181956388N10339098WA0221502211001100028157161
B1619191956388N10339096WA0221502210001100016168151
B1619201956392N10339095WA0221802210001100000168155
B1619211956401N10339094WA0222002209001100021001155
B1619221956406N10339093WA0222202209001100021013019
B1619231956410N10339092WA0222402209001100021024030
B1619241956414N10339090WA0222502209001100021019041
B1619251956418N10339089WA0222402209001100023014037
B1619261956422N10339089WA0222302209001100023010030
B1619271956426N10339088WA0222002209001100023011026
B1619281956430N10339087WA0222002209001100024020027
B1619291956435N10339084WA0222002208001100030028035
B1619301956439N10339081WA0222302208001100030030040
B1619311956444N10339079WA0222502209001100029027042
B1619321956448N10339077WA0222502210001100025030039
B1619331956451N10339074WA0222502210001100024038043
B1619341956454N10339072WA0222502209001100026040051
B1619351956457N10339069WA0222302209001100026039053
B1619361956461N10339066WA0222202209001100027031051
B1619371956465N10339064WA0222102208001100034029043
B1619381956470N10339061WA0222102209001100034037040
B1619391956475N10339057WA0222102209001100034043047
B1619401956478N10339053WA0222202209001100030046053
B1619411956481N10339050WA0222102208001100027044057
B1619421956484N10339047WA0222002207001100027042056
B1619431956488N10339044WA0221702205001100030043054
B1619441956491N10339040WA0221502204001100032049054
B1619451956494N10339035WA0221402204001100034059059
B1619461956497N10339030WA0221402203001100034063067
B1619471956499N10339025WA0221402203001100032066070
B1619481956501N10339020WA0221402203001100031074074
B1619491956502N10339015WA0221202202001100032081081
B1619501956502N10339009WA0221002200001100034085086
B1619511956503N10339004WA0221002198001100034080089
B1619521956504N10338999WA0220902197001100032071085
B1619531956506N10338994WA0220802197001100030065077
B1619541956508N10338990WA0220702196001100027061073
B1619551956510N10338986WA0220702196001100024064071
B1619561956511N10338983WA0220502195001100023069074
B1619571956513N10338979WA0220502193001100024063078
B1619581956514N10338976WA0220302192001100027060073
B1619591956516N10338972WA0220102190001100029066070
B1620001956518N10338967WA0220002190001100030074074
B1620011956519N10338962WA0220002189001100032080081
B1620021956520N10338957WA0219802190001100032083086
B1620031956521N10338952WA0219902190001100030086088
B1620041956521N10338947WA0219802190001100029090091
B1620051956521N10338942WA0219602188001100030090094
B1620061956520N10338938WA0219502186001100032086094
B1620071956521N10338932WA0219202185001100034085091
B1620081956521N10338927WA0219202183001100033084089
B1620091956522N10338922WA0219002183001100031086089
B1620101956522N10338917WA0219002182001100029087091
B1620111956522N10338912WA0218902181001100025082092
B1620121956523N10338909WA0218802180001100022072089
B1620131956524N10338906WA0218602179001100021061082
B1620141956526N10338903WA0218402178001100020054073
B1620151956529N10338902WA0218202177001100020038067
B1620161956532N10338901WA0217902175001100021034054
B1620171956535N10338899WA0217602173001100026036049
B1620181956539N10338896WA0217402171001100029033049
B1620191956543N10338894WA0217402170001100028032044
B1620201956546N10338892WA0217402169001100025032045
B1620211956549N10338890WA0217402168001100021030046
B1620221956551N10338889WA0217102165001100019037047
B1620231956554N10338887WA0216802164001100022033054
B1620241956556N10338885WA0216402161001100023039049
B1620251956559N10338882WA0216202158001100026045053
B1620261956561N10338879WA0215902156001100025051057
B1620271956563N10338876WA0215802153001100025059063
B1620281956565N10338872WA0215502150001100027067069
B1620291956567N10338868WA0215302147001100028072075
B1620301956568N10338863WA0215102145001100030073080
B1620311956569N10338859WA0214902143001100028074080
B1620321956570N10338855WA0214602140001100026073081
B1620331956571N10338851WA0214302138001100026072081
B1620341956573N10338847WA0213902135001100027069080
B1620351956574N10338843WA0213602132001100031065077
B1620361956576N10338838WA0213302129001100033068073
B1620371956578N10338833WA0213202127001100033074075
B1620381956579N10338828WA0212902125001100033077080
B1620391956581N10338823WA0212702122001100032074083
B1620401956582N10338818WA0212602121001100032073080
B1620411956583N10338813WA0212402119001100032080079
B1620421956583N10338807WA0212402117001100032091085
B1620431956583N10338802WA0212002115001100032099094
B1620441956582N10338797WA0211902113001100031103102
B1620451956581N10338793WA0211802111001100028096105
B1620461956581N10338788WA0211602109001100025084100
B1620471956582N10338785WA0211502107001100024071090
B1620481956583N10338781WA0211302105001100024068080
B1620491956584N10338777WA0211102102001100025081077
B1620501956584N10338773WA0211002099001100027089088
B1620511956583N10338769WA0210802097001100028101094
B1620521956581N10338765WA0210702095001100028115103
B1620531956579N10338761WA0210502093001100027110115
B1620541956578N10338757WA0210202091001100025100111
B1620551956577N10338753WA0210002089001100027093103
B1620561956577N10338749WA0209902086001100029098097
B1620571956576N10338744WA0209602084001100030104101
B1620581956575N10338739WA0209402083001100029100106
B1620591956574N10338735WA0209302081001100027086103
B1621001956575N10338730WA0209102079001100026075092
B1621011956576N10338727WA0208802078001100026066083
B1621021956578N10338723WA0208602074001100026071075
B1621031956579N10338719WA0208402071001100029078079
B1621041956580N10338714WA0208202069001100030078085
B1621051956581N10338709WA0207802067001100028071084
B1621061956583N10338705WA0207702065001100026063079
B1621071956584N10338702WA0207502063001100025064073
B1621081956586N10338698WA0207402062001100026072074
B1621091956587N10338694WA0207202060001100028079080
B1621101956587N10338689WA0207002058001100028080085
B1621111956588N10338685WA0206702056001100029074086
B1621121956590N10338681WA0206502054001100028069081
B1621131956591N10338676WA0206302052001100028069077
B1621141956592N10338672WA0206202050001100026077077
B1621151956593N10338668WA0206102047001100025085084
B1621161956592N10338664WA0205902044001100028105091
B1621171956589N10338660WA0205602041001100032120107
B1621181956583N10338657WA0205402039001100039147119
B1621191956577N10338654WA0205302038001100038145143
B1621201956573N10338651WA0205302036001100035140141
B1621211956569N10338647WA0205202034001100031134136
B1621221956566N10338644WA0205202032001100029132131
B1621231956562N10338640WA0204802030001100030129129
B1621241956559N10338636WA0204502027001100034128126
B1621251956555N10338631WA0204402026001100040123126
B1621261956552N10338625WA0204502025001100040121122
B1621271956549N10338620WA0204502024001100037122120
B1621281956546N10338616WA0204502022001100034123121
B1621291956543N10338612WA0204302021001100029119122
B1621301956541N10338608WA0204002020001100030116118
B1621311956540N10338603WA0203702019001100031110116
B1621321956539N10338598WA0203702018001100032101111
B1621331956537N10338593WA0203702016001100030105103
B1621341956536N10338589WA0203602015001100027114107
B1621351956534N10338586WA0203502014001100024121114
B1621361956532N10338583WA0203302012001100024116120
B1621371956531N10338579WA0203202011001100022100115
B1621381956532N10338575WA0203202010001100021084103
B1621391956533N10338572WA0203302011001100022075091
B1621401956534N10338569WA0203302009001100021061083
B1621411956536N10338567WA0203002009001100018051073
B1621421956538N10338565WA0202602008001100018032066
B1621431956542N10338565WA0202302005001100022014052
B1621441956548N10338567WA0202302005001100034354031
B1621451956555N10338569WA0202402005001100036351005
B1621461956561N10338571WA0202602006001100033347001
B1621471956565N10338573WA0202602006001100031342358
B1621481956570N10338575WA0202502004001100029334353
B1621491956574N10338577WA0202302003001100030341345
B1621501956579N10338579WA0202302001001100031350352
B1621511956584N10338579WA0202402002001100032355002
B1621521956589N10338580WA0202602001001100030352007
B1621531956593N10338580WA0202502001001100024349005
B1621541956597N10338581WA0202202000001100023348005
B1621551956600N10338582WA0201801999001100025350004
B1621561956604N10338582WA0201501998001100027001005
B1621571956609N10338581WA0201601997001100029009016
B1621581956613N10338580WA0201601997001100028014023
B1621591956617N10338578WA0201701996001100026015029
B1622001956620N10338577WA0201701995001100022020030
B1622011956622N10338575WA0201701995001100017034038
B1622021956624N10338573WA0201501994001100016048054
B1622031956625N10338570WA0201201993001100019055066
B1622041956626N10338567WA0201101992001100020065070
B1622051956627N10338563WA0201101991001100022082077
B1622061956626N10338559WA0201001991001100024092089
B1622071956626N10338555WA0200901990001100023106097
B1622081956624N10338551WA0200701990001100025116107
B1622091956621N10338548WA0200501988001100027127115
B1622101956618N10338545WA0200301986001100030133124
B1622111956613N10338542WA0200401984001100029139130
B1622121956607N10338541WA0200401984001100033152134
B1622131956599N10338541WA0200601982001100033172146
B1622141956592N10338543WA0200801980001100035183163
B1622151956586N10338544WA0200901980001100033191172
B1622161956581N10338546WA0200701980001100033191179
B1622171956575N10338547WA0200501980001100033191179
B1622181956569N10338548WA0200301979001100037188179
B1622191956562N10338548WA0200301978001100041179177
B1622201956554N10338547WA0200301979001100042169169
B1622211956548N10338545WA0200401979001100040162159
B1622221956542N10338542WA0200501979001100035155152
B1622231956537N10338539WA0200401979001100033146143
B1622241956533N10338536WA0200101979001100033143135
B1622251956530N10338532WA0199901978001100032136132
B1622261956528N10338528WA0199701978001100031123125
B1622271956527N10338523WA0199501977001100029113114
B1622281956529N10338519WA0199401976001100023078106
B1622291956530N10338516WA0199201975001100021063079
B1622301956533N10338513WA0199101973001100022049069
B1622311956536N10338511WA0198901971001100025045059
B1622321956539N10338508WA0198701969001100026049055
B1622331956541N10338504WA0198701967001100027050057
B1622341956544N10338501WA0198501966001100027049058
B1622351956547N10338498WA0198401965001100026046056
B1622361956550N10338495WA0198301964001100024045054
B1622371956552N10338492WA0198201962001100024047054
B1622381956554N10338489WA0198101961001100024052056
B1622391956557N10338486WA0197901960001100024055059
B1622401956559N10338482WA0197801958001100024055060
B1622411956561N10338479WA0197601957001100024054060
B1622421956563N10338476WA0197501956001100023058060
B1622431956565N10338472WA0197501955001100023069063
B1622441956565N10338469WA0197301953001100025089070
B1622451956565N10338465WA0197101952001100027103083
B1622461956563N10338460WA0196901951001100031111093
B1622471956560N10338455WA0196701950001100035119100
B1622481956557N10338450WA0196701948001100034121108
B1622491956554N10338446WA0196601947001100030112109
B1622501956553N10338442WA0196501946001100026097101
B1622511956553N10338438WA0196401944001100024083089
B1622521956554N10338434WA0196201943001100024070078
B1622531956556N10338430WA0196101942001100026060069
B1622541956558N10338426WA0196001940001100030055062
B1622551956561N10338422WA0195901939001100030056058
B1622561956563N10338418WA0195901938001100027061060
B1622571956565N10338414WA0195701936001100027058063
B1622581956568N10338411WA0195401935001100030054061
B1622591956571N10338407WA0195401934001100031052058
B1623001956573N10338403WA0195201932001100031056057
B1623011956576N10338398WA0195101931001100031059059
B1623021956578N10338394WA0194901929001100032058061
B1623031956581N10338390WA0194701927001100034056061
B1623041956584N10338385WA0194601926001100035056059
B1623051956587N10338380WA0194401924001100035061059
B1623061956589N10338375WA0194301923001100035067063
B1623071956591N10338370WA0194201922001100035068067
B1623081956593N10338365WA0194001921001100034064068
B1623091956596N10338360WA0193901919001100035060065
B1623101956598N10338355WA0193701917001100036061062
B1623111956600N10338350WA0193801916001100035067063
B1623121956602N10338344WA0193801915001100034073067
B1623131956603N10338339WA0193801915001100032079072
B1623141956603N10338334WA0193901915001100030084076
B1623151956603N10338329WA0193901917001100028084080
B1623161956604N10338325WA0193901916001100028077079
B1623171956605N10338321WA0193701916001100029070074
B1623181956607N10338317WA0193601914001100030064069
B1623191956609N10338312WA0193501913001100031056065
B1623201956612N10338308WA0193501912001100028055060
B1623211956614N10338305WA0193501911001100025058059
B1623221956615N10338301WA0193301910001100024065061
B1623231956617N10338298WA0193101908001100026065066
B1623241956619N10338294WA0192901906001100028063066
B1623251956621N10338290WA0192801905001100030059064
B1623261956623N10338286WA0192801904001100030061062
B1623271956625N10338282WA0192601903001100026057063
B1623281956628N10338279WA0192501902001100025049061
B1623291956630N10338276WA0192301900001100027048055
B1623301956633N10338272WA0192201898001100030054054
B1623311956635N10338268WA0192001897001100033062058
B1623321956637N10338262WA0191901897001100035069064
B1623331956639N10338257WA0191901897001100034076069
B1623341956639N10338252WA0191801896001100033082074
B1623351956640N10338246WA0191601895001100033085079
B1623361956640N10338241WA0191601894001100034090081
B1623371956640N10338236WA0191501893001100035095084
B1623381956639N10338230WA0191401892001100034098088
B1623391956638N10338225WA0191401892001100032095090
B1623401956638N10338220WA0191101891001100033086088
B1623411956639N10338214WA0191201890001100033076081
B1623421956641N10338209WA0191101889001100032070074
B1623431956642N10338204WA0191101889001100031070069
B1623441956644N10338200WA0191001888001100030071070
B1623451956645N10338195WA0191001886001100032069070
B1623461956647N10338190WA0190801885001100033072069
B1623471956648N10338185WA0190801885001100032074071
B1623481956650N10338181WA0190701884001100029074072
B1623491956651N10338176WA0190601883001100028071072
B1623501956652N10338172WA0190501882001100028063070
B1623511956655N10338168WA0190401881001100029056064
B1623521956658N10338165WA0190301880001100031051060
B1623531956660N10338161WA0190301879001100029057055
B1623541956662N10338157WA0190101878001100028067060
B1623551956663N10338152WA0189901877001100028072067
B1623561956664N10338148WA0189601875001100029079071
B1623571956660N10338142WA0189501874001100038107076
B1623581956659N10338136WA0189401873001100037105098
B1623591956657N10338130WA0189101872001100033100097
B1624001956656N10338125WA0188801870001100034101092
B1624011956658N10338120WA0188701869001100036081093
B1624021956662N10338117WA0188901868001100029063078
B1624031956666N10338117WA0188901867001100023047064
B1624041956670N10338117WA0188801866001100022029054
B1624051956673N10338116WA0188501865001100024023042
B1624061956678N10338115WA0188301863001100027021037
B1624071956682N10338114WA0188301862001100029028034
B1624081956686N10338112WA0188201861001100027037039
B1624091956690N10338109WA0188201860001100026045046
B1624101956692N10338106WA0188101858001100025054052
B1624111956694N10338102WA0187901858001100026070058
B1624121956695N10338098WA0187801857001100028072069
B1624131956696N10338093WA0187701856001100030071071
B1624141956698N10338089WA0187501854001100031076070
B1624151956698N10338084WA0187301851001100033082074
B1624161956699N10338078WA0187101849001100036084078
B1624171956699N10338072WA0186901846001100040082080
B1624181956701N10338066WA0186701844001100041079079
B1624191956702N10338059WA0186501842001100039080076
B1624201956702N10338054WA0186301840001100036084077
B1624211956703N10338048WA0186101838001100035091081
B1624221956702N10338043WA0185801836001100035091085
B1624231956702N10338037WA0185501833001100037087086
B1624241956703N10338031WA0185201830001100039083083
B1624251956703N10338025WA0184901828001100039086080
B1624261956703N10338019WA0184801825001100038092082
B1624271956703N10338012WA0184601824001100036094086
B1624281956703N10338007WA0184601823001100034094088
B1624291956703N10338002WA0184401821001100031086088
B1624301956704N10337998WA0184201820001100026073081
B1624311956705N10337994WA0184001818001100025063072
B1624321956709N10337992WA0183801815001100028031065
B1624331956714N10337990WA0183701814001100028022042
B1624341956718N10337989WA0183601812001100025016035
B1624351956721N10337988WA0183401811001100024013032
B1624361956725N10337987WA0183301809001100026016031
B1624371956729N10337986WA0183101806001100030022031
B1624381956734N10337984WA0183001805001100031030035
B1624391956738N10337981WA0182901803001100029035040
B1624401956741N10337978WA0182901801001100028040045
B1624411956744N10337975WA0182901799001100027048048
B1624421956746N10337972WA0182801798001100027060054
B1624431956748N10337968WA0182501796001100029062063
B1624441956750N10337963WA0182501794001100031064064
B1624451956752N10337959WA0182401793001100032070065
B1624461956753N10337954WA0182301792001100032079070
B1624471956754N10337949WA0182301791001100033088076
B1624481956753N10337943WA0182001790001100034095083
B1624491956752N10337938WA0181901789001100034096089
B1624501956752N10337933WA0181801788001100034088089
B1624511956753N10337927WA0181701786001100034080083
B1624521956753N10337922WA0181601786001100032077077
B1624531956754N10337917WA0181601785001100030076075
B1624541956755N10337913WA0181401784001100029074074
B1624551956757N10337908WA0181301782001100030071073
B1624561956758N10337904WA0181101780001100032065070
B1624571956761N10337899WA0181001778001100033060066
B1624581956763N10337895WA0180901776001100032057062
B1624591956766N10337891WA0180901774001100030054060
B1625001956769N10337887WA0180701773001100030053058
B1625011956771N10337883WA0180601771001100031056057
B1625021956774N10337878WA0180501770001100032059059
B1625031956776N10337874WA0180401769001100033060062
B1625041956779N10337870WA0180201767001100032056062
B1625051956782N10337865WA0180101766001100031054060
B1625061956784N10337861WA0180101765001100030055058
B1625071956787N10337857WA0180001763001100030058059
B1625081956789N10337853WA0179701763001100031061061
B1625091956791N10337848WA0179701762001100032061063
B1625101956794N10337844WA0179701761001100032061063
B1625111956796N10337840WA0179701760001100032060063
B1625121956798N10337835WA0179601759001100033062063
B1625131956801N10337830WA0179601758001100034064064
B1625141956803N10337825WA0179401757001100035066065
B1625151956805N10337820WA0179301757001100035065066
B1625161956807N10337815WA0179301757001100034065066
B1625171956809N10337810WA0179301756001100033069066
B1625181956810N10337805WA0179201756001100032078069
B1625191956811N10337800WA0179101756001100033087076
B1625201956810N10337794WA0178901755001100034095082
B1625211956809N10337789WA0178901753001100036096088
B1625221956809N10337783WA0178701753001100032089089
B1625231956809N10337778WA0178401751001100032086084
B1625241956811N10337773WA0178001750001100032078081
B1625251956815N10337770WA0178001749001100032054076
B1625261956819N10337768WA0177901747001100030046058
B1625271956822N10337764WA0177301746001100029050050
B1625281956825N10337761WA0176901744001100029051052
B1625291956826N10337756WA0176801743001100029058053
B1625301956827N10337751WA0177101741001100028064054
B1625311956826N10337747WA0176801739001100025069076
B1625321956827N10337744WA0176001737001100024059078
B1625331956830N10337742WA0175601735001100029044069
B1625341956832N10337741WA0175701733001100023036045
B1625351956836N10337743WA0176101733001100020357052
B1625361956839N10337745WA0176301733001100016344019
B1625371956841N10337746WA0176201733001100017352016
B1625381956844N10337749WA0175801732001100020344020
B1625391956847N10337750WA0175501730001100023345012
B1625401956852N10337751WA0175201728001100028354010
B1625411956857N10337751WA0175301727001100030002013
B1625421956862N10337751WA0175201726001100031007018
B1625431956866N10337750WA0175001725001100031014022
B1625441956869N10337746WA0174901724001100027033028
B1625451956872N10337742WA0174701723001100029043043
B1625461956874N10337737WA0174401721001100032049050
B1625471956878N10337733WA0174201720001100035049054
B1625481956881N10337728WA0174001717001100038054053
B1625491956883N10337722WA0173801716001100038061057
B1625501956886N10337716WA0173501713001100038066063
B1625511956888N10337711WA0173201711001100037065067
B1625521956890N10337705WA0173001708001100036061066
B1625531956893N10337700WA0172801705001100035063063
B1625541956895N10337695WA0172501701001100036070064
B1625551956896N10337689WA0172301698001100038076070
B1625561956898N10337684WA0171901695001100038075075
B1625571956899N10337678WA0171701692001100037068073
B1625581956901N10337673WA0171401690001100035066069
B1625591956903N10337668WA0171201687001100034066067
B1626001956905N10337663WA0171001684001100034068067
B1626011956907N10337658WA0170801681001100035067068
B1626021956909N10337652WA0170501687001100036065068
B1626031956912N10337647WA0170401686001100035062066
B1626041956914N10337642WA0170301684001100033060064
B1626051956917N10337638WA0170101681001100031061063
B1626061956919N10337634WA0169901679001100030059063
B1626071956921N10337630WA0169801677001100028056062
B1626081956924N10337626WA0169701675001100025051060
B1626091956926N10337624WA0169601673001100024048057
B1626101956928N10337621WA0169301671001100026052055
B1626111956930N10337617WA0169301669001100029060057
B1626121956932N10337613WA0169201667001100031070063
B1626131956933N10337608WA0169101666001100029073070
B1626141956935N10337604WA0168801664001100028064072
B1626151956937N10337600WA0168701663001100027061065
B1626161956940N10337596WA0168501661001100032053063
B1626171956943N10337591WA0168501659001100035058057
B1626181956946N10337586WA0168401658001100035065061
B1626191956948N10337581WA0168301657001100033067066
B1626201956950N10337577WA0168001656001100031064067
B1626211956952N10337572WA0167701654001100030065066
B1626221956954N10337568WA0167501652001100033068066
B1626231956955N10337562WA0167301649001100037070068
B1626241956957N10337557WA0167101646001100038069070
B1626251956959N10337552WA0167001645001100036064069
B1626261956962N10337547WA0166901643001100033057065
B1626271956965N10337543WA0166601641001100031051060
B1626281956968N10337539WA0166501639001100032054056
B1626291956971N10337535WA0166301637001100033058058
B1626301956973N10337530WA0166201635001100033057061
B1626311956976N10337526WA0165901634001100032053060
B1626321956979N10337522WA0165901632001100031048057
B1626331956982N10337519WA0165801630001100031048053
B1626341956985N10337515WA0165501628001100033048053
B1626351956988N10337511WA0165401625001100034049054
B1626361956992N10337507WA0165301624001100033048054
B1626371956995N10337503WA0165201622001100033045053
B1626381956999N10337499WA0165001621001100033046051
B1626391957002N10337496WA0165101619001100032051052
B1626401957005N10337492WA0165001617001100030055055
B1626411957007N10337488WA0164901615001100030058059
B1626421957010N10337484WA0164601613001100032056061
B1626431957013N10337479WA0164401611001100035053059
B1626441957016N10337475WA0164201609001100036051057
B1626451957020N10337470WA0164201607001100035052056
B1626461957023N10337466WA0164101605001100033055056
B1626471957025N10337461WA0163901604001100032058059
B1626481957028N10337457WA0163701602001100032058061
B1626491957031N10337452WA0163501599001100034056061
B1626501957034N10337448WA0163201597001100038054059
B1626511957037N10337443WA0163101595001100038056058
B1626521957040N10337437WA0163101593001100036062059
B1626531957042N10337432WA0162901592001100034069064
B1626541957043N10337427WA0162801590001100033076069
B1626551957044N10337422WA0162601588001100034082074
B1626561957044N10337417WA0162501587001100034086078
B1626571957044N10337411WA0162301585001100034091082
B1626581957044N10337406WA0162101584001100032099085
B1626591957043N10337401WA0162001582001100031107091
B1627001957041N10337397WA0161801580001100030108097
B1627011957040N10337392WA0161501578001100031108098
B1627021957038N10337387WA0161301575001100032111098
B1627031957036N10337383WA0161101573001100033117101
B1627041957033N10337378WA0161001572001100032121105
B1627051957031N10337374WA0160901571001100031122108
B1627061957028N10337369WA0160701569001100030118108
B1627071957026N10337365WA0160701568001100029113105
B1627081957025N10337361WA0160601566001100030111101
B1627091957023N10337356WA0160501565001100030113099
B1627101957021N10337352WA0160501565001100028114101
B1627111957020N10337348WA0160401564001100025104101
B1627121957019N10337344WA0160201563001100024097093
B1627131957020N10337341WA0160001561001100021078088
B1627141957024N10337337WA0159801559001100027042075
B1627151957028N10337335WA0159701558001100030033050
B1627161957034N10337335WA0159801556001100028010043
B1627171957039N10337336WA0159801556001100029355027
B1627181957044N10337337WA0159601554001100031359014
B1627191957050N10337338WA0159401553001100032005017
B1627201957055N10337337WA0159201551001100035008021
B1627211957062N10337336WA0159001549001100038004022
B1627221957067N10337336WA0158901548001100035002018
B1627231957073N10337336WA0158901548001100033009018
B1627241957078N10337335WA0158701547001100033015023
B1627251957083N10337333WA0158601545001100032024028
B1627261957087N10337331WA0158501544001100030030035
B1627271957091N10337329WA0158501543001100025033041
B1627281957094N10337326WA0158201542001100024039044
B1627291957097N10337324WA0158001540001100027045049
B1627301957100N10337320WA0157701539001100029052053
B1627311957102N10337316WA0157501537001100033058057
B1627321957105N10337311WA0157301535001100035056061
B1627331957108N10337306WA0157201534001100032050060
B1627341957112N10337303WA0157001532001100031042055
B1627351957116N10337300WA0156901531001100029035049
B1627361957119N10337297WA0156801529001100029039045
B1627371957122N10337294WA0156501527001100030040047
B1627381957126N10337291WA0156401526001100030041048
B1627391957130N10337288WA0156101524001100031039049
B1627401957133N10337285WA0155901522001100031040047
B1627411957137N10337281WA0155801520001100031041048
B1627421957141N10337278WA0155701519001100032041048
B1627431957144N10337274WA0155601518001100033041048
B1627441957148N10337271WA0155401516001100034044048
B1627451957152N10337267WA0155301515001100034048050
B1627461957155N10337263WA0155301514001100034053054
B1627471957157N10337258WA0155201512001100034061057
B1627481957159N10337253WA0155001511001100033070063
B1627491957160N10337248WA0154801510001100033080070
B1627501957161N10337242WA0154701508001100032076077
B1627511957163N10337237WA0154501506001100033063074
B1627521957165N10337233WA0154301505001100035054065
B1627531957169N10337228WA0154301502001100036048058
B1627541957172N10337224WA0154101500001100034048053
B1627551957176N10337220WA0154001498001100032047054
B1627561957179N10337216WA0153801496001100034043053
B1627571957183N10337213WA0153501495001100034039050
B1627581957188N10337209WA0153301493001100038032047
B1627591957193N10337206WA0153301491001100037030041
B1628001957198N10337203WA0153401490001100036029039
B1628011957203N10337201WA0153401490001100034029039
B1628021957207N10337198WA0153501489001100033030039
B1628031957212N10337195WA0153501489001100033028040
B1628041957216N10337193WA0153501489001100034028039
B1628051957221N10337190WA0153501488001100035030038
B1628061957225N10337187WA0153401488001100034036040
B1628071957229N10337184WA0153501487001100032040044
B1628081957232N10337181WA0153401487001100031042048
B1628091957236N10337177WA0153201485001100032039049
B1628101957240N10337174WA0153101485001100033035047
B1628111957244N10337171WA0153001485001100034034044
B1628121957248N10337168WA0153101484001100035035043
B1628131957253N10337164WA0153201485001100034038044
B1628141957257N10337161WA0153201485001100032038046
B1628151957261N10337158WA0153301486001100030032047
B1628161957264N10337156WA0153301486001100028027043
B1628171957268N10337153WA0153301486001100029032039
B1628181957272N10337151WA0153301486001100028041042
B1628191957274N10337148WA0153301486001100026048049
B1628201957275N10337143WA0153201485001100028086055
B1628211957274N10337138WA0153101485001100030092081
B1628221957272N10337134WA0153001483001100026114084
B1628231957269N10337130WA0153101482001100025120096
B1628241957264N10337129WA0153101482001100024144101
B1628251957258N10337132WA0153201481001100025189124
B1628261957253N10337137WA0153201482001100027212154
B1628271957250N10337142WA0153101482001100026247187
B1628281957250N10337149WA0153101482001100032278222
B1628291957251N10337155WA0153001482001100031284262
B1628301957253N10337160WA0152801481001100030297281
B1628311957258N10337163WA0152801480001100029330298
B1628321957263N10337164WA0152801480001100028345330
B1628331957268N10337162WA0152801480001100027004341
B1628341957273N10337161WA0152801480001100031013015
B1628351957278N10337159WA0152701480001100033011024
B1628361957284N10337157WA0152701479001100033017029
B1628371957289N10337155WA0152401478001100035020032
B1628381957294N10337152WA0152101477001100036030031
B1628391957298N10337147WA0152101477001100037041030
B1628401957303N10337143WA0152001476001100035039033
B1628411957307N10337140WA0151901475001100032033041
B1628421957311N10337137WA0151701474001100032034048
B1628431957315N10337134WA0151401472001100034037050
B1628441957319N10337130WA0151201469001100036043039
B1628451957323N10337126WA0151001468001100036042037
B1628461957327N10337122WA0151001467001100035036029
B1628471957332N10337119WA0150901466001100033030030
B1628481957336N10337117WA0150801465001100030022031
B1628491957340N10337115WA0150601463001100031016026
B1628501957345N10337114WA0150301461001100033015023
B1628511957350N10337112WA0150101459001100036016030
B1628521957356N10337110WA0150001458001100038017029
B1628531957361N10337109WA0149901457001100035017042
B1628541957366N10337107WA0149901456001100032019039
B1628551957370N10337105WA0149701455001100028020042
B1628561957374N10337104WA0149501453001100029019034
B1628571957378N10337102WA0149301452001100032018038
B1628581957383N10337100WA0149101450001100035016019
B1628591957388N10337099WA0148901447001100036013011
B1629001957394N10337098WA0148801445001100035007012
B1629011957399N10337097WA0148601444001100033003030
B1629021957404N10337097WA0148501442001100033003029
B1629031957409N10337097WA0148301440001100034006029
B1629041957414N10337096WA0148201438001100035009030
B1629051957419N10337095WA0148001437001100035010034
B1629061957425N10337094WA0147901435001100035011039
B1629071957430N10337093WA0147801434001100035013033
B1629081957435N10337091WA0147601432001100032012023
B1629091957439N10337090WA0147501431001100032011031
B1629101957444N10337089WA0147201429001100034014042
B1629111957449N10337087WA0147101427001100036019054
B1629121957454N10337085WA0147001425001100034026078
B1629131957458N10337083WA0146801423001100031028088
B1629141957461N10337079WA0146401425001100030043091
B1629151957462N10337074WA0146001423001100030056101
B1629161957461N10337071WA0145801421001100023069107
B1629171957455N10337071WA0145801420001100013123110
B1629181957449N10337072WA0145801418001100013179149
B1629191957444N10337074WA0145801417001100017204181
B1629201957440N10337077WA0145701415001100021208193
B1629211957436N10337079WA0145401414001100024205185
B1629221957431N10337081WA0145201410001100028201181
B1629231957425N10337082WA0144901408001100030190172
B1629241957419N10337082WA0144601406001100030175153
B1629251957414N10337079WA0144401404001100031152213
B1629261957410N10337076WA0144201403001100032147186
B1629271957407N10337072WA0144001400001100029144130
B1629281957407N10337069WA0144001401001100020140132
B1629291957410N10337067WA0143901399001100006113130
B1629301957419N10337065WA0143701398001100023008151
B1629311957426N10337063WA0143501396001100030011007
B1629321957431N10337062WA0143301394001100033014010
B1629331957437N10337060WA0143101393001100035014015
B1629341957442N10337058WA0143001391001100034018019
B1629351957447N10337056WA0142801389001100031026031
B1629361957451N10337053WA0142501388001100029034041
B1629371957454N10337049WA0142301386001100029050047
B1629381957455N10337043WA0142101385001100032065062
B1629391957457N10337038WA0142001384001100032072076
B1629401957457N10337033WA0141901383001100030082083
B1629411957457N10337028WA0141601381001100029093094
B1629421957455N10337023WA0141301378001100035118103
B1629431957451N10337018WA0141201376001100036131125
B1629441957447N10337014WA0141101373001100036139137
B1629451957442N10337011WA0141101371001100034145144
B1629461957438N10337009WA0141001369001100031156149
B1629471957433N10337008WA0140801367001100030167159
B1629481957428N10337007WA0140601365001100031172168
B1629491957423N10337007WA0140401364001100033177173
B1629501957418N10337007WA0140301363001100036183178
B1629511957412N10337008WA0140301362001100036184182
B1629521957407N10337009WA0140301360001100032183186
B1629531957402N10337009WA0140301360001100029182188
B1629541957398N10337009WA0140301359001100025180190
B1629551957395N10337009WA0140301357001100019182189
B1629561957392N10337009WA0140401356001100014187205
B1629571957391N10337009WA0140401355001100008174186
B1629581957390N10337009WA0140301354001100005174177
B1629591957390N10337009WA0140401353001100004174178
B1630001957389N10337009WA0140401352001100000174179
B1630011957390N10337009WA0140401356001100000174179
B1630021957390N10337009WA0140401355001100000174179
B1630031957390N10337009WA0140401355001100000174179
B1630041957390N10337009WA0140401356001100000174179
B1630051957390N10337009WA0140401355001100000174179
B1630061957390N10337009WA0140401355001100000174179
B1630071957390N10337009WA0140401355001100000174179
B1630081957390N10337009WA0140401355001100000174179
B1630091957390N10337009WA0140401355001100000174179
B1630101957390N10337009WA0140301355001100000174179
B1630111957390N10337009WA0140401355001100000174179
B1630121957390N10337009WA0140401355001100000174179
B1630131957390N10337009WA0140401355001100000174179
B1630141957390N10337009WA0140401355001100000174179
B1630151957390N10337009WA0140401355001100000174179
B1630161957390N10337009WA0140401355001100000174179
B1630171957390N10337009WA0140401355001100000174179
B1630181957390N10337010WA0140401355001100002265179
B1630191957391N10337011WA0140401355001100002283179
B1630201957391N10337011WA0140401354001100002277179
B1630211957391N10337011WA0140401354001100000277179
B1630221957391N10337011WA0140401354001100000277179
B1630231957391N10337011WA0140401354001100000277179
B1630241957391N10337011WA0140401354001100000277179
B1630251957391N10337011WA0140401354001100000277179
B1630261957391N10337011WA0140401354001100000277179
B1630271957391N10337011WA0140401354001100000277179
B1630281957391N10337011WA0140401354001100000277179
B1630291957391N10337011WA0140401354001100000277179
B1630301957391N10337011WA0140401354001100000277179
Gc8i9sIbOBFgv4geAJk4T3G9YU+flAQViX7kjIEykzkQLHNdIiA65oS4SPbTyAO9I
GvvNSbs/ZCHwA/sMMmb0qlM+3UsjVcqfX1P25b5+QFg+/og4lvZ9ktjnOS9qQfMWx
Gjr7+L9iLJqzygNarIvg+gUtLqWbV+AHAHf34FK/OEEw=

