AXFH000
HFDTE270724
HFPLTPILOT:Scott O’Brien
HFGTYGLIDERTYPE:BGD Epic
HFDTM100GPSDATUM:WGS84
HFRFWFIRMWAREVERSION:8.2.3
HFRHWHARDWAREVERSION:Unknown device (iPhone15,4)
HFFTYFRTYPE:Flyskyhy,8.2.3
HFGPS:Internal
HFPRSVARIO:Internal Vario
HFCCLCOMPETITIONCLASS:Paraglider
HFTZNTIMEZONE:-7
HFSITSITE:Potato Hill,US
I053638FXA3941VXA4244GSP4547CCO4850HDT
C270724213627270724000108TASK
C0000000N00000000ETAKEOFF
C3920440N12241116W00015009999999000000360000STARTAREA POTLAU
C3922249N12241405W00000000001000000000360000TURNAREA SNOWVL
C3920978N12239724W00000000000400000000360000TURNAREA POTLZ
C3920095N12241882W00000000000400000000360000TURNAREA TOP
C3922264N12241989W00000000001000000000360000TURNAREA SNOWLO
C3920983N12238798W00000000001000000000360000TURNAREA TROUGH
C3920095N12241882W00000000000400000000360000TURNAREA TOP
C3925826N12241497W00000000005000000000360000TURNAREA STJOHN
C3920440N12241116W00000000001500000000360000TURNAREA POTLAU
C3920978N12239724W00000000000400000000360000FINISHAREA POTLZ
C0000000N00000000ELANDING
B2136573920457N12241104WA0104001040005010000089233
B2136583920457N12241104WA0104001040005010000000225
B2136593920457N12241104WA0104001040005010000000247
B2137003920457N12241104WA0104001040005010000000243
B2137013920457N12241104WA0104001040005010000275237
B2137023920457N12241104WA0104001040005010000000239
B2137033920457N12241104WA0104001040005010000000241
B2137043920457N12241104WA0104001040005010000000229
B2137053920457N12241104WA0104001040005010001153242
B2137063920457N12241104WA0104001040005010001189226
B2137073920457N12241104WA0104001040005010000171209
B2137083920457N12241104WA0104001040005010001186199
B2137093920457N12241104WA0104001040005010000000246
B2137103920457N12241104WA0104001040005010000000247
B2137113920457N12241104WA0104001040005010003090237
B2137123920457N12241103WA0104001039005010002063242
B2137133920457N12241102WA0103901039005010006085234
B2137143920457N12241101WA0103901039005010007080092
B2137153920458N12241099WA0103901039005010008065068
B2137163920459N12241097WA0103901038005010009085091
B2137173920459N12241095WA0103801038005010011092077
B2137183920459N12241093WA0103801038005010011094075
B2137193920459N12241090WA0103701037005010017081078
B2137203920460N12241086WA0103601037005010019079072
B2137213920461N12241081WA0103501036005010023074059
B2137223920462N12241075WA0103501035005010025065052
B2137233920464N12241071WA0103401035005010022053043
B2137243920467N12241068WA0103301035005010026037036
B2137253920470N12241065WA0103301034005010030032040
B2137263920474N12241061WA0103201033005010034029046
B2137273920479N12241058WA0103201033005010037027048
B2137283920484N12241054WA0103101033005010035031065
B2137293920488N12241050WA0103001032005010032042060
B2137303920491N12241046WA0102901032005010029054051
B2137313920493N12241041WA0102901032005010021058055
B2137323920495N12241038WA0103001032005010015050052
B2137333920496N12241036WA0103001032005010015050057
B2137343920498N12241034WA0103101032005010021034053
B2137353920501N12241031WA0103101031005010030038047
B2137363920505N12241027WA0103001031005010032042051
B2137373920508N12241023WA0102901030005010031043055
B2137383920511N12241019WA0102701030005010026044058
B2137393920513N12241016WA0102601030005010022051056
B2137403920515N12241013WA0102401030005010019058051
B2137413920516N12241009WA0102401030005010021058047
B2137423920518N12241006WA0102401029005010020051039
B2137433920520N12241003WA0102401029005010020044035
B2137443920522N12241001WA0102501029005010021032017
B2137453920525N12240999WA0102501029005010024018005
B2137463920529N12240998WA0102501029005010027003359
B2137473920533N12240999WA0102501029005010028351346
B2137483920538N12241000WA0102601029005010030341331
B2137493920542N12241003WA0102601029005010031326308
B2137503920545N12241007WA0102601029005010033310306
B2137513920548N12241013WA0102701028005010037297298
B2137523920550N12241020WA0102701028005010038288301
B2137533920552N12241027WA0102701028005010037284321
B2137543920553N12241034WA0102701028005010034284329
B2137553920555N12241040WA0102701028005010035289332
B2137563920557N12241046WA0102701028005010035296338
B2137573920560N12241051WA0102701028005010031330333
B2137583920564N12241052WA0102601028005010035006338
B2137593920570N12241050WA0102501028005010039019013
B2138003920576N12241047WA0102401028005010036021025
B2138013920581N12241044WA0102301028005010030023033
B2138023920585N12241040WA0102301028005010028034038
B2138033920588N12241036WA0102301027005010034042050
B2138043920592N12241031WA0102301027005010035048060
B2138053920595N12241026WA0102301027005010031054065
B2138063920597N12241020WA0102401027005010025070067
B2138073920598N12241015WA0102501027005010023087072
B2138083920597N12241011WA0102501027010019025093070
B2138103920597N12241006WA0102601027010019026089066
B2138113920597N12241000WA0102701027010019026085065
B2138123920597N12240995WA0102801027010019022087067
B2138133920597N12240991WA0102901027010019020088064
B2138143920597N12240987WA0103001027010019016091066
B2138153920597N12240984WA0103001027010019016089077
B2138163920597N12240980WA0103001027010019020084078
B2138173920597N12240976WA0103001027010019025086087
B2138183920597N12240970WA0103001027010019028090084
B2138193920597N12240965WA0102901027010019026100090
B2138203920596N12240960WA0102901027010019024107080
B2138213920594N12240956WA0102801027010019023112089
B2138223920593N12240951WA0102801027010019025111079
B2138233920591N12240946WA0102801027010019027109075
B2138243920589N12240940WA0102701027010019031101071
B2138253920588N12240934WA0102701027010019031094068
B2138263920588N12240928WA0102701027010019026085071
B2138273920589N12240924WA0102701028010019020071060
B2138283920590N12240920WA0102801028010019017055050
B2138293920592N12240918WA0102801029010019016037043
B2138303920594N12240916WA0102901029010019018020032
B2138313920597N12240916WA0103001029010019022357018
B2138323920601N12240917WA0103001029010019030341358
B2138333920606N12240920WA0103001030010019033331339
B2138343920610N12240923WA0103001030010019034325327
B2138353920613N12240929WA0103001030010019036282321
B2138363920613N12240937WA0103001030010019043270278
B2138373920612N12240945WA0103001030010019044253265
B2138383920609N12240952WA0103001031010019036231248
E213838Waypoint POTLAU reached
B2138393920605N12240956WA0103001031010019033198224
B2138403920600N12240957WA0103001031010019029187186
B2138413920595N12240957WA0103001031010019029180171
B2138423920590N12240956WA0103001031010019032173165
B2138433920585N12240955WA0103001031010019034165157
B2138443920580N12240952WA0103001031010019035154150
B2138453920575N12240949WA0102901030010019034148141
B2138463920571N12240945WA0102801030005010030139134
B2138473920568N12240941WA0102701029005010027129126
B2138483920566N12240936WA0102701029005010026107116
B2138493920566N12240926WA0102601028005010027067098
B2138513920568N12240921WA0102401027005010026052067
B2138523920571N12240918WA0102201027005010025039056
B2138533920574N12240915WA0102201026005010025030042
B2138543920578N12240912WA0102101026005010025028037
B2138553920581N12240910WA0102001025005010029021032
B2138563920591N12240907WA0101901024005010033014034
B2138583920599N12240904WA0101701023005010024011043
B2138593920603N12240903WA0101601022005010022024042
B2139013920609N12240897WA0101601021005010029038039
B2139023920613N12240895WA0101601021005010030023037
B2139033920617N12240893WA0101701022005010028011030
B2139043920621N12240892WA0101701022005010027007035
B2139053920625N12240891WA0101901023005010025005048
B2139063920628N12240890WA0102101024005010023012057
B2139073920631N12240889WA0102401025005010023022059
B2139083920634N12240887WA0102601026005010022034069
B2139093920635N12240882WA0102901027005010021082077
B2139103920634N12240877WA0103001028005010021109106
B2139113920632N12240873WA0103201030005010024117122
B2139123920629N12240868WA0103401030010019036130128
B2139133920624N12240863WA0103401031010019044158138
B2139143920617N12240861WA0103601032030057051167164
B2139153920609N12240859WA0103801032050095055173171
B2139213920613N12240908WA0105201064019024022025161
B2139223920616N12240906WA0105201065020024022025035
B2139233920624N12240909WA0105301062010016022013031
B2139243920627N12240906WA0105501066006008025018029
B2139253920628N12240902WA0105801064006008027021039
B2139263920632N12240896WA0106001073004003023027039
B2139273920634N12240897WA0106301077004004023037040
B2139283920636N12240894WA0106301078004003017043045
B2139293920637N12240891WA0106501079004003017047059
B2139303920638N12240888WA0106801079004003017068076
B2139313920637N12240883WA0107001077004003023100097
B2139323920635N12240879WA0107201076004003032135115
B2139333920630N12240877WA0107301077004003032166147
B2139343920625N12240878WA0107301077004003038198175
B2139353920620N12240883WA0107301077004003043227208
B2139363920616N12240890WA0107301078004003049245241
B2139373920615N12240898WA0107301079004003049260265
B2139383920614N12240907WA0107301080004003046276293
B2139393920616N12240914WA0107301081004003044297319
B2139403920619N12240920WA0107401082004003041301337
B2139413920624N12240921WA0107501082004003034353343
B2139423920628N12240921WA0107601084004003034006018
B2139433920631N12240920WA0107701087004003028025027
B2139443920634N12240919WA0107801089004003024027028
B2139453920637N12240918WA0107801090004003020027033
B2139463920639N12240916WA0108001091004003014032038
B2139483920636N12240918WA0108301080010019020018052
B2139493920639N12240916WA0108301081010019021023053
B2139503920642N12240913WA0108401081010019020028054
B2139513920645N12240911WA0108501081010019019032054
B2139523920647N12240908WA0108501082010019015045053
B2139533920647N12240904WA0108501081010019014090058
B2139543920646N12240901WA0108501080010019020115078
B2139553920643N12240895WA0108401079010019027121091
B2139563920641N12240890WA0108301079010019031117092
B2139573920638N12240883WA0108301079010019034117087
B2139583920635N12240876WA0108101078010019031118088
B2139593920632N12240871WA0108001078010019028122090
B2140003920630N12240866WA0108001078010019024122092
B2140013920628N12240862WA0108001079010019022119104
B2140023920626N12240858WA0108001079010019022117123
B2140033920624N12240854WA0107901079010019025131131
B2140043920621N12240851WA0107901079005010026138139
B2140053920618N12240847WA0107901079005010030149140
B2140063920613N12240845WA0107801078005010035174145
B2140073920607N12240845WA0107701078005010034179165
B2140083920602N12240845WA0107601077005010034191179
B2140093920597N12240847WA0107601077005010034194194
B2140103920592N12240849WA0107601077005010033200195
B2140113920587N12240852WA0107501076005010034207199
B2140123920582N12240857WA0107501076005010040221204
B2140133920578N12240862WA0107501076005010040227224
B2140143920574N12240868WA0107501076005010037230229
B2140153920570N12240874WA0107501076005010033232230
B2140163920567N12240879WA0107501076005010032234238
B2140173920565N12240885WA0107501076005010034238256
B2140183920562N12240891WA0107501076005010037243269
B2140193920561N12240898WA0107601076005010039257277
B2140203920560N12240906WA0107601076005010044272293
B2140213920561N12240915WA0107601076005010049282306
B2140223920566N12240933WA0107601075005010046291318
B2140243920570N12240938WA0107601075010019038342324
B2140253920576N12240940WA0107601076010019037345004
B2140263920581N12240940WA0107601076010019031007005
B2140273920586N12240938WA0107601076010019031018027
B2140283920590N12240935WA0107701076010019030024039
B2140293920597N12240930WA0107701076010019024029047
B2140303920601N12240927WA0107801076010019023030055
B2140313920604N12240924WA0108001076010019022030057
B2140323920606N12240922WA0108001076010019022031057
B2140333920609N12240920WA0108001076010019020030058
B2140343920612N12240918WA0108101076010019018032057
B2140353920614N12240916WA0108101076010019017035058
B2140363920615N12240913WA0108001076010019014038060
B2140373920616N12240911WA0108001076010019013040061
B2140383920617N12240909WA0107901076010019012040039
B2140393920618N12240908WA0107801076010019011037042
B2140403920617N12240903WA0107801078010019014003043
B2140413920611N12240898WA0107801077010019017336025
B2140453920554N12240946WA0108001096010019036288005
B2140463920556N12240951WA0108101096010019028302308
B2140473920560N12240954WA0108101095010019027320328
B2140483920563N12240957WA0108201096010019027326349
B2140493920568N12240958WA0108201095010019027338354
B2140503920572N12240959WA0108201094010019025357004
B2140513920575N12240956WA0108301094010019021030019
B2140523920578N12240952WA0108301094010019024047048
B2140533920578N12240945WA0108301092010019027083057
B2140543920577N12240938WA0108301091010019028101077
B2140553920576N12240931WA0108301090010019027118082
B2140563920573N12240925WA0108201089010019029119087
B2140573920572N12240919WA0108201087010019031104088
B2140583920571N12240912WA0108201086010019033091083
B2140593920571N12240906WA0108101085010019030085077
B2141003920571N12240900WA0108001085010019023080074
B2141013920572N12240896WA0107901084010019020072068
B2141023920573N12240892WA0107901083010019021056062
B2141033920575N12240889WA0107901082010019022046050
B2141043920578N12240886WA0107801082010019023037044
B2141053920581N12240884WA0107701081010019023021040
B2141063920585N12240882WA0107701080005010025006030
B2141073920589N12240881WA0107501079005010026008024
B2141083920593N12240880WA0107401077005010026013029
B2141093920597N12240879WA0107201076005010026022033
B2141103920601N12240877WA0107201075005010025027039
B2141113920604N12240875WA0107101074005010022032052
B2141123920606N12240872WA0106901074005010020039063
B2141133920608N12240870WA0106801073005010020052076
B2141143920609N12240866WA0106801072005010021074091
B2141153920610N12240862WA0106701071005010022089106
B2141163920609N12240857WA0106501071005010024106114
B2141173920605N12240852WA0106301070005010031135122
B2141183920599N12240848WA0106301069005010044176139
B2141193920591N12240849WA0106201068005010044188174
B2141203920583N12240850WA0106001067005010041193186
B2141213920576N12240852WA0105801066005010041198189
B2141223920570N12240857WA0105801065005010041227194
B2141233920566N12240865WA0105701063005010043241226
B2141243920563N12240874WA0105501062005010041247244
B2141253920561N12240882WA0105401060005010040246248
B2141263920557N12240889WA0105401059005010038246250
B2141273920554N12240896WA0105301058005010037246252
B2141283920552N12240903WA0105101056005010039248255
B2141303920550N12240911WA0105001055005010041251256
B2141313920548N12240918WA0104801053005010042251264
B2141323920546N12240926WA0104801051005010040254275
B2141333920545N12240933WA0104701050005010038257281
B2141343920544N12240940WA0104501048005010036259291
B2141353920543N12240947WA0104301047005010032268293
B2141363920544N12240952WA0104301045005010029281306
B2141373920545N12240957WA0104201044005010025298319
B2141383920547N12240961WA0104001043005010021318336
B2141393920550N12240962WA0103901042005010021346358
B2141403920553N12240962WA0103801041005010025017014
B2141413920557N12240959WA0103801040005010024019023
B2141423920561N12240957WA0103701038005010018030025
B2141433920563N12240955WA0103601037005010018030030
B2141443920566N12240952WA0103501036005010024037024
B2141453920569N12240948WA0103501035005010028044024
B2141463920572N12240944WA0103401033005010026045029
B2141473920575N12240940WA0103301032005010022043030
B2141483920578N12240937WA0103201030005010023045034
B2141493920580N12240934WA0103201029005010027048033
B2141503920583N12240929WA0103101028005010032052037
B2141513920586N12240923WA0102901027005010035057032
B2141523920588N12240918WA0102801026005010029057033
B2141533920592N12240909WA0102801024005010021055028
B2141543920594N12240906WA0102701023005010022054033
B2141553920596N12240902WA0102601022005010026052029
B2141563920599N12240898WA0102501021005010029047028
B2141573920602N12240894WA0102501020005010028043024
B2141583920605N12240890WA0102401019005010025038021
B2141593920608N12240887WA0102201018005010023031016
B2142003920611N12240885WA0102101016005010023024015
B2142013920614N12240883WA0101901015005010024022021
B2142023920618N12240881WA0101901014005010026024027
B2142033920621N12240879WA0101701013005010027029029
B2142043920625N12240876WA0101501012005010026035031
B2142053920627N12240873WA0101501010005010023040030
B2142063920630N12240870WA0101401009005010021042036
B2142073920632N12240867WA0101201008005010023048039
B2142083920634N12240863WA0101101007005010026055045
B2142093920636N12240859WA0100901006005010029061044
B2142103920638N12240854WA0100901005005010030068044
B2142113920639N12240848WA0100701003005010031068041
B2142123920641N12240843WA0100501002005010031064048
B2142133920643N12240837WA0100201001005010033063048
B2142143920645N12240831WA0100200999005010034064062
B2142153920647N12240825WA0100000998005010035067064
B2142163920649N12240819WA0099800997005010033070066
B2142173920651N12240813WA0099600996005010031072066
B2142183920652N12240807WA0099600994005010033077066
B2142193920653N12240800WA0099400993005010035079064
B2142203920654N12240794WA0099300992005010034080060
B2142213920655N12240787WA0099200992005010031076055
B2142223920656N12240782WA0099200991005010029067051
B2142233920658N12240777WA0099200990005010027065050
B2142243920659N12240772WA0099200990005010026059042
B2142253920662N12240768WA0099200989005010026045027
B2142263920665N12240765WA0099200988005010026031012
B2142273920669N12240763WA0099200988005010026014005
B2142283920673N12240763WA0099200987005010028349352
B2142293920677N12240766WA0099100986005010035326344
B2142303920682N12240771WA0099100986005010041316325
B2142313920686N12240777WA0099000985005010040308315
B2142323920690N12240783WA0098900984005010034298299
B2142333920691N12240789WA0098800984005010030288292
B2142343920692N12240795WA0098700984005010031280281
B2142353920693N12240801WA0098600983005010035266273
B2142363920691N12240808WA0098600982005010041249255
B2142373920688N12240815WA0098500981005010045228235
B2142383920682N12240821WA0098400979005010045204211
B2142393920676N12240823WA0098200978005010044181187
B2142403920669N12240822WA0098000977005010044165163
B2142413920663N12240818WA0097800975010019042149147
B2142423920658N12240814WA0097700974010019040139128
B2142433920654N12240809WA0097600973010019034134114
B2142443920651N12240804WA0097500972010019031123103
B2142453920649N12240798WA0097400971010019032111089
B2142463920647N12240792WA0097400970010019032103081
B2142473920647N12240786WA0097400969010019029093070
B2142483920647N12240781WA0097300968010019026085062
B2142493920648N12240776WA0097200967010019026076052
B2142503920650N12240771WA0097200966010019028062046
B2142513920652N12240767WA0097100965010019028048038
B2142523920655N12240764WA0097000964010019027036033
B2142533920659N12240761WA0097000964005010023023033
B2142543920662N12240760WA0097000963005010023011034
B2142553920666N12240759WA0097000962005010022012038
B2142563920669N12240758WA0097000962005010020023032
B2142573920671N12240756WA0097000961005010021037036
B2142583920674N12240754WA0097000960005010022041035
B2142593920677N12240751WA0096900959005010025043033
B2143003920679N12240748WA0096800958005010024039040
B2143013920682N12240745WA0096700958005010023038036
B2143023920685N12240742WA0096600957005010021038038
B2143033920687N12240740WA0096600956005010020037041
B2143043920690N12240737WA0096600956005010021040037
B2143063920692N12240734WA0096500955005010026047039
B2143073920695N12240729WA0096400954005010032050036
B2143083920698N12240725WA0096300953005010032049038
B2143093920701N12240720WA0096300952005010031047038
B2143103920704N12240716WA0096100951005010030047034
B2143113920707N12240711WA0095900950005010031049034
B2143123920710N12240707WA0095800949005010035048036
B2143133920714N12240701WA0095800949005010038048047
B2143143920717N12240696WA0095600948005010029042041
B2143153920720N12240693WA0095500947005010022044045
B2143163920722N12240690WA0095500947005010016042047
B2143173920724N12240687WA0095500946005010022057052
B2143183920726N12240683WA0095500945005010030057050
B2143193920728N12240678WA0095400944005010033058050
B2143203920731N12240673WA0095200943005010029060049
B2143213920733N12240668WA0095000942005010027061053
B2143223920734N12240664WA0095000942005010024061054
B2143233920736N12240660WA0094900941005010024060049
B2143243920738N12240655WA0094700940005010026063045
B2143253920739N12240651WA0094500939005010027065036
B2143263920741N12240646WA0094500939005010028063039
B2143273920743N12240641WA0094300938005010028059038
B2143283920745N12240636WA0094200937005010027054045
B2143293920747N12240632WA0094000936005010025051049
B2143303920752N12240624WA0094000934005010027052046
B2143313920755N12240619WA0093800933005010035051049
B2143323920758N12240614WA0093700932005010037048048
B2143333920762N12240610WA0093600932005010033043050
B2143343920765N12240606WA0093600932010019025042057
B2143353920768N12240603WA0093500932010019018042063
B2143363920769N12240601WA0093500932010019014055072
B2143373920770N12240598WA0093600932010019015064090
B2143383920771N12240596WA0093600932010019018078095
B2143393920769N12240591WA0093700931010019024124107
B2143403920765N12240586WA0093800931010019034141138
B2143413920761N12240583WA0093900931010019038157155
B2143423920755N12240581WA0093900931010019042182172
B2143433920748N12240582WA0094000931010019042183195
B2143443920743N12240585WA0094100930010019043231197
B2143453920739N12240592WA0094200930005010048241245
B2143463920736N12240600WA0094200930010019047246255
B2143473920733N12240608WA0094200930010019049246259
B2143483920731N12240616WA0094200930050095038258259
B2143493920732N12240622WA0094200930050095029308274
B2143503920735N12240626WA0094200930050095029312329
B2143513920738N12240629WA0094100929050095026314341
B2143523920742N12240632WA0094100929050095025323342
B2143533920745N12240634WA0094200929050095026349353
B2143543920750N12240634WA0094200929050095034012019
B2143553920755N12240631WA0094200929050095036028030
B2143563920760N12240628WA0094300929010019034028046
B2143573920764N12240624WA0094300929010019027034047
B2143583920766N12240621WA0094400929005010020060051
B2143593920769N12240616WA0094400929005010025123067
B2144003920767N12240610WA0094400929010019031147111
B2144013920763N12240606WA0094500930010019035168135
B2144023920758N12240604WA0094500930010019039178158
B2144033920751N12240603WA0094500930010019041190171
B2144043920745N12240605WA0094600931010019044203186
B2144053920739N12240608WA0094800930010019046221203
B2144063920734N12240614WA0094900931010019045238224
B2144073920731N12240622WA0094900931010019042264245
B2144083920733N12240628WA0095000931010019030314276
B2144093920736N12240631WA0095000931010019023340332
B2144103920739N12240632WA0095100931010019023343357
B2144113920743N12240632WA0095100931005010024025359
B2144123920746N12240630WA0095100931005010024025030
B2144133920749N12240628WA0095100931005010018030030
B2144143920750N12240626WA0095200931005010008058035
B2144153920748N12240622WA0095200932005010024152050
B2144163920744N12240618WA0095200932005010030161134
B2144173920740N12240614WA0095300933005010030163153
B2144183920735N12240610WA0095300933005010031167160
B2144193920730N12240608WA0095300933005010035183167
B2144203920725N12240608WA0095400933005010036202184
B2144213920720N12240611WA0095500933010019038209205
B2144223920715N12240615WA0095500933010019034214213
B2144233920712N12240619WA0095500933005010033231217
B2144243920710N12240624WA0095400933005010034274238
B2144253920711N12240630WA0095200933005010030282291
B2144263920712N12240635WA0095000933005010028288307
B2144273920713N12240641WA0095000933005010029294313
B2144283920716N12240646WA0094900933005010029307330
B2144303920719N12240649WA0094800933005010027323344
B2144313920722N12240652WA0094700933005010029337358
B2144323920726N12240654WA0094700933005010028347015
B2144333920730N12240655WA0094700934005010019356013
B2144343920732N12240654WA0094700934005010014016021
B2144353920734N12240653WA0094700934005010016033014
B2144363920736N12240651WA0094700934005010020038022
B2144373920739N12240649WA0094700934005010024033016
B2144383920742N12240646WA0094700934005010025030018
B2144393920745N12240643WA0094700934005010027027012
B2144403920748N12240641WA0094700935005010019027009
B2144413920750N12240640WA0094700935005010017014010
B2144423920753N12240639WA0094700935005010021005018
B2144433920757N12240639WA0094700935005010025010021
B2144443920760N12240637WA0094700936005010024019018
B2144453920763N12240636WA0094700936005010020018020
B2144463920766N12240635WA0094700936005010017005028
B2144473920769N12240635WA0094800937005010018001039
B2144483920772N12240635WA0094800937005010022014043
B2144493920775N12240633WA0094800937005010026034045
B2144503920778N12240629WA0094700937005010028048039
B2144513920780N12240625WA0094700936005010024057044
B2144523920782N12240622WA0094600936005010018061047
B2144533920783N12240619WA0094600936005010017054047
B2144543920785N12240616WA0094500936005010021051053
B2144553920787N12240613WA0094400936005010024056057
B2144563920789N12240609WA0094300936005010026058060
B2144573920791N12240604WA0094300936005010024061065
B2144583920792N12240600WA0094300935005010022069068
B2144593920793N12240596WA0094100935005010019074067
B2145003920794N12240592WA0094000934005010026077063
B2145013920794N12240587WA0094000933005010029076072
B2145023920796N12240582WA0093800933005010028076079
B2145033920796N12240577WA0093600933005010025085092
B2145043920796N12240573WA0093400932005010023100082
B2145053920795N12240568WA0093400932005010025109083
B2145063920793N12240563WA0093200931005010030110079
B2145073920790N12240553WA0093000930005010027111085
B2145093920788N12240548WA0092900929005010027112087
B2145103920786N12240543WA0092800928005010029114082
B2145113920785N12240539WA0092600927005010029113078
B2145123920783N12240528WA0092400925005010029092072
B2145133920783N12240523WA0092200923005010028087060
B2145143920783N12240517WA0092200922005010025080066
B2145153920784N12240513WA0092100921005010026077054
B2145163920785N12240508WA0091900920005010028065051
B2145173920787N12240503WA0091700918005010028056049
B2145183920790N12240499WA0091700917005010028056050
B2145193920793N12240494WA0091500916005010029057045
B2145203920795N12240489WA0091300914005010031059043
B2145213920797N12240484WA0091200913005010030061041
B2145223920800N12240480WA0091200912005010027059048
B2145233920802N12240476WA0091000910005010025056048
B2145243920804N12240471WA0090800909010019026057050
B2145253920806N12240467WA0090600907010019028059046
B2145263920808N12240462WA0090500906010019029058049
B2145273920811N12240458WA0090500905010019029060042
B2145283920813N12240453WA0090300903005010026062052
B2145293920814N12240449WA0090100902010019024066050
B2145303920816N12240445WA0090100900010019021067048
B2145313920817N12240440WA0090000899010019028073047
B2145323920818N12240435WA0089800898010019029074052
B2145333920819N12240429WA0089600896010019030071047
B2145343920821N12240424WA0089600894010019030069050
B2145353920823N12240419WA0089400893010019030067046
B2145363920824N12240414WA0089200892010019028065048
B2145373920826N12240409WA0089000890005010028064052
B2145383920828N12240404WA0089000889005010029059045
B2145393920831N12240399WA0088800888005010032057050
B2145403920833N12240394WA0088700887005010032057045
B2145413920836N12240389WA0088600886005010028058056
B2145423920838N12240385WA0088600885005010027060051
B2145433920840N12240380WA0088600885005010029064052
B2145443920842N12240375WA0088600884005010031065056
B2145453920844N12240370WA0088500884005010030059047
B2145463920846N12240365WA0088500883005010022057050
B2145473920848N12240362WA0088500883005010021052051
B2145483920850N12240359WA0088500882005010023054049
B2145493920852N12240355WA0088500882005010024055046
B2145503920854N12240352WA0088500882005010022059046
B2145513920856N12240348WA0088500882005010020055052
B2145523920858N12240345WA0088500881005010019049056
B2145533920859N12240343WA0088600881005010018052073
B2145543920861N12240340WA0088600881005010017069083
B2145553920861N12240336WA0088600881005010021097088
B2145563920860N12240332WA0088600880005010027113102
B2145573920858N12240327WA0088700880005010030122109
B2145583920855N12240323WA0088700880005010026135124
B2145593920852N12240320WA0088700879005010023148143
B2146003920848N12240317WA0088700879005010027158152
B2146013920844N12240316WA0088600879005010035166167
B2146023920838N12240315WA0088600879005010044175181
B2146033920831N12240315WA0088600879005010045185193
B2146043920825N12240316WA0088600878005010042189209
B2146053920819N12240319WA0088500878005010038207214
B2146063920815N12240323WA0088500877005010030226226
B2146073920812N12240328WA0088500877005010030236246
B2146083920810N12240333WA0088500877010019030253256
B2146093920809N12240339WA0088500876010019035265275
B2146103920810N12240345WA0088400876010019034289288
B2146113920812N12240351WA0088400876010019030304310
B2146123920814N12240354WA0088400875010019022322329
B2146133920817N12240356WA0088400875010019020339349
B2146143920820N12240357WA0088300874010019022356003
B2146153920824N12240356WA0088300874010019029010016
B2146163920828N12240354WA0088300873005010030022027
B2146173920833N12240351WA0088300873005010032035043
B2146183920836N12240348WA0088300873005010026043047
B2146193920840N12240344WA0088300874005010021052043
B2146203920842N12240341WA0088300874005010018052047
B2146213920844N12240338WA0088300875005010018054057
B2146223920846N12240334WA0088300875005010025056065
B2146233920848N12240330WA0088300876005010028063078
B2146243920850N12240325WA0088300877005010026081077
B2146253920850N12240320WA0088300877005010024099084
B2146263920849N12240315WA0088300877005010024108083
B2146273920848N12240311WA0088300878005010026107081
B2146283920847N12240306WA0088200878005010027102080
B2146293920846N12240301WA0088000878005010028102081
B2146303920845N12240296WA0087800878010019025103086
B2146313920845N12240291WA0087800878010019029099084
B2146323920844N12240285WA0087600878010019028103093
B2146333920843N12240281WA0087400877010019027114096
B2146343920841N12240276WA0087200876010019027124097
B2146353920839N12240272WA0087200875010019026125085
B2146363920837N12240268WA0086900874010019029114081
B2146373920836N12240263WA0086600873010019026104073
B2146383920835N12240258WA0086300872010019030092068
B2146393920836N12240253WA0086300871010019025071061
B2146403920837N12240248WA0086000869005010025065045
B2146413920839N12240245WA0085700868005010024042042
B2146423920842N12240242WA0085400867005010025025026
B2146433920846N12240240WA0085400865005010026008022
B2146443920850N12240240WA0085000864005010028356016
B2146453920857N12240244WA0084700861005010027353012
B2146463920863N12240247WA0084500859005010027355009
B2146473920869N12240249WA0084500857005010028000009
B2146483920874N12240250WA0084200854005010027003016
B2146493920878N12240250WA0084000852005010026003013
B2146503920883N12240251WA0083800851005010025006014
B2146513920887N12240250WA0083800849005010026012016
B2146523920891N12240249WA0083600847005010028016012
E214652Waypoint POTLAU reached
B2146533920896N12240248WA0083400846005010029017007
B2146543920900N12240246WA0083200844005010030016014
B2146553920905N12240245WA0083200842005010033014012
B2146563920910N12240243WA0083000840005010036014016
B2146573920915N12240242WA0082800837005010031015017
B2146583920919N12240240WA0082500836005010026014023
B2146593920923N12240239WA0082500834005010020012026
B2147003920925N12240238WA0082300832005010018021036
B2147013920928N12240236WA0082200830005010019032032
B2147023920930N12240234WA0082000828005010024037029
B2147033920933N12240231WA0082000826005010025037037
B2147043920936N12240228WA0082000824005010022035036
B2147053920939N12240225WA0081800823005010021035034
B2147063920942N12240223WA0081700821005010023037037
B2147073920945N12240220WA0081700819005010026040032
B2147083920948N12240216WA0081400817005010027042035
B2147093920951N12240213WA0081200815005010025040039
B2147103920953N12240210WA0081000814005010022038044
B2147113920956N12240207WA0081000812005010022039043
B2147123920958N12240204WA0080700810005010025043045
B2147133920961N12240201WA0080600808005010027047041
B2147143920963N12240197WA0080400807005010028049045
B2147153920966N12240193WA0080400805005010027047038
B2147163920969N12240189WA0080300803005010025043045
B2147173920971N12240186WA0080200802005010024038047
B2147183920974N12240183WA0080100801005010026037045
B2147193920977N12240179WA0080100799005010028037040
B2147203920981N12240176WA0080000797005010030038038
B2147213920984N12240172WA0079900796005010033041038
B2147223920988N12240168WA0079700794005010035041036
B2147233920992N12240164WA0079700792005010033037042
B2147243920996N12240160WA0079600790005010030034043
B2147253920999N12240157WA0079400789005010027036052
B2147263921002N12240154WA0079200787005010027041044
B2147273921005N12240150WA0079200786005010029047045
B2147283921008N12240145WA0079100784005010030050046
B2147293921011N12240141WA0079000783005010031050051
B2147303921014N12240136WA0078800781005010030051053
B2147323921017N12240131WA0078800779005010030054054
B2147333921019N12240126WA0078700778005010029062059
B2147343921021N12240121WA0078500776005010030062054
B2147353921023N12240116WA0078200773005010031062060
B2147363921025N12240110WA0078200771005010032063064
B2147373921027N12240104WA0078000769005010031067065
B2147383921028N12240099WA0077700768005010030073070
B2147393921029N12240093WA0077500765005010031081067
B2147403921030N12240087WA0077500763005010030082067
B2147413921030N12240081WA0077300761005010029081069
B2147423921031N12240075WA0077100759005010031080072
B2147433921031N12240069WA0076900757005010033082073
B2147443921032N12240063WA0076900755005010033085075
B2147453921032N12240056WA0076600754005010032088078
B2147463921032N12240050WA0076400752005010029091079
B2147473921032N12240045WA0076100750005010028093077
B2147483921032N12240039WA0076100748005010028093068
B2147493921032N12240034WA0075900746005010027086070
B2147503921032N12240029WA0075600744005010030076056
B2147513921034N12240023WA0075400742005010031068065
B2147523921035N12240018WA0075400741005010026068062
B2147533921037N12240013WA0075200739005010024064055
B2147543921039N12240009WA0075000738005010024060056
B2147553921041N12240005WA0074800736005010024058048
B2147563921043N12240001WA0074800735005010024058049
B2147573921045N12239997WA0074700733005010025055044
B2147583921047N12239993WA0074500732005010026050048
B2147593921050N12239990WA0074400730005010026046043
B2148003921053N12239986WA0074400729005010026047045
B2148013921055N12239982WA0074200727005010025049042
E214801Waypoint POTLZ reached
B2148023921058N12239979WA0074100726005010024047046
B2148033921060N12239975WA0073900725005010025044045
B2148043921063N12239972WA0073900723005010026048049
B2148053921066N12239968WA0073700722005010026055044
B2148063921068N12239964WA0073600721005010027059048
B2148073921070N12239959WA0073500719005010026059052
B2148083921072N12239955WA0073500718005010025055049
B2148093921074N12239951WA0073300717005010026055052
B2148103921076N12239947WA0073200716005010026058051
B2148113921078N12239942WA0073000714005010027061050
B2148123921080N12239938WA0073000713005010027062059
B2148133921082N12239933WA0072900712005010026062066
B2148143921084N12239929WA0072700711005010026067072
B2148153921085N12239924WA0072600709005010025077084
B2148163921086N12239919WA0072600708005010026085094
B2148173921085N12239914WA0072400707005010028095100
B2148183921085N12239909WA0072200705005010025101102
B2148193921084N12239904WA0072000704005010024112103
B2148203921082N12239899WA0072000703005010027118104
B2148213921080N12239895WA0071800701005010028121102
B2148223921077N12239890WA0071600700005010027123104
B2148233921075N12239886WA0071300698005010026118099
B2148243921073N12239881WA0071300697005010025111102
B2148253921072N12239877WA0071100696005010020108107
B2148263921071N12239874WA0071000694005010018115110
B2148273921070N12239871WA0070800693005010020121105
B2148283921068N12239867WA0070800691005010026117105
B2148293921066N12239862WA0070700690005010027111103
B2148303921065N12239857WA0070500689005010026111094
B2148313921063N12239853WA0070400687005010025118091
B2148323921061N12239848WA0070400686005010027118092
B2148333921060N12239844WA0070200685005010027108090
B2148343921059N12239838WA0070000683005010031098092
B2148353921058N12239833WA0069800682005010027096085
B2148363921057N12239827WA0069800681005010026101087
B2148373921057N12239823WA0069700680005010022103083
B2148383921056N12239818WA0069500678005010021098081
B2148393921056N12239813WA0069300677005010029091084
B2148403921056N12239808WA0069300676010019026093085
B2148413921055N12239803WA0069100674010019025100087
B2148423921055N12239798WA0068900673010019025102077
B2148433921054N12239793WA0068700671010019028101082
B2148443921053N12239788WA0068700670010019027104085
B2148453921052N12239783WA0068300668010019026103082
B2148463921051N12239778WA0068000666010019025102083
B2148473921050N12239773WA0067700664010019024105085
B2148483921050N12239769WA0067700662010019024105077
B2148493921049N12239764WA0067400660010019021098071
B2148503921049N12239760WA0067100658010019020090060
B2148513921049N12239757WA0066800656010019019081045
B2148523921050N12239753WA0066800654010019018064032
B2148533921051N12239751WA0066500653005010018035022
B2148543921054N12239749WA0066200651005010017013009
B2148553921057N12239750WA0065900649005010023340000
B2148563921060N12239752WA0065900647005010029322341
B2148573921065N12239758WA0065600644005010035314333
B2148583921070N12239765WA0065200641005010031310332
B2148593921074N12239770WA0064900638005010030319330
B2149003921078N12239774WA0064900635005010031323332
B2149013921082N12239778WA0064500632005010034321332
B2149023921086N12239783WA0064100629005010035317329
B2149033921090N12239787WA0063700626005010036316324
B2149043921094N12239792WA0063700622005010035316324
B2149053921098N12239797WA0063300619005010036315326
B2149063921102N12239802WA0062900616005010038313333
B2149073921106N12239807WA0062500612005010036317355
B2149083921110N12239811WA0062500609005010031333011
B2149093921114N12239813WA0062000605005010027357021
B2149103921119N12239812WA0061600602005010031009037
B2149113921123N12239811WA0061300599005010029020046
B2149123921125N12239808WA0061300595005010019068055
B2149133921126N12239805WA0060900591010019018071083
B2149143921126N12239802WA0060700587005010011078084
B2149153921127N12239801WA0060400583005010003121087
B2149163921127N12239801WA0060400583005010005225089
B2149173921120N12239801WA0060100578010019016210087
B2149183921116N12239801WA0059800574010019020204177
B2149193921112N12239802WA0059600569010019023205181
B2149203921108N12239803WA0059600565010019025204184
B2149213921103N12239805WA0059400561010019026204182
B2149223921099N12239806WA0059200558010019027204179
B2149233921094N12239808WA0059100554010019030202168
B2149243921090N12239809WA0059100550010019029195161
B2149253921085N12239809WA0058900547010019027185152
B2149263921080N12239809WA0058700544010019024174143
B2149273921076N12239808WA0058500541010019023171140
B2149283921073N12239808WA0058500538010019024166138
B2149293921069N12239806WA0058300536010019026167130
B2149303921064N12239805WA0058100533010019027166119
B2149313921060N12239803WA0057900531010019027156123
B2149323921056N12239800WA0057900528010019025136120
B2149333921054N12239796WA0057700526010019024118112
B2149343921052N12239792WA0057400523010019021115106
B2149353921051N12239789WA0057100521010019019118110
B2149363921049N12239785WA0057100519010019020119107
B2149373921047N12239782WA0056800516010019021116098
B2149383921045N12239778WA0056500514010019022116090
B2149393921044N12239774WA0056200512010019024111081
B2149403921043N12239769WA0056200510010019026096081
B2149413921042N12239764WA0055900508010019024083079
B2149423921042N12239760WA0055700506010019022070073
B2149433921043N12239757WA0055400504010019022061077
B2149443921045N12239753WA0055400502010019020055071
B2149453921047N12239749WA0055100500010019024056058
B2149463921049N12239745WA0054800498010019026058052
B2149473921051N12239740WA0054500495010019031055046
B2149483921054N12239735WA0054500493010019031051049
B2149493921057N12239730WA0054200492010019031048048
B2149503921060N12239726WA0053900490010019029045063
B2149513921063N12239722WA0053600488010019025047101
B2149523921065N12239720WA0053600486010019013025186
B2149533921066N12239718WA0053500484010019011029150
B2149543921067N12239716WA0053400483010019007036143
B2149553921068N12239716WA0053300482010019006046000
B2149563921069N12239715WA0053300481010019007049132
B2149573921069N12239714WA0053300480010019006056122
B2149583921069N12239714WA0053300479010019002060113
B2149593921069N12239714WA0053300478010019001008117
B2150003921069N12239714WA0053300478010019001043108
B2150013921068N12239714WA0053300477010019002026105
B2150023921069N12239714WA0053300476010019002036100
B2150033921069N12239714WA0053300475010019002035098
B2150043921069N12239713WA0053300474010019002037094
B2150053921069N12239713WA0053300473010019002033094
B2150063921070N12239713WA0053300473010019003045092
B2150073921070N12239712WA0053300472010019002033090
B2150083921070N12239712WA0053300471010019002038089
B2150093921070N12239712WA0053300471010019002036089
B2150103921070N12239712WA0053300471010019002033089
B2150113921070N12239712WA0053300471010019002034088
B2150133921070N12239712WA0053300471010019002022088
B2150143921070N12239712WA0053300471010019002025087
B2150153921070N12239712WA0053300471010019001022087
B2150163921070N12239712WA0053300471010019002041087
B2150173921070N12239712WA0053300471010019002042087
B2150183921070N12239712WA0053300471010019002043087
B2150193921070N12239712WA0053300471010019002056086
B2150213921070N12239712WA0053300471010019002059086
B2150223921070N12239712WA0053300471010019001051086
B2150233921070N12239712WA0053300471010019002056086
B2150243921070N12239711WA0053300470010019002052086
B2150253921071N12239710WA0053300469010019002043085
B2150263921071N12239710WA0053300468010019002055087
B2150273921072N12239709WA0053300467010019002055087
B2150283921072N12239709WA0053300467010019002053088
B2150293921072N12239709WA0053300467010019001052088
B2150303921072N12239709WA0053300466010019001043088
GJ6gw28bpVjhQdb2OhBS1oKN4PMZGzUEILV2g5CIC3dqvOIh+VfEITti+Tpkq2rpG
GJwts5MpS2sSnjXWbIezOKuVe4SLKcrh+35SgBsohXGA4z6ZLkAam8YzHEaQvIaJp
G4AueukqC/MckiyjdHensnpLoVSZx/dFbOQe3Nu7kG0I=

