AXFH000
HFDTE270824
HFPLTPILOT:Scott O’Brien
HFGTYGLIDERTYPE:BGD Epic M
HFDTM100GPSDATUM:WGS84
HFRFWFIRMWAREVERSION:8.2.4
HFRHWHARDWAREVERSION:Unknown device (iPhone15,4)
HFFTYFRTYPE:Flyskyhy,8.2.4
HFGPS:Internal
HFPRSVARIO:Internal Vario
HFCCLCOMPETITIONCLASS:Paraglider
HFTZNTIMEZONE:-7
HFSITSITE:Ed Levin 600ft,US
I053638FXA3941VXA4244GSP4547CCO4850HDT
C270824174112270824000108TASK
C0000000N00000000ETAKEOFF
C3920440N12241116W00015009999999000000360000STARTAREA POTLAU
C3922249N12241405W00000000001000000000360000TURNAREA SNOWVL
C3920978N12239724W00000000000400000000360000TURNAREA POTLZ
C3920095N12241882W00000000000400000000360000TURNAREA TOP
C3922264N12241989W00000000001000000000360000TURNAREA SNOWLO
C3920983N12238798W00000000001000000000360000TURNAREA TROUGH
C3920095N12241882W00000000000400000000360000TURNAREA TOP
C3925826N12241497W00000000005000000000360000TURNAREA STJOHN
C3920440N12241116W00000000001500000000360000TURNAREA POTLAU
C3920978N12239724W00000000000400000000360000FINISHAREA POTLZ
C0000000N00000000ELANDING
E174141PEVBackground
B1741413727670N12151634WA0035400354022003000359025
B1741423727670N12151634WA0035400354022003000359023
B1741433727670N12151634WA0035400354022003000359131
B1741443727670N12151634WA0035400354022003000359171
B1741453727670N12151634WA0035400354022003000359175
B1741463727670N12151634WA0035400354022003000359176
B1741473727670N12151634WA0035400354022003000359149
B1741483727670N12151634WA0035400354022003000359102
B1741493727670N12151634WA0035400354022003000359105
B1741503727670N12151634WA0035400354022003000359109
B1741513727670N12151634WA0035400354022003000359109
B1741523727670N12151634WA0035400355022003000359124
B1741533727670N12151635WA0035400355022003000359105
B1741543727670N12151635WA0035400356022003000359125
B1741553727670N12151635WA0035500356022003000359116
B1741563727670N12151636WA0035500355022003000245326
B1741573727670N12151636WA0035500355022003000251312
B1741583727670N12151637WA0035500355022003000251088
B1741593727669N12151638WA0035400355022003000252288
B1742003727670N12151646WA0035400352022003000279287
B1742013727670N12151650WA0035300351022003027269299
B1742023727670N12151654WA0035100352022003016273287
B1742033727668N12151658WA0035000351022003019262270
B1742043727665N12151660WA0035000352022003018197264
B1742053727663N12151662WA0035000352022003018220269
B1742063727661N12151664WA0035000354022003016219249
B1742073727657N12151667WA0035200353022003028209240
B1742083727653N12151668WA0035200355022003030190239
B1742093727649N12151668WA0035200356022003030169182
B1742103727646N12151666WA0035300357022003030151179
B1742113727643N12151664WA0035400357022003028140159
B1742123727639N12151661WA0035400356022003032145122
B1742133727635N12151659WA0035400355022004032151105
B1742143727631N12151656WA0035500354022004032147081
B1742153727627N12151653WA0035500354022004028146062
B1742163727626N12151648WA0035500353022004026126044
B1742173727623N12151645WA0035500352022004025118036
B1742183727620N12151641WA0035500348022004028146034
B1742193727616N12151639WA0035500347022004028162030
B1742203727611N12151638WA0035400345022003036185332
B1742213727607N12151640WA0035300343022003036215339
B1742223727604N12151644WA0035200342022003031245346
B1742233727604N12151648WA0035000341022003031267352
B1742243727606N12151652WA0034800340022003030308354
B1742253727608N12151655WA0034600340022003026332356
B1742263727611N12151658WA0034400340022003026323358
B1742273727614N12151659WA0034400338022003016348358
B1742283727616N12151661WA0034200337022003021315358
B1742293727617N12151666WA0034100336022003021290358
B1742303727619N12151669WA0034000336022003024299358
B1742313727621N12151673WA0033900336022003024307358
B1742323727623N12151675WA0033800336022003021315359
B1742333727626N12151678WA0033700336022003022308359
B1742343727627N12151682WA0033600336022003021301359
B1742353727629N12151685WA0033500335022003020296359
B1742363727630N12151689WA0033500335022003020296359
B1742373727631N12151693WA0033500335022003022292359
B1742383727633N12151697WA0033400334022003024285359
B1742393727634N12151702WA0033400334022003024290359
B1742403727636N12151705WA0033400334022004024297359
B1742413727637N12151707WA0033400333022003019294359
B1742423727638N12151711WA0033300331022003021287359
B1742433727639N12151714WA0033300329022003023287359
B1742443727641N12151718WA0033300329022003022289359
B1742453727642N12151722WA0033200329022003022278359
B1742463727642N12151725WA0033100328022003021279359
B1742473727643N12151729WA0033000328022003018280359
B1742483727643N12151733WA0032900327022003021280359
B1742493727644N12151737WA0032800327022003021278359
B1742503727644N12151741WA0032700328022003022266359
B1742513727643N12151744WA0032700328022003022254359
B1742523727643N12151748WA0032700328022003017258359
B1742533727642N12151750WA0032600328022003019249359
B1742543727641N12151754WA0032600329022003019249359
B1742553727639N12151759WA0032600330022003023243359
B1742563727638N12151762WA0032600329022003023253359
B1742573727638N12151766WA0032600329022003021267359
B1742583727638N12151771WA0032600329022003023265359
B1742593727638N12151775WA0032600328022003023260359
B1743003727638N12151780WA0032600327022003025270359
B1743013727638N12151784WA0032600327022003025277359
B1743023727639N12151789WA0032500326022003027280359
B1743033727639N12151794WA0032400326022003027278359
B1743043727639N12151799WA0032400326022003027267359
B1743053727639N12151803WA0032300325022003021260359
B1743063727638N12151808WA0032300325022003023265359
B1743073727639N12151813WA0032200323022003023286359
B1743083727641N12151818WA0032200323022003028288359
B1743093727642N12151823WA0032200324022003031286359
B1743103727643N12151827WA0032100325022003031278359
B1743113727643N12151831WA0032100325022003019281359
B1743123727644N12151834WA0032100325022003018280359
B1743133727645N12151839WA0032100324022003027289359
B1743143727645N12151843WA0032100324022003027277359
B1743153727648N12151847WA0032200325022003027307359
B1743163727649N12151851WA0032200325022003026296359
B1743173727650N12151854WA0032200325022003018281359
B1743183727651N12151858WA0032200324022003022297359
B1743193727653N12151862WA0032200322022003022297359
B1743203727655N12151867WA0032200322022003026299359
B1743213727657N12151871WA0032200322022003027301359
B1743223727660N12151876WA0032100323022003028297359
B1743233727661N12151880WA0032000323022003027287359
B1743243727663N12151885WA0032000325022003023295359
B1743253727663N12151889WA0032000325022004023277359
B1743263727664N12151893WA0032000326022006021280359
B1743273727664N12151897WA0032000327023008023277359
B1743283727656N12151897WA0032100327023012023186359
B1743293727653N12151899WA0032100328024016025202000
B1743303727648N12151896WA0032100333025016030167000
B1743313727645N12151893WA0032100323027024026148000
B1743323727641N12151886WA0032100325026024031139000
B1743333727639N12151880WA0032100326026024031128000
B1743343727643N12151871WA0032100331025016034091000
B1743353727647N12151863WA0032100329025016039066000
B1743363727653N12151859WA0032200326025016045046000
B1743373727656N12151857WA0032200323026016045030350
B1743383727660N12151853WA0032200320027016036026344
B1743393727664N12151856WA0032200317027016035358339
B1743403727668N12151864WA0032200317027016030337339
B1743413727656N12151876WA0032200328023008049209343
B1743423727654N12151879WA0032100327023006049209347
B1743433727652N12151883WA0032100326022006025234349
B1743443727651N12151887WA0032200324022006025261352
B1743453727651N12151892WA0032200325022004026267355
B1743463727651N12151896WA0032200326022004018258356
B1743473727651N12151900WA0032200325022003018260356
B1743483727651N12151903WA0032300324022003017276357
B1743493727652N12151907WA0032300323022003017285358
B1743503727652N12151911WA0032400321022003026287358
B1743513727653N12151915WA0032400320022003021294359
B1743523727655N12151918WA0032400318022003021309359
B1743533727657N12151922WA0032300314022003021307359
B1743543727659N12151925WA0032200313022003022308359
B1743553727661N12151930WA0032000311023004025287359
B1743563727661N12151935WA0031800308023006031266359
B1743573727660N12151942WA0031600309023008031264359
B1743583727659N12151947WA0031400305024008031253359
B1743593727656N12151949WA0031200300025012028226000
B1744003727655N12151952WA0030900299026016022238000
B1744013727650N12151951WA0030700303026016024204000
B1744023727645N12151940WA0030600306025024032133000
B1744033727644N12151924WA0030400293024012032100000
B1744043727645N12151917WA0030300294023012032071000
B1744053727645N12151911WA0030200295023008030082000
B1744063727644N12151905WA0030000291022006033094000
B1744073727643N12151898WA0029900287022006042098000
B1744083727641N12151890WA0029900286022004042102000
B1744093727639N12151882WA0029700285022003042112000
B1744103727636N12151876WA0029400286022003042127000
B1744113727633N12151870WA0029200285022003034127000
B1744123727630N12151865WA0029000284022003034118000
B1744133727628N12151860WA0028800283022003028118000
B1744143727624N12151856WA0028700282022003028130000
B1744153727620N12151852WA0028600279022003036152000
B1744163727614N12151851WA0028500279022003037170000
B1744173727610N12151851WA0028400278022003037195359
B1744183727607N12151854WA0028300276022003030229359
B1744193727605N12151857WA0028200275022003024231359
B1744203727602N12151860WA0028000275022003024232359
B1744213727601N12151863WA0027900274022003019234359
B1744223727600N12151866WA0027800273022003021253359
B1744233727600N12151871WA0027800271022003021275359
B1744243727600N12151876WA0027700270022003026276359
B1744253727600N12151880WA0027500270022003026270359
B1744263727601N12151884WA0027500268022003019275359
B1744273727601N12151887WA0027400267022003019268359
B1744283727601N12151890WA0027300265022003018280359
B1744293727601N12151894WA0027100263022003018267359
B1744303727603N12151897WA0027000261022003019298359
B1744313727603N12151901WA0026900260022003021284359
B1744323727605N12151906WA0026700261022003026284359
B1744333727607N12151911WA0026600261022003026283359
B1744343727607N12151916WA0026400260022003026272359
B1744353727608N12151919WA0026300259022003026291359
B1744363727610N12151924WA0026100258022003028295359
B1744373727611N12151929WA0026000258022003028291359
B1744383727613N12151933WA0025900258022003027290359
B1744393727614N12151937WA0025800260022003025289359
B1744403727615N12151942WA0025800260022003024287359
B1744413727616N12151946WA0025700261022003023281359
B1744423727617N12151950WA0025700261022003025294359
B1744433727619N12151955WA0025700260022003025299359
B1744443727621N12151959WA0025800261022003025299359
B1744453727623N12151963WA0025800261022003024301359
B1744463727625N12151965WA0025900259022003018312359
B1744473727626N12151968WA0026000257022003018300359
B1744483727627N12151972WA0026000253022003018293359
B1744493727625N12151977WA0026000251022003023243359
B1744503727621N12151981WA0025900250022004028227359
B1744513727619N12151986WA0025700246022006028234000
B1744523727615N12151988WA0025600242023008028213000
B1744533727609N12151984WA0025400239025012028167000
B1744543727604N12151975WA0025200232025012033140000
B1744553727606N12151963WA0025100241023008033113000
B1744563727604N12151959WA0025100239023008027138000
B1744573727601N12151954WA0025100240023006032139000
B1744583727597N12151949WA0025100239022006032133000
B1744593727593N12151944WA0025100240022006037135000
B1745003727589N12151939WA0025100239022006037140000
B1745013727586N12151935WA0025000238022004028139000
B1745023727583N12151931WA0024900237022004028135000
B1745033727579N12151927WA0024700235022004028138000
B1745043727575N12151924WA0024600233022004033149000
B1745053727570N12151920WA0024500233022003034146000
B1745063727567N12151916WA0024300232022003034139000
B1745073727563N12151912WA0024200231022003031138000
B1745083727560N12151909WA0024000230022003030147000
B1745093727556N12151906WA0023900231022003030142000
B1745103727552N12151903WA0023800231022004032149000
B1745113727548N12151901WA0023700229022003032157000
B1745123727544N12151899WA0023600228022003028159000
B1745133727540N12151898WA0023500227022003027168000
B1745143727536N12151897WA0023400225022003029169000
B1745153727532N12151895WA0023300225022003031170359
B1745163727528N12151895WA0023100224022003029179359
B1745173727524N12151896WA0023100223022003028193359
B1745183727520N12151898WA0023000220022003026204359
B1745193727517N12151900WA0022800217022003027214359
B1745203727514N12151903WA0022600215022003027226359
B1745213727511N12151908WA0022500213022003028230359
B1745223727508N12151912WA0022300211022003028236359
B1745233727506N12151916WA0022000210022003027235359
B1745243727504N12151920WA0021800209022003027234359
B1745253727502N12151924WA0021600207022003024248359
B1745263727501N12151929WA0021400207022003024260359
B1745273727500N12151932WA0021300206022003024246359
B1745283727498N12151937WA0021100204022003023250359
B1745293727497N12151940WA0021000203022003023246359
B1745303727496N12151944WA0020800200022003020251359
B1745313727495N12151948WA0020600198022003020243359
B1745323727493N12151952WA0020400195022003022242359
B1745333727492N12151957WA0020400193022003028254359
B1745343727491N12151962WA0020200191022003028251359
B1745353727490N12151966WA0020000190022003027248359
B1745363727488N12151970WA0019800188022003025242359
B1745373727486N12151974WA0019600187022003022243359
B1745383727485N12151977WA0019500185022003014241000
B1745393727486N12151977WA0019300185022003014244000
B1745403727485N12151977WA0019300184022003004206000
B1745413727484N12151978WA0019200184022003004207000
B1745423727483N12151977WA0019200185022003004127000
B1745433727483N12151977WA0019200184022003002208000
B1745443727483N12151977WA0019200184022003002207000
B1745453727482N12151977WA0019200183022003002207000
B1745463727482N12151977WA0019200184022003000207000
B1745473727482N12151977WA0019200184022004000207000
B1745483727482N12151977WA0019200184022004000207000
B1745493727482N12151977WA0019200184022004000207000
B1745503727482N12151977WA0019200184022004000207000
B1745513727482N12151977WA0019200184022004000207000
B1745523727482N12151977WA0019200184022003000207000
B1745533727482N12151977WA0019200184022003000207000
B1745543727482N12151977WA0019200184022003000207000
B1745553727482N12151977WA0019200184022003000207000
B1745563727482N12151977WA0019200183022003000207000
B1745573727482N12151977WA0019200183022003000207000
B1745583727482N12151977WA0019200183022003000207000
B1745593727482N12151977WA0019200183022003000207000
B1746003727482N12151977WA0019200184022003000207000
B1746013727482N12151977WA0019200184022003000207000
B1746023727482N12151976WA0019200184022003000207000
B1746033727483N12151976WA0019200184022003000207000
B1746043727483N12151976WA0019200184022003000207000
B1746053727483N12151976WA0019200184022003000207000
B1746063727483N12151975WA0019200184022003000207000
B1746073727483N12151975WA0019200184022003000207000
B1746083727484N12151975WA0019200184022003000207000
B1746093727484N12151975WA0019200184022003000207000
B1746103727484N12151975WA0019200184022003000207000
B1746113727484N12151975WA0019200184022003000207000
B1746123727484N12151975WA0019200184022003000207000
B1746133727484N12151974WA0019200184022003001207000
GsgIl8CpcDe6nCCgL0BQckK1g52yzhBVyIbSymTT0iGfYA6z1Zs/GGcP2PX01zrdr
GnDfWqa8BtI+1dfoK7OuQ0U6EmocBLjNtC741gd6oAW+FmciEYyvp59V8/jH4DPW/
G/I80eJ86oVr6zichOirf8dR8+lBJivuNnoCYvGk7LQQ=

