AXFH000
HFDTE151124
HFPLTPILOT:Scott O’Brien
HFGTYGLIDERTYPE:BGD Epic M
HFDTM100GPSDATUM:WGS84
HFRFWFIRMWAREVERSION:8.2.5
HFRHWHARDWAREVERSION:iPhone 15
HFFTYFRTYPE:Flyskyhy,8.2.5
HFGPS:Internal
HFPRSVARIO:Internal Vario
HFCCLCOMPETITIONCLASS:Paraglider
HFTZNTIMEZONE:-3
HFSITSITE:Iquique - Palo Buque,CL
I053638FXA3941VXA4244GSP4547CCO4850HDT
C151124211033151124000105TASK
C0000000N00000000ETAKEOFF
C3832449N11204411W00000000001000000000360000STARTAREA T04
C3832449N11204411W00030009999999000000360000TURNAREA T04
C3833533N11148217W00000000002000000000360000TURNAREA P30
C3845304N11125100W00000000006000000000360000TURNAREA S08
C3913309N11109083W00000000002000000000360000TURNAREA F04
C3935774N11050460W00000000003000000000360000TURNAREA G14
C3935774N11050460W00000000000400000000360000FINISHAREA G14
C0000000N00000000ELANDING
B2111042023136S07009035WA0020600206005010003118009
B2111052023136S07009035WA0020600206005010004098016
B2111062023136S07009034WA0020600206005010003080027
B2111072023136S07009034WA0020600207005010002064023
B2111082023136S07009033WA0020700207005010002054018
B2111092023136S07009033WA0020700206005010002103063
B2111102023136S07009032WA0020700207005010001075014
B2111112023135S07009032WA0020700207005010001015003
B2111122023135S07009032WA0020700207005010001337352
B2111132023135S07009032WA0020700207005010001255317
B2111142023135S07009032WA0020700207005010001289318
B2111152023135S07009032WA0020700207005010000000329
B2111162023135S07009032WA0020700207005010001003307
B2111172023135S07009032WA0020700207005010003355008
B2111182023135S07009033WA0020700207005010003301109
B2111192023135S07009033WA0020700207005010007273139
B2111202023136S07009035WA0020700207005010010226084
B2111212023137S07009036WA0020600207005010012212123
B2111222023139S07009037WA0020600206005010010229131
B2111232023139S07009039WA0020600206005010017259148
B2111242023139S07009042WA0020600205005010025277165
B2111252023138S07009047WA0020500205005010034299182
B2111262023134S07009052WA0020500205005010041315190
B2111272023129S07009056WA0020400204005010043326198
B2111282023124S07009059WA0020300204005010040325178
B2111292023119S07009063WA0020300203005010036320183
B2111302023116S07009067WA0020200203005010033315185
B2111312023112S07009071WA0020200203005010033313180
B2111322023109S07009074WA0020200202005010036314195
B2111332023105S07009078WA0020200202005010038321197
B2111342023100S07009082WA0020300202005010040324222
B2111352023095S07009086WA0020300203005010041327244
B2111362023090S07009089WA0020300203005010040328260
B2111372023085S07009092WA0020400203005010039329267
B2111382023080S07009096WA0020400203005010039328281
B2111392023075S07009099WA0020500203005010037320285
B2111402023071S07009103WA0020500204005010034319286
B2111412023067S07009106WA0020600204005010034329296
B2111422023062S07009109WA0020700205005010035334306
B2111432023057S07009111WA0020800205005010037337312
B2111442023052S07009113WA0020900206005010039337318
B2111452023047S07009116WA0021000206010019040333321
B2111462023041S07009119WA0021100207010019039331319
B2111472023036S07009121WA0021200207010019037334319
B2111482023032S07009124WA0021200208010019034337322
B2111492023027S07009126WA0021300208010019032333325
B2111502023023S07009129WA0021400209010019030318322
B2111512023021S07009132WA0021400209010019029285320
B2111522023021S07009137WA0021400209010019027256293
B2111532023023S07009140WA0021400210010019021213263
B2111542023025S07009140WA0021400210010019016161230
B2111552023027S07009139WA0021500211010019014152206
B2111562023028S07009137WA0021600212010019011100212
B2111572023028S07009136WA0021600213010019007103219
B2111582023029S07009135WA0021800214010019006132238
B2111592023030S07009134WA0022000214010019011157219
B2112002023032S07009133WA0022100215010019012158201
B2112012023033S07009132WA0022200215010019008148196
B2112022023034S07009131WA0022200216005010007130196
B2112032023035S07009130WA0022200216005010007140189
B2112042023036S07009129WA0022200217005010011157189
B2112052023037S07009128WA0022100218005010015151184
B2112062023039S07009127WA0022100218005010018139174
B2112072023041S07009125WA0022200219005010019129163
B2112082023043S07009122WA0022200220005010015107153
B2112092023043S07009120WA0022200220005010011097143
B2112102023043S07009119WA0022300221005010010113144
B2112112023044S07009117WA0022400222005010012138154
B2112122023046S07009116WA0022500222005010019152160
B2112132023049S07009114WA0022500223005010017141163
B2112142023050S07009112WA0022600223005010014117156
B2112152023051S07009110WA0022600224005010013103143
B2112162023051S07009108WA0022600224005010011103135
B2112172023052S07009106WA0022600225005010013135137
B2112182023054S07009105WA0022600225005010015148152
B2112192023056S07009104WA0022700225005010014146158
B2112202023057S07009102WA0022700226005010015137156
B2112212023059S07009101WA0022700226005010014126150
B2112222023060S07009099WA0022700227005010013107143
B2112232023060S07009097WA0022700227005010012106133
B2112242023061S07009095WA0022900228005010012116133
B2112252023062S07009093WA0023000228005010012119138
B2112262023063S07009092WA0023100229005010016127139
B2112272023064S07009089WA0023300230005010016120140
B2112282023065S07009087WA0023300230005010014113136
B2112292023066S07009085WA0023400231005010011114133
B2112302023067S07009084WA0023400231005010011119135
B2112312023068S07009082WA0023400231005010013124138
B2112322023069S07009081WA0023400232005010014129139
B2112332023070S07009079WA0023400232005010014134141
B2112342023072S07009077WA0023400232005010012144143
B2112352023073S07009076WA0023400232005010010159149
B2112362023074S07009076WA0023400232005010009170157
B2112372023076S07009076WA0023400232005010009171162
B2112382023077S07009075WA0023300232005010010166162
B2112392023079S07009075WA0023300232005010011165160
B2112402023080S07009075WA0023300232005010012160159
B2112412023082S07009074WA0023200231005010013152157
B2112422023084S07009073WA0023200231005010014142152
B2112432023086S07009071WA0023100231005010015132146
B2112442023087S07009069WA0023100231005010017128140
B2112452023089S07009066WA0023000231005010020127136
B2112462023091S07009063WA0023000231005010023127135
B2112472023093S07009060WA0022900231005010024122134
B2112482023094S07009056WA0022900231005010024113130
B2112492023096S07009053WA0022900230005010024108124
B2112502023097S07009049WA0022900230005010024106120
B2112512023098S07009045WA0022900230005010027108119
B2112522023099S07009041WA0022900230005010029111119
B2112532023101S07009037WA0022900230005010026116121
B2112542023103S07009034WA0023000230005010021116125
B2112552023104S07009031WA0023100230005010016107127
B2112562023104S07009029WA0023100230005010015100123
B2112572023105S07009026WA0023200230005010017110120
B2112582023106S07009024WA0023200230005010019132125
B2112592023109S07009022WA0023200230005010020152139
B2113002023111S07009021WA0023200230005010017172151
B2113012023114S07009021WA0023100230005010014202164
B2113022023115S07009023WA0023100230005010014263180
B2113032023114S07009025WA0023100230005010020292203
B2113042023112S07009029WA0023100230005010034310224
B2113052023108S07009033WA0023100230005010044320279
B2113062023102S07009037WA0023100230005010043332303
B2113072023097S07009040WA0023100230005010037336320
B2113082023092S07009043WA0023100230005010032331327
B2113092023088S07009046WA0023100231005010034324319
B2113102023084S07009049WA0023100231005010038316305
B2113112023080S07009054WA0023100231005010038314296
B2113122023075S07009057WA0023200231005010034319294
B2113132023072S07009061WA0023200232005010031319299
B2113142023068S07009064WA0023300232005010030324296
B2113152023064S07009067WA0023400232005010034324303
B2113162023060S07009070WA0023400233005010038323308
B2113172023056S07009074WA0023500233005010036322309
B2113182023052S07009077WA0023500233005010032323306
B2113192023048S07009080WA0023500233005010030319304
B2113202023044S07009084WA0023400233005010034314295
B2113212023041S07009088WA0023400233005010036312292
B2113222023037S07009092WA0023300233005010035313291
B2113232023034S07009096WA0023200232005010032313292
B2113242023031S07009099WA0023200232005010030311289
B2113252023028S07009103WA0023200232005010031308284
B2113262023025S07009107WA0023200232005010036304282
B2113272023022S07009112WA0023200231005010039302281
B2113282023019S07009117WA0023200231005010039306281
B2113292023015S07009122WA0023200230005010034314286
B2113302023012S07009126WA0023200231005010027311294
B2113312023010S07009129WA0023300231005010020303281
B2113322023009S07009131WA0023400231005010020277256
B2113332023010S07009134WA0023500231005010019219235
B2113342023013S07009134WA0023600231005010019174196
B2113352023015S07009133WA0023600231005010018134171
B2113362023017S07009131WA0023600231005010018107148
B2113372023018S07009128WA0023600231005010017102132
B2113382023018S07009126WA0023600231005010015108131
B2113392023019S07009123WA0023700232005010018128137
B2113402023021S07009121WA0023700232005010021125145
B2113412023023S07009118WA0023700232005010021120141
B2113422023024S07009115WA0023700232005010019113138
B2113432023025S07009113WA0023700232005010017112136
B2113442023026S07009110WA0023700233005010017123136
B2113452023028S07009108WA0023700233005010016126143
B2113462023029S07009107WA0023800233005010014126145
B2113472023030S07009105WA0023900234005010010129147
B2113482023031S07009104WA0024000234005010007144151
B2113492023032S07009104WA0024100235005010006170159
B2113502023033S07009104WA0024200235005010008195168
B2113512023034S07009104WA0024300235005010010205178
B2113522023036S07009105WA0024300236005010011209184
B2113532023037S07009106WA0024300236005010015208187
B2113542023040S07009107WA0024300236005010016205189
B2113552023042S07009109WA0024300236005010016207188
B2113562023044S07009110WA0024200237005010014211189
B2113572023046S07009111WA0024200237005010014218190
B2113582023047S07009112WA0024200238005010014222194
B2113592023049S07009114WA0024200239005010015219196
B2114002023050S07009116WA0024200239005010016216196
B2114012023052S07009117WA0024200239005010016215195
B2114022023054S07009119WA0024100238005010016218194
B2114032023056S07009120WA0024100238005010016225196
B2114042023058S07009122WA0024000238005010015233200
B2114052023059S07009124WA0024000238005010015235204
B2114062023061S07009126WA0024000238005010018234205
B2114072023062S07009128WA0023900238005010020226207
B2114082023064S07009131WA0023900238005010019224204
B2114092023066S07009133WA0023900238005010015227202
B2114102023068S07009134WA0023900238005010013228200
B2114112023069S07009136WA0023900238005010014228199
B2114122023070S07009138WA0023900238005010018223200
B2114132023072S07009139WA0023900238005010020217201
B2114142023075S07009141WA0023800237005010018212199
B2114152023077S07009142WA0023700237005010014205194
B2114162023078S07009143WA0023700237005010011195187
B2114172023080S07009143WA0023700237005010011186180
B2114182023082S07009144WA0023700237005010014189176
B2114192023084S07009144WA0023700236005010016200179
B2114202023086S07009145WA0023700236005010017214186
B2114212023088S07009147WA0023700236005010014222195
B2114222023090S07009148WA0023700236005010011226197
B2114232023091S07009149WA0023700236005010010218195
B2114242023092S07009150WA0023700235005010014214190
B2114252023094S07009151WA0023700235005010016212192
B2114262023096S07009153WA0023700235005010015211193
B2114272023098S07009154WA0023700234005010013208192
B2114282023099S07009155WA0023600234005010011202189
B2114292023101S07009155WA0023500234005010011197184
B2114302023103S07009156WA0023500233005010013199182
B2114312023105S07009156WA0023400233005010014202184
B2114322023106S07009157WA0023400232005010012213186
B2114332023108S07009158WA0023400232005010012243191
B2114342023108S07009160WA0023400232005010017267201
B2114352023108S07009164WA0023300231005010021276217
B2114362023107S07009167WA0023300231005010022277228
B2114372023107S07009170WA0023300230005010020275231
B2114382023107S07009173WA0023200230005010019272227
B2114392023106S07009176WA0023200230005010017269223
B2114402023107S07009179WA0023200230005010016266220
B2114412023107S07009181WA0023100229005010013259216
B2114422023107S07009183WA0023000229005010010251210
B2114432023108S07009184WA0023000228005010007237202
B2114442023108S07009185WA0022900227005010007221195
B2114452023109S07009185WA0022800227005010007204191
B2114462023110S07009186WA0022700227005010007184186
B2114472023111S07009186WA0022600226005010007160180
B2114482023112S07009185WA0022600225005010008142172
B2114492023113S07009184WA0022600224005010007136166
B2114502023114S07009183WA0022500224005010007137164
B2114512023115S07009182WA0022400223005010008133165
B2114522023115S07009181WA0022300222005010009122163
B2114532023116S07009180WA0022200221005010009117158
B2114542023117S07009178WA0022100220005010009118155
B2114552023118S07009177WA0022000219005010009124155
B2114562023119S07009174WA0021900217005010012116158
B2114572023120S07009172WA0021800216005010013110151
B2114582023121S07009170WA0021600215005010013110146
B2114592023122S07009168WA0021500214005010014119146
B2115002023123S07009166WA0021400213005010016133150
B2115012023125S07009164WA0021200211005010017147155
B2115022023127S07009163WA0021100210005010015157162
B2115032023129S07009162WA0020900209005010012169168
B2115042023130S07009162WA0020800208005010010171174
B2115052023132S07009162WA0020700207005010009153175
B2115062023133S07009161WA0020600205005010009134169
B2115072023134S07009159WA0020600204005010012117162
B2115082023135S07009157WA0020500203005010016114151
B2115092023136S07009154WA0020300202005010020108145
B2115102023136S07009151WA0020200200005010024097137
B2115112023136S07009147WA0020100199005010026088126
B2115122023136S07009143WA0019900198005010027087117
B2115132023136S07009138WA0019800196005010026089116
B2115142023136S07009134WA0019700195005010024094118
B2115152023136S07009130WA0019600194005010024099123
B2115162023137S07009127WA0019500193005010024106127
B2115172023138S07009124WA0019400191005010022112132
B2115182023140S07009121WA0019400191005010020117138
B2115192023141S07009118WA0019300190005010018121142
B2115202023142S07009116WA0019200189005010016113146
B2115212023143S07009113WA0019200188005010016106144
B2115222023144S07009111WA0019200187005010014109141
B2115232023145S07009109WA0019200186005010013129144
B2115242023147S07009108WA0019100185005010015152155
B2115252023149S07009107WA0019100184005010016169165
B2115262023151S07009107WA0019100183005010013174173
B2115272023153S07009107WA0019000182005010008171176
B2115282023154S07009107WA0018900182005010004168176
B2115292023154S07009107WA0018900182005010004169176
B2115302023155S07009107WA0018900181005010005175176
B2115312023156S07009107WA0019000181005010009163177
B2115322023157S07009106WA0019100180005010011153172
B2115332023159S07009106WA0019100180005010011143167
B2115342023160S07009105WA0019100180005010011131164
B2115352023161S07009103WA0019100179005010012130159
B2115362023162S07009102WA0019000179005010012133157
B2115372023164S07009101WA0019000178005010012138158
B2115382023165S07009100WA0018900178005010011141161
B2115392023166S07009098WA0018900178005010011139163
B2115402023167S07009097WA0018800178005010012134162
B2115412023169S07009096WA0018800177005010013132159
B2115422023170S07009094WA0018800176005010013137157
B2115432023172S07009093WA0018700176005010011152159
B2115442023173S07009093WA0018600175005010008175167
B2115452023174S07009093WA0018500175005010012252177
B2115462023174S07009096WA0018500174005010023287210
B2115472023172S07009100WA0018400173005010034305247
B2115482023168S07009104WA0018300172005010043324277
B2115492023162S07009107WA0018200172005010043339305
B2115502023157S07009109WA0018000172005010033347326
B2115512023152S07009111WA0018000172005010027333334
B2115522023149S07009113WA0017900171005010027312302
B2115532023147S07009117WA0017900170005010029282275
B2115542023148S07009121WA0017800168005010023238249
B2115552023150S07009123WA0017700167005010022181215
B2115562023153S07009121WA0017500165005010028134180
B2115572023156S07009117WA0017300163005010027114149
B2115582023157S07009114WA0017100162005010017114136
B2115592023158S07009113WA0017100160005010009146142
B2116002023160S07009112WA0017000159005010011183166
B2116012023162S07009113WA0016800157005010020196181
B2116022023165S07009113WA0016700156005010018196189
B2116032023167S07009114WA0016600154005010012203189
B2116042023169S07009115WA0016500153005010011222190
B2116052023170S07009117WA0016400152005010014229198
B2116062023172S07009119WA0016200150005010017225205
B2116072023174S07009121WA0016100149005010017226206
B2116082023176S07009123WA0016000148005010014226206
B2116092023177S07009124WA0015900147005010014231204
B2116102023178S07009127WA0015800146005010018234207
B2116112023180S07009129WA0015700145005010024232212
B2116122023182S07009132WA0015600143005010024231215
B2116132023185S07009135WA0015500142005010021230215
B2116142023187S07009138WA0015400141005010018222212
B2116152023189S07009140WA0015400140005010017219205
B2116162023191S07009142WA0015400139005010016231203
B2116172023192S07009144WA0015300138005010016245209
B2116182023193S07009147WA0015300138005010017254218
B2116192023193S07009149WA0015200137005010014252226
B2116202023194S07009151WA0015200136005010010246221
B2116212023194S07009152WA0015200136005010008241211
B2116222023195S07009154WA0015100135005010009245204
B2116232023196S07009155WA0015100135005010009239208
B2116242023196S07009156WA0015100134005010009221206
B2116252023197S07009157WA0015000134005010010215198
B2116262023199S07009158WA0015000133005010009225196
B2116272023199S07009159WA0014900133005010009238200
B2116282023200S07009160WA0014800133005010007217206
B2116292023201S07009161WA0014700132005010006193194
B2116302023202S07009161WA0014600132005010008166184
B2116312023203S07009161WA0014500131005010009171174
B2116322023205S07009161WA0014400130005010008189176
B2116332023206S07009161WA0014300129005010005208183
B2116342023206S07009161WA0014200128005010001325192
B2116352023206S07009161WA0014200128005010002320187
B2116362023206S07009161WA0014100128005010003353186
B2116372023205S07009161WA0014100127005010003355186
B2116382023205S07009162WA0014100126005010004357184
B2116392023204S07009163WA0014100126005010005351180
B2116402023204S07009163WA0014100125005010003351187
B2116412023204S07009163WA0014100125005010001009183
B2116422023204S07009163WA0014100125005010000000179
B2116432023204S07009163WA0014100125005010000000179
B2116442023204S07009163WA0014100125005010000000178
B2116452023204S07009163WA0014100125005010000000178
B2116462023204S07009163WA0014100125005010000000178
B2116472023204S07009163WA0014100125005010000000178
B2116482023204S07009163WA0014100125005010000000178
B2116492023204S07009163WA0014100125005010000000178
B2116502023204S07009163WA0014100125005010000000178
B2116512023204S07009163WA0014100125005010000000178
B2116522023204S07009163WA0014100125005010000000178
B2116532023204S07009163WA0014100125005010000000178
B2116542023204S07009163WA0014100125005010000000178
B2116552023204S07009163WA0014100125005010000000177
B2116562023204S07009163WA0014100125005010000000177
B2116572023204S07009163WA0014100125005010000000177
B2116582023204S07009163WA0014100125005010000000177
B2116592023204S07009163WA0014100125005010000000177
B2117002023204S07009163WA0014100125005010000000177
B2117012023204S07009163WA0014100125005010000000177
B2117022023204S07009163WA0014100125005010000000177
B2117032023204S07009163WA0014100125005010000000177
B2117042023204S07009163WA0014100125005010000000177
B2117052023204S07009163WA0014100125005010000000177
B2117062023204S07009163WA0014100125005010000000177
B2117072023204S07009163WA0014100125005010000000177
B2117082023204S07009163WA0014100125005010000000177
B2117092023204S07009163WA0014100125005010000000177
B2117102023204S07009163WA0014100125005010000000177
G1mMYyduaFh1MCP5wqYuA9RBp3+Y7T7wCqzy75Orj3UMrPBRJ/LMu69HlYux6RVqt
GDEjYlHnGr+FTDA1KByXtdWW9Aduq+LyGpnG0e0ROzRCuQfXmzUcjfLHqVo2x6qd4
G7Ick62FDchGG0wXGNA5KhdhkOZpWbffu2SL2SuT50Oo=

