AXFH000
HFDTE151124
HFPLTPILOT:Scott O’Brien
HFGTYGLIDERTYPE:BGD Epic M
HFDTM100GPSDATUM:WGS84
HFRFWFIRMWAREVERSION:8.2.5
HFRHWHARDWAREVERSION:iPhone 15
HFFTYFRTYPE:Flyskyhy,8.2.5
HFGPS:Internal
HFPRSVARIO:Internal Vario
HFCCLCOMPETITIONCLASS:Paraglider
HFTZNTIMEZONE:-3
HFSITSITE:Iquique - Palo Buque,CL
I053638FXA3941VXA4244GSP4547CCO4850HDT
C151124201606151124000105TASK
C0000000N00000000ETAKEOFF
C3832449N11204411W00000000001000000000360000STARTAREA T04
C3832449N11204411W00030009999999000000360000TURNAREA T04
C3833533N11148217W00000000002000000000360000TURNAREA P30
C3845304N11125100W00000000006000000000360000TURNAREA S08
C3913309N11109083W00000000002000000000360000TURNAREA F04
C3935774N11050460W00000000003000000000360000TURNAREA G14
C3935774N11050460W00000000000400000000360000FINISHAREA G14
C0000000N00000000ELANDING
E201655PEVBackground
B2016552023145S07009095WA0025000250006006024259000
B2016562023146S07009098WA0025000263007006023250218
B2016572023147S07009102WA0025000265009008023246213
B2016582023149S07009104WA0025300259011012023246214
B2016592023149S07009107WA0025400276010012020266211
B2017002023151S07009107WA0025400306006008017240212
B2017012023153S07009111WA0025500323005006019232212
B2017022023155S07009115WA0025500334004006026237212
B2017032023156S07009118WA0033400335004006021251211
B2017042023157S07009121WA0033400337004004021247211
B2017052023158S07009125WA0033400337004004021249210
B2017062023159S07009128WA0033400338004004020248205
B2017072023160S07009131WA0033300338004003021248216
B2017082023161S07009134WA0033300338004003021249225
B2017092023163S07009138WA0033200338004003021248231
B2017102023164S07009141WA0033100338004003021252233
B2017112023165S07009144WA0033000336004003022252240
B2017122023165S07009147WA0032900335004004022260241
B2017132023166S07009150WA0032800334004004020264249
B2017142023167S07009154WA0032700333004004020250252
B2017152023167S07009157WA0032700332004006023266244
B2017162023167S07009161WA0032600333004004021266257
B2017172023168S07009164WA0032500334004004021261257
B2017182023168S07009167WA0032500334004004020255254
B2017192023169S07009169WA0032500336004004020245251
B2017202023170S07009172WA0032500337004004018234243
B2017212023172S07009175WA0032500339004004019247231
B2017222023171S07009178WA0032500340004003019274242
B2017232023165S07009189WA0032600259010019017245243
B2017242023166S07009191WA0032700259010019014249250
B2017252023166S07009192WA0032900260010019014298265
B2017262023164S07009193WA0033000262010019022312280
B2017272023161S07009196WA0033100263010019027310298
B2017282023158S07009199WA0033100264010019031317312
B2017292023154S07009202WA0033200264010019035328332
B2017302023149S07009205WA0033200265010019037335341
B2017312023143S07009209WA0033300269010019037354341
B2017322023135S07009209WA0033300269010019047356003
B2017332023128S07009209WA0033400269010019044011008
B2017342023121S07009208WA0033500275010019044023019
B2017352023115S07009204WA0033500277010019046032029
B2017362023109S07009199WA0033600280010019046041039
B2017372023105S07009193WA0033600284010019043048048
B2017382023100S07009186WA0033600288010019040052054
B2017392023097S07009180WA0033500291010019038055055
B2017402023094S07009173WA0033500293010019037057061
B2017412023091S07009168WA0033400295010019038060060
B2017422023088S07009162WA0033400297010019037067063
B2017432023086S07009156WA0033300297010019032076071
B2017442023086S07009152WA0033300298010019028085083
B2017452023085S07009147WA0033300299010019026079100
B2017462023085S07009143WA0033300299010019024074095
B2017472023084S07009139WA0033400300010019024073090
B2017482023083S07009136WA0033500301010019023079099
B2017492023082S07009132WA0033600301010019026074104
B2017502023081S07009127WA0033600302010019028077091
B2017512023080S07009123WA0033700302010019029082104
B2017522023080S07009118WA0033800303010019030080110
B2017532023079S07009113WA0033900304010019030073093
B2017542023077S07009108WA0034000305010019032066092
B2017552023075S07009103WA0034100306010019035071108
B2017562023086S07009095WA0034200307010019039092102
B2017572023088S07009089WA0034200308010019035087106
B2017582023087S07009084WA0034200309010019029085119
B2017592023087S07009079WA0034300310010019025081115
B2018002023086S07009075WA0034300312010019026083103
B2018012023086S07009071WA0034400312010019028085111
B2018022023086S07009066WA0034400313010019030084101
B2018032023086S07009061WA0034400314010019032084101
B2018042023085S07009056WA0034500314010019029077107
B2018052023084S07009052WA0034600316010019027075105
B2018062023083S07009047WA0034700317010019030078092
B2018072023082S07009042WA0034800318010019034081093
B2018082023081S07009037WA0034900319010019035084104
B2018092023081S07009031WA0035000320010019036083100
B2018102023081S07009025WA0035100321010019036077093
B2018112023079S07009019WA0035200323010019035071084
B2018122023078S07009014WA0035400325010019032067092
B2018132023076S07009009WA0035600327010019030069093
B2018142023075S07009005WA0035800328010019030072105
B2018152023074S07009000WA0036000329010019029078105
B2018162023073S07008996WA0036100330010019030084099
B2018172023073S07008991WA0036200330010019033091094
B2018182023074S07008985WA0036200330010019033092113
B2018192023074S07008980WA0036200331010019033088087
B2018202023073S07008975WA0036200331010019033085094
B2018212023073S07008969WA0036100332010019033087101
B2018222023073S07008964WA0036000332010019034085096
B2018232023072S07008959WA0036000332010019034078090
B2018242023071S07008953WA0035900332010019036071085
B2018252023069S07008948WA0035800333010019035068084
B2018262023067S07008943WA0035800333010019035068096
B2018272023066S07008938WA0035800333010019034071098
B2018282023064S07008932WA0035900333010019034077106
B2018292023063S07008927WA0035900333010019033083111
B2018302023063S07008922WA0036000334010019034078097
B2018312023061S07008917WA0036000334010019036070082
B2018322023060S07008911WA0036100335010019037067078
B2018332023058S07008905WA0036100337010019036066089
B2018342023056S07008899WA0036100337010019035068100
B2018352023054S07008894WA0036200338010019032079119
B2018362023054S07008888WA0036200338010019032091134
B2018372023055S07008883WA0036100339010019029110150
B2018382023057S07008879WA0036100339010019028122171
B2018392023060S07008875WA0036100339010019029132181
B2018402023063S07008872WA0036000339010019028139190
B2018412023066S07008871WA0036000339010019019196195
B2018422023068S07008872WA0036000339010019016201220
B2018432023071S07008873WA0036000339010019013200226
B2018442023072S07008874WA0036100339010019012202220
B2018452023074S07008875WA0036200339010019014210215
B2018462023075S07008876WA0036300340010019013229216
B2018472023076S07008878WA0036300340010019012245228
B2018482023077S07008880WA0036300340010019011267236
B2018492023077S07008882WA0036400340010019011279245
B2018502023077S07008884WA0036400340010019013286246
B2018512023075S07008887WA0036400341010019019292249
B2018522023073S07008891WA0036300341010019024288248
B2018532023071S07008895WA0036300342010019024282239
B2018542023070S07008900WA0036300342010019022276232
B2018552023069S07008903WA0036300342010019019271231
B2018562023069S07008907WA0036300342010019019269234
B2018572023068S07008912WA0036300342010019018254233
B2018582023067S07008916WA0036300342010019019250228
B2018592023067S07008920WA0036300342010019018247223
B2019002023067S07008924WA0036200343010019018241219
B2019012023068S07008927WA0036200343010019017231218
B2019022023069S07008930WA0036200345010019019218212
B2019032023072S07008933WA0036100346010019022217210
B2019042023075S07008936WA0036000348010019025221212
B2019052023077S07008939WA0035900348010019026223210
B2019062023080S07008942WA0035900350010019024223207
B2019072023082S07008945WA0035800350010019023221206
B2019082023085S07008948WA0035800351010019021217203
B2019092023087S07008950WA0035800351010019021215207
B2019102023089S07008952WA0035800352010019023219209
B2019112023092S07008955WA0035700352010019024225212
B2019122023094S07008958WA0035700353010019026225209
B2019132023096S07008962WA0035700353010019024222205
B2019142023099S07008964WA0035600353010019024219209
B2019152023101S07008967WA0035500354010019022220207
B2019162023103S07008970WA0035500354010019022224214
B2019172023105S07008972WA0035400354010019024226210
B2019182023107S07008975WA0035400354010019024227207
B2019192023110S07008979WA0035300354010019026226211
B2019202023112S07008982WA0035200354010019024229212
B2019212023114S07008985WA0035200354010019024234218
B2019222023115S07008988WA0035100354010019025239219
B2019232023117S07008992WA0035000354010019026240219
B2019242023118S07008996WA0034900354010019026242222
B2019252023119S07009000WA0034800354010019024244220
B2019262023121S07009003WA0034700354010019025250231
B2019272023122S07009007WA0034700354010019021261230
B2019282023122S07009010WA0034700354010019021267233
B2019292023122S07009013WA0034700354010019021267222
B2019302023122S07009016WA0034700354010019020263218
B2019312023123S07009019WA0034800353010019018262223
B2019322023123S07009022WA0034800354010019016260227
B2019332023124S07009024WA0034800354010019014251226
B2019342023125S07009026WA0034800353010019013241224
B2019352023126S07009027WA0034800353010019015238225
B2019362023127S07009029WA0034800354010019016236227
B2019372023128S07009031WA0034800354010019017232226
B2019382023130S07009034WA0034800354010019016233225
B2019392023131S07009035WA0034800354010019014233225
B2019402023132S07009037WA0034800354010019013234222
B2019412023133S07009040WA0034800354010019015235224
B2019422023133S07009042WA0034800355010019015241226
B2019432023134S07009044WA0034800355010019014235231
B2019442023136S07009046WA0034900355010019013221227
B2019452023137S07009047WA0034900355010019012197221
B2019462023139S07009047WA0034900355010019013193205
B2019472023141S07009047WA0035000356010019014201204
B2019482023143S07009048WA0035000356010019016208209
B2019492023145S07009049WA0035000356010019016226208
B2019502023146S07009051WA0035000356010019014232213
B2019512023147S07009053WA0034900356010019012227208
B2019522023148S07009054WA0034900356010019012216210
B2019532023152S07009057WA0034800356010019014215206
B2019542023154S07009058WA0034800356010019014216200
B2019562023157S07009060WA0034700355010019012208209
B2019572023159S07009061WA0034600355010019013216202
B2019582023161S07009063WA0034600355010019015222208
B2019592023162S07009065WA0034500355010019016234218
B2020002023164S07009067WA0034500354010019016232212
B2020012023165S07009068WA0034400354010019016227209
B2020022023167S07009070WA0034400353010019019222206
B2020032023170S07009072WA0034300353010019020229207
B2020042023171S07009075WA0034200353010019020240211
B2020052023173S07009078WA0034100352010019018245217
B2020062023174S07009080WA0034000352010019016246218
B2020072023175S07009082WA0033900351010019016240214
B2020082023176S07009084WA0033900350010019017235210
B2020092023178S07009086WA0033800350010019019237218
B2020102023179S07009089WA0033700349010019018244213
B2020112023180S07009091WA0033700349010019015248212
B2020122023181S07009093WA0033600348010019013227219
B2020132023183S07009095WA0033600347010019016214206
B2020142023185S07009096WA0033500347010019017212201
B2020152023187S07009097WA0033500347010019014214201
B2020162023189S07009098WA0033600346010019013204209
B2020172023191S07009099WA0033600346010019013205203
B2020182023193S07009100WA0033600346010019015210194
B2020192023196S07009101WA0033600345010019020203193
B2020202023198S07009102WA0033600345010019019197188
B2020212023201S07009102WA0033600344010019017170185
B2020222023203S07009101WA0033500344010019016150165
B2020232023205S07009099WA0033500343010019016140166
B2020242023207S07009098WA0033400343010019013152174
B2020252023209S07009097WA0033300343010019013161183
B2020262023211S07009097WA0033300342010019014164159
B2020272023213S07009096WA0033300342010019015161166
B2020282023215S07009095WA0033200342010019012147166
B2020292023216S07009094WA0033200341010019013138162
B2020302023218S07009092WA0033100341010019014134159
B2020312023219S07009091WA0033100341010019016136153
B2020322023221S07009089WA0033100340010019021144163
B2020332023224S07009087WA0033000340010019021141158
B2020342023226S07009085WA0033000339010019017131161
B2020352023228S07009083WA0033000339010019014133160
B2020362023229S07009081WA0032900339010019014146154
B2020372023231S07009081WA0032800339010019015159171
B2020382023233S07009080WA0032800338010019018168165
B2020392023236S07009079WA0032800338010019020172175
B2020402023239S07009079WA0032700337010019017164181
B2020412023241S07009078WA0032700337010019016151168
B2020422023243S07009077WA0032700337010019014142167
B2020432023244S07009076WA0032700337010019011149173
B2020442023246S07009075WA0032800337010019015166168
B2020452023248S07009075WA0032800336010019016171174
B2020462023250S07009074WA0032800336010019015164181
B2020472023253S07009074WA0032700336010019016158172
B2020482023255S07009073WA0032600335010019014159171
B2020492023256S07009072WA0032600335010019013167184
B2020502023258S07009072WA0032500334010019012178180
B2020512023260S07009072WA0032500334010019012185185
B2020522023262S07009073WA0032400333010019012194175
B2020532023264S07009074WA0032400333010019014203186
B2020542023265S07009075WA0032300332010019013209204
B2020552023267S07009076WA0032200332010019010207173
B2020562023268S07009076WA0032100332010019007177208
B2020572023268S07009077WA0032100332010019006196195
B2020582023269S07009077WA0032200332010019008185176
B2020592023271S07009077WA0032300332010019016185182
B2021002023273S07009078WA0032300332010019016179174
B2021012023275S07009077WA0032300332010019012167175
B2021022023277S07009077WA0032300331010019012153170
B2021032023278S07009076WA0032200331010019011156172
B2021042023280S07009075WA0032100331010019013168176
B2021052023282S07009075WA0032100331010019017178178
B2021062023285S07009075WA0032000331010019017182179
B2021072023288S07009075WA0031900331010019014176178
B2021082023290S07009075WA0031800331010019014167177
B2021092023292S07009074WA0031700331010019014167169
B2021102023295S07009074WA0031600330010019015171178
B2021112023297S07009074WA0031600330010019014185183
B2021122023299S07009074WA0031600329010019015198193
B2021132023300S07009076WA0031500329010019014217209
B2021142023302S07009077WA0031400328010019014238223
B2021152023302S07009079WA0031300328010019014262246
B2021162023302S07009081WA0031300328010019017303263
B2021172023299S07009084WA0031200327010019027327286
B2021182023294S07009086WA0031100327010019041340312
B2021192023287S07009088WA0031000326010019047355343
B2021202023279S07009089WA0030900325010019045002011
B2021212023273S07009089WA0030800325010019045006040
B2021222023266S07009088WA0030600324010019038011054
B2021232023261S07009086WA0030500323010019027015069
B2021242023259S07009084WA0030400322010019014043077
B2021252023258S07009082WA0030300322010019001119152
B2021262023258S07009082WA0030100322010019004232214
B2021272023259S07009083WA0030100322010019018285224
B2021282023258S07009086WA0030000322010019024289271
B2021292023256S07009090WA0029800322010019026294284
B2021382023250S07009060WA0028700318007012022244262
B2021392023254S07009067WA0028600299012016022277228
B2021402023250S07009062WA0028400287005006025305251
B2021412023245S07009068WA0028200284005008034327296
B2021422023241S07009071WA0028100288004008034321295
B2021432023238S07009074WA0027900291004006032316276
B2021442023234S07009076WA0027900292004006030318276
B2021452023233S07009079WA0027900293004004018301281
B2021462023231S07009081WA0027900293004003018300239
B2021472023231S07009084WA0028000297004003018267244
B2021482023230S07009086WA0028100299004003018283240
B2021492023229S07009088WA0028200298004003014295229
B2021502023228S07009090WA0028300298004003014304238
B2021512023228S07009091WA0028400296004003012295229
B2021522023227S07009094WA0028400303010019011301224
B2021532023226S07009095WA0028500302010019011288224
B2021542023227S07009097WA0028500299010019014255211
B2021552023227S07009099WA0028400297010019016256213
B2021562023228S07009102WA0028400296010019016254208
B2021572023228S07009105WA0028300296010019013250206
B2021582023229S07009106WA0028200295010019009250194
B2021592023229S07009108WA0028200295010019007246198
B2022002023230S07009109WA0028100294010019006238198
B2022012023231S07009110WA0028100293010019008204193
B2022022023232S07009110WA0028100293010019009195197
B2022032023234S07009110WA0028100292010019009202194
B2022042023235S07009111WA0028100292010019009222206
B2022052023236S07009112WA0028100293010019011235213
B2022062023237S07009114WA0028100293010019013252220
B2022072023238S07009116WA0028100293010019020256227
B2022082023238S07009120WA0028200293010019021261220
B2022092023238S07009123WA0028200293010019019272242
B2022102023238S07009125WA0028200294010019017277233
B2022112023237S07009128WA0028300294010019016282229
B2022122023236S07009131WA0028400294010019019283234
B2022132023236S07009134WA0028500294005010022274235
B2022142023235S07009138WA0028500294005010028288247
B2022152023233S07009142WA0028400294010019030310263
B2022162023229S07009145WA0028300294010019037323289
B2022172023224S07009149WA0028200294010019037324295
B2022182023220S07009153WA0028100293010019035313275
B2022192023217S07009157WA0028000292010019029302257
B2022202023215S07009161WA0027900291010019026296248
B2022212023213S07009164WA0027800290010019023296245
B2022222023212S07009167WA0027700290010019020297244
B2022232023210S07009170WA0027700289010019019297234
B2022242023209S07009173WA0027600288010019019293233
B2022252023208S07009175WA0027500287010019017289221
B2022262023207S07009177WA0027400286010019016286219
B2022272023207S07009180WA0027300284010019015265211
B2022282023208S07009182WA0027200283010019016258215
B2022292023209S07009184WA0027200283010019014254206
B2022302023209S07009186WA0027200282010019011245201
B2022312023210S07009187WA0027200282010019010233203
B2022322023211S07009188WA0027300282010019011227203
B2022332023213S07009190WA0027300282010019011228189
B2022342023214S07009191WA0027400281010019008224211
B2022352023214S07009191WA0027500281010019007215176
B2022362023216S07009192WA0027600281010019011208196
B2022372023218S07009193WA0027600281010019022208189
B2022382023221S07009195WA0027600281010019019204194
B2022392023224S07009196WA0027500281010019016186192
B2022402023226S07009196WA0027500281010019015171175
B2022412023228S07009195WA0027500281010019014167181
B2022422023231S07009195WA0027600281010019015184183
B2022432023233S07009196WA0027700281010019015201194
B2022442023235S07009197WA0027800281010019015208193
B2022452023236S07009197WA0027900281010019004186200
B2022462023237S07009197WA0028100281010019003167187
B2022472023237S07009197WA0028200282010019001164191
B2022482023237S07009197WA0028400282010019003220188
B2022492023238S07009198WA0028500282010019010216193
B2022502023240S07009199WA0028600282010019007214198
B2022512023241S07009200WA0028600283010019004196190
B2022522023242S07009200WA0028600283005010004200192
B2022532023243S07009201WA0028600284010019006231199
B2022542023243S07009202WA0028600284010019009229200
B2022552023244S07009203WA0028600284010019012239202
B2022562023244S07009205WA0028500284010019009243205
B2022572023245S07009207WA0028400284010019007252208
B2022582023245S07009208WA0028400284010019008251206
B2022592023245S07009210WA0028300284010019009251204
B2023002023245S07009211WA0028200284010019012246204
B2023012023246S07009213WA0028200284010019013249213
B2023022023247S07009215WA0028100284010019011247220
B2023032023248S07009216WA0028000284010019013261223
B2023042023248S07009219WA0027900284010019016270225
B2023052023248S07009221WA0027800285010019019279232
B2023062023247S07009224WA0027800285010019018282244
B2023072023247S07009226WA0027800285010019013280220
B2023082023247S07009228WA0027900285010019013277224
B2023092023246S07009231WA0027900284010019016270219
B2023102023246S07009234WA0027900284010019018270221
B2023112023247S07009236WA0027900284010019016264224
B2023122023247S07009238WA0027900285010019012239196
B2023132023248S07009240WA0027900285010019010218208
B2023142023249S07009240WA0028000285010019009200182
B2023152023251S07009241WA0028000285010019012204189
B2023162023253S07009242WA0028100285010019012213211
B2023172023254S07009243WA0028200286010019012209205
B2023182023256S07009244WA0028300286010019011206197
B2023192023257S07009245WA0028300286010019012213189
B2023202023258S07009246WA0028300286010019013221204
B2023212023260S07009247WA0028300286010019011211193
B2023222023261S07009248WA0028300286010019009197187
B2023232023262S07009248WA0028400287010019009177191
B2023242023264S07009247WA0028500287010019008156186
B2023252023265S07009247WA0028700288010019007148193
B2023262023265S07009246WA0028800288010019007153179
B2023272023266S07009246WA0028900288010019007157199
B2023282023268S07009246WA0028900288010019007200191
B2023292023268S07009247WA0028900288010019006231211
B2023302023269S07009249WA0028900289010019009237193
B2023312023270S07009250WA0028900290010019007219186
B2023322023271S07009251WA0029000290010019007218182
B2023332023272S07009252WA0029000291010019008217181
B2023342023273S07009252WA0029100291010019006193193
B2023352023274S07009253WA0029300292010019007194188
B2023362023275S07009253WA0029400292010019009194183
B2023372023277S07009254WA0029500292010019008206192
B2023382023277S07009255WA0029500292010019007233192
B2023392023278S07009256WA0029400293010019007251203
B2023402023278S07009257WA0029400293010019007253203
B2023412023278S07009258WA0029300293010019009257194
B2023422023278S07009260WA0029200292010019009243200
B2023432023278S07009262WA0029100292010019013246205
B2023442023279S07009264WA0029000291010019017251202
B2023452023279S07009268WA0028800291010019015254213
B2023462023280S07009270WA0028700291010019008239195
B2023472023281S07009270WA0028600291010019005192177
B2023482023282S07009270WA0028600291010019002159202
B2023492023282S07009271WA0028500292010019006241195
B2023502023283S07009272WA0028500291010019009217199
B2023512023284S07009273WA0028500291010019009231203
B2023522023286S07009275WA0028400291010019014247202
B2023532023287S07009277WA0028300291010019008254191
B2023542023288S07009279WA0028200291010019006263198
B2023552023288S07009280WA0028200291010019009261213
B2023562023289S07009283WA0028200291010019015243195
B2023572023290S07009285WA0028200290010019018241197
B2023582023291S07009288WA0028100290010019017232195
B2023592023292S07009290WA0028000290010019006229182
B2024002023293S07009290WA0028000290010019004186184
B2024012023293S07009290WA0027900290010019001118186
B2024022023293S07009290WA0027900290010019001202191
B2024032023294S07009290WA0027800290010019007210196
B2024042023296S07009291WA0027600288010019014218189
B2024052023298S07009293WA0027400289010019014233203
B2024062023300S07009295WA0027300289010019012233194
B2024072023302S07009296WA0027300288010019011218189
B2024082023303S07009297WA0027200288010019009202178
B2024092023305S07009298WA0027200289010019010186183
B2024102023306S07009298WA0027300288010019010177182
B2024112023308S07009298WA0027400288010019012186174
B2024122023310S07009299WA0027500289010019013188185
B2024132023311S07009300WA0027500289010019013214193
B2024142023312S07009300WA0027600290010019011202175
B2024152023315S07009300WA0027600290010019011168156
B2024162023317S07009299WA0027600290010019011148172
B2024172023318S07009298WA0027700291010019009137162
B2024182023319S07009297WA0027800291010019008136164
B2024192023320S07009297WA0027800291010019008162177
B2024202023322S07009296WA0027900292010019008181173
B2024212023323S07009296WA0027900292010019007174175
B2024222023324S07009296WA0027900292010019010163167
B2024232023326S07009295WA0027800292010019013158158
B2024242023328S07009295WA0027700292010019015155153
B2024252023330S07009294WA0027700293010019015154145
B2024262023331S07009292WA0027700293010019014125149
B2024272023332S07009290WA0027600293010019017119149
B2024282023334S07009288WA0027600293010019019128160
B2024292023335S07009285WA0027600293010019016137186
B2024302023337S07009283WA0027600293010019017145215
B2024312023339S07009282WA0027600293010019011149233
B2024322023340S07009281WA0027600293010019009103246
B2024332023340S07009280WA0027500292010019004100102
B2024342023340S07009280WA0027300292050095004007124
B2024352023338S07009280WA0027000292030057013014139
B2024362023336S07009279WA0026700292010019016045140
B2024372023334S07009277WA0026400292030057016073147
B2024442023295S07009275WA0023500226008012068333092
B2024452023283S07009279WA0023000229004006071003340
B2024462023272S07009276WA0023000227004004071007031
B2024472023266S07009269WA0022700217004006071019050
B2024482023265S07009260WA0022400208004006055048069
B2024492023268S07009257WA0022100208004006021064101
B2024502023272S07009258WA0021800209004006021076141
B2024512023272S07009267WA0021700216004004021298148
B2024522023271S07009269WA0021700218004004027316223
B2024532023271S07009272WA0021700218004004021294246
B2024542023272S07009275WA0021700220004004021267225
B2024552023272S07009278WA0021700222004004020267221
B2024562023273S07009282WA0021700222004003020272223
B2024572023273S07009284WA0021600222004004015273223
B2024582023273S07009286WA0021500222004003015271216
B2024592023273S07009289WA0021400223004003014265209
B2025002023273S07009290WA0021400223004003012239210
B2025012023275S07009290WA0021400222004003011175195
B2025022023277S07009288WA0021400221004004023125172
B2025032023278S07009284WA0021400220004003023099137
B2025042023276S07009289WA0021400215010019027102120
B2025052023276S07009284WA0021400214010019034081105
B2025062023273S07009278WA0021300214010019042052091
B2025072023268S07009273WA0021300213010019050034069
B2025082023262S07009269WA0021200213010019050024036
B2025092023254S07009267WA0021100213010019052002025
B2025102023247S07009268WA0021000213010019043343330
B2025112023241S07009271WA0020900212010019041316293
B2025122023239S07009276WA0020800211010019035279257
B2025132023239S07009281WA0020700209010019026247223
B2025142023241S07009284WA0020500207010019020217199
B2025152023243S07009286WA0020400206010019008251179
B2025162023242S07009285WA0020300204010019013006180
B2025172023239S07009282WA0020200203010019025026171
B2025182023233S07009278WA0020200202010019048020093
B2025192023226S07009274WA0020300200010019048012029
B2025202023219S07009271WA0020300199010019047012014
B2025212023212S07009268WA0020400197010019049014014
B2025222023204S07009265WA0020400196010019049014015
B2025232023197S07009262WA0020400194010019050013015
B2025242023190S07009259WA0020400193010019051013020
B2025252023182S07009257WA0020300192010019048020023
B2025262023176S07009253WA0020300190010019047036047
B2025272023171S07009248WA0020300189010019047044064
B2025282023166S07009242WA0020200187010019050057070
B2025292023162S07009235WA0020100185010019048057071
B2025302023158S07009228WA0020100184010019045055059
B2025312023154S07009222WA0020100182010019045054054
B2025322023150S07009216WA0020100181010019044053056
B2025332023146S07009211WA0020100179010019041047056
B2025342023142S07009207WA0020100179010019042048056
B2025352023138S07009202WA0020100179010019044049064
B2025372023134S07009197WA0020200179010019044056082
B2025382023128S07009185WA0020200179010019036071105
B2025392023127S07009180WA0020200179010019034078118
B2025402023126S07009174WA0020400179010019031084120
B2025412023126S07009169WA0020500180010019028090130
B2025432023126S07009165WA0020700180010019026097143
B2025442023128S07009156WA0021000180010019023098144
B2025452023128S07009152WA0021100181010019020101158
B2025472023129S07009149WA0021200181010019017108159
B2025492023131S07009144WA0021300182010019017108145
B2025502023132S07009141WA0021300182010019022130151
B2025512023135S07009138WA0021100183010019024133156
B2025522023138S07009135WA0021000183010019022137162
B2025532023140S07009133WA0021000184010019020116164
B2025542023141S07009130WA0021100185010019020105133
B2025552023142S07009127WA0021100186010019020096145
B2025562023142S07009123WA0021100186010019022101144
B2025572023144S07009120WA0021200186010019026118143
B2025582023145S07009116WA0021200186010019027101135
B2025592023145S07009112WA0021100186010019026085120
B2026002023145S07009108WA0021000187010019022082132
B2026012023145S07009105WA0020900187010019017084160
B2026022023145S07009103WA0020800187010019015110168
B2026032023147S07009102WA0020800187010019013155171
B2026042023149S07009101WA0020700188010019016177182
B2026052023152S07009102WA0020600188010019011175191
B2026062023154S07009102WA0020500189010019009172197
B2026072023156S07009102WA0020500189010019007188195
B2026082023158S07009103WA0020500189010019007197190
B2026092023159S07009104WA0020600190010019009194187
B2026102023160S07009104WA0020600190010019009170175
B2026112023161S07009104WA0020500191010019012125156
B2026122023162S07009102WA0020500191010019021104135
B2026132023162S07009099WA0020400191010019023098129
B2026142023163S07009096WA0020400191010019023098136
B2026152023163S07009092WA0020300191010019021103147
B2026162023164S07009089WA0020200191010019018111156
B2026172023165S07009087WA0020100191010019016123166
B2026182023166S07009085WA0020000191010019016135176
B2026192023168S07009084WA0019900191010019015145191
B2026202023170S07009083WA0019800190010019012154201
B2026212023171S07009083WA0019700190010019012219209
B2026222023172S07009085WA0019700190010019014243225
B2026232023173S07009087WA0019600190010019016263235
B2026242023172S07009090WA0019500190010019021307244
B2026252023167S07009094WA0019300189010019034322263
B2026262023162S07009099WA0019200188010019036323287
B2026272023158S07009103WA0019100188010019033322285
B2026282023153S07009107WA0019000188010019032318279
B2026292023149S07009112WA0018900187010019035313277
B2026302023145S07009116WA0018800186010019035314275
B2026312023141S07009120WA0018800185010019034314269
B2026322023138S07009124WA0018700184010019031309256
B2026332023135S07009128WA0018600183010019027299245
B2026342023134S07009132WA0018500182010019022276226
B2026352023134S07009135WA0018400181010019020248211
B2026362023135S07009138WA0018400180010019016229193
B2026372023137S07009139WA0018200179010019013181174
B2026382023139S07009138WA0018100178010019017124155
B2026392023140S07009135WA0018000176010019023100136
B2026402023141S07009131WA0017900175010019024093124
B2026412023141S07009127WA0017900174010019025102125
B2026422023142S07009123WA0017700173010019025115137
B2026432023144S07009119WA0017600172010019026126144
B2026442023146S07009117WA0017600171010019020129141
B2026452023148S07009115WA0017500170010019015129152
B2026462023149S07009113WA0017400169010019012125155
B2026472023151S07009112WA0017400168010019014130154
B2026482023152S07009110WA0017400167010019018135158
B2026492023155S07009108WA0017400166010019022149155
B2026502023158S07009107WA0017400165010019022158165
B2026512023160S07009105WA0017400164010019016143160
B2026522023162S07009103WA0017300163010019017135146
B2026532023164S07009101WA0017300162010019020138163
B2026542023167S07009099WA0017300161010019022135158
B2026552023169S07009097WA0017200160010019022132149
B2026562023171S07009095WA0017200159010019017139156
B2026572023173S07009093WA0017200159010019017147181
B2026582023175S07009092WA0017200158010019016170183
B2026592023178S07009093WA0017200157010019015186182
B2027002023180S07009093WA0017200156010019009168173
B2027012023181S07009093WA0017200155010019006143176
B2027022023182S07009092WA0017200155010019007148192
B2027032023182S07009092WA0017300155010019006167190
B2027042023183S07009092WA0017400155010019008183181
B2027052023184S07009093WA0017400154010019008205189
B2027062023186S07009093WA0017500155010019006220204
B2027072023187S07009094WA0017600155010019005229195
B2027082023188S07009094WA0017600155010019007208193
B2027092023189S07009095WA0017600155010019008211191
B2027102023190S07009096WA0017600155010019006219193
B2027112023191S07009097WA0017500155010019005227195
B2027122023191S07009097WA0017500155010019004231195
B2027132023191S07009098WA0017400154010019005228192
B2027142023192S07009099WA0017200154010019006223190
B2027152023192S07009101WA0017200154010019008225190
B2027162023193S07009102WA0017100153010019007227196
B2027172023193S07009103WA0017000153010019006212183
B2027182023193S07009104WA0016800153010019006189186
B2027192023194S07009105WA0016700152010019007199188
B2027202023195S07009105WA0016500151010019008215195
B2027212023196S07009106WA0016300150010019008212191
B2027222023197S07009107WA0016100149010019007196189
B2027232023198S07009107WA0016000149010019007186192
B2027242023199S07009108WA0015800148010019010202207
B2027252023200S07009109WA0015700146010019015207214
B2027262023202S07009110WA0015500145010019015238228
B2027272023203S07009112WA0015400144010019017253239
B2027282023203S07009115WA0015300143010019019282253
B2027292023202S07009118WA0015200142005010023292260
B2027302023201S07009122WA0015100141010019028291256
B2027312023199S07009127WA0015000140010019026288259
B2027322023197S07009131WA0014900140010019026299272
B2027332023195S07009134WA0014900139010019028310279
B2027342023192S07009137WA0014800138010019034319284
B2027352023188S07009141WA0014800137010019034323285
B2027362023184S07009145WA0014700136010019038311273
B2027372023181S07009149WA0014600135010019033304261
B2027382023178S07009153WA0014600134010019017301239
B2027392023177S07009155WA0014500133010019008281221
B2027402023177S07009156WA0014500132010019008262209
B2027412023178S07009157WA0014400132010019013232305
B2027422023179S07009158WA0014300131010019004237320
B2027432023180S07009158WA0014200130010019002249283
B2027442023180S07009157WA0014100129010019004280272
B2027452023180S07009157WA0014000128010019001268262
B2027462023180S07009158WA0014000128010019001246139
B2027472023180S07009158WA0014000128010019000000148
B2027482023180S07009158WA0014000128010019001060226
B2027492023180S07009158WA0014000128010019002064217
B2027502023180S07009157WA0014000128010019003054212
B2027512023179S07009157WA0014000128010019003035164
B2027522023179S07009157WA0014000128010019003047182
B2027532023179S07009157WA0014000128010019004047181
B2027542023178S07009157WA0014000127010019003096180
B2027552023178S07009156WA0014000127010019004121179
B2027562023178S07009155WA0014000126010019004130178
B2027572023179S07009154WA0014100125010019004101178
B2027582023179S07009153WA0014100125010019005103175
B2027592023179S07009153WA0014100124010019004106175
B2028002023179S07009152WA0014100123010019004100176
B2028012023179S07009152WA0014100123010019005090177
B2028022023179S07009150WA0014100122010019006085174
B2028032023179S07009151WA0014100121010019006096172
B2028042023179S07009149WA0014200121010019005108172
B2028052023179S07009150WA0014200120010019004106175
B2028062023178S07009150WA0014200120010019004093176
B2028072023179S07009149WA0014200119010019004099177
B2028082023179S07009148WA0014200119010019004117178
B2028092023179S07009146WA0014200118010019004107179
B2028102023180S07009145WA0014200118010019003117178
B2028112023180S07009144WA0014300117010019004100181
B2028122023180S07009143WA0014300117010019005098177
B2028132023180S07009143WA0014300117010019004108174
B2028142023180S07009143WA0014300116010019003087179
B2028152023180S07009143WA0014300116010019003087180
B2028162023180S07009142WA0014300116010019003082180
B2028172023180S07009141WA0014300116010019002102179
B2028182023180S07009140WA0014300116010019002103182
B2028192023180S07009140WA0014400116010019003103182
B2028202023181S07009138WA0014400116010019003099180
B2028212023180S07009137WA0014400116010019003079180
B2028222023180S07009138WA0014400116010019003078181
B2028232023180S07009138WA0014400117010019002088180
B2028242023180S07009137WA0014400117010019001060183
B2028252023180S07009137WA0014400117010019001193187
B2028262023180S07009137WA0014400117010019002197187
B2028272023180S07009138WA0014400118010019002218187
B2028282023180S07009136WA0014400120010019000000190
B2028292023180S07009136WA0014400120010019000000188
B2028302023180S07009136WA0014400120010019000000188
B2028312023180S07009136WA0014400120010019001017188
B2028322023180S07009136WA0014400120010019000000188
B2028332023180S07009136WA0014400120010019001012188
B2028342023180S07009136WA0014400120010019002018188
B2028352023180S07009136WA0014400120010019000000188
B2028362023180S07009136WA0014400120010019000000188
B2028372023180S07009136WA0014400120010019000274188
B2028382023180S07009136WA0014400120010019001273188
B2028392023180S07009136WA0014400120010019001285188
B2028402023180S07009136WA0014400120010019001278188
B2028412023180S07009136WA0014400120010019001277188
B2028422023180S07009136WA0014400120010019001284188
B2028432023180S07009136WA0014400120010019001282188
Gweo88dIpm1fauiwopAs9JljJ944X4wyEAPR1hUNKqmi9P9vGEY8yeOBLQwgECwXG
G1wHlsxnReb9ypHJmyxaQ40A+/n58N4CWrepvM7UYCYqOAUTC4Q7HpH2rtAcSHXpu
GEDnH1W0zeuKVmynleEJt9GZjIIB4J/ypJhmGgCdsdZQ=

