AXFH000
HFDTE300824
HFPLTPILOT:Scott O’Brien
HFGTYGLIDERTYPE:BGD Epic M
HFDTM100GPSDATUM:WGS84
HFRFWFIRMWAREVERSION:8.2.4
HFRHWHARDWAREVERSION:Unknown device (iPhone15,4)
HFFTYFRTYPE:Flyskyhy,8.2.4
HFGPS:Internal
HFPRSVARIO:Internal Vario
HFCCLCOMPETITIONCLASS:Paraglider
HFTZNTIMEZONE:-7
HFSITSITE:Mussel Rock aka The Dumps,US
I053638FXA3941VXA4244GSP4547CCO4850HDT
C300824231526300824000108TASK
C0000000N00000000ETAKEOFF
C3920440N12241116W00015009999999000000360000STARTAREA POTLAU
C3922249N12241405W00000000001000000000360000TURNAREA SNOWVL
C3920978N12239724W00000000000400000000360000TURNAREA POTLZ
C3920095N12241882W00000000000400000000360000TURNAREA TOP
C3922264N12241989W00000000001000000000360000TURNAREA SNOWLO
C3920983N12238798W00000000001000000000360000TURNAREA TROUGH
C3920095N12241882W00000000000400000000360000TURNAREA TOP
C3925826N12241497W00000000005000000000360000TURNAREA STJOHN
C3920440N12241116W00000000001500000000360000TURNAREA POTLAU
C3920978N12239724W00000000000400000000360000FINISHAREA POTLZ
C0000000N00000000ELANDING
E231555PEVBackground
B2315553740250N12229479WA0013400131022006001053091
B2315563740250N12229479WA0013400128022006001053216
B2315573740250N12229479WA0013300129022006002053134
B2315583740251N12229480WA0013200128022004002053110
B2315593740251N12229480WA0013100129023006004053114
B2316003740251N12229481WA0013100129023004004053095
B2316013740252N12229480WA0013000129022004002053113
B2316023740252N12229480WA0013000129022004000053100
B2316033740252N12229480WA0013000129022004001053120
B2316043740252N12229480WA0013000129022004003112135
B2316053740252N12229480WA0013000128022003003053107
B2316063740252N12229480WA0012900128022003001053103
B2316073740252N12229480WA0012900128022003001053117
B2316083740252N12229480WA0012900129022004001053006
B2316093740251N12229481WA0012900132023006010220053
B2316103740251N12229482WA0012900133022008010316045
B2316113740251N12229485WA0013000132023006010271268
B2316123740251N12229488WA0013000134022006016287260
B2316133740251N12229491WA0013100134022004018258265
B2316143740251N12229493WA0013100136022004008259270
B2316153740250N12229495WA0013200137023006015229244
B2316163740249N12229498WA0013300138023006015253257
B2316173740250N12229500WA0013400138023006015278262
B2316183740250N12229502WA0013400136022006014285269
B2316193740251N12229504WA0013500136022006017304297
B2316203740253N12229507WA0013500135022004017309291
B2316213740254N12229510WA0013500134022004017301288
B2316223740255N12229511WA0013400132022004016307293
B2316233740257N12229515WA0013400134022004016292277
B2316243740258N12229518WA0013300134022004024284271
B2316253740260N12229521WA0013300133022003024306281
B2316263740261N12229523WA0013300133022003021299300
B2316273740262N12229525WA0013200131022003015300303
B2316283740264N12229529WA0013100129022003015306318
B2316293740266N12229532WA0013100127022003025308328
B2316303740268N12229535WA0013000128022003025307334
B2316313740270N12229538WA0012900128022003025309336
B2316323740271N12229542WA0012800128022003020292340
B2316333740273N12229544WA0012800128022003019305344
B2316343740275N12229547WA0012700127022003022307347
B2316353740277N12229550WA0012700128022003027310350
B2316363740280N12229554WA0012600128022003026309352
B2316373740282N12229557WA0012600130022003026313353
B2316383740284N12229559WA0012600133022003019321354
B2316393740286N12229560WA0012700132022003011331356
B2316403740288N12229562WA0012800130022003018313357
B2316413740291N12229565WA0012800130022003018319358
B2316423740295N12229568WA0012900130022003028323358
B2316433740298N12229571WA0013000132022003030329358
B2316443740301N12229574WA0013000133022003022323358
B2316453740304N12229576WA0013000134022003022324358
B2316463740306N12229577WA0013000132022003016324359
B2316473740308N12229580WA0013000130022003016318359
B2316483740311N12229583WA0013100128022003028324359
B2316493740315N12229585WA0013100128022003031332359
B2316503740318N12229588WA0013000128022003028330359
B2316513740321N12229590WA0012900129022003026327359
B2316523740323N12229593WA0012800128022003016321359
B2316533740325N12229595WA0012800127022003018322359
B2316543740328N12229597WA0012700125022003018323359
B2316553740331N12229600WA0012600125022003023313359
B2316563740334N12229601WA0012600123022003026330359
B2316573740337N12229604WA0012500123022003026330359
B2316583740341N12229606WA0012400121022003026334359
B2316593740345N12229610WA0012300121022003028329359
B2317003740349N12229611WA0012100121022003029339355
B2317013740352N12229613WA0012000121022003029336354
B2317023740356N12229615WA0011900121022003025339355
B2317033740359N12229616WA0011900121022004023341356
B2317043740362N12229618WA0011800118022004026336357
B2317053740366N12229620WA0011700118022004030337357
B2317063740370N12229622WA0011700117022003028339358
B2317073740374N12229624WA0011600116022003028338358
B2317083740377N12229626WA0011600116022003025336358
B2317093740381N12229628WA0011500116022003026332358
B2317103740385N12229630WA0011400114022003027332359
B2317113740388N12229632WA0011400114022003027329359
B2317123740392N12229635WA0011400115023004027330359
B2317133740396N12229636WA0011300113022004025342359
B2317143740399N12229638WA0011300113022004023342359
B2317153740403N12229639WA0011300112022004026343359
B2317163740406N12229641WA0011200110022004025339357
B2317173740410N12229643WA0011200109022004026342355
B2317183740414N12229644WA0011100108022003027348355
B2317193740418N12229644WA0011100107022003029346351
B2317203740423N12229645WA0011000107022003029353349
B2317213740427N12229646WA0010900106022003028353347
B2317223740431N12229647WA0010900106022003028353343
B2317233740436N12229646WA0010800105022004029008342
B2317243740439N12229647WA0010700105022004024352343
B2317253740443N12229648WA0010700104022004027346342
B2317263740447N12229649WA0010600104022003027350338
B2317273740452N12229650WA0010600104022004027348341
B2317283740456N12229651WA0010500104022004027349337
B2317293740461N12229651WA0010500103022004028353338
B2317303740464N12229652WA0010500103022004028352337
B2317313740468N12229653WA0010400103023006028353341
B2317323740472N12229654WA0010400102022004028351340
B2317333740477N12229654WA0010400102022004030355342
B2317343740481N12229654WA0010300102022006030355341
B2317353740485N12229654WA0010300102022006030355343
B2317363740490N12229653WA0010300101022006030354342
B2317373740481N12229655WA0010300095030057029354341
B2317383740485N12229656WA0010300095030057030354342
B2317403740489N12229656WA0010200094030057031354333
B2317413740498N12229657WA0010100094030057030354331
B2317423740503N12229658WA0010100094030057029355335
B2317433740507N12229658WA0010100094030057027354337
B2317443740511N12229658WA0010000094030057027350336
B2317453740516N12229659WA0010000094030057030349336
B2317463740520N12229660WA0010000094030057034350339
B2317473740526N12229661WA0010000093030057034349344
B2317483740530N12229662WA0009900093030057031346334
B2317493740535N12229664WA0009800093030057029350332
B2317503740539N12229665WA0009800093030057029352333
B2317513740544N12229665WA0009800093030057030352330
B2317523740553N12229667WA0009800092030057032346332
B2317533740558N12229669WA0009800092030057032345337
B2317553740568N12229672WA0009800091030057033345345
B2317563740572N12229673WA0009700091030057032346346
B2317573740577N12229675WA0009700091030057031349345
B2317583740582N12229675WA0009600090030057032355355
B2317593740586N12229676WA0009600090030057034357349
B2318003740592N12229676WA0009600090030057034355346
B2318013740597N12229677WA0009600090030057034354355
B2318023740602N12229677WA0009600090030057034355342
B2318033740607N12229678WA0009600091030057033355343
B2318043740611N12229678WA0009600091030057031354340
B2318053740616N12229679WA0009600091030057029354339
B2318063740620N12229679WA0009700091030057030356344
B2318073740625N12229679WA0009700091030057033359345
B2318083740631N12229679WA0009700091030057034001354
B2318093740636N12229679WA0009700091030057034002349
B2318103740641N12229679WA0009600090030057032003352
B2318113740645N12229679WA0009600090030057029001350
B2318123740649N12229679WA0009600090030057030359351
B2318133740654N12229679WA0009600090030057031357354
B2318143740658N12229679WA0009600090030057029358347
B2318153740663N12229679WA0009600090030057027002348
B2318163740667N12229679WA0009600090030057028001342
B2318173740671N12229679WA0009600090030057029356343
B2318183740676N12229679WA0009600090030057031352343
B2318193740680N12229680WA0009500090030057031351340
B2318203740685N12229681WA0009500090030057029350342
B2318213740689N12229682WA0009400090030057027349341
B2318223740693N12229683WA0009400090030057025346338
B2318233740696N12229684WA0009400090030057025345336
B2318243740700N12229685WA0009400090030057027346335
B2318253740704N12229687WA0009400090030057030342337
B2318263740708N12229688WA0009400090030057029338332
B2318273740712N12229690WA0009400090030057025338332
B2318283740715N12229692WA0009500090030057024343333
B2318293740719N12229693WA0009500090030057026346340
B2318303740723N12229695WA0009500090030057028345336
B2318313740727N12229696WA0009500090030057030344336
B2318323740731N12229697WA0009500090030057030346339
B2318333740736N12229699WA0009500090030057030348343
B2318353740740N12229700WA0009400090030057029347337
B2318363740745N12229701WA0009400090030057028347341
B2318373740749N12229702WA0009400090010019030349348
B2318383740753N12229703WA0009400090010019031353350
B2318393740758N12229703WA0009400090010019032356356
B2318403740763N12229704WA0009400090010019032357347
B2318413740768N12229704WA0009500091010019031359348
B2318423740772N12229704WA0009500091010019028003351
B2318433740777N12229703WA0009600091010019028001356
B2318443740781N12229703WA0009600091010019032358353
B2318453740786N12229704WA0009700091010019035358354
B2318463740792N12229704WA0009700091010019036001359
B2318473740797N12229703WA0009600092010019035005000
B2318483740802N12229703WA0009600092010019035007000
B2318493740808N12229702WA0009500092010019037006358
B2318503740813N12229701WA0009500092010019034004357
B2318513740818N12229701WA0009500093010019030000356
B2318523740822N12229701WA0009600093010019028358354
B2318533740826N12229701WA0009600093010019029000345
B2318543740831N12229701WA0009700094010019032001332
B2318553740836N12229701WA0009700094010019035358322
B2318563740841N12229701WA0009700094010019035349311
B2318573740846N12229703WA0009700094010019034336306
B2318583740850N12229706WA0009700094010019028314306
B2318593740853N12229710WA0009700094010019023306306
B2319003740854N12229714WA0009700094010019019270309
B2319013740853N12229716WA0009700094010019015211315
B2319023740850N12229717WA0009600094010019019176322
B2319033740847N12229716WA0009600093010019024163329
B2319043740843N12229714WA0009500093010019024156335
B2319053740840N12229713WA0009500093010019022157340
B2319063740837N12229711WA0009500093010019018160345
B2319073740835N12229711WA0009400093010019017168347
B2319083740832N12229710WA0009400093010019018171349
B2319093740827N12229709WA0009400093010019018169351
B2319103740824N12229708WA0009400093010019018173353
B2319113740821N12229707WA0009300093010019019177354
B2319123740818N12229707WA0009300093010019020179355
B2319133740815N12229708WA0009200093010019022179356
B2319143740811N12229708WA0009200092010019024181357
B2319153740807N12229709WA0009200092010019024181357
B2319163740803N12229709WA0009100092010019022180358
B2319173740799N12229709WA0009000091010019024180358
B2319183740796N12229709WA0009000091010019024179358
B2319193740792N12229709WA0009000091010019023179358
B2319203740789N12229709WA0008900091010019021179359
B2319213740785N12229709WA0008900091010019021180359
B2319223740782N12229709WA0008900091010019023180359
B2319233740778N12229709WA0008900091010019024176359
B2319243740774N12229709WA0008900091010019024174359
B2319253740771N12229709WA0008900090010019022173359
B2319263740767N12229708WA0009000090010019024170359
B2319273740764N12229707WA0009000090010019026170359
B2319283740760N12229706WA0009100090010019021173359
B2319293740757N12229706WA0009100090010019022173359
B2319303740754N12229705WA0009100089010019023171359
B2319313740751N12229704WA0009200089010019023167359
B2319323740748N12229703WA0009200089010019023163359
B2319333740745N12229701WA0009200089010019024157000
B2319343740742N12229699WA0009200089010019024151000
B2319353740739N12229697WA0009300089010019023150000
B2319363740736N12229695WA0009300089010019023151359
B2319373740733N12229693WA0009300088010019023154359
B2319383740730N12229692WA0009400088010019023159359
B2319393740726N12229690WA0009400088010019025163359
B2319403740723N12229689WA0009400088010019025163359
B2319413740719N12229687WA0009400088010019025163359
B2319423740716N12229686WA0009500088010019026163359
B2319433740712N12229684WA0009500088010019027160359
B2319443740708N12229683WA0009600088010019026161359
B2319453740705N12229682WA0009600088010019023164359
B2319463740702N12229681WA0009700088010019021170359
B2319473740698N12229680WA0009700088010019023171359
B2319483740695N12229679WA0009800089010019025172359
B2319493740692N12229679WA0009800089010019025174359
B2319503740688N12229679WA0009800089010019024177359
B2319513740685N12229679WA0009800089010019023180359
B2319523740681N12229679WA0009800089010019023179359
B2319533740678N12229679WA0009800090010019026176359
B2319543740674N12229678WA0009900089010019026176359
B2319553740670N12229678WA0009900089010019026180359
B2319563740667N12229679WA0009900089010019024189359
B2319573740664N12229680WA0009900090010019019212359
B2319583740662N12229683WA0009900090030057019246359
B2319593740661N12229686WA0009900090010019024263359
B2320003740662N12229690WA0009900090010019022295359
B2320013740663N12229694WA0009800090010019023329357
B2320023740667N12229696WA0009800090010019023347000
B2320033740671N12229696WA0009700090010019029005004
B2320043740675N12229695WA0009700090010019028009006
B2320053740680N12229695WA0009700091010019026009007
B2320063740684N12229694WA0009700091010019026009004
B2320073740688N12229693WA0009700091010019026007358
B2320083740692N12229693WA0009700091010019025357356
B2320093740696N12229693WA0009700090010019025349351
B2320103740700N12229694WA0009700090010019024346342
B2320113740704N12229695WA0009700091010019024346344
B2320123740708N12229696WA0009700091010019023346348
B2320133740712N12229696WA0009800091010019024349345
B2320143740716N12229697WA0009800091010019026350347
B2320153740720N12229698WA0009800091010019027351350
B2320163740724N12229699WA0009800090010019027354351
B2320173740728N12229699WA0009700090010019024358348
B2320183740731N12229699WA0009700090010019022357352
B2320193740735N12229700WA0009700090010019022353345
B2320203740738N12229700WA0009700090010019025352343
B2320213740742N12229701WA0009600090010019027352347
B2320223740747N12229702WA0009600090010019028352352
B2320233740751N12229702WA0009600090010019026353351
B2320243740755N12229703WA0009600090010019025356347
B2320253740759N12229703WA0009500090010019026358351
B2320263740763N12229703WA0009500090010019028357352
B2320273740767N12229703WA0009500089010019031354352
B2320283740772N12229704WA0009500089010019031354351
B2320293740776N12229705WA0009500089010019029355349
B2320303740781N12229705WA0009500089010019027354350
B2320313740785N12229705WA0009400089010019028355354
B2320323740789N12229706WA0009400089010019031357353
B2320333740794N12229706WA0009400089010019033000359
B2320343740799N12229706WA0009400088010019032001357
B2320353740804N12229706WA0009400088010019032000353
B2320363740808N12229706WA0009400088010019031000352
B2320373740813N12229706WA0009400088010019031359350
B2320383740818N12229706WA0009400087010019032000357
B2320393740823N12229706WA0009400087010019033359353
B2320403740828N12229706WA0009300087010019032359359
B2320413740832N12229706WA0009300086010019031358357
B2320423740837N12229706WA0009300086010019031358354
B2320433740842N12229706WA0009400086010019032359000
B2320443740847N12229706WA0009400086010019034002346
B2320453740852N12229706WA0009400086010019036004328
B2320463740858N12229706WA0009400086010019035000318
B2320473740863N12229706WA0009500085010019035349314
B2320483740867N12229708WA0009500085010019030331304
B2320493740870N12229711WA0009500085010019024301303
B2320503740870N12229715WA0009400085010019019252307
B2320513740869N12229718WA0009400084010019020201313
B2320523740866N12229718WA0009300084010019021178320
B2320533740862N12229718WA0009200084010019020169327
B2320543740860N12229717WA0009100084010019019171333
B2320553740857N12229716WA0009000084010019019175338
B2320563740854N12229716WA0009000084010019019174342
B2320573740851N12229715WA0008900083010019023168344
B2320583740848N12229714WA0008900083010019021170348
B2320593740845N12229713WA0008900084010019019176350
B2321003740843N12229712WA0008900084010019018183352
B2321013740840N12229711WA0008900084010019019182353
B2321023740837N12229711WA0008900084010019021180354
B2321033740835N12229711WA0008800084010019021179355
B2321043740832N12229710WA0008800084010019021181356
B2321053740830N12229710WA0008800084010019020181357
B2321063740827N12229710WA0008800083010019020181357
B2321073740825N12229710WA0008800083010019020180358
B2321083740822N12229710WA0008700083010019020180358
B2321093740819N12229711WA0008700083010019021180358
B2321103740816N12229711WA0008700082010019022179358
B2321113740812N12229711WA0008600082010019022178359
B2321123740809N12229711WA0008600082010019024178359
B2321133740805N12229711WA0008500081010019025177359
B2321143740801N12229711WA0008400081010019025176359
B2321153740796N12229711WA0008400081010019026175359
B2321163740792N12229711WA0008400081010019026175359
B2321173740789N12229711WA0008300080010019024175359
B2321183740785N12229710WA0008300080010019025176359
B2321193740781N12229710WA0008300079010019026175359
B2321203740777N12229710WA0008200079010019027176359
B2321213740773N12229710WA0008200079030057027178359
B2321223740769N12229710WA0008200078030057025180359
B2321233740765N12229710WA0008200078030057026175359
B2321243740762N12229708WA0008300078030057027171359
B2321253740758N12229707WA0008300078030057025171359
B2321263740755N12229705WA0008300077030057026169359
B2321273740752N12229704WA0008300077030057026169359
B2321283740748N12229703WA0008300077030057025168359
B2321293740745N12229702WA0008300077030057024167359
B2321303740741N12229701WA0008200076030057024165359
B2321313740737N12229701WA0008200076030057025167359
B2321323740733N12229700WA0008200076030057025171359
B2321333740729N12229699WA0008200075030057024175359
B2321343740726N12229698WA0008200075030057024176359
B2321353740723N12229698WA0008200075030057025173359
B2321363740719N12229697WA0008200075030057029170359
B2321373740715N12229696WA0008200075030057027172359
B2321383740711N12229695WA0008200075030057026174359
B2321393740707N12229695WA0008300074030057023177359
B2321403740704N12229695WA0008300074030057024174359
B2321413740700N12229695WA0008300074030057026171359
B2321423740696N12229694WA0008400074030057026172359
B2321433740692N12229694WA0008400073030057026173359
B2321443740688N12229694WA0008400073010019027175359
B2321453740684N12229693WA0008300073010019026175359
B2321463740680N12229693WA0008300073010019026175359
B2321473740676N12229693WA0008300073010019027176359
B2321483740672N12229693WA0008300073010019026176359
B2321493740668N12229693WA0008300073010019024174359
B2321503740665N12229693WA0008400073010019024169359
B2321513740661N12229692WA0008400073010019025167359
B2321523740658N12229691WA0008400073010019024171359
B2321533740655N12229689WA0008500073010019023170359
B2321543740652N12229689WA0008500073010019022168359
B2321553740650N12229688WA0008600073010019019168359
B2321563740648N12229687WA0008600073010019018172359
B2321573740647N12229686WA0008600074010019016183359
B2321583740645N12229685WA0008600074010019018185359
B2321593740643N12229686WA0008600074010019021183359
B2322003740639N12229687WA0008600074010019022181359
B2322013740636N12229688WA0008600074010019021181359
B2322023740633N12229688WA0008500074010019021179359
B2322033740630N12229688WA0008500075010019022176359
B2322043740627N12229687WA0008500075010019022174359
B2322053740624N12229687WA0008500075010019023173359
B2322063740621N12229686WA0008500075010019022172359
B2322073740618N12229685WA0008500075010019022170359
B2322083740615N12229684WA0008500075010019024166359
B2322093740611N12229683WA0008500076010019025163359
B2322103740607N12229682WA0008500076010019025161359
B2322113740603N12229680WA0008500076010019025162359
B2322123740600N12229678WA0008500077010019024163359
B2322133740597N12229677WA0008500077010019025165359
B2322143740594N12229675WA0008500077010019025166359
B2322153740590N12229674WA0008500078010019025167359
B2322163740586N12229673WA0008500078010019026167359
B2322173740582N12229673WA0008500078010019026168359
B2322183740577N12229673WA0008500078010019026168359
B2322193740573N12229672WA0008500078010019027169359
B2322203740569N12229672WA0008500078010019026169359
B2322213740565N12229670WA0008400078010019026171359
B2322223740561N12229670WA0008400078010019027175359
B2322233740557N12229670WA0008400078010019029176359
B2322243740553N12229670WA0008300078010019029176359
B2322253740549N12229670WA0008300077010019027175359
B2322263740545N12229669WA0008300077010019026178359
B2322273740542N12229669WA0008300077010019026179359
B2322283740538N12229669WA0008200076010019025178359
B2322293740534N12229669WA0008200076010019025179359
B2322303740531N12229669WA0008200075010019023181359
B2322313740528N12229669WA0008200075010019020186359
B2322323740525N12229670WA0008200075010019020182359
B2322333740522N12229670WA0008200075010019020179359
B2322343740519N12229670WA0008300075010019019179359
B2322353740517N12229669WA0008400075010019020176359
B2322363740514N12229668WA0008400074010019022180359
B2322373740511N12229668WA0008400074010019021184359
B2322383740509N12229667WA0008400074010019020185359
B2322393740506N12229667WA0008400074010019018183359
B2322403740503N12229667WA0008400074010019018180359
B2322413740501N12229667WA0008500074010019017184359
B2322423740498N12229667WA0008500074010019020182359
B2322433740495N12229667WA0008500074010019021178359
B2322443740491N12229667WA0008500074010019021174359
B2322453740488N12229667WA0008500074010019020173359
B2322463740486N12229667WA0008500074010019019170359
B2322473740483N12229666WA0008500074010019020169359
B2322483740480N12229665WA0008500074010019021167359
B2322493740478N12229663WA0008500074010019023167359
B2322503740474N12229662WA0008500074010019024165359
B2322513740471N12229660WA0008500074010019023164359
B2322523740468N12229659WA0008500074010019024161359
B2322533740464N12229658WA0008500074010019024157359
B2322543740460N12229657WA0008500074010019026155000
B2322553740456N12229655WA0008500075010019028150000
B2322563740452N12229652WA0008500075010019029144000
B2322573740449N12229649WA0008500075010019030140000
B2322583740445N12229646WA0008500075010019030136000
B2322593740442N12229642WA0008500075010019030140000
B2323003740438N12229639WA0008500074010019031147359
B2323013740433N12229637WA0008400074010019032156359
B2323023740429N12229635WA0008400073010019033164359
B2323033740424N12229633WA0008300073010019032166359
B2323043740420N12229632WA0008300072010019030168359
B2323053740415N12229631WA0008200072010019029172359
B2323063740411N12229631WA0008200071010019028174359
B2323073740407N12229630WA0008200071010019028178359
B2323083740403N12229630WA0008100070010019028178359
B2323093740399N12229630WA0008100070010019028179359
B2323103740395N12229630WA0008000069010019027181359
B2323113740391N12229630WA0008000068010019025181359
B2323123740387N12229630WA0008000068010019022177359
B2323133740384N12229630WA0008000068010019022173359
B2323143740381N12229629WA0008000067010019022175359
B2323153740378N12229628WA0008000067010019023182359
B2323163740375N12229628WA0008000066010019023183359
B2323173740371N12229628WA0008000066010019025179359
B2323183740367N12229628WA0008000066010019024177359
B2323193740363N12229629WA0007900066010019023178359
B2323203740359N12229630WA0007900066010019022177359
B2323213740356N12229630WA0007900066010019022172359
B2323223740353N12229629WA0008000065010019024167359
B2323233740349N12229628WA0008000065010019024165359
B2323243740346N12229626WA0008000065010019024162359
B2323253740343N12229625WA0007900065010019024158359
B2323263740340N12229624WA0007900065010019023156359
B2323273740337N12229622WA0007900065010019022157359
B2323283740333N12229621WA0007900064010019023158359
B2323293740330N12229619WA0007900064010019025157359
B2323303740326N12229618WA0007900064010019027156359
B2323313740323N12229616WA0007900064010019028152000
B2323323740319N12229613WA0007900064010019029151000
B2323333740315N12229611WA0007900064010019029152000
B2323343740311N12229609WA0007900064010019029150000
B2323353740308N12229606WA0008000064010019028141000
B2323363740304N12229602WA0008000064010019030140000
B2323373740301N12229599WA0008000065010019031138000
B2323383740297N12229595WA0008000065010019030136000
B2323393740294N12229591WA0008100066010019030138000
B2323403740291N12229587WA0008100066010019028141000
B2323413740287N12229584WA0008200066010019027150359
B2323423740283N12229583WA0008200066010019028172359
B2323433740279N12229584WA0008200066010019027204359
B2323443740276N12229587WA0008200066010019027224359
B2323453740275N12229591WA0008200066010019025270359
B2323463740275N12229595WA0008200066030057023293358
B2323473740278N12229597WA0008100066010019019337358
B2323483740281N12229598WA0008100065010019022350355
B2323493740284N12229599WA0008100065010019022345349
B2323503740288N12229601WA0008100065010019021337344
B2323513740291N12229603WA0008100065010019025337341
B2323523740295N12229604WA0008000065010019025338344
B2323533740298N12229606WA0008000065010019023338338
B2323543740301N12229608WA0008000064010019022336336
B2323553740304N12229609WA0008000064010019021333336
B2323563740307N12229612WA0008000064010019022326342
B2323573740310N12229614WA0007900064010019024322345
B2323583740313N12229617WA0007900064010019024320348
B2323593740315N12229619WA0007900064010019023320350
B2324003740318N12229622WA0007800063010019022320352
B2324013740320N12229624WA0007800063010019022325355
B2324023740323N12229626WA0007800063010019022333356
B2324033740326N12229627WA0007800063010019023339357
B2324043740330N12229628WA0007700063010019024341357
B2324053740333N12229630WA0007700063010019022336357
B2324063740336N12229632WA0007700063010019023329356
B2324073740339N12229635WA0007600063010019021314356
B2324083740340N12229637WA0007500063010019017281356
B2324093740339N12229641WA0007400063010019024222356
B2324103740335N12229643WA0007400063010019026192356
B2324113740331N12229643WA0007300062010019028170357
B2324123740327N12229642WA0007200062010019029165002
B2324133740322N12229640WA0007100062010019026161358
B2324143740319N12229639WA0007100062010019025159001
B2324153740315N12229637WA0007000061010019027155001
B2324163740311N12229634WA0006900061010019031146001
B2324173740307N12229630WA0006900060010019035145000
B2324183740303N12229627WA0006700060010019033146359
B2324193740299N12229624WA0006600060010019030149359
B2324203740295N12229621WA0006500059010019027147359
B2324213740291N12229619WA0006400059010019027158359
B2324223740287N12229617WA0006400058010019029165359
B2324233740283N12229617WA0006300057010019029171359
B2324243740279N12229616WA0006200056010019027181359
B2324253740275N12229617WA0006100055010019022200359
B2324263740273N12229620WA0006000054010019020224359
B2324273740271N12229623WA0005800053010019022252359
B2324283740271N12229627WA0005800051010019024277359
B2324293740273N12229631WA0005600050010019024309359
B2324303740276N12229634WA0005500049010019024325359
B2324313740280N12229636WA0005300047010019022329355
B2324323740282N12229638WA0005200046010019018325354
B2324333740284N12229640WA0005100045010019016319355
B2324343740286N12229643WA0005000044010019017306355
B2324353740288N12229645WA0004900043010019018298355
B2324363740289N12229649WA0004900042010019017289355
B2324373740290N12229651WA0004800040010019015279356
B2324383740290N12229654WA0004700039010019015255356
B2324393740289N12229657WA0004600038010019017237356
B2324403740287N12229660WA0004500037010019017240356
B2324413740286N12229662WA0004400036010019017223357
B2324423740284N12229664WA0004300035010019016223000
B2324433740283N12229666WA0004200034010019005207000
B2324443740282N12229665WA0004100032010019004212000
B2324453740281N12229665WA0004100031010019004255000
B2324463740280N12229666WA0004100030010019002248000
B2324473740280N12229666WA0004100029010019001206000
B2324483740280N12229665WA0004100028010019002115000
B2324493740280N12229665WA0004100027010019001100002
B2324503740280N12229664WA0004100027010019001308002
B2324513740280N12229664WA0004100026010019001248001
B2324523740280N12229664WA0004100026010019001253001
B2324533740280N12229664WA0004100026010019000000000
B2324543740280N12229664WA0004100026010019000000000
B2324553740280N12229664WA0004100026010019001329000
B2324563740280N12229664WA0004100026010019001321000
B2324573740280N12229664WA0004100026010019001310002
B2324583740280N12229664WA0004100026010019001307001
B2324593740280N12229664WA0004100026010019001302003
B2325003740280N12229664WA0004100026010019001301356
B2325013740280N12229664WA0004100026005010001329354
B2325023740280N12229664WA0004100026005010001344356
B2325033740280N12229664WA0004100026005010001005356
B2325043740280N12229664WA0004100026005010001018023
B2325053740280N12229664WA0004100026005010001022029
B2325063740280N12229664WA0004100026005010001035019
B2325073740280N12229664WA0004100026005010001034016
B2325083740280N12229664WA0004100026005010001042018
B2325093740280N12229664WA0004100026005010001042016
B2325103740280N12229664WA0004100026005010001025018
B2325113740280N12229664WA0004100026005010001002015
B2325123740280N12229664WA0004100026005010001354011
B2325133740280N12229664WA0004100026005010001353005
B2325143740280N12229664WA0004100026005010001000005
B2325153740280N12229664WA0004100026005010001002004
B2325163740280N12229664WA0004100026005010001012003
GS3kT/fi4zmqI/tHCvSbzRN6z+pl1OKfYzewHd4ss8OO3eMgH5G9R0amM9UJl+oeY
GwKDy1pICIMwFzKIKyNrITsw0z4lxl9MHwTzhD9U7gnMs1/USU/py26bV4BPNNuqq
Gh7+WksEDs/b7mjm07Xiqzz39anDPAf+btOLHNwEnlHc=

