AXFH000
HFDTE041124
HFPLTPILOT:Scott O’Brien
HFGTYGLIDERTYPE:Ozone Swift 6
HFDTM100GPSDATUM:WGS84
HFRFWFIRMWAREVERSION:8.2.5
HFRHWHARDWAREVERSION:iPhone 15
HFFTYFRTYPE:Flyskyhy,8.2.5
HFGPS:Internal
HFPRSVARIO:Internal Vario
HFCCLCOMPETITIONCLASS:Paraglider
HFTZNTIMEZONE:-3
HFSITSITE:Alto Hospicio,CL
I053638FXA3941VXA4244GSP4547CCO4850HDT
C041124123927041124000105TASK
C0000000N00000000ETAKEOFF
C3832449N11204411W00000000001000000000360000STARTAREA T04
C3832449N11204411W00030009999999000000360000TURNAREA T04
C3833533N11148217W00000000002000000000360000TURNAREA P30
C3845304N11125100W00000000006000000000360000TURNAREA S08
C3913309N11109083W00000000002000000000360000TURNAREA F04
C3935774N11050460W00000000003000000000360000TURNAREA G14
C3935774N11050460W00000000000400000000360000FINISHAREA G14
C0000000N00000000ELANDING
B1239582016408S07006625WA0053900539005010000000100
B1239592016408S07006625WA0053900539005010000000100
B1240002016408S07006625WA0053900539005010000000098
B1240012016408S07006625WA0053900539005010000000100
B1240022016408S07006625WA0053900539005010000000095
B1240032016408S07006625WA0053900539005010000000096
B1240042016408S07006625WA0053900539005010000000095
B1240052016408S07006625WA0053900539005010000000094
B1240062016408S07006625WA0053900539005010000000097
B1240072016408S07006625WA0053900539005010000000100
B1240082016408S07006625WA0053900539005010000000083
B1240092016408S07006625WA0053900539005010000000094
B1240102016408S07006625WA0053900539005010003235098
B1240112016408S07006626WA0053900539005010009264072
B1240122016409S07006628WA0053900539005010009261330
B1240132016409S07006629WA0053900539005010005259243
B1240142016409S07006629WA0053900539005010004241232
B1240152016409S07006631WA0053800539005010012246269
B1240162016410S07006633WA0053800539005010014261247
B1240172016411S07006639WA0053700539005010020264259
B1240182016412S07006646WA0053600538005010029260265
B1240192016413S07006651WA0053500538005010031263251
B1240202016413S07006656WA0053400537005010030264259
B1240222016414S07006661WA0053300537005010028261243
B1240232016415S07006665WA0053300537005010027250238
B1240242016418S07006673WA0053400537005010028242244
B1240262016420S07006677WA0053400537005010030243243
B1240272016422S07006682WA0053400537005010032245246
B1240282016425S07006687WA0053400536005010036244231
B1240292016427S07006692WA0053200536005010037239236
B1240302016433S07006701WA0053100535005010032231237
B1240322016438S07006710WA0053000535005010032245245
B1240332016441S07006715WA0052900535005010034241238
B1240342016443S07006720WA0052900534005010035233236
B1240352016447S07006724WA0052800534005010035229232
B1240362016450S07006728WA0052700533005010034233228
B1240372016452S07006733WA0052700533005010030237240
B1240382016455S07006736WA0052600532005010029237239
B1240392016457S07006740WA0052600532005010028231224
B1240402016460S07006744WA0052500531005010032230227
B1240412016463S07006748WA0052500531005010036233228
B1240422016467S07006753WA0052400530005010037237231
B1240432016470S07006759WA0052300530005010037235233
B1240442016473S07006764WA0052100529005010037232228
B1240452016476S07006769WA0052000528005010037235234
B1240462016479S07006774WA0051900528005010037244239
B1240472016482S07006779WA0051800527005010037243236
B1240482016484S07006785WA0051700526005010038238230
B1240492016487S07006790WA0051600525005010037233229
B1240502016491S07006794WA0051500525005010035236231
B1240512016493S07006799WA0051400524005010035244233
B1240522016496S07006804WA0051300523005010035242235
B1240532016499S07006809WA0051200522005010036233223
B1240542016502S07006814WA0051100521005010041224217
B1240552016507S07006819WA0050900520005010042229223
B1240562016510S07006824WA0050800519005010040237229
B1240572016513S07006830WA0050600518005010038245231
B1240582016516S07006835WA0050500517005010038243229
B1240592016518S07006840WA0050500516005010038238224
B1241002016522S07006845WA0050400515005010037233223
B1241012016525S07006850WA0050400514005010037234223
B1241022016528S07006855WA0050300513005010038234224
B1241032016532S07006860WA0050200512005010038234229
B1241042016535S07006865WA0050100511005010039236229
B1241052016538S07006870WA0050000510005010038239234
B1241062016541S07006876WA0049900510005010036250236
B1241072016542S07006881WA0049800509005010034248239
B1241082016544S07006886WA0049700508005010035246240
B1241092016547S07006891WA0049600507005010036242234
B1241102016549S07006896WA0049500506005010036241240
B1241112016552S07006901WA0049500505005010038248240
B1241122016554S07006907WA0049400504005010037248247
B1241132016556S07006912WA0049300503005010038245237
B1241142016559S07006917WA0049200501005010036237227
B1241152016562S07006922WA0049100500005010038237230
B1241162016564S07006927WA0049100499005010038240237
B1241172016567S07006933WA0049000498005010038247248
B1241182016569S07006939WA0048900497005010041255250
B1241192016570S07006945WA0048700496005010040254245
B1241202016571S07006951WA0048600495005010032256252
B1241212016573S07006955WA0048500495005010024247244
B1241222016574S07006959WA0048500494005010023249250
B1241232016575S07006962WA0048600493005010027249256
B1241242016577S07006967WA0048700493005010032252248
B1241252016578S07006972WA0048700492005010035258245
B1241262016579S07006977WA0048600491005010032259250
B1241272016579S07006982WA0048500491005010029260256
B1241282016580S07006986WA0048400490005010026264263
B1241292016580S07006990WA0048300490005010026265265
B1241302016580S07006995WA0048200489005010026268268
B1241312016580S07006999WA0048200488005010027268269
B1241322016580S07007004WA0048200488005010029271264
B1241332016580S07007008WA0048200487005010028275272
B1241342016579S07007012WA0048200487005010027282280
B1241352016578S07007017WA0048100486005010027282278
B1241362016577S07007021WA0048100485005010027281271
B1241372016576S07007025WA0048000485005010026280271
B1241382016575S07007029WA0048000484005010026280272
B1241392016575S07007033WA0048000483005010026283278
B1241402016573S07007037WA0047900482005010027284274
B1241412016572S07007041WA0047800482005010028283272
B1241422016571S07007046WA0047800481005010028282266
B1241432016570S07007050WA0047700480005010028280266
B1241442016569S07007054WA0047600479005010028279269
B1241452016569S07007058WA0047600479005010028279270
B1241462016568S07007063WA0047500478005010028279270
B1241472016567S07007067WA0047300477005010029281275
B1241482016566S07007072WA0047200476005010029281269
B1241492016565S07007076WA0047100476005010028281268
B1241502016564S07007080WA0047000475005010027280270
B1241512016564S07007085WA0047000474005010030273271
B1241522016564S07007090WA0047000473005010032271261
B1241532016563S07007095WA0046900472005010032271263
B1241542016563S07007100WA0046700471005010031272261
B1241552016563S07007105WA0046700470005010031273268
B1241562016563S07007110WA0046600469005010031273268
B1241572016563S07007114WA0046500468005010032270268
B1241582016563S07007120WA0046400467005010033270267
B1241592016563S07007125WA0046300466005010033273270
B1242002016562S07007130WA0046200465005010032275273
B1242012016562S07007135WA0046100464005010031277273
B1242022016561S07007140WA0046100464005010031276267
B1242032016561S07007145WA0046000463005010031275257
B1242042016561S07007150WA0046000462005010031267260
B1242052016561S07007155WA0045900461005010031265252
B1242062016562S07007159WA0045900460005010030263260
B1242072016563S07007164WA0045800459005010029262262
B1242082016563S07007168WA0045700458005010029261259
B1242092016564S07007173WA0045700458005010029259261
B1242102016565S07007177WA0045600457005010028256255
B1242112016566S07007181WA0045600456005010026255258
B1242122016567S07007185WA0045500455005010026256262
B1242132016568S07007189WA0045400455005010027255261
B1242142016569S07007193WA0045400454005010028255257
B1242152016571S07007197WA0045300453005010031259253
B1242162016571S07007202WA0045300452005010030259255
B1242172016572S07007207WA0045200451005010030259256
B1242182016573S07007211WA0045100450005010030258256
B1242192016574S07007216WA0045000450005010031257255
B1242202016575S07007221WA0044900449005010032257255
B1242212016576S07007226WA0044800448005010032259253
B1242222016577S07007231WA0044700447005010031261256
B1242232016578S07007236WA0044600446005010031262259
B1242242016579S07007241WA0044500445005010032261259
B1242252016579S07007246WA0044500445005010034261256
B1242262016580S07007252WA0044400444005010036264259
B1242272016581S07007257WA0044400443005010036265261
B1242282016581S07007263WA0044300442005010034267266
B1242292016581S07007268WA0044200441005010028264267
B1242302016582S07007272WA0044100440005010026264268
B1242312016582S07007276WA0044100440005010025264270
B1242322016582S07007280WA0044100439005010026264267
B1242332016583S07007284WA0044000438005010027267266
B1242342016583S07007289WA0044000437005010031272270
B1242352016582S07007294WA0044000436005010029275266
B1242362016582S07007298WA0043800435005010029275273
B1242372016581S07007303WA0043700434005010029273268
B1242382016581S07007307WA0043600434005010029273280
B1242392016581S07007312WA0043600433005010029276269
B1242402016580S07007317WA0043400432005010030285280
B1242412016579S07007321WA0043300431005010029286280
B1242422016578S07007325WA0043200430005010028283276
B1242432016577S07007330WA0043200429005010028277268
B1242442016577S07007334WA0043100428005010029270273
B1242452016576S07007339WA0042900427005010031274274
B1242462016576S07007344WA0042700426005010032279279
B1242472016575S07007349WA0042700425005010032281278
B1242482016574S07007354WA0042600424005010031280280
B1242492016573S07007359WA0042300422005010030279280
B1242502016572S07007363WA0042100421005010030278283
B1242512016571S07007368WA0042100420005010031282285
B1242522016570S07007373WA0041900419005010032289287
B1242532016568S07007378WA0041700417005010033290288
B1242542016566S07007382WA0041500416005010032289282
B1242552016565S07007387WA0041500414005010032282277
B1242562016564S07007392WA0041200413005010032280278
B1242572016563S07007397WA0041000412005010031280275
B1242582016562S07007402WA0040800410005010032281280
B1242592016561S07007407WA0040800409005010032282273
B1243002016560S07007412WA0040600408005010031280270
B1243012016560S07007417WA0040500407005010031277267
B1243022016559S07007422WA0040300405005010031274260
B1243032016559S07007427WA0040300404005010030267266
B1243042016559S07007431WA0040200403005010030267259
B1243052016560S07007436WA0040100401005010032269266
B1243062016560S07007441WA0039900400005010031271268
B1243072016559S07007446WA0039900399005010032273268
B1243082016559S07007451WA0039800397005010030272270
B1243092016559S07007456WA0039600396005010029267263
B1243102016560S07007461WA0039500395005010029262258
B1243112016560S07007466WA0039500394005010030262259
B1243122016561S07007470WA0039400393005010030262266
B1243132016561S07007475WA0039300392005010029263270
B1243142016562S07007480WA0039200391005010029264267
B1243152016562S07007484WA0039200390005010029263269
B1243162016563S07007489WA0039200389005010029263262
B1243172016563S07007494WA0039100388005010029263256
B1243182016564S07007498WA0039000387005010029261259
B1243192016565S07007503WA0039000386005010031260250
B1243202016566S07007508WA0039000385005010034260254
B1243212016566S07007513WA0038900384005010034261253
B1243222016567S07007519WA0038800383005010034261261
B1243232016568S07007524WA0038800382005010032265265
B1243242016568S07007529WA0038600381005010029265268
B1243252016569S07007533WA0038500380005010030263267
B1243262016569S07007538WA0038300379005010031264269
B1243272016569S07007543WA0038300378005010032273275
B1243282016569S07007548WA0038200377005010030281285
B1243292016567S07007553WA0038000375005010030290286
B1243302016566S07007557WA0037800374005010030291287
B1243312016564S07007561WA0037800372005010029288271
B1243322016563S07007566WA0037600371005010028267259
B1243332016563S07007570WA0037400370005010029254242
B1243342016565S07007574WA0037200368005010030244234
B1243352016568S07007579WA0037200367005010034228219
B1243362016572S07007583WA0037100365005010037216206
B1243372016577S07007586WA0036900364005010038213191
B1243382016582S07007589WA0036800363005010038196185
B1243392016588S07007591WA0036800362005010040189177
B1243402016594S07007592WA0036600360005010041184172
B1243412016601S07007592WA0036500359005010041180163
B1243422016607S07007592WA0036300358005010041179166
B1243432016613S07007592WA0036300357005010041175160
B1243442016619S07007591WA0036100356005010040174160
B1243452016625S07007591WA0035900355005010040174157
B1243462016631S07007590WA0035800353005010041173161
B1243472016638S07007590WA0035800352005010042173155
B1243482016644S07007589WA0035600351005010045172157
B1243492016651S07007588WA0035400349005010046172156
B1243502016658S07007587WA0035200348005010045172162
B1243512016664S07007586WA0035200347005010042174164
B1243522016671S07007586WA0035000346005010042174168
B1243532016677S07007585WA0034800344005010041174167
B1243542016683S07007585WA0034700343005010041176165
B1243552016689S07007584WA0034700342005010041178170
B1243562016696S07007584WA0034600341005010042182167
B1243572016702S07007585WA0034400339005010041182169
B1243582016708S07007585WA0034300338005010041182170
B1243592016714S07007586WA0034300337005010042182171
B1244002016721S07007586WA0034200336005010043182173
B1244012016727S07007586WA0034000334005010044182178
B1244022016734S07007587WA0033800333005010043183176
B1244032016740S07007587WA0033800332005010042183180
B1244042016746S07007588WA0033700331005010041182175
B1244052016752S07007588WA0033600329005010040180175
B1244062016758S07007588WA0033400328005010042182174
B1244072016765S07007589WA0033400327005010043181170
B1244082016771S07007589WA0033300326005010043181171
B1244092016778S07007589WA0033200324005010042180170
B1244102016784S07007589WA0033000323005010041180170
B1244112016790S07007589WA0033000322005010040180172
B1244122016796S07007590WA0032900320005010041180171
B1244132016802S07007590WA0032700319005010041180169
B1244142016808S07007590WA0032500318005010042179171
B1244152016814S07007590WA0032500317005010042178178
B1244162016820S07007590WA0032400315005010042179197
B1244172016827S07007590WA0032300314005010042179221
B1244182016833S07007590WA0032100313005010038183235
B1244192016838S07007592WA0032100311005010037218247
B1244202016841S07007596WA0032000310005010029233266
B1244212016842S07007601WA0031800308005010028262275
B1244222016841S07007605WA0031600306005010018300288
B1244232016839S07007609WA0031600303010019017305306
B1244242016835S07007612WA0031400300005010019309307
B1244252016832S07007615WA0031200297005010021311311
B1244262016828S07007617WA0031100294005010024315317
B1244272016824S07007620WA0031100291005010025318324
B1244282016820S07007623WA0031000288005010025320327
B1244292016815S07007625WA0030900285005010025322324
B1244302016810S07007627WA0030800282005010025322325
B1244312016806S07007629WA0030800279005010025321325
B1244322016802S07007631WA0030700276005010025321327
B1244332016798S07007634WA0030500273005010026323327
B1244342016794S07007636WA0030400271005010026326327
B1244352016790S07007638WA0030400269005010026327327
B1244362016786S07007640WA0030400266005010026326324
B1244372016782S07007642WA0030300264005010027326325
B1244382016778S07007645WA0030300262005010026326325
B1244392016775S07007647WA0030300261005010026325322
B1244402016771S07007649WA0030300259005010025325326
B1244412016768S07007652WA0030300257005010024322319
B1244422016765S07007654WA0030300255005010023320318
B1244432016762S07007657WA0030300253005010022318319
B1244442016759S07007659WA0030300251005010024319307
B1244452016756S07007661WA0030300250005010028321308
B1244462016753S07007663WA0030300248005010032319301
B1244472016749S07007666WA0030200246005010033318299
B1244482016745S07007670WA0030200245005010032316304
B1244492016741S07007671WA0030100245005010031314305
B1244502016738S07007674WA0029900245005010031316309
B1244512016734S07007676WA0029900245005010032315303
B1244522016730S07007679WA0029800245005010031313302
B1244532016728S07007682WA0029700245005010028305293
B1244542016725S07007686WA0029600245005010028300287
B1244552016723S07007689WA0029600244005010028297296
B1244562016721S07007693WA0029600242005010029299310
B1244572016719S07007697WA0029500241005010027309325
B1244582016716S07007700WA0029400239005010027311351
B1244592016713S07007703WA0029400237005010026314009
B1245002016711S07007706WA0029400236005010025319019
B1245012016708S07007708WA0029200234010019021318028
B1245022016706S07007710WA0029000232005010019313252
B1245032016704S07007712WA0029000230005010016310273
B1245042016702S07007713WA0028700228005010015304282
B1245052016702S07007715WA0028400226005010014288290
B1245062016701S07007717WA0028000224010019015277295
B1245072016701S07007719WA0028000223010019014278296
B1245082016701S07007721WA0027500223010019015277300
B1245172016728S07007649WA0026100255004003035145264
B1245182016733S07007646WA0026100254004003035146155
B1245192016738S07007644WA0025900253004003039151154
B1245202016743S07007641WA0025700252004003040156154
B1245212016749S07007639WA0025500251004003040160156
B1245222016754S07007637WA0025500250004003040163160
B1245232016760S07007636WA0025400249004003040165161
B1245242016746S07007643WA0025200234005010036156164
B1245252016754S07007637WA0025100236005010037160167
B1245262016759S07007635WA0025100236005010038163171
B1245272016765S07007633WA0025000236005010039165175
B1245282016772S07007631WA0025000236005010039167174
B1245292016779S07007629WA0025000236005010039168178
B1245302016785S07007628WA0025000236005010040169177
B1245312016792S07007627WA0025000236005010040171180
B1245322016800S07007626WA0025000236005010040174186
B1245332016806S07007626WA0025100236005010040175187
B1245342016813S07007626WA0025100236005010037176186
B1245352016819S07007625WA0025200236005010035179199
B1245362016824S07007625WA0025200236005010034180222
B1245372016830S07007626WA0025300236005010031185236
B1245382016835S07007626WA0025300236005010027193249
B1245392016839S07007628WA0025200236005010025197261
B1245402016843S07007631WA0025200236005010026201266
B1245412016846S07007635WA0025100236005010025211267
B1245422016849S07007638WA0025000236010019023199267
B1245432016852S07007640WA0024800235010019022189253
B1245442016853S07007640WA0024800235010019018175236
B1245452016851S07007639WA0024700233010019009164222
B1245462016848S07007639WA0024600233010019008021231
B1245472016843S07007638WA0024600232010019011010312
B1245482016835S07007636WA0024600231010019014358329
B1245492016829S07007636WA0024600231010019015346328
B1245502016820S07007635WA0024600231010019017340326
B1245512016814S07007636WA0024600231010019017341329
B1245522016809S07007637WA0024600232010019018343334
B1245532016805S07007637WA0024600232010019019345342
B1245542016801S07007638WA0024600232010019019347342
B1245552016798S07007638WA0024500232010019021001346
B1245562016793S07007638WA0024500232010019021002345
B1245572016788S07007638WA0024500232010019020001337
B1245582016785S07007638WA0024400232010019020347318
B1245592016781S07007640WA0024400233010019021327303
B1246002016778S07007642WA0024400233005010024311290
B1246012016775S07007646WA0024400233010019021298279
B1246022016774S07007649WA0024300233010019019282270
B1246032016774S07007652WA0024300233010019020269260
B1246042016777S07007655WA0024300232005010023243255
B1246052016780S07007658WA0024100232005010023229241
B1246062016783S07007660WA0024000232005010024215233
B1246072016787S07007662WA0023900233005010026202223
B1246082016792S07007663WA0023900233005010029194209
B1246092016798S07007663WA0023800234005010037172197
B1246102016804S07007662WA0023700234005010038168172
B1246112016810S07007660WA0023600234005010037167169
B1246122016815S07007659WA0023600234005010036167170
B1246132016821S07007657WA0023500235005010036169174
B1246142016827S07007656WA0023400235005010037173181
B1246152016833S07007656WA0023300235005010036178194
B1246162016838S07007656WA0023300235005010035183208
B1246172016843S07007656WA0023200235005010034189220
B1246182016848S07007657WA0023200235005010029191229
B1246192016852S07007658WA0023100235005010023189236
B1246202016855S07007658WA0023100236010019018200240
B1246212016856S07007660WA0023000236010019014226252
B1246222016857S07007661WA0022900235005010011255278
B1246232016857S07007662WA0022700234005010005262301
B1246242016855S07007661WA0022700233005010011019319
B1246252016849S07007659WA0022600232005010021023004
B1246262016843S07007655WA0022500230005010023013004
B1246272016836S07007653WA0022400228005010024013002
B1246282016831S07007652WA0022400228005010025017005
B1246292016826S07007650WA0022400227005010026021007
B1246302016821S07007648WA0022400226005010025017358
B1246312016817S07007647WA0022300226005010025002346
B1246322016812S07007647WA0022300225005010025353339
B1246332016808S07007648WA0022300224005010024347336
B1246342016804S07007649WA0022200224005010023346332
B1246352016801S07007649WA0022200224005010022346330
B1246362016797S07007650WA0022200223005010022345333
B1246372016794S07007651WA0022100223005010023342332
B1246382016790S07007653WA0022100222005010026339330
B1246392016786S07007654WA0022000222005010025338329
B1246402016782S07007656WA0022000222005010024337329
B1246412016779S07007657WA0022000221005010023339335
B1246422016776S07007658WA0021900221005010024341337
B1246432016772S07007660WA0021900220005010025344339
B1246442016768S07007660WA0021900220005010026347341
B1246452016764S07007661WA0021800219005010027352343
B1246462016760S07007661WA0021800219005010026355346
B1246472016756S07007661WA0021700218005010026355342
B1246482016752S07007662WA0021700217005010026354343
B1246492016748S07007662WA0021600217005010026354341
B1246502016744S07007662WA0021500216005010026353342
B1246512016740S07007663WA0021300215005010026350326
B1246522016737S07007664WA0021300215005010025342311
B1246532016733S07007665WA0021200214005010024328302
B1246542016731S07007668WA0021000214005010026314288
B1246552016728S07007671WA0020900213005010024309278
B1246562016727S07007674WA0020700213005010020298273
B1246572016725S07007677WA0020500212005010019289267
B1246582016725S07007681WA0020300211005010016275262
B1246592016725S07007684WA0020100211005010014272257
B1247002016725S07007686WA0020100211005010012279259
B1247012016726S07007689WA0020000210005010010270268
B1247022016727S07007691WA0019900209005010009264269
B1247032016731S07007694WA0019800206005010008244271
B1247042016734S07007695WA0019700206005010008211265
B1247052016737S07007694WA0019600207005010013181248
B1247062016742S07007692WA0019500207005010019169208
B1247072016748S07007690WA0019300207005010033160179
B1247082016758S07007685WA0019200207005010039161162
B1247092016766S07007681WA0019100207005010040161159
B1247102016776S07007674WA0019000209005010041158161
B1247112016783S07007669WA0018900210005010041159160
B1247122016790S07007666WA0018900210005010040161161
B1247132016795S07007663WA0018800211005010038164164
B1247142016800S07007661WA0018800211005010038165163
B1247152016806S07007659WA0018800211005010038164162
B1247162016812S07007657WA0018700211005010037163160
B1247172016817S07007655WA0018700211005010037163168
B1247182016823S07007653WA0018700211005010037163184
B1247192016828S07007651WA0018600211005010037164198
B1247202016834S07007650WA0018500211005010036166206
B1247212016840S07007649WA0018400211005010031168211
B1247222016845S07007648WA0018300210005010027171207
B1247232016850S07007649WA0018200210005010025188207
B1247242016854S07007651WA0018100210005010024210215
B1247252016857S07007653WA0018000210005010026222227
B1247262016860S07007657WA0017900210005010027227229
B1247272016863S07007661WA0017800210005010029228230
B1247282016866S07007664WA0017700210005010031228226
B1247292016869S07007668WA0017600210005010031227222
B1247302016872S07007671WA0017500210005010032226223
B1247312016875S07007674WA0017400210005010032226221
B1247322016878S07007677WA0017400210005010031226224
B1247332016881S07007680WA0017300210005010031227223
B1247342016883S07007682WA0017200210005010031227227
B1247352016886S07007685WA0017200210005010031228230
B1247362016889S07007689WA0017100210005010030231236
B1247372016892S07007692WA0017100210005010031233241
B1247382016894S07007696WA0017000210005010030240244
B1247392016895S07007698WA0016900210005010029249255
B1247402016896S07007703WA0016800210005010029248249
B1247412016897S07007708WA0016600210005010029249255
B1247422016899S07007713WA0016600210005010029250251
B1247432016900S07007718WA0016500209005010029250251
B1247442016901S07007723WA0016400209005010028250252
B1247452016903S07007728WA0016300209005010027250254
B1247462016904S07007733WA0016200208005010027250254
B1247472016906S07007737WA0016200208005010027251256
B1247482016907S07007742WA0016100208005010027253255
B1247492016908S07007746WA0016000207005010027253254
B1247502016910S07007751WA0015900207005010027253252
B1247512016911S07007755WA0015800206005010027250250
B1247522016912S07007760WA0015700206005010027248248
B1247532016914S07007763WA0015600206005010027245245
B1247542016916S07007767WA0015500205005010028244242
B1247552016918S07007771WA0015500205005010029239239
B1247562016920S07007775WA0015400204005010029236236
B1247572016923S07007779WA0015300204005010029233234
B1247582016925S07007783WA0015200203005010029231233
B1247592016928S07007787WA0015100203005010029228232
B1248002016932S07007791WA0015000202005010029226229
B1248012016935S07007795WA0014900201005010029224226
B1248022016939S07007799WA0014800201005010029222226
B1248032016942S07007803WA0014700200005010030220224
B1248042016946S07007807WA0014600199005010030218222
B1248052016950S07007810WA0014500198005010029216221
B1248062016953S07007813WA0014400197005010029214220
B1248072016957S07007816WA0014300196005010029213221
B1248082016961S07007818WA0014200195005010030212222
B1248092016965S07007821WA0014100194005010031210221
B1248102016969S07007824WA0014000193005010031209221
B1248112016974S07007827WA0014000191005010031210216
B1248122016978S07007830WA0013900190005010031209216
B1248132016982S07007832WA0013800190005010032205211
B1248142016986S07007834WA0013700189005010032199210
B1248152016991S07007836WA0013600188005010032193201
B1248162016997S07007838WA0013600188005010031191199
B1248172017002S07007841WA0013500187005010031191198
B1248182017007S07007843WA0013400186005010031189195
B1248192017012S07007844WA0013300186005010033185190
B1248202017017S07007845WA0013200185005010033182185
B1248212017022S07007846WA0013100184005010033174179
B1248222017027S07007845WA0013000184005010032170176
B1248232017032S07007845WA0012900183005010032166169
B1248242017036S07007844WA0012900183005010032161164
B1248252017041S07007842WA0012800182005010033155155
B1248262017045S07007840WA0012700181005010034148150
B1248272017049S07007837WA0012600176005010034144146
B1248282017053S07007834WA0012500171005010033141144
B1248292017057S07007830WA0012400167005010033137139
B1248302017061S07007826WA0012400162005010034133134
B1248312017064S07007822WA0012300158005010035128128
B1248322017067S07007817WA0012200156005010034124123
B1248332017070S07007812WA0012100152005010034119118
B1248342017073S07007807WA0012000148005010034115113
B1248352017075S07007801WA0011900145005010035109108
B1248362017077S07007796WA0011800143005010035104103
B1248372017078S07007790WA0011700140005010034099099
B1248382017079S07007784WA0011600138005010034095095
B1248392017079S07007778WA0011600135005010034092091
B1248402017080S07007772WA0011500133005010034089087
B1248412017080S07007766WA0011400131005010035086084
B1248422017079S07007760WA0011300129005010035083080
B1248432017078S07007755WA0011200127005010034079076
B1248442017077S07007749WA0011100125005010034075070
B1248452017076S07007743WA0011100123005010034071066
B1248462017074S07007738WA0011100121005010033067062
B1248472017073S07007732WA0011000119005010033063059
B1248482017070S07007727WA0010900117005010034060059
B1248492017068S07007722WA0010900115005010034059058
B1248502017065S07007717WA0010800113005010034059056
B1248512017063S07007712WA0010700112005010033058050
B1248522017060S07007707WA0010700111005010032055039
B1248532017057S07007703WA0010600110005010031047023
B1248542017054S07007700WA0010500109005010032031005
B1248552017049S07007698WA0010500107005010031015348
B1248562017045S07007698WA0010400106005010031356331
B1248572017040S07007699WA0010300105005010028338314
B1248582017037S07007701WA0010200104005010026318299
B1248592017034S07007704WA0010100103005010026304289
B1249002017032S07007707WA0010000102005010025289283
B1249012017032S07007711WA0009900101005010025275277
B1249022017032S07007715WA0009800101005010024267263
B1249032017032S07007719WA0009800100005010026258256
B1249042017033S07007723WA0009800099005010027252249
B1249052017035S07007727WA0009700098005010027248246
B1249072017036S07007731WA0009600098005010029247246
B1249082017040S07007740WA0009500096005010030249252
B1249092017041S07007744WA0009400095005010030248258
B1249102017043S07007749WA0009300095005010031250269
B1249122017044S07007753WA0009200094005010029264285
B1249132017044S07007757WA0009100093005010026284301
B1249142017042S07007761WA0009000093005010027304316
B1249152017036S07007764WA0008800091005010032004345
B1249172017031S07007762WA0008700090005010036028016
B1249182017026S07007759WA0008600089005010036042040
B1249202017020S07007749WA0008400088005010036076071
B1249212017020S07007742WA0008300087005010038094092
B1249222017021S07007736WA0008200086005010039102111
B1249232017022S07007731WA0008200085010019032116120
B1249242017026S07007726WA0008000084010019034128135
B1249252017029S07007722WA0007800083010019031119148
B1249312017027S07007732WA0007000062004003041150127
B1249322017032S07007731WA0006900060004003044181163
B1249332017038S07007733WA0006700060004003042214196
B1249342017041S07007735WA0006500059004003042232224
B1249352017044S07007739WA0006400060004003030243240
B1249362017046S07007741WA0006200059004003026241245
B1249372017047S07007744WA0006100059004003019236242
B1249382017048S07007747WA0006100057004003023255250
B1249392017048S07007751WA0006100054004003031286278
B1249402017046S07007756WA0006000051004004031294305
B1249412017039S07007756WA0006000050004003032357333
B1249422017034S07007755WA0005900047004004042029008
B1249432017028S07007752WA0005700051004004042025034
B1249442017027S07007747WA0005500051004004042075041
B1249452017024S07007743WA0005400050004003037049040
B1249462017020S07007742WA0005200048004003027011010
B1249472017016S07007742WA0005200045004004027345340
B1249482017012S07007743WA0005100042004004029343317
B1249492017009S07007748WA0005000044004004036311307
B1249502017007S07007752WA0004900044004003029294291
B1249512017006S07007755WA0004800046004003025288290
B1249522017004S07007757WA0004700042004003022337313
B1249532016999S07007758WA0004600038004003035354341
B1249542016995S07007758WA0004500035004003035000006
B1249552016991S07007756WA0004400033004004033021025
B1249562016988S07007748WA0004300034004003033073042
B1249572016993S07007761WA0004100029005010019032030
B1249582016990S07007756WA0004000029005010027064028
B1249592016987S07007748WA0003900027005010027045024
B1250002016983S07007743WA0003800025005010032030011
B1250012016974S07007740WA0003700023005010029355003
B1250022016969S07007740WA0003600022005010025339336
B1250032016966S07007742WA0003500022005010026336330
B1250042016962S07007743WA0003400020005010029339333
B1250052016957S07007745WA0003400019005010029343332
B1250062016953S07007746WA0003300018005010025341331
B1250072016950S07007747WA0003200017005010023335327
B1250082016946S07007749WA0003100016005010023330327
B1250092016943S07007751WA0003000015005010025332336
B1250102016939S07007752WA0002900015005010026338340
B1250112016935S07007753WA0002800013005010028356354
B1250122016931S07007753WA0002800012005010030011003
B1250132016926S07007752WA0002700012005010030014000
B1250142016922S07007750WA0002500011005010030010350
B1250152016917S07007750WA0002400010005010029007351
B1250162016913S07007749WA0002300009005010030003351
B1250172016909S07007748WA0002200008005010030008344
B1250182016904S07007748WA0002100007005010031009352
B1250192016900S07007747WA0002000006005010029006343
B1250202016895S07007747WA0001900004005010028355331
B1250212016891S07007748WA0001800003005010026341323
B1250222016888S07007749WA0001600002005010023334316
B1250232016885S07007751WA0001500001005010020327320
B1250242016882S07007753WA0001500000005010017324329
B1250252016881S07007754WA0001400000005010013322327
B1250262016880S07007755WA00014-0001005010006309038
B1250272016880S07007756WA00013-0002005010002230350
B1250282016880S07007756WA00013-0003005010002236323
B1250292016881S07007756WA00013-0004005010001182321
B1250302016881S07007756WA00013-0004005010001158349
B1250312016881S07007756WA00013-0005005010001127349
B1250322016881S07007756WA00013-0006005010001100345
B1250332016881S07007755WA00013-0006005010000273347
B1250342016881S07007755WA00013-0007005010001215333
B1250352016882S07007755WA00013-0008005010001208323
B1250362016882S07007755WA00013-0008005010001204317
B1250372016882S07007755WA00013-0009005010001181317
B1250382016882S07007755WA00013-0010005010000000317
B1250392016882S07007756WA00013-0010005010001197320
B1250402016882S07007756WA00013-0011005010001228312
B1250412016882S07007756WA00013-0012005010001195309
B1250422016882S07007756WA00013-0012005010000000306
B1250432016882S07007756WA00013-0013005010000000312
B1250442016882S07007756WA00013-0013005010000000310
B1250452016882S07007756WA00013-0014005010001297309
B1250462016882S07007756WA00013-0014005010001250305
B1250472016882S07007756WA00013-0014005010000000300
B1250482016882S07007756WA00013-0015005010001235306
B1250492016882S07007756WA00013-0015005010000196299
B1250502016882S07007756WA00013-0015005010000000299
B1250512016882S07007756WA00013-0015005010000000303
B1250522016883S07007756WA00013-0016005010000000302
B1250532016882S07007756WA00013-0016005010000000301
B1250542016882S07007756WA00013-0016005010001119298
B1250552016882S07007756WA00013-0016005010001074297
B1250562016882S07007755WA00013-0016005010000000302
B1250572016881S07007755WA00013-0016005010000000299
GLjM7VZ5ax1GzfxOYPBXMh10vBjnhefCro0dmL2lEz3Q4eOOnBtDEFJo4OY1mPmdY
Gh+ZzIDKf90N2DtWU0VlPtq8DJNxR+qfWlIm/zdfUbwFdAE4+4mjN2PJOf2fsvIc8
GUeDSQY+8X49hH5qrP3LEiNLwbwu3jN3e0XCXTTyBRr0=

