AXFH000
HFDTE170924
HFPLTPILOT:Scott O’Brien
HFGTYGLIDERTYPE:BGD Epic
HFDTM100GPSDATUM:WGS84
HFRFWFIRMWAREVERSION:8.2.4
HFRHWHARDWAREVERSION:Unknown device (iPhone15,4)
HFFTYFRTYPE:Flyskyhy,8.2.4
HFGPS:Internal
HFPRSVARIO:Internal Vario
HFCCLCOMPETITIONCLASS:Paraglider
HFTZNTIMEZONE:-7
HFSITSITE:Ed Levin 300ft,US
I053638FXA3941VXA4244GSP4547CCO4850HDT
C170924174106170924000108TASK
C0000000N00000000ETAKEOFF
C3920440N12241116W00015009999999000000360000STARTAREA POTLAU
C3922249N12241405W00000000001000000000360000TURNAREA SNOWVL
C3920978N12239724W00000000000400000000360000TURNAREA POTLZ
C3920095N12241882W00000000000400000000360000TURNAREA TOP
C3922264N12241989W00000000001000000000360000TURNAREA SNOWLO
C3920983N12238798W00000000001000000000360000TURNAREA TROUGH
C3920095N12241882W00000000000400000000360000TURNAREA TOP
C3925826N12241497W00000000005000000000360000TURNAREA STJOHN
C3920440N12241116W00000000001500000000360000TURNAREA POTLAU
C3920978N12239724W00000000000400000000360000FINISHAREA POTLZ
C0000000N00000000ELANDING
E174135PEVBackground
B1741353727662N12151855WA0027700275004006008277014
B1741363727663N12151856WA0027700276004006008329040
B1741373727664N12151856WA0027700277004006008343062
B1741383727665N12151856WA0027700278004006006037083
B1741393727665N12151855WA0027700275004004005020101
B1741403727665N12151854WA0027700274004004009050125
B1741413727667N12151853WA0027600274004003009055154
B1741423727666N12151851WA0027600273004003014111189
B1741433727665N12151849WA0027500274004003015132207
B1741443727664N12151847WA0027500273004003012121207
B1741453727663N12151845WA0027500271004004013121196
B1741463727663N12151843WA0027400271005006012106188
B1741473727662N12151841WA0027400270004004012090181
B1741483727663N12151837WA0027300271004004012091176
B1741493727663N12151836WA0027200273005006009085171
B1741503727664N12151832WA0027300275005006017079163
B1741513727664N12151829WA0027300274004006015062153
B1741523727665N12151827WA0027300274004006015057143
B1741533727666N12151825WA0027300274004006013058132
B1741543727667N12151823WA0027300278004006009053123
B1741553727670N12151822WA0027400277004006017021028
B1741563727672N12151820WA0027500276004006014025356
B1741573727674N12151818WA0027500276005006017032354
B1741583727675N12151817WA0027500278004006014026333
B1741593727677N12151815WA0027600276004006014026324
B1742003727680N12151812WA0027600278005006020044314
B1742013727683N12151814WA0027600275005006016004315
B1742023727686N12151812WA0027600274006008016021317
B1742033727683N12151810WA0027600271007008016067321
B1742043727686N12151809WA0027500275023008012033319
B1742053727688N12151809WA0027500275023008012028312
B1742063727689N12151809WA0027500276023006010018310
B1742073727690N12151809WA0027500276022006007018308
B1742083727690N12151809WA0027500276023006006018308
B1742093727693N12151810WA0027500272022006018341319
B1742103727693N12151809WA0027500271022006018050329
B1742113727694N12151809WA0027500267022008005017334
B1742123727694N12151810WA0027500268022006004065339
B1742133727694N12151810WA0027500274022006000018344
B1742143727694N12151810WA0027500275023006001341346
B1742153727694N12151811WA0027500274023006000018349
B1742163727693N12151809WA0027500274022006001147351
B1742173727693N12151810WA0027500275022006001081352
B1742183727693N12151810WA0027500276022006001036354
B1742193727694N12151809WA0027500276022006001333355
B1742203727694N12151809WA0027500279022006001136356
B1742213727694N12151810WA0027600280022006001003356
B1742223727693N12151809WA0027600277022006001143357
B1742233727693N12151808WA0027600276022006008132357
B1742243727692N12151807WA0027500274022006008129358
B1742253727693N12151808WA0027500274022006002035358
B1742263727694N12151808WA0027500273022006002345358
B1742273727694N12151808WA0027500274022006000201359
B1742283727694N12151809WA0027500275022006001065359
B1742293727694N12151809WA0027500280022006001281359
B1742303727694N12151809WA0027500282022006001293359
B1742313727693N12151809WA0027500281022006002136359
B1742323727693N12151809WA0027500280022006000293359
B1742333727694N12151808WA0027500280022006002038359
B1742343727695N12151809WA0027500280022006003350359
B1742353727695N12151810WA0027500281022006005000359
B1742363727696N12151810WA0027500279022004005004359
B1742373727696N12151809WA0027500278022006005005359
B1742383727697N12151808WA0027500278022004005035359
B1742393727698N12151808WA0027600276022004004036359
B1742403727699N12151806WA0027600277022004008047356
B1742413727699N12151805WA0027600279022006008048355
B1742423727699N12151805WA0027600279022006007049353
B1742433727699N12151805WA0027600281022006001048352
B1742443727700N12151805WA0027700281022006003007352
B1742453727700N12151805WA0027700281022006002049351
B1742463727699N12151804WA0027700281023008003049351
B1742473727699N12151804WA0027700280023006002049351
B1742483727699N12151803WA0027700279023006001049348
B1742493727699N12151804WA0027800280022006001049340
B1742503727699N12151804WA0027800281022006001049340
B1742513727699N12151804WA0027800279023004001049340
B1742523727698N12151804WA0027800280022004001049339
B1742533727699N12151803WA0027800278023004001042339
B1742543727699N12151804WA0027800277022004001049339
B1742553727699N12151804WA0027800276022004001248336
B1742563727699N12151804WA0027800278022004001247333
B1742573727699N12151804WA0027800277022004000004337
B1742583727699N12151804WA0027800276022004001051341
B1742593727699N12151804WA0027800276022004001040344
B1743003727699N12151804WA0027800277022003001282346
B1743013727700N12151804WA0027800277022003001212349
B1743023727700N12151803WA0027800276022003001217351
B1743033727700N12151803WA0027800276022003001183352
B1743043727699N12151803WA0027800277022003001197354
B1743053727700N12151803WA0027800277022003001018355
B1743063727700N12151803WA0027800276022003002011356
B1743073727699N12151803WA0027800277022003001206356
B1743083727700N12151803WA0027800277022003000278357
B1743093727700N12151803WA0027800277022003001149357
B1743103727700N12151803WA0027800278022003001242358
B1743113727699N12151803WA0027800279022003000066358
B1743123727699N12151803WA0027800279022003001129358
B1743133727700N12151801WA0027800279022003003044359
GKM8gSXKTD6O3lj/QNXTjIFAYXxdXOiJ0hmtHD7QVhHnfHmIcUfBxI+FaQEwm337+
G3PS0oaD5tJABsek/jPEGixtT1gEcJmFsffbl69Mpq7hbBb/eop4YEonTIIyXurI4
GSzr0owPy5iscPgapBfwsk5f0SW3jYy8WFeDV0m71Q4Y=

