AXFH000
HFDTE071124
HFPLTPILOT:Scott O’Brien
HFGTYGLIDERTYPE:Ozone Swift 6
HFDTM100GPSDATUM:WGS84
HFRFWFIRMWAREVERSION:8.2.5
HFRHWHARDWAREVERSION:iPhone 15
HFFTYFRTYPE:Flyskyhy,8.2.5
HFGPS:Internal
HFPRSVARIO:Internal Vario
HFCCLCOMPETITIONCLASS:Paraglider
HFTZNTIMEZONE:-3
HFSITSITE:Iquique - Palo Buque,CL
I053638FXA3941VXA4244GSP4547CCO4850HDT
C071124205201071124000105TASK
C0000000N00000000ETAKEOFF
C3832449N11204411W00000000001000000000360000STARTAREA T04
C3832449N11204411W00030009999999000000360000TURNAREA T04
C3833533N11148217W00000000002000000000360000TURNAREA P30
C3845304N11125100W00000000006000000000360000TURNAREA S08
C3913309N11109083W00000000002000000000360000TURNAREA F04
C3935774N11050460W00000000003000000000360000TURNAREA G14
C3935774N11050460W00000000000400000000360000FINISHAREA G14
C0000000N00000000ELANDING
B2052312023044S07009109WA0020400204022003000027017
B2052322023044S07009109WA0020400205022003001027359
B2052332023044S07009109WA0020400205022003001198010
B2052342023044S07009108WA0020400204022003003060035
B2052352023043S07009108WA0020400205022003006052050
B2052362023043S07009107WA0020400205022003003060043
B2052372023043S07009107WA0020500205022003004060046
B2052382023042S07009106WA0020500206022003004060039
B2052392023042S07009106WA0020500206022003004060056
B2052402023042S07009105WA0020600207022003003060023
B2052412023042S07009104WA0020600207022003003060016
B2052422023041S07009103WA0020700208022003004060025
B2052432023041S07009103WA0020700208022003004060006
B2052442023042S07009103WA0020800208022003003060064
B2052452023041S07009102WA0020800207022003002060044
B2052462023041S07009103WA0020800209022003008267235
B2052472023042S07009103WA0020900210022003008060210
B2052482023043S07009104WA0020900209022003008191180
B2052492023045S07009104WA0020900208022003009189188
B2052502023047S07009103WA0020900207022003019153186
B2052512023050S07009103WA0020800208022003020175168
B2052522023053S07009102WA0020700208022003020166180
B2052532023056S07009101WA0020700209022003020149173
B2052542023058S07009099WA0020700210022003023135152
B2052552023061S07009096WA0020800211022003024124147
B2052562023062S07009093WA0020900211022003023113137
B2052572023064S07009090WA0021000212022003023114140
B2052582023066S07009087WA0021100212022004023124144
B2052592023068S07009083WA0021100216022004026124148
B2053002023070S07009081WA0021200215022004023132149
B2053012023072S07009078WA0021200214004004021122147
B2053022023073S07009076WA0021200213004003018133151
B2053032023076S07009074WA0021200211004003020155163
B2053042023079S07009073WA0021100209004003020171172
B2053052023082S07009072WA0021100210004003021173174
B2053062023084S07009072WA0021100210004003019157177
B2053072023087S07009069WA0021100212004003026132165
B2053082023089S07009066WA0021100211004004023120145
B2053092023090S07009063WA0021100211004003023110145
B2053102023092S07009060WA0021100211004003021121147
B2053112023093S07009057WA0021100211004003021121142
B2053122023094S07009054WA0021200214004003020108140
B2053132023096S07009052WA0021300215004003019106130
B2053142023097S07009049WA0021400215004003015116129
B2053152023098S07009048WA0021400214004003016140133
B2053162023101S07009046WA0021500214004003022159150
B2053172023103S07009045WA0021500214004003022155160
B2053182023105S07009043WA0021500216004003022139162
B2053192023107S07009041WA0021500217004004016114150
B2053202023108S07009039WA0021500218004004017107138
B2053212023108S07009036WA0021500217004004017121137
B2053222023110S07009034WA0021600217004003017127145
B2053232023112S07009032WA0021600217004003017132140
B2053242023114S07009029WA0021600216004003020135142
B2053252023116S07009027WA0021700217004003020129148
B2053262023117S07009024WA0021700218004003020114143
B2053272023119S07009021WA0021700217004003020107131
B2053282023120S07009019WA0021700218004003020137136
B2053292023123S07009018WA0021700217004003020180160
B2053302023125S07009019WA0021700218004003016213195
B2053312023125S07009022WA0021700218004003024274218
B2053322023124S07009025WA0021700217004004024300246
B2053332023119S07009029WA0021700216004003025325274
B2053342023116S07009032WA0021700216004003031330294
B2053352023112S07009035WA0021700216004004030325303
B2053362023109S07009038WA0021700214004003030326299
B2053372023105S07009041WA0021700212004003030321304
B2053382023101S07009045WA0021700212004003034319302
B2053392023097S07009049WA0021600213004004035314302
B2053402023093S07009053WA0021600213004004033315296
B2053412023090S07009056WA0021600215004004033323294
B2053422023086S07009059WA0021600216004006032327306
B2053432023082S07009062WA0021500218004006032325312
B2053442023078S07009063WA0021500217004006032338312
B2053452023074S07009065WA0021600218004004026336327
B2053462023070S07009068WA0021700219004004029329325
B2053472023067S07009070WA0021800219004004029323317
B2053482023063S07009072WA0022000220004004030331310
B2053492023058S07009075WA0022000221004006032332321
B2053502023054S07009078WA0022100221004004033327323
B2053512023050S07009081WA0022200222004004033323318
B2053522023046S07009083WA0022300224004004033334311
B2053532023042S07009085WA0022400225004003033342325
B2053542023037S07009086WA0022500228004003033341333
B2053552023033S07009087WA0022600228004003031355332
B2053562023028S07009088WA0022700228004003031348351
B2053572023025S07009090WA0022900228004003028324339
B2053582023022S07009092WA0023000227004003025299302
B2053592023022S07009095WA0023000226004003023265274
B2054002023023S07009098WA0023000226004003022226241
B2054012023026S07009099WA0023000226004003022185217
B2054022023029S07009099WA0023000226004003022158188
B2054032023031S07009097WA0023000228004003022139159
B2054042023034S07009095WA0022900229004003022148159
B2054052023037S07009094WA0022900230004003019145174
B2054062023039S07009091WA0022900229004003023130171
B2054072023041S07009088WA0023000229004003023129158
B2054082023044S07009085WA0023000229004003024133166
B2054092023046S07009082WA0023000230004003025135166
B2054102023049S07009079WA0023100232004003031127156
B2054112023051S07009075WA0023100235004003031116144
B2054122023053S07009071WA0023200238004003031104143
B2054132023054S07009067WA0023300241004003028093138
B2054142023054S07009064WA0023500241004003022085138
B2054152023054S07009061WA0023700241004003017105134
B2054162023055S07009059WA0023700243004004017128147
B2054172023058S07009056WA0023900242004003017134163
B2054182023060S07009053WA0024100244004003024132158
B2054192023062S07009051WA0024200244004003024133151
B2054202023064S07009049WA0024200246004003018127166
B2054212023065S07009046WA0024200247004003019124162
B2054222023067S07009043WA0024200246004003019121161
B2054232023069S07009040WA0024200246004004021124155
B2054242023072S07009036WA0024300244004004023127157
B2054252023074S07009033WA0024300245004004029126155
B2054262023076S07009029WA0024400246004004029117155
B2054272023078S07009025WA0024400246004003027120152
B2054282023080S07009023WA0024400246004004022113159
B2054292023082S07009019WA0024400244004004022131156
B2054302023085S07009016WA0024400243004003030131162
B2054312023087S07009013WA0024500244004003030121161
B2054322023089S07009010WA0024500245004003028119145
B2054332023091S07009007WA0024500245004003021126155
B2054342023093S07009005WA0024500243004003019141167
B2054352023097S07009004WA0024600247004003027157154
B2054362023100S07009002WA0024600249004003022149164
B2054372023102S07009000WA0024600253004003022132171
B2054382023103S07008997WA0024700255004003017101156
B2054392023104S07008994WA0024800255004003019101126
B2054402023105S07008992WA0025000256004003018136136
B2054412023108S07008989WA0025100255004003019144164
B2054422023111S07008987WA0025300254004003028140163
B2054432023113S07008984WA0025400256004003028125154
B2054442023115S07008981WA0025500260004003027115142
B2054452023116S07008979WA0025600262004003020118143
B2054462023117S07008976WA0025700263004003016125155
B2054472023119S07008974WA0025800263004003022133156
B2054482023121S07008971WA0026000262004003022124153
B2054492023123S07008967WA0026200262004003022117145
B2054502023124S07008964WA0026200262004003024105135
B2054512023125S07008960WA0026300261004003025105134
B2054522023127S07008956WA0026300260004003026110129
B2054532023130S07008953WA0026300261004004026124138
B2054542023132S07008949WA0026300260004003027133146
B2054552023135S07008947WA0026200261004003027136148
B2054562023138S07008944WA0026200261004003024130150
B2054572023140S07008941WA0026100260004003024127145
B2054582023142S07008938WA0026100260004004024135143
B2054592023146S07008934WA0026000258004004026137158
B2055002023149S07008932WA0026000258022006030147164
B2055012023152S07008929WA0026000261022004022142155
B2055022023154S07008926WA0026000261022003026126147
B2055032023157S07008922WA0026000261022003026125130
B2055042023161S07008918WA0026100262004004031130165
B2055052023165S07008915WA0026100264004004034138168
B2055062023168S07008913WA0026100267004003024151163
B2055072023171S07008910WA0026100268004004024139165
B2055082023172S07008908WA0026200266004003022121170
B2055092023173S07008904WA0026300263004003022120160
B2055102023176S07008902WA0026300261004003025144165
B2055112023180S07008900WA0026300260004003031165180
B2055122023183S07008899WA0026300258004004031184195
B2055132023186S07008903WA0026300260004004031241210
B2055142023185S07008906WA0026200260004003027286249
B2055152023183S07008909WA0026100259004003031312284
B2055162023180S07008912WA0026000259004003032329306
B2055172023177S07008915WA0026000260004003032326320
B2055182023173S07008917WA0026000260004004029329316
B2055192023170S07008920WA0026000258004003027330317
B2055202023166S07008922WA0025900258004003027331313
B2055212023161S07008924WA0025900259004003034330316
B2055222023157S07008927WA0025900261004003034323308
B2055232023154S07008929WA0025900264004003030331306
B2055242023151S07008931WA0025900266004004025328308
B2055252023148S07008933WA0026000264004003022320305
B2055262023145S07008937WA0026100264004003033318305
B2055272023141S07008940WA0026200264004003037323309
B2055282023137S07008943WA0026300267004003034323298
B2055292023134S07008945WA0026400269004003034331298
B2055302023131S07008947WA0026500269004003024332299
B2055312023128S07008949WA0026600269004003023322295
B2055322023125S07008952WA0026700268004004032315298
B2055332023121S07008956WA0026800269004004032313290
B2055342023118S07008960WA0026900270004003032309290
B2055352023116S07008962WA0027000271004003028310280
B2055362023114S07008965WA0027000271004003018311283
B2055372023112S07008967WA0027000270004003022311289
B2055382023109S07008971WA0027000268004003022303293
B2055392023107S07008975WA0027000268004003030300286
B2055402023105S07008979WA0027000268004003031303284
B2055412023102S07008982WA0027000267004004027312286
B2055422023099S07008986WA0027000268004003028322289
B2055432023095S07008989WA0026900267004004028320299
B2055442023091S07008992WA0026800266004004031317302
B2055452023087S07008996WA0026800265004004033317305
B2055462023084S07009000WA0026800266004003033313301
B2055472023081S07009003WA0026700265004003033320297
B2055482023077S07009006WA0026700265004003030320305
B2055492023073S07009009WA0026700266004003030317307
B2055502023070S07009013WA0026600265004003030313306
B2055512023067S07009016WA0026600264004003030315304
B2055522023064S07009020WA0026500263004003030314307
B2055532023061S07009023WA0026500263004003029316306
B2055542023057S07009027WA0026500262004003029309309
B2055552023055S07009032WA0026400264004003033303304
B2055562023051S07009037WA0026400266004003038298294
B2055572023049S07009041WA0026400269004003038301286
B2055582023047S07009044WA0026400271004003030312284
B2055592023045S07009046WA0026400272004003023323291
B2056002023043S07009048WA0026500270004003018302303
B2056012023042S07009052WA0026500268004003028277285
B2056022023041S07009056WA0026600266004003030277268
B2056032023040S07009060WA0026800268004003028295277
B2056042023037S07009063WA0026900267004003028321291
B2056052023033S07009066WA0026900268004003028331309
B2056062023029S07009069WA0026900268004003034327316
B2056072023025S07009073WA0026900269004003034323318
B2056082023021S07009075WA0026800268004004034325313
B2056092023016S07009078WA0026800271004004034336317
B2056102023011S07009080WA0026800270004003037341322
B2056112023006S07009082WA0026800269004003036340328
B2056122023001S07009084WA0026800269004003039341330
B2056132022995S07009086WA0026800271004003039336329
B2056142022989S07009089WA0026900271004003041333326
B2056152022985S07009092WA0026900272004003041325321
B2056162022982S07009095WA0027000274004003025311313
B2056172022981S07009099WA0027000277004004028277297
B2056182022982S07009103WA0027100280004003028242261
B2056192022985S07009104WA0027200281004004028198226
B2056202022988S07009105WA0027300284004004022181181
B2056212022991S07009098WA0027300281004003052111159
B2056222022993S07009092WA0027500284004003052096124
B2056232022993S07009086WA0027700287004003045084113
B2056242022992S07009082WA0027900290004004032079108
B2056252022992S07009078WA0027900293004004025089108
B2056262022992S07009074WA0028200290004004024102114
B2056272022994S07009069WA0028500289004004032108124
B2056282022996S07009065WA0028700291004003032117129
B2056292022998S07009060WA0028700294004003033122134
B2056302023000S07009057WA0028900297004003033127140
B2056312023001S07009054WA0029200298004003018117146
B2056322023003S07009051WA0029300300004004022119141
B2056332023005S07009047WA0029300301004004022122143
B2056342023008S07009043WA0029500302004006026125150
B2056352023010S07009041WA0029700303004004026134152
B2056362023012S07009040WA0029900306004004016160154
B2056372023014S07009038WA0029900307004004018150169
B2056392023017S07009037WA0030100308004004018157160
B2056402023019S07009035WA0030300307004004018130160
B2056412023021S07009032WA0030500308004004022120151
B2056422023022S07009028WA0030500308004004028107144
B2056432023025S07009024WA0030600310004004028116138
B2056442023025S07009020WA0030700314004004030090134
B2056452023026S07009016WA0030800316004004024097122
B2056462023027S07009012WA0030800318004004025100131
B2056472023028S07009008WA0031000319004004025101134
B2056482023029S07009003WA0031200321004004030107138
B2056492023031S07008999WA0031400324004003031123147
B2056502023033S07008996WA0031400328004003031149156
B2056512023037S07008994WA0031700331004004028152170
B2056522023039S07008996WA0032000336004004027232171
B2056532023040S07008998WA0032300338004003018243222
B2056542023041S07009000WA0032300340004004018253224
B2056552023042S07009002WA0032600341004004016255234
B2056562023042S07009005WA0032900340004003016266243
B2056572023042S07009008WA0033200342004003018282245
B2056582023041S07009011WA0033200343004003019287257
B2056592023041S07009014WA0033500343004003019271253
B2057002023041S07009016WA0033700343004004019265244
B2057012023041S07009019WA0033800344004004017254246
B2057022023042S07009022WA0033800344004004017263243
B2057032023042S07009024WA0033800346004004019267242
B2057042023043S07009027WA0033900345004004019262240
B2057052023044S07009030WA0033900346004004019251242
B2057062023044S07009033WA0033900347004006021251239
B2057072023045S07009036WA0034000348004006021258243
B2057082023045S07009038WA0034000348004006017263245
B2057092023045S07009041WA0034000347004006017260246
B2057102023045S07009044WA0034000346004006017270245
B2057112023044S07009047WA0034100345004006017274247
B2057122023044S07009049WA0034100345004004016271250
B2057132023044S07009052WA0034100347004004020264245
B2057142023044S07009056WA0034100351004006023263245
B2057152023043S07009059WA0034200351004006020288242
B2057162023043S07009061WA0034200351004006016277248
B2057172023043S07009064WA0034300350004006016278249
B2057182023043S07009067WA0034300351004006020270245
B2057192023042S07009070WA0034300352004004021280251
B2057202023042S07009072WA0034400351005006020271247
B2057212023041S07009076WA0034400352004006021283247
B2057222023041S07009079WA0034400351004004021260246
B2057232023042S07009082WA0034400352004004023246229
B2057242023043S07009085WA0034500354004004021244227
B2057252023044S07009087WA0034500357004006018241221
B2057262023045S07009089WA0034500358004006015230219
B2057272023047S07009090WA0034700358004004013218220
B2057282023048S07009093WA0034900359004004017226213
B2057292023050S07009094WA0035000361004004017223218
B2057302023052S07009097WA0035000363004003021232215
B2057312023054S07009099WA0035200366004003021240212
B2057322023055S07009101WA0035500368004003016242219
B2057332023056S07009103WA0035700370004003017234202
B2057342023059S07009105WA0035700371004003017221211
B2057352023061S07009107WA0036000373004003018204192
B2057362023063S07009107WA0036200374004003018182196
B2057372023066S07009107WA0036500376004003015159193
B2057382023068S07009107WA0036500377004003015153186
B2057392023070S07009106WA0036800378004003015154190
B2057402023073S07009105WA0037100379004004016156189
B2057412023076S07009104WA0037300379004004018158187
B2057422023078S07009103WA0037300381004004016161181
B2057432023080S07009102WA0037400380004003016158182
B2057442023082S07009101WA0037600380004004014160181
B2057452023084S07009100WA0037700380004004014164185
B2057462023087S07009099WA0037700379004003017172191
B2057472023090S07009099WA0037700379004003020184192
B2057482023092S07009100WA0037700378004003020201196
B2057492023094S07009101WA0037700379004003018213204
B2057502023096S07009102WA0037700379004003016207203
B2057512023098S07009103WA0037700379004003016202210
B2057522023100S07009104WA0037700378004003017206209
B2057532023103S07009106WA0037700378004003019211211
B2057542023106S07009108WA0037700377004003019207214
B2057552023108S07009109WA0037700377004003022206206
B2057562023111S07009110WA0037600377004003022203208
B2057572023114S07009112WA0037600376004003018210213
B2057582023116S07009114WA0037600376004003020221212
B2057592023118S07009116WA0037500375004003020221217
B2058002023121S07009118WA0037500374004003023222218
B2058012023124S07009121WA0037400374004003023223218
B2058022023126S07009123WA0037400373004003021226216
B2058032023128S07009126WA0037400373004003021229220
B2058042023130S07009128WA0037300372004003020230218
B2058052023132S07009131WA0037200372004004020230212
B2058062023133S07009133WA0037200373004003020235213
B2058072023135S07009135WA0037200373004003018235207
B2058082023136S07009137WA0037100373004003018230208
B2058092023138S07009139WA0037100372004003018222205
B2058102023140S07009141WA0037100373004003019223203
B2058112023143S07009144WA0037100375004004019216201
B2058122023147S07009146WA0037200376004004025208206
B2058132023150S07009147WA0037200375004004025185208
B2058142023152S07009148WA0037200377004004021197209
B2058152023155S07009149WA0037200377004003016214217
B2058162023157S07009151WA0037300375004004016225217
B2058172023159S07009154WA0037300374004004027232219
B2058182023162S07009157WA0037300372004004027228214
B2058192023164S07009159WA0037200371004004024224216
B2058202023167S07009161WA0037100370004004021216220
B2058212023169S07009164WA0037000368004004021219226
B2058222023171S07009167WA0037000366004004024230226
B2058232023173S07009170WA0036900366004006025236225
B2058242023175S07009174WA0036700366004006024242233
B2058252023177S07009177WA0036500368004006020244238
B2058262023178S07009180WA0036500367004006020252240
B2058272023178S07009183WA0036400366004006021267247
B2058282023178S07009186WA0036200363004006022274250
B2058292023178S07009190WA0036100362004006022273248
B2058302023178S07009194WA0036100362004006023275250
B2058312023177S07009197WA0035900360004004023279250
B2058322023177S07009200WA0035800357004004017280251
B2058332023176S07009202WA0035700356004004018286253
B2058342023176S07009205WA0035700355004004018279254
B2058352023175S07009209WA0035500353004004022282256
B2058362023174S07009212WA0035400353004004023281258
B2058372023173S07009215WA0035200352004004019278252
B2058382023173S07009218WA0035200351004004019270249
B2058392023174S07009221WA0035100349004004017261243
B2058402023175S07009224WA0034900348004006017252231
B2058412023176S07009227WA0034800347004006021236226
B2058422023179S07009230WA0034800347005006029217218
B2058432023182S07009233WA0034600349004006029204208
B2058442023185S07009234WA0034400353004006027188193
B2058452023187S07009234WA0034400352004006015151179
B2058462023188S07009232WA0034400348004006011100173
B2058472023190S07009230WA0034300346004006021130160
B2058482023193S07009227WA0034300342004004021134159
B2058492023196S07009223WA0034200339004004031129155
B2058502023197S07009219WA0034200340004003031109141
B2058512023198S07009213WA0034100339004003032090131
B2058522023198S07009208WA0034000337004004035079115
B2058532023198S07009202WA0033800336004006035083106
B2058542023196S07009197WA0033800334004004037070096
B2058552023194S07009191WA0033600333004004039066085
B2058562023191S07009185WA0033400332004004044054069
B2058572023186S07009180WA0033200331004004046041047
B2058582023180S07009177WA0033100330004004045025025
B2058592023175S07009175WA0032900328004004045012003
B2059002023168S07009174WA0032700325004004042008341
B2059012023162S07009175WA0032600322004004040339317
B2059022023158S07009177WA0032600321004004040321297
B2059032023155S07009179WA0032400319004006028304271
B2059042023155S07009182WA0032200316004006025261251
B2059052023155S07009185WA0032100313004006021251228
B2059062023156S07009189WA0032100314006008023236208
B2059072023159S07009186WA0031900313006008023142205
B2059082023161S07009184WA0031700311006008021127177
B2059092023163S07009182WA0031600310005006021136172
B2059102023167S07009180WA0031600308004006024148173
B2059112023170S07009178WA0031400305006008024152186
B2059122023172S07009178WA0031300307005006024182189
B2059132023174S07009178WA0031100309004006019198191
B2059142023176S07009178WA0031000309004006011187192
B2059152023177S07009178WA0030900308004006011184183
B2059162023179S07009176WA0030800307004006018135176
B2059172023182S07009174WA0030800306004006022135171
B2059182023184S07009172WA0030800304004006022138173
B2059192023187S07009170WA0030700303004006023156173
B2059202023191S07009169WA0030600302004006023167184
B2059212023194S07009167WA0030500300004006022166186
B2059222023197S07009167WA0030300299004006022172191
B2059232023200S07009167WA0030200298004006021185199
B2059242023203S07009167WA0030100297004006019196204
B2059252023205S07009168WA0030100295004006018204209
B2059262023207S07009169WA0029900292004006018206214
B2059272023209S07009171WA0029800292004004018221217
B2059282023211S07009173WA0029600292004004018226220
B2059292023213S07009175WA0029500291004004017235221
B2059302023214S07009177WA0029300290004004017234216
B2059312023216S07009179WA0029200289004004020223209
B2059322023218S07009181WA0029100289004004020203205
B2059332023221S07009182WA0028900289004004020217211
B2059342023223S07009185WA0028900289004004017228210
B2059352023224S07009187WA0028800288004003017238209
B2059362023226S07009188WA0028700286004004016223210
B2059372023229S07009191WA0028600285004006028209191
B2059382023232S07009192WA0028600286004006026201195
B2059392023235S07009193WA0028500288004006026195187
B2059402023237S07009194WA0028400289004004022190194
B2059412023240S07009194WA0028400288004004015173184
B2059422023242S07009194WA0028400288004003015165187
B2059432023245S07009194WA0028400286004003015175197
B2059442023248S07009194WA0028400285004003017180201
B2059452023252S07009194WA0028500284004003021180197
B2059462023255S07009194WA0028500285004003021182190
B2059472023257S07009195WA0028500284004003021197216
B2059482023260S07009196WA0028400283004003017211212
B2059492023262S07009197WA0028400281004003017213214
B2059502023264S07009198WA0028300280004003017209221
B2059512023266S07009200WA0028200278004003017217225
B2059522023268S07009202WA0028100276004003019235233
B2059532023269S07009205WA0028000275004003019246234
B2059542023270S07009208WA0027800274004003020243229
B2059552023272S07009210WA0027700272004003020231234
B2059562023274S07009212WA0027500271004003017227231
B2059572023275S07009214WA0027300270004003017238236
B2059582023276S07009217WA0027100268004003017253240
B2059592023277S07009220WA0027000268004003018252238
B2100002023278S07009222WA0027000267004003018248238
B2100012023279S07009225WA0026900267004003018238235
B2100022023280S07009227WA0026700267004003018249242
B2100032023280S07009230WA0026600266004003018261240
B2100042023281S07009233WA0026500266004004019259241
B2100052023282S07009237WA0026400265004004023251248
B2100062023283S07009241WA0026300266004004024247245
B2100072023283S07009244WA0026300266004004024259262
B2100082023284S07009248WA0026200266004004019283259
B2100092023283S07009251WA0026200265004004019293266
B2100102023281S07009255WA0026200263004004024287270
B2100112023280S07009259WA0026100262004004029287271
B2100122023278S07009264WA0026000262004004029291273
B2100132023275S07009272WA0025700261004004028307282
B2100142023272S07009275WA0025600260004003028312281
B2100152023269S07009279WA0025500259004003033313291
B2100162023265S07009283WA0025500258004003037318306
B2100172023261S07009286WA0025400257004004037323323
B2100182023254S07009289WA0025400256004003041338341
B2100192023247S07009292WA0025400256004004049344352
B2100202023240S07009293WA0025300258004003045355002
B2100212023234S07009293WA0025300258004003045007019
B2100222023227S07009293WA0025300257004003044015027
B2100232023220S07009291WA0025300257004004044020039
B2100242023214S07009287WA0025300255004003049032039
B2100252023210S07009282WA0025300252004003051046057
B2100262023206S07009276WA0025300249004003051058069
B2100272023203S07009269WA0025200249004003047075080
B2100282023202S07009262WA0025200248004003044086102
B2100292023202S07009256WA0025200247004003041090112
B2100302023202S07009251WA0025100247004003030100117
B2100312023204S07009246WA0024900247004004031111132
B2100322023205S07009242WA0024800244004006031117144
B2100332023209S07009238WA0024800248004004031140148
B2100342023211S07009236WA0024700249004004029159169
B2100352023214S07009235WA0024600250004004020193187
B2100362023217S07009236WA0024500249004004020203197
B2100372023219S07009237WA0024500249004004020206206
B2100382023222S07009239WA0024500248004006021215225
B2100392023223S07009244WA0024500252004004023252241
B2100402023223S07009249WA0024500253004003033281256
B2100412023222S07009254WA0024500255004003034291275
B2100422023220S07009257WA0024500257004003033309276
B2100432023218S07009261WA0024600259004003028308278
B2100442023216S07009264WA0024800260004004024303284
B2100452023213S07009268WA0024800258004004030299273
B2100462023210S07009272WA0025000257004004035306273
B2100472023207S07009277WA0025200256004004035307284
B2100482023204S07009281WA0025300258005006035310280
B2100492023200S07009285WA0025300258004006033311286
B2100512023197S07009289WA0025300257005006031320292
B2100522023193S07009291WA0025300255005006031326298
B2100532023189S07009295WA0025200254005006031322293
B2100542023185S07009299WA0025200252006006036319296
B2100552023180S07009302WA0025100251005006037322301
B2100562023176S07009306WA0025000251005006036329307
B2100572023171S07009308WA0024900250007006036331303
B2100582023166S07009310WA0024900248006006036339297
B2100592023161S07009314WA0024800246006006036328305
B2101002023157S07009317WA0024600244006006036325302
B2101012023152S07009320WA0024500243005006041328310
B2101022023147S07009323WA0024500241004004042335315
B2101032023141S07009326WA0024300239004004042341316
B2101042023136S07009328WA0024100237004004042343321
B2101052023130S07009329WA0023900235004004041345328
B2101062023124S07009330WA0023900231004006041348341
B2101072023117S07009331WA0023600228004004049357348
B2101082023110S07009331WA0023300226004003049003349
B2101092023103S07009329WA0023100225004003050011357
B2101102023096S07009327WA0023100225004003052017000
B2101112023088S07009325WA0022800226004003050016005
B2101122023081S07009324WA0022600227004003050013011
B2101132023075S07009322WA0022400229004003048018023
B2101142023069S07009319WA0022400228004003043028035
B2101152023064S07009315WA0022300228004004042032043
B2101162023059S07009311WA0022300228004006042039046
B2101172023055S07009306WA0022400228004004042049053
B2101182023050S07009302WA0022400229004004041046060
B2101192023046S07009297WA0022500229004003040048060
B2101202023043S07009292WA0022600229004003038055065
B2101212023040S07009287WA0022600228004004040053065
B2101222023037S07009283WA0022600229004003040055068
B2101232023034S07009278WA0022600230004003037053077
B2101242023031S07009273WA0022600230004003037061083
B2101252023029S07009267WA0022600230004003036068089
B2101262023028S07009262WA0022600229004004036072087
B2101272023026S07009256WA0022600229004003038068087
B2101282023024S07009251WA0022600229004003036063083
B2101292023022S07009246WA0022600228004003035061086
B2101302023019S07009241WA0022600230004004035062091
B2101312023017S07009235WA0022600230004006034071092
B2101322023016S07009229WA0022600230004006037078092
B2101332023015S07009224WA0022500229004004037078091
B2101342023013S07009219WA0022500229004004037073096
B2101352023012S07009213WA0022500228004004035069096
B2101362023011S07009209WA0022500227004004034076098
B2101372023009S07009204WA0022400227004004034075099
B2101382023008S07009199WA0022400226004004034075097
B2101392023007S07009194WA0022400226004004038077099
B2101402023006S07009187WA0022300224004004040080103
B2101412023005S07009181WA0022200223004004037084107
B2101422023005S07009175WA0022200224004004037087111
B2101432023006S07009162WA0022100223004006041095117
B2101442023007S07009155WA0022000223004006042099123
B2101452023008S07009150WA0022000225004006031106125
B2101462023010S07009145WA0021900226004006031106124
B2101472023010S07009141WA0021900228004004031104136
B2101482023011S07009137WA0022000231004004026109141
B2101492023011S07009133WA0022000232005006026084146
B2101502023014S07009129WA0022100229005006028124139
B2101512023014S07009126WA0022200227005006028115137
B2101522023016S07009123WA0022400225004006024108137
B2101532023018S07009120WA0022400225004006021116149
B2101542023020S07009117WA0022600223004006021125150
B2101552023023S07009115WA0022600223004006025140156
B2101562023025S07009113WA0022600223004004025137153
B2101572023027S07009111WA0022600223004004021140153
B2101582023030S07009109WA0022600222004004019149153
B2101592023032S07009107WA0022500221004004019156154
B2102002023036S07009106WA0022400220004004025152154
B2102012023039S07009104WA0022400221004004026155148
B2102022023041S07009102WA0022300222004003025135153
B2102032023044S07009101WA0022200223004004016139147
B2102042023045S07009099WA0022200223004004016135145
B2102052023047S07009097WA0022200222004004021137147
B2102062023050S07009095WA0022200222004003022137144
B2102072023052S07009094WA0022200222004003021133141
B2102082023054S07009091WA0022200224004003021128141
B2102092023056S07009089WA0022200223004003019130143
B2102102023058S07009087WA0022200224004003018138135
B2102112023060S07009085WA0022200224004003019135142
B2102122023061S07009082WA0022200225004003019118144
B2102132023062S07009079WA0022300226004003020104151
B2102142023063S07009076WA0022300226004003020106156
B2102152023064S07009074WA0022400226004003014114163
B2102162023065S07009072WA0022400225004003016130158
B2102172023067S07009070WA0022500224004003016133158
B2102182023069S07009068WA0022600224004003018130161
B2102192023070S07009065WA0022600224004003018128167
B2102202023072S07009064WA0022600223004003014143179
B2102212023074S07009064WA0022600222004003016189190
B2102222023077S07009065WA0022500220004003016210190
B2102232023079S07009066WA0022500220004003021214188
B2102242023081S07009067WA0022400221004003021199189
B2102252023084S07009067WA0022400220004003015178181
B2102262023086S07009068WA0022300220004003018178188
B2102272023090S07009068WA0022300220004003018188192
B2102282023093S07009069WA0022200220004003022200198
B2102292023095S07009070WA0022100221004003022200198
B2102302023097S07009071WA0022100220004003014206195
B2102312023100S07009072WA0022100219004003016203198
B2102322023103S07009073WA0022100218004003016203201
B2102332023106S07009074WA0022000218004003020208196
B2102342023109S07009076WA0022000218004003026211196
B2102352023112S07009078WA0022000219004003022207196
B2102362023115S07009079WA0022000219004003022198192
B2102372023117S07009080WA0021900220004003019186195
B2102382023120S07009081WA0021900220004004017189192
B2102392023122S07009081WA0021900221004004017178189
B2102402023125S07009081WA0021800223004004016181190
B2102412023127S07009081WA0021800225004004016170190
B2102422023130S07009080WA0021900227004004016163187
B2102432023132S07009080WA0021900228004004018175189
B2102442023135S07009081WA0022000229004003018191174
B2102452023138S07009081WA0022100231004003016182176
B2102462023141S07009080WA0022200234004004023162169
B2102472023144S07009078WA0022200234004004023143159
B2102482023147S07009075WA0022400237004004023133164
B2102492023149S07009073WA0022600237004003023136166
B2102502023151S07009071WA0022700238004004017146172
B2102512023152S07009071WA0022700234004004017174189
B2102522023155S07009072WA0022900232004004017205194
B2102532023157S07009073WA0023000230004004020213195
B2102542023160S07009074WA0023000229004004020214204
B2102552023161S07009075WA0023000229004003015214211
B2102572023162S07009077WA0023000227004003015237207
B2102582023163S07009079WA0023000226004003015254219
B2102592023165S07009082WA0022900226004003015245215
B2103002023167S07009086WA0022900227004003023233210
B2103012023169S07009088WA0022700228004003023231209
B2103022023169S07009089WA0022600228004003017238211
B2103032023169S07009090WA0022500227004003007254221
B2103042023170S07009092WA0022500226004003007264217
B2103052023170S07009094WA0022500223004003013256226
B2103062023171S07009097WA0022400222004004020257233
B2103072023171S07009100WA0022300222004004020257236
B2103082023172S07009103WA0022200223004004020262241
B2103092023172S07009107WA0022200225004004021262226
B2103102023173S07009110WA0022100227004004018258239
B2103112023173S07009112WA0022000228004004018261234
B2103122023173S07009114WA0021900228004004011264223
B2103132023173S07009117WA0021900228004004011261220
B2103142023174S07009120WA0021900229004004020254214
B2103152023175S07009123WA0021900231004004018239215
B2103162023176S07009125WA0022000234004004018241220
B2103172023177S07009127WA0022000234004006012243224
B2103182023178S07009129WA0022100233004004012260227
B2103192023178S07009132WA0022200233004004014258226
B2103202023179S07009136WA0022200234004004027256232
B2103212023179S07009139WA0022300235004004027261245
B2103222023179S07009143WA0022300234004006023277257
B2103232023178S07009147WA0022300233004004023291252
B2103242023176S07009151WA0022300230004004025295262
B2103252023174S07009155WA0022300230004003028298265
B2103262023173S07009158WA0022200228004004028297261
B2103272023171S07009161WA0022200228004004022304269
B2103282023169S07009163WA0022200226004004022310272
B2103292023166S07009166WA0022100225004004022314277
B2103302023163S07009170WA0022100223004004030320281
B2103312023160S07009172WA0022000221004006030320277
B2103322023157S07009175WA0021900219004004029316265
B2103332023154S07009178WA0021900218004006025306246
B2103342023154S07009182WA0021800216004004025255235
B2103352023156S07009184WA0021600215004004024217211
B2103362023162S07009184WA0021400216004004020156168
B2103372023164S07009182WA0021300215004004019129166
B2103382023166S07009181WA0021200215004004016141161
B2103392023168S07009180WA0021100213004004015178170
B2103402023172S07009179WA0021100211004004024177176
B2103412023175S07009178WA0021100211004003024161171
B2103422023177S07009178WA0021000212004003024163166
B2103432023179S07009177WA0021000211004003014155186
B2103442023181S07009177WA0021000210004003010183209
B2103452023182S07009178WA0021000208004004016241220
B2103462023183S07009182WA0020900204004004016269255
B2103472023179S07009187WA0020900203004003026306274
B2103482023176S07009191WA0020900202004004042324298
B2103492023170S07009194WA0020800202004004039335303
B2103502023166S07009194WA0020600202004004039348297
B2103512023162S07009197WA0020500200004006030316293
B2103522023161S07009202WA0020500199004006030276266
B2103532023161S07009206WA0020400197004006026257239
B2103542023165S07009207WA0020200192004006029200221
B2103552023167S07009205WA0020100193004006029131187
B2103562023169S07009202WA0020100193004006029120147
B2103572023170S07009200WA0020000195004004023113154
B2103582023172S07009199WA0019800193004004017188157
B2103592023174S07009200WA0019700191004004014233203
B2104002023174S07009205WA0019700189004004034266226
B2104012023174S07009209WA0019500190004004030273244
B2104022023174S07009212WA0019300189004004030272244
B2104032023174S07009214WA0019100188004004021252236
B2104042023175S07009217WA0019100186004006017248222
B2104052023177S07009219WA0018900185004004017226220
B2104062023178S07009221WA0018700185004004016219207
B2104072023179S07009222WA0018600184004004014204203
B2104082023181S07009222WA0018600184004004011191193
B2104092023184S07009222WA0018500182004004017174178
B2104102023186S07009222WA0018400182004004019181169
B2104112023189S07009222WA0018300181004004018168165
B2104122023192S07009221WA0018300181004004018158156
B2104132023193S07009219WA0018300182004004018130155
B2104142023195S07009218WA0018200181004004017132158
B2104152023197S07009217WA0018100180004003020149157
B2104162023201S07009215WA0018100179004003020158158
B2104172023204S07009214WA0018100179004003024162160
B2104182023206S07009212WA0018000180004004024147155
B2104192023208S07009211WA0017900180004004016155156
B2104202023210S07009210WA0017900180004003016153152
B2104212023213S07009208WA0017900181004004016151153
B2104222023215S07009207WA0017900183004004017158154
B2104232023218S07009206WA0017900186004003017149140
B2104242023219S07009204WA0017900188004004011138154
B2104252023221S07009203WA0018000190004004011130156
B2104262023222S07009202WA0018100188004004009145161
B2104272023224S07009202WA0018300187004004009189190
B2104282023226S07009204WA0018300187004004016219218
B2104292023227S07009209WA0018400188004004029268249
B2104302023225S07009213WA0018500185004004035305292
B2104312023218S07009216WA0018500183004004035341318
B2104322023210S07009216WA0018500183004004056009347
B2104332023204S07009213WA0018500185004004056030342
B2104342023199S07009211WA0018400188004003030029340
B2104352023195S07009211WA0018300188004004030353337
B2104362023190S07009213WA0018300185004004030336312
B2104372023184S07009216WA0018300185004003034326307
B2104382023180S07009219WA0018300187004003038318296
B2104392023177S07009223WA0018300190004003024305283
B2104402023176S07009225WA0018300189004003024262263
B2104412023177S07009226WA0018300186004003017211228
B2104422023180S07009227WA0018400186004003017180193
B2104432023183S07009226WA0018500186004004023159163
B2104442023184S07009223WA0018500186004003025097153
B2104452023184S07009220WA0018500185004004025082129
B2104462023185S07009217WA0018500184004003023101122
B2104472023187S07009214WA0018500180004004022134152
B2104482023190S07009211WA0018500178004004022145173
B2104492023193S07009211WA0018500179004006017179184
B2104502023194S07009212WA0018400178004006017232203
B2104512023194S07009215WA0018200178004004017276229
B2104522023193S07009218WA0018200177004004021292248
B2104532023192S07009221WA0018100176004003022298260
B2104542023190S07009224WA0017900174004003021311264
B2104552023188S07009227WA0017700173004003024304269
B2104562023186S07009231WA0017700172004003024297269
B2104572023184S07009234WA0017600173004003025305266
B2104582023182S07009237WA0017500176004003025307264
B2104592023179S07009240WA0017400176004003019317260
B2105002023178S07009242WA0017400176004003019296250
B2105012023178S07009244WA0017400176004003015257238
B2105032023179S07009247WA0017400173004004015235217
B2105042023181S07009248WA0017400175004003015209196
B2105052023183S07009248WA0017400173004003016162175
B2105062023185S07009247WA0017400172004004016133169
B2105072023187S07009245WA0017400170004003023118161
B2105082023189S07009242WA0017300169004003023118164
B2105092023191S07009239WA0017300168004003019126167
B2105102023192S07009236WA0017200167004004020129165
B2105112023194S07009234WA0017000165004004020130169
B2105122023197S07009232WA0016900166004004020151173
B2105132023199S07009230WA0016900165004003019159176
B2105142023202S07009229WA0016700165004003016157165
B2105152023204S07009228WA0016500164004003016143165
B2105162023206S07009227WA0016400163004003016138172
B2105172023208S07009225WA0016400161004004016142172
B2105182023211S07009223WA0016300159004004019148172
B2105192023212S07009222WA0016200160004003016164184
B2105202023214S07009221WA0016100159004003016156182
B2105212023215S07009221WA0016100158004003011157192
B2105222023217S07009220WA0016000157004004010175202
B2105232023218S07009221WA0015800154004003010200212
B2105242023220S07009222WA0015700151004003016223225
B2105252023221S07009225WA0015700150004003022255241
B2105262023221S07009229WA0015500148004003022275246
B2105272023220S07009232WA0015300147004003022295245
B2105282023219S07009235WA0015200146004003022294248
B2105292023218S07009242WA0014900144004003025272245
B2105302023217S07009246WA0014700144004003024279244
B2105312023217S07009249WA0014500145004003024284248
B2105322023216S07009252WA0014500145004003018279262
B2105332023216S07009256WA0014400145004003021282272
B2105342023215S07009259WA0014300144004003024290282
B2105352023213S07009262WA0014200144004003022299292
B2105362023212S07009265WA0014200145004003022300278
B2105372023212S07009267WA0014100146004003016275262
B2105382023212S07009268WA0014100145004003009234247
B2105392023214S07009268WA0014100143004003012188228
B2105402023216S07009268WA0014100142004003012177209
B2105412023217S07009267WA0014100142004003013142201
B2105422023218S07009266WA0014100140004003015125182
B2105432023220S07009263WA0014100137004003022128176
B2105442023222S07009261WA0014100135004003022134169
B2105452023224S07009259WA0014100133004003018145171
B2105462023226S07009259WA0014100132004003017158178
B2105472023228S07009259WA0013900132004004014202184
B2105482023230S07009260WA0013900127004004016210205
B2105492023231S07009261WA0013800125004003016240207
B2105502023232S07009264WA0013500124004003016244222
B2105512023232S07009266WA0013200123004003015279228
B2105522023232S07009266WA0013200123004003015280252
B2105532023231S07009267WA0012900123004003003280256
B2105542023231S07009268WA0012700123004006004280214
B2105552023231S07009269WA0012500122004006003280218
B2105562023231S07009269WA0012500121004008002280192
B2105572023232S07009269WA0012400122004006002280193
B2105582023232S07009269WA0012400120004004002259194
B2105592023232S07009269WA0012400120004003002259195
B2106002023233S07009269WA0012400118004004002259196
B2106012023233S07009270WA0012400119004004002259196
B2106022023232S07009270WA0012400121004003002259195
B2106032023233S07009271WA0012400119004003002259195
B2106042023233S07009271WA0012400118004003002259194
B2106052023233S07009271WA0012400118004003002259197
B2106062023233S07009271WA0012400118004003002259194
B2106072023233S07009271WA0012400117004003002137194
B2106082023233S07009270WA0012400117004003002136188
B2106092023233S07009270WA0012400117004003002136187
B2106102023233S07009269WA0012400116004003002136187
B2106112023233S07009269WA0012400118004003003136187
B2106122023233S07009268WA0012400119004003004136186
B2106132023233S07009268WA0012400119004003002136184
B2106142023232S07009268WA0012400120004004010136187
B2106152023232S07009268WA0012400119004006003136172
B2106162023232S07009269WA0012400120004004003136184
B2106172023233S07009269WA0012400121004004003029184
B2106182023232S07009269WA0012400121004003004006187
B2106192023231S07009269WA0012400121004003004136190
B2106202023232S07009269WA0012400123004004004136181
B2106212023232S07009269WA0012400123004004000136182
B2106222023232S07009269WA0012400123004003000136189
B2106232023232S07009268WA0012400123004003000136189
B2106242023232S07009268WA0012400122004003002136189
B2106252023232S07009268WA0012400122004003001136184
B2106262023232S07009268WA0012400122004003000136187
B2106272023232S07009268WA0012400122004003000136189
B2106282023231S07009268WA0012400121004003000136189
B2106292023231S07009268WA0012400120004003001136189
B2106302023231S07009268WA0012400121004003000136187
B2106312023232S07009268WA0012400121004003001136189
B2106322023231S07009268WA0012400121004003001136187
B2106332023232S07009267WA0012400120004003003098187
B2106342023232S07009268WA0012400120004003001136180
B2106352023232S07009268WA0012400121004003001136187
B2106362023232S07009268WA0012400121004003000136187
B2106372023232S07009268WA0012400120004003001136189
B2106382023232S07009268WA0012400120004003002021187
B2106392023232S07009268WA0012400120004003002020188
B2106402023232S07009268WA0012400120004003000020188
B2106412023232S07009269WA0012400121004003001020189
B2106422023231S07009269WA0012400121022003000020188
B2106432023231S07009269WA0012400121022003000020189
B2106442023231S07009268WA0012400121022003001020189
B2106452023231S07009268WA0012400121022003000020188
B2106462023231S07009268WA0012400120022003000020189
B2106472023231S07009267WA0012400119022004000020189
B2106482023231S07009268WA0012400120022004000020189
B2106492023231S07009268WA0012400119022004000020189
B2106502023231S07009268WA0012400118022003000020189
GBsQ/vgYi01X/cAp/IHKEPTqp5Kwus6qZMN0r4V5COAtLEcbIw/gUfV2yYbfaKtvZ
Gop8+Jvtwjb88oFIOaM9TQHJavLWxkynyo1bm0Bwv2W6imSRBm2bjL3RIKHEXaC6X
G+kua0NszgA7QdVktvo2HQ5MAlDH49zTnC3pxtJSTaMs=

