AXFH000
HFDTE181025
HFPLTPILOT:Scott O’Brien
HFGTYGLIDERTYPE:Ozone Swift 6
HFDTM100GPSDATUM:WGS84
HFRFWFIRMWAREVERSION:9.3
HFRHWHARDWAREVERSION:iPhone 15
HFFTYFRTYPE:Flyskyhy,9.3
HFGPS:Bluetooth vario
HFPRSVARIO:Bluetooth vario
HFCCLCOMPETITIONCLASS:Paraglider
HFTZNTIMEZONE:-7
HFSITSITE:Ed Levin,US
I053638FXA3941VXA4244GSP4547CCO4850HDT
C181025194642181025000100TASK
C0000000N00000000ETAKEOFF
C3731062N12153514W00000000000400000000360000STARTAREA 
C3726317N12149880W00000000000400000000360000FINISHAREA Big Dog Vineyards
C0000000N00000000ELANDING
E194711PEVBackground
B1947113728471N12151580WA0070700707001100000261328
B1947123728471N12151580WA0070700707001100000261319
B1947133728471N12151580WA0070700707001100000261321
B1947143728471N12151580WA0070700707001100000261322
B1947153728471N12151580WA0070700707001100000261321
B1947163728471N12151580WA0070700707001100000261322
B1947173728471N12151580WA0070700707001100000261323
B1947183728471N12151580WA0070700707001100000261323
B1947193728471N12151580WA0070700707001100000261324
B1947203728471N12151580WA0070700707001100000261325
B1947213728471N12151580WA0070700707001100000261321
B1947223728471N12151580WA0070700707001100000261325
B1947233728471N12151580WA0070700707001100000261328
B1947243728471N12151580WA0070700707001100000261328
B1947253728471N12151580WA0070700707001100000261328
B1947263728470N12151580WA0070700707001100000261327
B1947273728470N12151580WA0070700707001100000261329
B1947283728470N12151580WA0070700707001100000261336
B1947293728470N12151580WA0070700707001100000261339
B1947303728470N12151580WA0070700707001100000261326
B1947313728470N12151580WA0070700707001100000261315
B1947323728470N12151580WA0070700707001100000261302
B1947333728470N12151581WA0070800707001100000261291
B1947343728470N12151581WA0070700707001100001221305
B1947353728470N12151581WA0070600707001100001190320
B1947363728469N12151581WA0070600707001100002219270
B1947373728469N12151582WA0070500707001100003219136
B1947383728468N12151582WA0070400707001100005218260
B1947393728467N12151583WA0070400707001100008217054
B1947403728466N12151585WA0070300707001100010218230
B1947413728464N12151586WA0070300707001100013213238
B1947423728462N12151587WA0070300707001100017207169
B1947433728459N12151589WA0070300706001100020212206
B1947443728456N12151591WA0070300706001100022211214
B1947453728453N12151593WA0070100706001100022208208
B1947463728450N12151596WA0070200706001100024209208
B1947473728447N12151598WA0070200706001100025214209
B1947483728444N12151601WA0070300706001100024212213
B1947493728440N12151603WA0070300705001100025202211
B1947503728436N12151604WA0070400706001100026190203
B1947513728432N12151604WA0070500706001100026177192
B1947523728428N12151603WA0070500706001100026169181
B1947533728425N12151601WA0070400705001100026162174
B1947543728420N12151599WA0070600705001100030166168
B1947553728415N12151598WA0070400705001100032163171
B1947563728410N12151595WA0070300706001100031158176
B1947573728406N12151593WA0070500706001100032154164
B1947583728402N12151590WA0070400706001100031149165
B1947593728399N12151587WA0070200706001100030147167
B1948003728395N12151584WA0070200706001100029147166
B1948013728393N12151580WA0070300706001100027140178
B1948023728390N12151576WA0070600705001100026140164
B1948033728387N12151572WA0070900706001100027146158
B1948043728384N12151570WA0071000706001100026147168
B1948053728380N12151568WA0071000706001100024156172
B1948063728377N12151568WA0070900705001100027185183
B1948073728372N12151570WA0070800706001100030199206
B1948083728368N12151572WA0070900706001100029204220
B1948093728367N12151576WA0070900706001100017241223
B1948103728369N12151581WA0071000706001100022306251
B1948113728372N12151584WA0070900707001100023319304
B1948123728377N12151585WA0071000708001100025359316
B1948133728381N12151584WA0070900709001100025014357
B1948143728385N12151581WA0070900709001100026027012
B1948153728389N12151578WA0071000709001100029038025
B1948163728393N12151574WA0071000708001100032044037
B1948173728397N12151569WA0071100708001100034045048
B1948183728400N12151564WA0071300709001100033044052
B1948193728404N12151561WA0071600711001100031035052
B1948203728408N12151558WA0071600711001100028025048
B1948213728412N12151556WA0071500712001100025024042
B1948223728415N12151554WA0071100713001100024021040
B1948233728418N12151552WA0070700713001100024028039
B1948243728419N12151549WA0070500713001100018054044
B1948253728416N12151544WA0070200713001100018112068
B1948263728412N12151541WA0070200711001100020159134
B1948273728407N12151540WA0070400712001100021184177
B1948283728402N12151541WA0070500714001100023196198
B1948293728399N12151542WA0070600714001100022203207
B1948303728395N12151544WA0070700714001100022203213
B1948313728392N12151545WA0070700713001100022206212
B1948323728389N12151547WA0070800713001100023215215
B1948333728386N12151550WA0070700714001100023227221
B1948343728384N12151553WA0070700713001100023244236
B1948353728382N12151557WA0070600712001100025246248
B1948363728380N12151561WA0070500712001100025240253
B1948373728378N12151565WA0070400711001100025230249
B1948383728375N12151569WA0070400710001100025225248
B1948393728372N12151572WA0070200709001100026227234
B1948403728369N12151576WA0070100707001100028230243
B1948413728366N12151580WA0069900706001100030226243
B1948423728363N12151584WA0069900705001100031220235
B1948433728359N12151587WA0069800704001100032220235
B1948443728356N12151592WA0069700703001100031225233
B1948453728353N12151596WA0069600702001100032234235
B1948463728350N12151601WA0069300701001100032239239
B1948473728348N12151606WA0069300701001100031242241
B1948483728346N12151611WA0069300701001100029236245
B1948493728343N12151615WA0069200701001100026229243
B1948503728341N12151618WA0069200700001100026227242
B1948513728338N12151622WA0069100700001100026232241
B1948523728336N12151626WA0068900699001100027239241
B1948533728334N12151631WA0068800699001100028241244
B1948543728332N12151635WA0068900699001100029235245
B1948553728330N12151639WA0069000698001100029233241
B1948563728328N12151643WA0069200699001100027238240
B1948573728326N12151646WA0069300697001100023244240
B1948583728325N12151650WA0069200695001100025251254
B1948593728325N12151655WA0068900693001100027254250
B1949003728324N12151659WA0068700691001100028251268
B1949013728322N12151664WA0068600689001100029239247
B1949023728320N12151668WA0068500687001100029236259
B1949033728317N12151672WA0068400686001100028236248
B1949043728314N12151676WA0068300685001100026233228
B1949053728312N12151679WA0068200683001100022222221
B1949063728309N12151682WA0068000681001100022210210
B1949073728305N12151682WA0067800679001100022194220
B1949083728301N12151682WA0067700677001100026177207
B1949093728296N12151680WA0067600675001100030168216
B1949103728291N12151679WA0067500673001100029168190
B1949113728286N12151677WA0067400672001100030172183
B1949123728282N12151677WA0067200670001100034174182
B1949133728276N12151676WA0067000668001100037177183
B1949143728270N12151676WA0066800667001100036182185
B1949153728265N12151676WA0066800666001100036186189
B1949163728260N12151678WA0066800664001100032190191
B1949173728255N12151679WA0066700664001100029195191
B1949183728251N12151681WA0066700664001100031194197
B1949193728246N12151682WA0066700663001100033196198
B1949203728241N12151684WA0066700663001100035198200
B1949213728236N12151686WA0066800663001100034196201
B1949223728231N12151688WA0066800663001100033191197
B1949233728226N12151689WA0067000664001100030188192
B1949243728222N12151689WA0067200664001100025182187
B1949253728218N12151689WA0067200664001100024181180
B1949263728215N12151689WA0067100663001100025186180
B1949273728211N12151689WA0066900662001100025185187
B1949283728206N12151689WA0066600661001100028175183
B1949293728202N12151688WA0066500660001100029166185
B1949303728197N12151685WA0066300659001100032156175
B1949313728193N12151683WA0066100657001100031165173
B1949323728188N12151682WA0066000655001100033170169
B1949333728183N12151680WA0065900654001100035165175
B1949343728178N12151678WA0065800653001100035156166
B1949353728173N12151674WA0065700652001100036149161
B1949363728169N12151670WA0065700651001100035142153
B1949373728165N12151665WA0065700651001100033136144
B1949383728162N12151660WA0065800650001100032129137
B1949393728160N12151654WA0065800650001100031114122
B1949403728159N12151648WA0065700649001100034103123
B1949413728158N12151641WA0065600648001100035096119
B1949423728158N12151634WA0065500647001100034093117
B1949433728157N12151628WA0065400646001100034093110
B1949443728157N12151621WA0065300645001100036094121
B1949453728157N12151613WA0065200644001100039091124
B1949463728156N12151606WA0065200644001100040093121
B1949473728156N12151598WA0065200644001100039098123
B1949483728154N12151591WA0065300644001100036101125
B1949493728153N12151584WA0065300645001100036109124
B1949503728150N12151578WA0065400645001100035116125
B1949513728148N12151573WA0065500646001100033121126
B1949523728145N12151568WA0065500646001100032126131
B1949533728142N12151562WA0065500645001100034127133
B1949543728139N12151557WA0065400644001100036127134
B1949553728136N12151552WA0065400644001100035124134
B1949563728133N12151546WA0065500645001100033123133
B1949573728130N12151542WA0065400645001100030130133
B1949583728127N12151538WA0065300645001100029135138
B1949593728124N12151534WA0065100645001100029143140
B1950003728120N12151531WA0064900643001100030145148
B1950013728116N12151527WA0064700641001100036142154
B1950023728112N12151522WA0064600641001100039138152
B1950033728107N12151517WA0064600640001100036138148
B1950043728104N12151512WA0064700639001100035135147
B1950053728100N12151508WA0064500638001100031136141
B1950063728097N12151503WA0064300635001100033137140
B1950073728093N12151498WA0064100632001100039134142
B1950083728089N12151492WA0064000632001100040131138
B1950093728085N12151487WA0064000630001100039130135
B1950103728082N12151482WA0064000630001100034133134
B1950113728079N12151478WA0064000630001100028140136
B1950123728076N12151475WA0063900629001100027144140
B1950133728073N12151472WA0063700628001100029144144
B1950143728069N12151468WA0063600627001100032144144
B1950153728065N12151465WA0063500626001100033145144
B1950163728061N12151461WA0063500626001100032148145
B1950173728057N12151459WA0063600627001100029151147
B1950183728053N12151456WA0063600627001100028154149
B1950193728049N12151454WA0063400627001100030155152
B1950203728045N12151452WA0063300625001100030160153
B1950213728041N12151450WA0063200624001100031167158
B1950223728036N12151449WA0063100624001100030170165
B1950233728032N12151449WA0063200624001100027172167
B1950243728028N12151448WA0063100623001100028166168
B1950253728024N12151446WA0063000621001100026161163
B1950263728021N12151444WA0062900620001100025156158
B1950273728018N12151442WA0062800618001100025156154
B1950283728014N12151440WA0062600616001100027158154
B1950293728010N12151438WA0062600615001100028159155
B1950303728005N12151436WA0062400613001100030159156
B1950313728001N12151434WA0062200611001100032154156
B1950323727997N12151432WA0062000609001100033157152
B1950333727992N12151431WA0061900607001100035160155
B1950343727986N12151429WA0061800605001100036157158
B1950353727981N12151430WA0061700604001100041166155
B1950363727975N12151430WA0061600602001100045171163
B1950373727969N12151430WA0061400599001100048174168
B1950383727963N12151430WA0061400596001100048176172
B1950393727957N12151430WA0061400597001100049177174
B1950403727951N12151430WA0061500597001100044177175
B1950413727947N12151431WA0061600596001100041178175
B1950423727944N12151431WA0061400595001100040180176
B1950433727941N12151431WA0061200594001100044179177
B1950443727937N12151432WA0061000593001100047181176
B1950453727933N12151434WA0060900590001100045185179
B1950463727929N12151435WA0060800589001100043188183
B1950473727924N12151437WA0061000588001100038189186
B1950483727922N12151439WA0061000588001100031189186
B1950493727921N12151440WA0060900587001100026193185
B1950503727921N12151442WA0060700586001100021210188
B1950513727920N12151445WA0060700585001100020227204
B1950523727920N12151449WA0060900585001100024236216
B1950533727919N12151454WA0061100586001100023244227
B1950543727919N12151458WA0061200587001100022263236
B1950553727921N12151462WA0061300588001100022290250
B1950563727927N12151463WA0061300588001100026342274
B1950573727933N12151463WA0061300588001100033001348
B1950583727939N12151462WA0061200588001100033008009
B1950593727944N12151457WA0061100588001100033036016
B1951013727948N12151442WA0061000591001100036094049
B1951023727947N12151435WA0061000592001100035102108
B1951033727944N12151429WA0061100593001100029124116
B1951043727941N12151426WA0061100593001100026140140
B1951053727938N12151424WA0061100594001100024154156
B1951063727934N12151424WA0061100595001100024173169
B1951073727930N12151425WA0061200597001100024191185
B1951083727927N12151427WA0061300600001100020206200
B1951093727924N12151429WA0061400602001100019217212
B1951103727922N12151431WA0061500603001100020215221
B1951113727919N12151434WA0061500604001100021216225
B1951123727916N12151436WA0061600605001100020208219
B1951133727914N12151437WA0061500605001100020191205
B1951143727911N12151437WA0061300606001100018181183
B1951153727907N12151436WA0061100606001100025171171
B1951163727903N12151433WA0061200606001100026142162
B1951173727899N12151425WA0061300606001100035127132
B1951183727898N12151417WA0061600606001100033103119
B1951193727899N12151410WA0061800607001100030089096
B1951203727903N12151406WA0062000607001100018047085
B1951213727907N12151404WA0062100607001100016010028
B1951223727912N12151405WA0062100607001100022352354
B1951233727916N12151405WA0062000607001100028354345
B1951243727921N12151405WA0062000607001100033356342
B1951253727926N12151406WA0062000608001100031350340
B1951263727931N12151407WA0062000609001100030339322
B1951273727936N12151409WA0061900610001100028331308
B1951283727938N12151414WA0061900611001100025298306
B1951293727939N12151418WA0062000611001100024285285
B1951303727939N12151423WA0062100613001100022275279
B1951313727938N12151426WA0062200614001100017255276
B1951323727937N12151429WA0062100613001100016247273
B1951333727936N12151432WA0062000611001100020247272
B1951343727934N12151436WA0061900611001100023243265
B1951353727932N12151440WA0061900612001100024235249
B1951363727930N12151443WA0062000612001100025221223
B1951373727926N12151445WA0061900611001100025208202
B1951383727921N12151445WA0061700611001100029177185
B1951393727917N12151443WA0061600610001100031163163
B1951403727912N12151438WA0061400609001100031142138
B1951413727909N12151432WA0061200608001100034129118
B1951423727906N12151425WA0061000608001100035117109
B1951433727908N12151417WA0060900607001100033084096
B1951443727910N12151410WA0060800605001100033069068
B1951453727915N12151405WA0060800604001100032042056
B1951463727919N12151401WA0060800604001100032029025
B1951473727924N12151400WA0060900604001100026011015
B1951483727927N12151400WA0060900603001100022359358
B1951493727931N12151400WA0060800602001100022348348
B1951503727934N12151401WA0060600600001100027347344
B1951513727939N12151402WA0060600600001100030347353
B1951523727943N12151404WA0060600600001100027349357
B1951533727947N12151404WA0060600600001100025353356
B1951543727951N12151405WA0060500599001100026359356
B1951553727955N12151405WA0060400597001100028002000
B1951563727960N12151405WA0060300596001100030357355
B1951573727964N12151406WA0060200595001100029346344
B1951583727968N12151408WA0060000594001100029332332
B1951593727972N12151411WA0059900593001100030323319
B1952003727975N12151415WA0059700593001100029309308
B1952013727977N12151420WA0059600592001100028296280
B1952023727978N12151425WA0059400591001100024281262
B1952033727976N12151430WA0059200590001100025241245
B1952043727973N12151434WA0059100588001100028231224
B1952053727969N12151437WA0058900586001100028216205
B1952063727964N12151437WA0058900584001100027183195
B1952073727959N12151436WA0058900582001100026166191
B1952083727955N12151433WA0058800581001100026156188
B1952093727951N12151431WA0058600579001100028163209
B1952103727946N12151430WA0058400577001100033171203
B1952113727941N12151429WA0058300576001100035179210
B1952123727935N12151429WA0058200575001100034184212
B1952133727930N12151430WA0058300574001100029186215
B1952143727927N12151431WA0058300574001100026199213
B1952153727924N12151433WA0058200573001100024210220
B1952163727921N12151436WA0058000571001100025224227
B1952173727919N12151441WA0057800570001100028236236
B1952183727917N12151445WA0057600568001100031238243
B1952193727914N12151450WA0057600568001100029233245
B1952203727912N12151454WA0057400566001100027227247
B1952213727909N12151458WA0057200564001100028227243
B1952223727906N12151462WA0057000561001100033233243
B1952233727904N12151467WA0056800559001100034244250
B1952243727902N12151473WA0056700558001100032258257
B1952253727902N12151479WA0056700557001100031265268
B1952263727902N12151485WA0056600556001100028269277
B1952273727902N12151490WA0056500555001100028272279
B1952283727903N12151495WA0056400554001100029274285
B1952293727903N12151501WA0056100552001100032274283
B1952303727904N12151507WA0056000551001100034272287
B1952313727904N12151514WA0055900549001100034270289
B1952323727904N12151520WA0055800548001100033272293
B1952333727905N12151526WA0055700547001100033279286
B1952343727906N12151532WA0055600546001100032285297
B1952353727908N12151538WA0055500545001100031289300
B1952363727909N12151543WA0055400544001100031295303
B1952373727912N12151548WA0055300542001100032303307
B1952383727915N12151553WA0055200541001100032311310
B1952393727918N12151557WA0055000539001100032317317
B1952403727922N12151561WA0055000539001100032318326
B1952413727926N12151566WA0054900538001100033317328
B1952423727929N12151570WA0054800537001100031316331
B1952433727932N12151574WA0054600536001100030318331
B1952443727936N12151577WA0054500535001100030320331
B1952453727939N12151581WA0054400533001100031319335
B1952463727943N12151585WA0054300532001100032318339
B1952473727947N12151589WA0054200531001100033318337
B1952483727950N12151593WA0054100530001100032319336
B1952493727954N12151597WA0054000529001100032320339
B1952503727958N12151601WA0053900528001100032321335
B1952513727962N12151605WA0053800527001100032320335
B1952523727965N12151609WA0053700526001100033319333
B1952533727969N12151613WA0053500525001100034319336
B1952543727973N12151617WA0053500524001100034322343
B1952553727977N12151620WA0053400524001100033323338
B1952563727981N12151624WA0053300523001100033324337
B1952573727985N12151628WA0053200521001100033321338
B1952583727989N12151632WA0053100520001100034319331
B1952593727993N12151636WA0053000519001100035317336
B1953003727997N12151641WA0053000519001100034317339
B1953013728000N12151645WA0052800518001100031317329
B1953023728004N12151649WA0052800517001100031317336
B1953033728007N12151653WA0052600515001100032316328
B1953043728011N12151657WA0052500514001100033316333
B1953053728014N12151662WA0052400513001100033314316
B1953063728018N12151666WA0052400512001100034312328
B1953073728021N12151671WA0052200511001100033308315
B1953083728024N12151676WA0052100510001100032304316
B1953093728026N12151681WA0052100509001100033302316
B1953103728029N12151686WA0051900508001100034300313
B1953113728031N12151692WA0051800507001100033298311
B1953123728034N12151697WA0051800506001100032296309
B1953133728036N12151703WA0051600506001100031293305
B1953143728037N12151708WA0051500504001100030291312
B1953153728039N12151713WA0051300503001100030288313
B1953163728041N12151719WA0051100501001100032288309
B1953173728042N12151724WA0050900498001100034291317
B1953183728045N12151730WA0050800497001100033298318
B1953193728047N12151735WA0050600495001100031308315
B1953203728051N12151739WA0050600494001100032320321
B1953213728054N12151743WA0050500492001100033316334
B1953223728058N12151748WA0050600492001100033309306
B1953233728060N12151753WA0050700491001100033304322
B1953243728063N12151758WA0050800491001100029300318
B1953253728064N12151761WA0050800491001100023302320
B1953263728066N12151765WA0050600490001100023305318
B1953273728068N12151768WA0050400489001100027307323
B1953283728071N12151773WA0050500489001100028311341
B1953293728075N12151776WA0050900489001100028331345
B1953303728079N12151777WA0051200490001100031358005
B1953313728084N12151776WA0051400491001100031010017
B1953323728088N12151774WA0051500491001100034019026
B1953333728093N12151771WA0051700492001100032026033
B1953343728097N12151767WA0051800493001100032033040
B1953353728100N12151762WA0051700495001100034050051
B1953363728101N12151755WA0051500496001100030082065
B1953373728099N12151748WA0051400496001100037115095
B1953383728095N12151742WA0051300497001100035134127
B1953393728091N12151739WA0051400497001100031160148
B1953403728086N12151740WA0051400498001100028188173
B1953413728083N12151744WA0051300499001100023225200
B1953423728084N12151750WA0051500500001100025274233
B1953433728085N12151755WA0051600500001100022289275
B1953443728087N12151758WA0051800500001100020315287
B1953453728091N12151760WA0051900501001100023341308
B1953463728095N12151761WA0052100502001100028352337
B1953473728100N12151761WA0052200504001100030001342
B1953483728105N12151762WA0052400506001100028356338
B1953493728109N12151762WA0052500507001100026350333
B1953503728112N12151764WA0052600509001100023334326
B1953513728115N12151767WA0052500511001100019316318
B1953523728116N12151770WA0052600513001100016290294
B1953533728115N12151773WA0052600513001100013258272
B1953543728114N12151775WA0052600513001100012233247
B1953553728113N12151777WA0052500513001100015218226
B1953563728110N12151778WA0052400513001100020205218
B1953573728106N12151779WA0052300513001100026187205
B1953583728101N12151779WA0052300512001100029176175
B1953593728096N12151778WA0052200512001100029160146
B1954003728092N12151772WA0052100512001100034126127
B1954013728090N12151766WA0052000511001100035120102
B1954023728090N12151758WA0052100511001100031091087
B1954033728094N12151751WA0052100510001100034055061
B1954043728100N12151749WA0052000511001100031019025
B1954053728105N12151748WA0052100511001100029010356
B1954063728110N12151752WA0052400511001100028332345
B1954073728112N12151756WA0052500512001100021309316
B1954083728113N12151761WA0052700513001100015282293
B1954093728113N12151764WA0052600512001100017280281
B1954103728113N12151768WA0052500512001100019279293
B1954113728114N12151772WA0052300512001100022289286
B1954123728115N12151776WA0052200512001100025302290
B1954133728117N12151781WA0052200512001100024301293
B1954143728119N12151785WA0052200512001100022287277
B1954153728119N12151789WA0052100511001100021265275
B1954163728118N12151794WA0052100511001100021257265
B1954173728117N12151798WA0052300513001100021246276
B1954183728116N12151801WA0052400513001100019246273
B1954193728115N12151805WA0052400513001100020259274
B1954203728115N12151809WA0052500514001100025271277
B1954213728115N12151815WA0052600516001100026272266
B1954223728114N12151819WA0052700517001100022259256
B1954233728113N12151823WA0052800518001100021249228
B1954243728111N12151826WA0052700518001100018221223
B1954253728108N12151827WA0052500518001100018203208
B1954263728103N12151824WA0052500517001100025156195
B1954273728099N12151820WA0052400517001100029142155
B1954283728096N12151815WA0052200517001100033132132
B1954293728094N12151808WA0052000517001100035112117
B1954303728093N12151801WA0051900516001100031095095
B1954313728095N12151794WA0051800513001100033064078
B1954323728099N12151788WA0051700513001100035044046
B1954333728104N12151785WA0051800512001100029026025
B1954343728108N12151784WA0051800511001100024011004
B1954353728111N12151786WA0051900512001100016323349
B1954363728113N12151789WA0051900511001100014310300
B1954373728113N12151792WA0051900511001100012273292
B1954383728114N12151794WA0051800509001100014274280
B1954393728114N12151797WA0051700507001100018280287
B1954403728115N12151801WA0051600506001100021285286
B1954413728115N12151805WA0051500506001100022282286
B1954423728116N12151810WA0051400506001100022267275
B1954433728115N12151814WA0051400505001100023252275
B1954443728114N12151818WA0051400505001100021245271
B1954453728113N12151822WA0051500505001100020250280
B1954463728112N12151825WA0051500506001100017258274
B1954473728112N12151828WA0051600506001100015269279
B1954483728112N12151831WA0051600506001100016273276
B1954493728112N12151835WA0051500505001100019270282
B1954503728112N12151839WA0051500505001100022264279
B1954513728112N12151844WA0051500506001100026269282
B1954523728112N12151848WA0051700507001100023268288
B1954533728112N12151852WA0051800508001100017275294
B1954543728112N12151855WA0052000508001100016263257
B1954553728112N12151858WA0052100509001100016243263
B1954563728110N12151860WA0052000509001100018220217
B1954573728107N12151862WA0052100509001100020201203
B1954583728104N12151862WA0052000509001100018186169
B1954593728099N12151859WA0051900509001100028148160
B1955003728096N12151855WA0052000510001100029135135
B1955013728094N12151848WA0052100509001100034108110
B1955023728095N12151841WA0052000509001100035077093
B1955033728097N12151834WA0052000509001100035067058
B1955043728101N12151828WA0052000510001100035050044
B1955053728105N12151824WA0052000510001100033035020
B1955063728110N12151822WA0051900509001100030011007
B1955073728115N12151822WA0051800509001100029348342
B1955083728119N12151824WA0051800510001100027333320
B1955093728122N12151827WA0051800510001100026326303
B1955103728123N12151830WA0051900510001100017303296
B1955113728120N12151834WA0052000510001100016214279
B1955123728116N12151834WA0052100509001100024172219
B1955133728112N12151833WA0052200510001100024155197
B1955143728109N12151831WA0052300510001100021157190
B1955153728106N12151831WA0052300510001100020173191
B1955163728102N12151831WA0052300511001100023187203
B1955173728099N12151832WA0052400512001100020193211
B1955183728096N12151833WA0052400513001100017207218
B1955193728094N12151835WA0052300513001100017225232
B1955203728092N12151838WA0052100513001100018238242
B1955213728092N12151841WA0051900514001100018262252
B1955223728094N12151844WA0051800513001100020306268
B1955233728099N12151846WA0051500512001100024350300
B1955243728104N12151844WA0051300511001100034019338
B1955253728109N12151840WA0051200510001100037041012
B1955263728113N12151833WA0051100510001100040059037
B1955273728113N12151825WA0050900509001100038092058
B1955283728111N12151817WA0050800508001100038102098
B1955293728108N12151812WA0050700507001100033130110
B1955303728104N12151808WA0050700505001100030144144
B1955313728100N12151806WA0050600504001100028155159
B1955323728096N12151804WA0050600503001100025166171
B1955333728093N12151804WA0050500501001100022175187
B1955343728089N12151803WA0050300499001100025175197
B1955353728085N12151803WA0050200497001100030176200
B1955363728080N12151803WA0050100496001100032180199
B1955373728075N12151803WA0050100495001100029186200
B1955383728072N12151804WA0050100494001100025192213
B1955393728068N12151805WA0049900492001100026188203
B1955403728064N12151805WA0049800490001100029184214
B1955413728059N12151806WA0049600488001100031182207
B1955423728055N12151806WA0049500487001100028183217
B1955433728051N12151807WA0049500486001100024185209
B1955443728047N12151807WA0049300484001100024184208
B1955453728043N12151807WA0049100482001100027181206
B1955463728039N12151807WA0048800480001100029177202
B1955473728034N12151806WA0048600478001100031171199
B1955483728030N12151805WA0048500476001100031168211
B1955493728025N12151804WA0048400475001100030170210
B1955503728021N12151804WA0048200473001100029175197
B1955513728016N12151803WA0047900470001100031178200
B1955523728011N12151803WA0047700468001100035176198
B1955533728006N12151802WA0047500467001100038170201
B1955543728000N12151801WA0047500465001100039162191
B1955553727995N12151798WA0047500465001100037159201
B1955563727990N12151796WA0047500465001100032164199
B1955573727985N12151795WA0047300464001100031169195
B1955583727981N12151794WA0047200462001100033170193
B1955593727976N12151793WA0047000459001100037165189
B1956003727970N12151791WA0046800457001100040163196
B1956013727964N12151788WA0046700456001100040165194
B1956023727959N12151787WA0046700456001100037167201
B1956033727953N12151785WA0046600455001100035165191
B1956043727949N12151783WA0046600454001100034160189
B1956053727944N12151781WA0046400452001100035158191
B1956063727939N12151779WA0046300451001100036162197
B1956073727933N12151777WA0046100449001100036167195
B1956083727928N12151776WA0046000448001100035169197
B1956093727923N12151774WA0045900448001100032164182
B1956103727919N12151772WA0045800447001100031156190
B1956113727914N12151770WA0045700445001100031154187
B1956123727910N12151768WA0045500443001100032162192
B1956133727905N12151767WA0045300441001100034172198
B1956143727900N12151766WA0045100439001100035176196
B1956153727894N12151765WA0045000438001100036173197
B1956163727889N12151765WA0044900436001100037171203
B1956173727884N12151764WA0044700435001100036174212
B1956183727878N12151763WA0044600433001100035179208
B1956193727873N12151763WA0044400431001100034180201
B1956203727868N12151763WA0044200429001100035175198
B1956213727863N12151762WA0044000427001100037166189
B1956223727857N12151760WA0044000425001100038160205
B1956233727852N12151758WA0044000425001100034164211
B1956243727847N12151757WA0043900425001100033172201
B1956253727842N12151756WA0043800423001100036179201
B1956263727836N12151756WA0043700423001100038180201
B1956273727830N12151756WA0043700424001100042175173
B1956283727824N12151755WA0044000423001100040170189
B1956293727818N12151752WA0044300423001100039155187
B1956303727814N12151748WA0044500423001100034146183
B1956313727811N12151745WA0044600424001100027142182
B1956323727808N12151742WA0044500424001100025139183
B1956333727806N12151739WA0044300424001100025144184
B1956343727802N12151737WA0044100423001100027150171
B1956353727798N12151734WA0044000422001100032145158
B1956363727795N12151729WA0043800421001100033135134
B1956373727792N12151724WA0043700420001100035127131
B1956383727789N12151718WA0043500419001100037117125
B1956393727787N12151711WA0043200418001100037110129
B1956403727786N12151704WA0043000416001100039102142
B1956413727785N12151697WA0042900414001100041110150
B1956423727782N12151690WA0042700413001100039120156
B1956433727779N12151684WA0042500411001100038131164
B1956443727774N12151681WA0042300409001100033154171
B1956453727769N12151680WA0042100408001100031165186
B1956463727764N12151679WA0042000407001100030174192
B1956473727760N12151679WA0041900405001100030182200
B1956483727756N12151680WA0041900405001100029191205
B1956493727752N12151682WA0041900404001100026203211
B1956503727749N12151684WA0041900404001100022215225
B1956513727747N12151687WA0041900403001100018226233
B1956523727745N12151689WA0041800402001100017230242
B1956533727744N12151691WA0041700401001100018223238
B1956543727741N12151694WA0041600399001100022211235
B1956553727738N12151696WA0041500398001100023200233
B1956563727735N12151697WA0041500398001100021196235
B1956573727732N12151698WA0041400397001100020202230
B1956583727729N12151700WA0041300396001100021210235
B1956593727727N12151702WA0041200394001100022210212
B1957003727724N12151703WA0040900392001100021196215
B1957013727721N12151704WA0040700390001100023183221
B1957023727717N12151704WA0040500388001100024181225
B1957033727714N12151705WA0040300386001100024195234
B1957043727710N12151706WA0040200384001100025205229
B1957053727707N12151708WA0040000382001100025204238
B1957063727703N12151710WA0039800380001100025201236
B1957073727700N12151712WA0039600378001100027201235
B1957083727696N12151714WA0039400376001100025209239
B1957093727693N12151716WA0039300375001100024217242
B1957103727691N12151719WA0039200374001100021228247
B1957113727689N12151722WA0039100373001100019242252
B1957123727688N12151726WA0038900371001100020255257
B1957133727688N12151730WA0038700369001100022262266
B1957143727688N12151734WA0038600368001100023263271
B1957153727687N12151738WA0038500367001100022260267
B1957163727687N12151742WA0038400366001100020257266
B1957173727686N12151745WA0038300364001100019256274
B1957183727685N12151749WA0038100363001100020255273
B1957193727684N12151753WA0038000361001100021260278
B1957203727684N12151757WA0037900360001100020264266
B1957213727684N12151760WA0037700359001100018260264
B1957223727683N12151763WA0037700358001100018246246
B1957233727682N12151767WA0037400356001100020242244
B1957243727680N12151771WA0037200355001100025243252
B1957253727678N12151775WA0037100354001100029248262
B1957263727676N12151781WA0037100353001100030250266
B1957273727675N12151786WA0037100353001100028254274
B1957283727674N12151791WA0037100352001100025253257
B1957293727673N12151795WA0036900351001100025251257
B1957303727671N12151800WA0036700349001100027240257
B1957313727669N12151804WA0036600348001100030242261
B1957323727667N12151810WA0036500348001100032240254
B1957333727664N12151815WA0036500347001100036232250
B1957343727660N12151820WA0036600347001100034229242
B1957353727657N12151824WA0036800347001100033223248
B1957363727653N12151828WA0037000348001100031215255
B1957373727649N12151831WA0037100348001100026215254
B1957383727646N12151834WA0037100348001100025215262
B1957393727643N12151837WA0036900347001100027224262
B1957403727641N12151841WA0036800346001100028231258
B1957413727639N12151846WA0036600346001100029243261
B1957423727638N12151851WA0036500345001100028255257
B1957433727636N12151856WA0036400344001100026249260
B1957443727635N12151861WA0036300343001100026237255
B1957453727632N12151865WA0036200342001100030228254
B1957463727629N12151869WA0036100342001100033224250
B1957473727625N12151874WA0036200342001100031223250
B1957483727622N12151877WA0036200342001100028220245
B1957493727619N12151880WA0036100341001100026217242
B1957503727616N12151883WA0036000340001100027211233
B1957513727612N12151886WA0035800338001100028208236
B1957523727608N12151888WA0035600337001100030210237
B1957533727604N12151892WA0035400335001100033214247
B1957543727600N12151895WA0035300335001100032215242
B1957553727596N12151898WA0035300335001100031210236
B1957563727592N12151901WA0035300334001100031203234
B1957573727588N12151904WA0035200332001100033204241
B1957583727583N12151906WA0035000331001100034209235
B1957593727579N12151910WA0035000331001100032212245
B1958003727575N12151913WA0034900330001100029210228
B1958013727571N12151915WA0034800329001100027205231
B1958023727568N12151917WA0034600327001100028201226
B1958033727563N12151919WA0034400326001100031203230
B1958043727559N12151922WA0034300325001100031209237
B1958053727556N12151925WA0034200325001100028214226
B1958063727552N12151928WA0034200324001100027212229
B1958073727549N12151930WA0034100323001100027208232
B1958083727545N12151933WA0034000322001100028209232
B1958093727542N12151936WA0033800320001100030215235
B1958103727538N12151939WA0033600319001100030216234
B1958113727534N12151942WA0033500318001100029211225
B1958123727531N12151945WA0033300316001100028205240
B1958133727527N12151947WA0033000313001100030205228
B1958143727523N12151950WA0032800311001100031210245
B1958153727519N12151953WA0032700310001100030211238
B1958163727515N12151956WA0032600308001100027209246
B1958173727512N12151958WA0032500307001100024205241
B1958183727509N12151960WA0032300305001100024207248
B1958193727506N12151962WA0032100303001100025212241
B1958203727502N12151965WA0032000301001100028216249
B1958213727499N12151968WA0031800300001100027214240
B1958223727496N12151970WA0031700298001100025207228
B1958233727492N12151972WA0031600296001100025199234
B1958243727489N12151974WA0031400294001100026197230
B1958253727485N12151975WA0031200292001100027200234
B1958263727481N12151977WA0031000290001100028203235
B1958273727477N12151979WA0030800289001100026204236
B1958283727474N12151981WA0030600287001100025203233
B1958293727470N12151983WA0030400285001100025204233
B1958303727467N12151985WA0030200282001100027206238
B1958313727463N12151988WA0030000280001100030210242
B1958323727460N12151991WA0029800278001100029215250
B1958333727456N12151994WA0029600277001100027220250
B1958343727454N12151997WA0029500275001100024226257
B1958353727452N12152001WA0029400274001100023237259
B1958363727450N12152004WA0029200272001100023248262
B1958373727449N12152008WA0029100270001100022263270
B1958383727450N12152013WA0028900269001100022280280
B1958393727451N12152016WA0028800267001100023298287
B1958403727453N12152020WA0028700266001100024312300
B1958413727456N12152022WA0028700265001100024332309
B1958423727460N12152023WA0028600263001100024350323
B1958433727464N12152023WA0028500262001100025005336
B1958443727468N12152021WA0028300260001100027019349
B1958453727471N12152018WA0028100259001100029032005
B1958463727475N12152014WA0028000257001100031043020
B1958473727478N12152009WA0027800256001100032052033
B1958483727480N12152003WA0027600255001100034064045
B1958493727481N12151996WA0027500253001100034077059
B1958503727481N12151989WA0027300252001100034088074
B1958513727481N12151983WA0027200251001100033079078
B1958523727482N12151976WA0026900248001100033074066
B1958533727484N12151971WA0026500246001100032067060
B1958543727489N12151968WA0026200243001100030039053
B1958553727494N12151966WA0026200241001100029024020
B1958563727498N12151966WA0026200240001100026015009
B1958573727502N12151965WA0026000238001100023009357
B1958583727506N12151965WA0025700236001100020007353
B1958593727510N12151965WA0025300233001100026359350
B1959003727515N12151966WA0025100229001100034352352
B1959013727520N12151968WA0024900228001100033348344
B1959023727525N12151970WA0024800226001100030342319
B1959033727529N12151972WA0024700225001100026330302
B1959043727531N12151975WA0024500223001100022319286
B1959053727531N12151981WA0024100221001100024271277
B1959063727531N12151986WA0023900218001100023262243
B1959073727529N12151991WA0023500221001100023253232
B1959083727525N12151992WA0023200217001100019204229
B1959093727520N12151990WA0023000215001100021167204
B1959103727516N12151984WA0022900214001100032127183
B1959113727512N12151979WA0022900212001100030135153
B1959123727507N12151977WA0022500209001100027166167
B1959133727503N12151977WA0022100207001100028195195
B1959143727499N12151981WA0021900205001100032227219
B1959153727497N12151987WA0021700202001100031255245
B1959163727498N12151992WA0021700199001100024281264
B1959173727500N12151996WA0021700197001100022295280
B1959183727501N12152000WA0021500194001100021283271
B1959193727501N12152005WA0021200192001100022267280
B1959203727498N12152009WA0021000190001100029229261
B1959213727495N12152013WA0020900192001100028219224
B1959223727491N12152013WA0021000191001100025183210
B1959233727488N12152012WA0021000190001100025166185
B1959243727484N12152010WA0020800187001100028152179
B1959253727480N12152007WA0020700185001100031150179
B1959263727475N12152004WA0020500183001100030159182
B1959273727471N12152005WA0020200181001100030193187
B1959283727467N12152008WA0020000179001100032208207
B1959293727462N12152011WA0020100178001100031208218
B1959303727458N12152014WA0020000177001100027198223
B1959313727455N12152015WA0020000176001100024192214
B1959323727452N12152016WA0019800175001100019200229
B1959333727450N12152018WA0019900174001100016220215
B1959343727448N12152020WA0019900172001100011221228
B1959353727447N12152021WA0019900172001100009193231
B1959363727446N12152021WA0019900171001100004193206
B1959373727446N12152021WA0019900170001100000193220
B1959383727446N12152022WA0019900173001100000193216
B1959393727446N12152022WA0019900175001100000193198
B1959403727446N12152022WA0019900175001100000193189
B1959413727446N12152022WA0019900175001100000193196
B1959423727446N12152022WA0019900175001100000193201
B1959433727446N12152022WA0019900175001100000193206
B1959443727446N12152022WA0019900175001100000193211
B1959453727446N12152022WA0019900175001100000193215
B1959463727446N12152022WA0019900175001100000193219
B1959473727446N12152022WA0019900175001100000193219
B1959483727446N12152022WA0019900175001100000193221
B1959493727446N12152022WA0019900175001100000193222
B1959503727446N12152022WA0019800175001100000193225
B1959513727446N12152022WA0019900175001100000193220
B1959523727446N12152022WA0019900175001100000193221
B1959533727446N12152022WA0019900175001100000193221
B1959543727444N12152022WA0019900175001100003178222
B1959553727443N12152021WA0019900175001100003151218
B1959563727443N12152021WA0019900175001100002145226
B1959573727443N12152021WA0019900175001100000145230
B1959583727443N12152021WA0019900175001100000145218
B1959593727443N12152021WA0019900175001100000145217
B2000003727443N12152021WA0019900175001100000145216
B2000013727443N12152021WA0019900175001100000145221
B2000023727443N12152021WA0019900175001100000145190
B2000033727443N12152021WA0019800175001100000145149
B2000043727444N12152021WA0019900175001100002029303
GhCZHsUh4cXhtNIvz+l5QUO4DDrY5/7Ok++TB6ybsW9qWn4R0Ugp46WLb/sd6fwhN
GLOe9NoPL2trBDvpDTkKNtYOxPwxh1Rq25s5nrNf/NwlHqsZf+55cqLtx/q1Vdg/R
G18YWMiYNZOEBUPYhFGuefb8fC4ZjziyLjcuob7BF8J4=

