AXFH000
HFDTE270925
HFPLTPILOT:Scott O’Brien
HFGTYGLIDERTYPE:Ozone Swift 6
HFDTM100GPSDATUM:WGS84
HFRFWFIRMWAREVERSION:9.3
HFRHWHARDWAREVERSION:iPhone 15
HFFTYFRTYPE:Flyskyhy,9.3
HFGPS:Internal
HFPRSVARIO:Internal Vario
HFCCLCOMPETITIONCLASS:Paraglider
HFTZNTIMEZONE:-7
HFSITSITE:Ed Levin 300ft,US
I053638FXA3941VXA4244GSP4547CCO4850HDT
C270925181210270925000100TASK
C0000000N00000000ETAKEOFF
C3731062N12153514W00000000000400000000360000STARTAREA 
C3726317N12149880W00000000000400000000360000FINISHAREA Big Dog Vineyards
C0000000N00000000ELANDING
B1812383727664N12151871WA0028200282004003004165171
B1812393727663N12151870WA0028200283004003005165179
B1812403727663N12151869WA0028200283004003005165178
B1812413727662N12151868WA0028200282004003005165169
B1812423727662N12151868WA0028200283004003005142156
B1812433727661N12151867WA0028200283004003002165164
B1812443727661N12151867WA0028200283004003002165174
B1812453727661N12151867WA0028200282004003001165176
B1812463727661N12151867WA0028200281004003001165195
B1812473727661N12151867WA0028100281004003001165190
B1812483727662N12151867WA0028100280004003007038197
B1812493727662N12151867WA0028100280004003007165215
B1812503727662N12151867WA0028100280004003001165207
B1812513727662N12151867WA0028100280004003001268191
B1812523727662N12151867WA0028100280004003000268180
B1812533727662N12151867WA0028100280004003000268176
B1812543727662N12151868WA0028100281004003000269183
B1812553727662N12151868WA0028100281004003000276190
B1812563727662N12151868WA0028100280004003000278207
B1812573727662N12151868WA0028100281004003000278184
B1812583727662N12151868WA0028100282004003001278200
B1812593727662N12151868WA0028100282004003002278209
B1813003727662N12151868WA0028100282004003001278191
B1813013727662N12151868WA0028100281004003002278193
B1813023727662N12151869WA0028100280004003000214197
B1813033727661N12151869WA0028100279004003006214190
B1813043727661N12151869WA0028100279004003006174203
B1813053727659N12151869WA0028000279004003006187179
B1813063727658N12151870WA0028000279004003008180174
B1813073727656N12151870WA0027900279004003011187177
B1813083727654N12151870WA0027900277004003015178184
B1813093727652N12151869WA0027800277004003017171145
B1813103727648N12151866WA0027800277004003017143132
B1813113727646N12151863WA0027700277004003027139133
B1813123727644N12151859WA0027700278004003027115108
B1813133727643N12151854WA0027700280004003029104103
B1813143727643N12151849WA0027700281004003029090095
B1813153727642N12151845WA0027700282004003027093103
B1813163727642N12151840WA0027700280004003027102124
B1813173727641N12151834WA0027800282004003027111131
B1813183727639N12151830WA0027800282004003024121162
B1813193727637N12151829WA0027900282004003024170178
B1813213727635N12151830WA0027900279004003023216206
B1813223727633N12151834WA0027900277004003023251234
B1813233727632N12151839WA0027900275004003031268259
B1813243727635N12151845WA0027900276004003038290265
B1813253727637N12151850WA0027800277004003031305259
B1813263727639N12151855WA0027700279004003030295276
B1813273727640N12151860WA0027600278004003026279270
B1813283727641N12151865WA0027600279004003030286274
B1813293727643N12151871WA0027600281004003030298280
B1813303727646N12151875WA0027700283004003030308277
B1813313727649N12151879WA0027800285004003029308288
B1813323727652N12151883WA0027900287004003029313273
B1813333727655N12151887WA0027900286004003029312288
B1813343727658N12151892WA0028100287004003031305284
B1813353727661N12151897WA0028200289004003033311285
B1813363727665N12151901WA0028300290004003033320287
B1813373727669N12151905WA0028400293004003033318286
B1813383727670N12151908WA0028500292004003031301281
B1813393727669N12151912WA0028700289004003015203217
B1813403727666N12151909WA0028800289004003032135184
B1813413727664N12151904WA0028900289004003038107133
B1813423727664N12151898WA0029000292004003035080114
B1813433727664N12151893WA0029000295004003035083106
B1813443727664N12151889WA0029000296004003025095107
B1813453727663N12151886WA0029100296004003019124115
B1813463727661N12151881WA0029200297004003026119128
B1813473727659N12151877WA0029300299004003026116130
B1813483727658N12151872WA0029400302004003028109137
B1813493727657N12151867WA0029600305004003028108138
B1813503727655N12151864WA0029600308004003016119143
B1813513727654N12151862WA0029700310004003016128158
B1813523727652N12151861WA0029900308004003014182166
B1813533727649N12151863WA0030100307004003014203202
B1813543727647N12151865WA0030300307004003022232222
B1813553727647N12151871WA0030400310004003032275244
B1813563727648N12151875WA0030500312004003032290268
B1813573727652N12151878WA0030600313004003032315273
B1813583727655N12151881WA0030700314004003027327282
B1813593727658N12151883WA0030800313004003027331291
B1814003727662N12151886WA0031000312004003026323296
B1814013727665N12151890WA0031100311004003032309284
B1814023727667N12151894WA0031100311004003026297277
B1814033727667N12151897WA0031100310004003023259263
B1814043727665N12151898WA0031100308004003016195228
B1814053727663N12151897WA0031000308004003023148184
B1814063727661N12151893WA0030900306004003029118150
B1814073727660N12151886WA0030900305004003029102123
B1814083727662N12151879WA0030800306004003039071111
B1814093727663N12151873WA0030700307004003039074083
B1814103727664N12151867WA0030600307004003030078093
B1814113727663N12151862WA0030500303004003030106099
B1814123727661N12151855WA0030400304004003030115117
B1814133727659N12151850WA0030300304004003034114122
B1814143727657N12151845WA0030300306004003034117142
B1814153727655N12151842WA0030300309004003018120149
B1814163727654N12151840WA0030300308004003018134168
B1814173727653N12151839WA0030300307004003011162183
B1814183727651N12151841WA0030500307004003011230202
B1814193727651N12151844WA0030600306004003016274239
B1814203727651N12151848WA0030700307004003025282261
B1814213727657N12151853WA0030700307004003042325266
B1814223727660N12151856WA0030700307004003031321271
B1814233727662N12151859WA0030700306004003031316267
B1814243727664N12151862WA0030600306004003021293268
B1814253727666N12151866WA0030600304004003020291255
B1814263727666N12151870WA0030500304004003022280256
B1814273727668N12151873WA0030400304004003020286253
B1814283727668N12151877WA0030400304004003020291258
B1814293727669N12151880WA0030300305004003019290262
B1814303727670N12151883WA0030200305004003018293258
B1814313727670N12151886WA0030200303004003019267260
B1814323727669N12151888WA0030200300004003018238239
B1814333727665N12151886WA0030200299004003019153219
B1814343727662N12151881WA0030200298004003023121162
B1814353727660N12151875WA0030200300004003036116136
B1814363727660N12151867WA0030100303004003042095127
B1814373727661N12151861WA0030100305004003037078105
B1814383727663N12151854WA0030100305004003037075089
B1814393727663N12151847WA0030200305004003037081089
B1814403727663N12151839WA0030300306004003043094091
B1814413727662N12151832WA0030300307004003043098095
B1814423727662N12151825WA0030300310004003040093102
B1814433727662N12151819WA0030400310004003035091099
B1814443727661N12151813WA0030400311004003031097107
B1814453727660N12151807WA0030400311004003029104106
B1814463727659N12151802WA0030500313004003032113103
B1814473727657N12151796WA0030600315004003032113105
B1814483727655N12151792WA0030600317004003032112110
B1814493727655N12151788WA0030800320004003025088109
B1814503727655N12151783WA0031000322004003025092095
B1814513727654N12151779WA0031200324004003025099100
B1814523727654N12151775WA0031200325004003024108108
B1814533727652N12151771WA0031400326004003022117106
B1814543727652N12151768WA0031700325004003021107123
B1814553727651N12151765WA0031900326004003012125141
B1814563727649N12151764WA0031900326004003013165166
B1814573727647N12151765WA0032100325004003013200186
B1814583727645N12151767WA0032300326004003020228233
B1814593727645N12151774WA0032400327004003024270254
B1815003727647N12151779WA0032400329004003040315286
B1815013727651N12151782WA0032400330004003040321290
B1815023727656N12151783WA0032500334004003036343279
B1815033727660N12151785WA0032600336004003035341267
B1815043727663N12151788WA0032600336004003025311274
B1815053727665N12151790WA0032700337004003018307248
B1815063727663N12151795WA0032900339004003021240242
B1815073727661N12151797WA0033100339004003018187206
B1815083727659N12151795WA0033100340004003020139176
B1815093727658N12151792WA0033200341004003020116149
B1815103727656N12151788WA0033400344004003027101133
B1815113727656N12151783WA0033500346004003027080116
B1815123727657N12151778WA0033500348004003027075098
B1815133727658N12151772WA0033700351004003031079087
B1815143727658N12151768WA0033900353004003031096096
B1815153727657N12151763WA0034200355004003026103110
B1815163727656N12151758WA0034200355004003026110116
B1815173727654N12151753WA0034400355004003026112113
B1815183727653N12151748WA0034700356004003027108116
B1815193727652N12151743WA0034900357004003031104117
B1815203727651N12151738WA0034900357004003026104113
B1815213727650N12151734WA0035100356004003026107116
B1815223727648N12151730WA0035200355004003026112117
B1815233727646N12151725WA0035300355004003026119111
B1815243727644N12151720WA0035300356004003030121128
B1815253727642N12151716WA0035400357004003026127125
B1815273727639N12151713WA0035500359004003026139139
B1815283727637N12151710WA0035500359004003023146121
B1815293727635N12151707WA0035500360004003021146145
B1815303727632N12151704WA0035600361004003025136137
B1815313727629N12151701WA0035700363004003025127124
B1815323727628N12151696WA0035800366004004025103117
B1815333727627N12151692WA0035800368004006025099105
B1815343727631N12151684WA0035900370004004025058102
B1815353727634N12151680WA0036100371004003030053072
B1815363727637N12151676WA0036300373004003031043064
B1815373727640N12151671WA0036300374004004031046066
B1815383727642N12151665WA0036500373004004032067073
B1815393727641N12151658WA0036700373004004034086101
B1815403727639N12151654WA0036800373004004031109122
B1815413727636N12151652WA0036800375004003031170150
B1815423727633N12151653WA0036900377004003025208193
B1815433727631N12151655WA0037000378004003022225213
B1815443727629N12151657WA0037100379004003020240210
B1815453727628N12151660WA0037100381004003018240217
B1815463727627N12151662WA0037300381004003018228219
B1815473727625N12151664WA0037400382004003014220221
B1815483727623N12151666WA0037600383004003014211232
B1815493727622N12151669WA0037600384004003015247243
B1815503727622N12151677WA0037900388004003026284271
B1815513727623N12151682WA0038000390004003024285276
B1815523727624N12151686WA0038000392004003024277264
B1815533727624N12151690WA0038200392004003024271262
B1815543727624N12151695WA0038300394004003026261247
B1815553727622N12151699WA0038500395004003026243249
B1815563727621N12151703WA0038500396004003026245259
B1815573727621N12151707WA0038700396004003022269276
B1815583727621N12151712WA0038900396004003022284276
B1815593727624N12151718WA0039100393004003042299295
B1816003727629N12151725WA0039100394004003053319321
B1816013727634N12151729WA0039200392004003043323341
B1816023727641N12151731WA0039200392004003047341347
B1816033727649N12151727WA0039200388004004047008002
B1816043727652N12151720WA0039200390004004040040026
B1816053727653N12151713WA0039200394004003040087058
B1816063727654N12151708WA0039100396004003033082105
B1816073727655N12151705WA0039100399004003022081108
B1816083727656N12151701WA0039100401004003022072112
B1816093727656N12151697WA0039100402004003024085107
B1816103727655N12151692WA0039300404004003025105115
B1816113727655N12151688WA0039500407004003024104120
B1816123727654N12151683WA0039500409004003024099120
B1816133727654N12151678WA0039700410004003024096121
B1816143727653N12151673WA0040000413004004028095129
B1816153727652N12151669WA0040300415004003028104140
B1816163727651N12151665WA0040300416004004024110146
B1816173727649N12151663WA0040500418004004021142164
B1816183727647N12151662WA0040800417004004017164173
B1816193727646N12151662WA0041000417004003013210201
B1816203727644N12151664WA0041000416004004016218215
B1816213727643N12151667WA0041100414004003016256237
B1816223727643N12151672WA0041200414004003024277271
B1816233727644N12151678WA0041200413004004030283287
B1816243727649N12151682WA0041200413004003042323287
B1816253727653N12151686WA0041200415004003042326287
B1816263727656N12151690WA0041200415004003033307284
B1816273727657N12151694WA0041100415004003026289257
B1816283727656N12151700WA0041100414004003026249250
B1816293727655N12151704WA0041100414004003026239220
B1816303727653N12151707WA0041100414004003026212208
B1816313727651N12151710WA0041100416004003019232185
B1816323727648N12151707WA0041100412004003019137184
B1816333727646N12151705WA0041100412004003018122144
B1816343727645N12151701WA0041000410004003021105127
B1816353727646N12151696WA0040900409004004029077113
B1816363727649N12151689WA0040900406004003029058088
B1816373727652N12151682WA0040800405004003043056078
B1816383727655N12151677WA0040700404004003043055070
B1816393727657N12151672WA0040500404004003029059079
B1816403727659N12151667WA0040500403004003029074086
B1816413727660N12151662WA0040400401004003029069100
B1816423727661N12151656WA0040300400004003028083109
B1816433727661N12151652WA0040100399004003028097127
B1816443727660N12151648WA0040100397004003018124148
B1816453727658N12151647WA0040000395004003018168172
B1816463727655N12151648WA0039900393004003018209192
B1816473727653N12151651WA0039700391004003018233208
B1816483727651N12151654WA0039700390004003023233196
B1816493727650N12151657WA0039500389004003019239194
B1816503727648N12151659WA0039200388004003019222200
B1816513727646N12151660WA0039000385004003016205205
B1816523727643N12151663WA0039000383004003016215212
B1816533727641N12151665WA0038800382004003019223231
B1816543727639N12151671WA0038600379004003034248232
B1816553727638N12151676WA0038300378004003034247230
B1816563727636N12151680WA0038300377004003031240224
B1816573727634N12151683WA0038100376004003022235234
B1816583727633N12151686WA0037900374004003018240231
B1816593727632N12151689WA0037700372004003020248241
B1817003727631N12151693WA0037700370004003022254250
B1817013727630N12151698WA0037500370004003022262261
B1817023727630N12151703WA0037300369004003028265267
B1817033727631N12151708WA0037100368004003028290272
B1817043727633N12151714WA0037100367004003030295272
B1817053727635N12151719WA0037000367004003032298270
B1817063727637N12151724WA0036800366004003032296271
B1817073727639N12151730WA0036600366004003032291250
B1817083727641N12151735WA0036600366004003033292279
B1817093727642N12151741WA0036500365004003032286251
B1817103727644N12151747WA0036400365004003033286280
B1817113727645N12151753WA0036300364004003032280258
B1817123727646N12151758WA0036300362004004030283238
B1817133727646N12151764WA0036200360004003030274251
B1817143727647N12151769WA0036100358004003027269243
B1817153727646N12151774WA0036000357004003027268254
B1817163727646N12151779WA0036000355004003027263244
B1817173727645N12151783WA0035800353004003024262240
B1817183727645N12151788WA0035700352004003024264248
B1817193727645N12151793WA0035500350004003026267255
B1817203727645N12151798WA0035500350004003028270262
B1817213727646N12151803WA0035300348004004028278272
B1817223727647N12151808WA0035100347004004029286276
B1817233727649N12151813WA0035000345004003029296273
B1817243727651N12151818WA0035000344004003031292262
B1817253727652N12151824WA0034800342004003037280251
B1817263727654N12151831WA0034700344004003036283262
B1817273727653N12151835WA0034600345004003036268262
B1817283727653N12151840WA0034600346004003025278268
B1817293727654N12151843WA0034500344004003018295268
B1817303727655N12151847WA0034400343004003024285262
B1817313727656N12151852WA0034400341004003024279264
B1817333727656N12151857WA0034400340004003026278259
B1817343727658N12151861WA0034400340004003024291253
B1817353727659N12151865WA0034300340004003024298254
B1817363727661N12151869WA0034300340004003024291261
B1817373727662N12151874WA0034300340004003025282256
B1817383727663N12151879WA0034200341004003023285242
B1817393727664N12151882WA0034100341004003023289242
B1817403727664N12151886WA0034000340004003021274248
B1817413727664N12151891WA0034000337004003021257227
B1817423727662N12151895WA0034000334004003024251201
B1817433727660N12151897WA0033900333004003021205182
B1817443727657N12151898WA0033800332004003021175162
B1817453727654N12151896WA0033800329004003021139143
B1817463727653N12151890WA0033600328004003027101128
B1817473727653N12151884WA0033400329004003036097107
B1817483727654N12151877WA0033200332004003037076110
B1817493727656N12151873WA0033200332004003037067106
B1817503727657N12151869WA0033100331004004023062097
B1817513727657N12151865WA0033000326004004023089100
B1817523727657N12151859WA0032900323004003025099109
B1817533727656N12151852WA0032900322004004037098097
B1817543727655N12151846WA0032700322004004037096100
B1817553727656N12151841WA0032600324004003032078100
B1817563727656N12151835WA0032500324004003031080091
B1817573727656N12151828WA0032500323004004031083092
B1817583727657N12151821WA0032400320004003038087084
B1817593727658N12151809WA0032100319004003036081088
B1818003727659N12151802WA0032100318004003034079086
B1818013727659N12151796WA0032000317004003034083086
B1818023727659N12151790WA0031900316004003030087084
B1818033727660N12151784WA0031800315004003032084091
B1818043727661N12151778WA0031800314004003032080105
B1818053727661N12151772WA0031700315004003033086114
B1818063727660N12151767WA0031600315004003033105130
B1818073727659N12151762WA0031600314004003027124148
B1818083727656N12151760WA0031500313004003027156163
B1818093727652N12151758WA0031400314004003024161194
B1818103727651N12151761WA0031300313004003023231205
B1818113727650N12151763WA0031300311004003024260238
B1818123727650N12151768WA0031200309004003026275256
B1818133727650N12151773WA0031200309004003026274257
B1818143727650N12151777WA0031200309004003026278260
B1818153727651N12151782WA0031200310004003024281245
B1818163727652N12151787WA0031100309004003024281285
B1818173727653N12151792WA0031000309004003030284291
B1818183727654N12151797WA0030900310004003030287280
B1818193727656N12151802WA0030900310004003026293265
B1818203727657N12151806WA0030800309004003026296288
B1818213727659N12151810WA0030700308004003026301290
B1818223727662N12151814WA0030700307004003029309303
B1818233727665N12151818WA0030700306004003032316306
B1818243727669N12151822WA0030700306004003029315293
B1818253727671N12151826WA0030600306004003029309276
B1818263727673N12151831WA0030500306004003028299277
B1818273727674N12151835WA0030500304004003024287254
B1818283727675N12151839WA0030500304004003026290266
B1818293727676N12151845WA0030400303004003026273261
B1818303727676N12151849WA0030300303004003026267246
B1818313727676N12151854WA0030200304004003026277273
B1818323727677N12151858WA0030200303004003024290270
B1818333727679N12151863WA0030200302004003026296278
B1818343727680N12151867WA0030100302004003026291273
B1818353727682N12151872WA0030100300004003026291269
B1818363727684N12151876WA0030100299004003027297270
B1818373727685N12151881WA0030000299004003023290274
B1818383727685N12151885WA0030000300004003023264264
B1818393727684N12151889WA0029900300004003021250244
B1818403727683N12151892WA0029900301004003020252244
B1818413727683N12151897WA0029900301004003021270251
B1818423727683N12151901WA0029900302004003025273253
B1818433727684N12151906WA0029900301004003025283249
B1818443727684N12151910WA0029900302004006023274242
B1818453727682N12151914WA0029900296004003023248235
B1818463727680N12151918WA0029900293004003026218217
B1818473727676N12151921WA0029800293004003034206209
B1818483727672N12151924WA0029800293004003034198193
B1818493727668N12151924WA0029600297004003030180191
B1818503727666N12151924WA0029500298004003022166176
B1818513727664N12151923WA0029400299004003012153170
B1818523727663N12151922WA0029400296004003010120181
B1818533727661N12151920WA0029400295004003016159160
B1818543727658N12151920WA0029500292004003016177162
B1818553727654N12151920WA0029500293004003027188157
B1818563727650N12151921WA0029500294004003027197167
B1818573727648N12151922WA0029500295004003016193161
B1818583727645N12151922WA0029400296004003016187166
B1818593727643N12151923WA0029400296004003016178167
B1819003727640N12151923WA0029400296004003018178172
B1819013727636N12151923WA0029300297004003021182168
B1819023727633N12151923WA0029300300004003023190166
B1819033727630N12151923WA0029300302004003023174160
B1819043727626N12151921WA0029400304004003023150153
B1819053727628N12151915WA0029500301004003027080137
B1819063727631N12151909WA0029700299004003036066084
B1819073727640N12151905WA0029700298004003065017064
B1819083727647N12151906WA0029800301004003065345007
B1819093727654N12151911WA0029800300004003056341333
B1819103727657N12151918WA0029900304004003054311325
B1819113727657N12151925WA0029900307004003045261296
B1819123727657N12151930WA0029900309004003023274247
B1819133727658N12151933WA0029900312004003023264249
B1819143727657N12151936WA0030100310004003018246241
B1819153727656N12151939WA0030100310004003018229226
B1819163727653N12151941WA0030300309004003019203215
B1819173727649N12151942WA0030600307004003028171198
B1819183727645N12151938WA0030700308004003033133176
B1819193727643N12151934WA0030800310004003029111146
B1819203727644N12151930WA0030800317004003029074131
B1819213727643N12151927WA0030900321004003024090096
B1819223727643N12151925WA0031000321004003008111112
B1819233727641N12151923WA0031200322004003013136144
B1819243727639N12151920WA0031200322004003013132150
B1819253727637N12151918WA0031400324004003021136150
B1819263727635N12151916WA0031600326004003021148150
B1819273727634N12151915WA0031900327004003011156157
B1819283727632N12151914WA0031900327004003012151168
B1819293727630N12151912WA0032100327004003012135165
B1819303727628N12151908WA0032200327004003019120157
B1819313727628N12151903WA0032300327004003027087141
B1819323727630N12151898WA0032300328004003033060109
B1819333727634N12151893WA0032400325004003042033077
B1819343727640N12151891WA0032500324004003042010039
B1819353727647N12151892WA0032500324004003049345007
B1819363727652N12151898WA0032500323004003050309336
B1819373727656N12151904WA0032500325004003048308293
B1819393727660N12151911WA0032400326004004048305292
B1819403727656N12151917WA0032300326004004042268289
B1819413727653N12151922WA0032300326004004034239252
B1819423727652N12151925WA0032300330004003017231226
B1819433727649N12151928WA0032300331004003019214212
B1819443727646N12151928WA0032400331004003019180204
B1819453727643N12151926WA0032400331004003024149183
B1819463727640N12151922WA0032600332004003031118162
B1819473727639N12151918WA0032800332004003031110137
B1819483727639N12151913WA0032800336004004028088130
B1819493727640N12151909WA0032900335004003026055114
B1819503727641N12151906WA0033100335004003019063085
B1819513727643N12151902WA0033100332004003031058100
B1819523727646N12151896WA0033100332004003039060077
B1819533727648N12151890WA0033200331004003039062092
B1819543727651N12151884WA0033200330004003039065095
B1819553727651N12151879WA0033100329004003035085106
B1819563727652N12151875WA0033100328004003019095126
B1819573727651N12151872WA0033100327004003019119139
B1819583727650N12151870WA0032900326004003015149161
B1819593727648N12151869WA0032800327004004013146180
B1820003727646N12151874WA0032800324004003013237197
B1820013727645N12151877WA0032700324004003029260226
B1820023727645N12151882WA0032600323004003031276249
B1820033727648N12151888WA0032500323004003031299264
B1820043727651N12151894WA0032500321004003041310277
B1820053727655N12151900WA0032400320004003041309273
B1820063727659N12151905WA0032300320004003040312280
B1820073727662N12151910WA0032200319004003040306260
B1820083727665N12151916WA0032200319004003039293242
B1820093727665N12151921WA0032100320004003030265235
B1820103727665N12151926WA0032000321004003027259207
B1820113727662N12151926WA0031900320004004019184197
B1820123727659N12151922WA0031900320004003030128162
B1820133727659N12151917WA0031900321004003030086130
B1820143727659N12151914WA0031900321004003030067102
B1820153727661N12151907WA0031900320004003017085108
B1820163727660N12151904WA0031900319004003021104114
B1820173727659N12151900WA0031900319004003021107118
B1820183727659N12151896WA0031900318004003021088116
B1820193727659N12151892WA0031800318004003020084109
B1820203727659N12151888WA0031800316004003022094106
B1820213727659N12151884WA0031800315004003026096103
B1820223727659N12151879WA0031600316004003026094107
B1820233727658N12151874WA0031500316004003027100110
B1820243727657N12151869WA0031500316004003027103118
B1820253727656N12151864WA0031400315004003028105117
B1820263727654N12151858WA0031400312004003035116123
B1820273727652N12151852WA0031300313004003033110127
B1820283727652N12151848WA0031300313004003033089119
B1820293727652N12151843WA0031200314004003024071108
B1820303727653N12151839WA0031200314004003023068100
B1820313727654N12151834WA0031200312004003027077097
B1820323727655N12151829WA0031100311004003027080098
B1820333727655N12151824WA0031100310004004028077092
B1820343727657N12151820WA0031000309004004028068093
B1820353727658N12151816WA0031000310004004021067102
B1820363727658N12151813WA0031000307004004021082117
B1820373727658N12151810WA0030900303004003019123142
B1820383727656N12151808WA0030700301004004019148168
B1820393727652N12151810WA0030700299004003019218191
B1820403727650N12151813WA0030500296004003027238245
B1820413727650N12151820WA0030300294004003035258270
B1820423727651N12151826WA0030100296004003035273271
B1820433727653N12151832WA0030100295004003036292275
B1820443727655N12151838WA0029800295004003036285277
B1820453727655N12151843WA0029600295004003026283279
B1820463727657N12151849WA0029400294004003027288273
B1820473727657N12151855WA0029400293004003027284271
B1820483727659N12151862WA0029300294004003035286273
B1820493727661N12151868WA0029200296004003035289270
B1820503727662N12151871WA0029200299004003018298272
B1820513727663N12151874WA0029200298004003018300255
B1820523727664N12151878WA0029200296004003018289263
B1820533727665N12151883WA0029300295004003022280261
B1820543727666N12151890WA0029300295004003028274257
B1820553727668N12151897WA0029300296004003040298259
B1820563727671N12151903WA0029300296004003040297283
B1820573727674N12151908WA0029300295004004037302280
B1820583727675N12151913WA0029300293004003033295274
B1820593727674N12151918WA0029300295004003027257268
B1821003727674N12151922WA0029200297004003024249231
B1821013727673N12151926WA0029200298004003024248241
B1821023727672N12151928WA0029200300004003021226218
B1821033727669N12151931WA0029200300004003021209208
B1821043727666N12151931WA0029300298004003021181194
B1821053727662N12151930WA0029500299004003027157172
B1821063727659N12151928WA0029600299004004027144160
B1821073727658N12151924WA0029600302004004023117160
B1821083727657N12151921WA0029700307004003022103161
B1821093727655N12151918WA0029900308004003020123161
B1821103727653N12151916WA0030100311004003021142161
B1821113727651N12151913WA0030100314004003021134176
B1821123727650N12151911WA0030300315004003013120165
B1821133727649N12151909WA0030500315004003013115172
B1821143727646N12151906WA0030800316004003017142181
B1821153727643N12151904WA0030800317004003030161193
B1821163727640N12151905WA0031000318004003030198192
B1821173727638N12151908WA0031100319004003025248214
B1821183727638N12151912WA0031300318004003025279244
B1821193727638N12151916WA0031300318004003025280235
B1821203727638N12151920WA0031400318004003021269238
B1821213727638N12151925WA0031500318004003025256249
B1821223727638N12151930WA0031500318004003025274272
B1821233727640N12151936WA0031500315004003028301289
B1821243727645N12151941WA0031500313004003039323312
B1821253727652N12151945WA0031500313004003051340335
B1821263727659N12151947WA0031400315004003051344001
B1821273727666N12151945WA0031400315004003051000011
B1821283727665N12151935WA0031300312004003048092028
B1821293727664N12151930WA0031200312004003046129117
B1821303727662N12151928WA0031100315004003020165147
B1821313727660N12151927WA0031100316004003020165164
B1821323727659N12151926WA0031000318004003012146162
B1821333727657N12151923WA0031000315004003012114158
B1821343727656N12151920WA0031000315004003017117145
B1821353727655N12151918WA0031000314004003014119159
B1821363727654N12151916WA0031100313004003015118159
B1821373727652N12151912WA0031100313004003015122141
B1821383727650N12151908WA0031200311004004023117138
B1821393727649N12151903WA0031200310004006025102116
B1821403727649N12151899WA0031200310004004026095111
B1821413727649N12151894WA0031100309004003028082107
B1821423727650N12151889WA0031100308004003028081106
B1821433727650N12151883WA0031100307004003028086121
B1821453727650N12151878WA0031000306004003028091130
B1821463727648N12151873WA0030900308004003028114140
B1821473727647N12151869WA0030800310004003027117152
B1821483727646N12151866WA0030800312004003022130167
B1821493727643N12151865WA0030700312004003018157184
B1821503727641N12151864WA0030700312004003022189200
B1821513727637N12151867WA0030700312004003027211215
B1821523727635N12151869WA0030700314004003025227231
B1821533727635N12151875WA0030700314004003027280256
B1821543727637N12151880WA0030900312004003036299286
B1821553727642N12151886WA0031000312004003046325306
B1821563727648N12151889WA0031000314004003046347336
B1821573727653N12151888WA0031100314004003043020001
B1821583727658N12151883WA0031200314004003043048043
B1821593727660N12151877WA0031300315004003044084076
B1822003727657N12151871WA0031300313004003040128110
B1822013727652N12151868WA0031300316004003040170149
B1822023727649N12151868WA0031400319004003034195174
B1822033727648N12151868WA0031400322004003021182179
B1822043727647N12151867WA0031400324004003008176159
B1822053727647N12151866WA0031500322004003007116168
B1822063727646N12151864WA0031600320004003008124155
B1822073727644N12151863WA0031800317004003008148157
B1822083727642N12151862WA0031800315004003014161164
B1822093727640N12151861WA0031900314004003016170179
B1822103727638N12151861WA0031900314004003014169188
B1822113727637N12151863WA0031800312004003014238207
B1822123727637N12151866WA0031800307004003014274236
B1822133727637N12151871WA0031600306004003021271243
B1822143727638N12151876WA0031400303004003026282268
B1822153727641N12151882WA0031200302004003039307284
B1822163727645N12151887WA0031200301004003040324294
B1822173727654N12151896WA0030600298004003040318303
B1822183727658N12151901WA0030400297004003037317279
B1822193727662N12151906WA0030400297004004035312268
B1822203727663N12151912WA0030100297004003035287255
B1822213727664N12151917WA0029900295004003030264235
B1822223727662N12151920WA0029700295004003028232219
B1822233727660N12151921WA0029700293004003021180195
B1822243727658N12151921WA0029600292004003017152166
B1822253727657N12151919WA0029400290004003018129152
B1822263727656N12151915WA0029200289004003018103144
B1822273727655N12151912WA0029200288004003018106139
B1822283727654N12151909WA0029100289004003017107143
B1822293727653N12151906WA0029000289004003021110144
B1822303727652N12151902WA0028900289004003023111131
B1822313727651N12151897WA0028900289004003023112124
B1822323727651N12151894WA0028800289004003023087122
B1822333727651N12151889WA0028700290004003023087114
B1822343727651N12151886WA0028700289004003021087111
B1822353727651N12151882WA0028700288004003022084124
B1822363727651N12151877WA0028600286004004022092124
B1822373727651N12151873WA0028600283004004022096125
B1822383727651N12151868WA0028500282004006023094132
B1822393727649N12151864WA0028500283004003023100130
B1822403727649N12151860WA0028500283004003023106137
B1822413727647N12151856WA0028400283004003023110136
B1822423727646N12151852WA0028200284004003023114130
B1822433727645N12151848WA0028200286004003025110135
B1822443727644N12151843WA0028100282004003023099138
B1822453727643N12151838WA0028000282004003025105146
B1822463727641N12151836WA0028000281004003023132173
B1822473727638N12151835WA0028000279004003023175187
B1822483727635N12151836WA0028000277004003023218208
B1822493727633N12151841WA0027900276004003034254235
B1822503727634N12151847WA0027900276004003039284261
B1822513727635N12151853WA0027900275004003034297283
B1822523727639N12151858WA0027800277004003034314285
B1822533727641N12151863WA0027700278004003032301285
B1822543727642N12151867WA0027600277004003026294276
B1822553727644N12151872WA0027600276004003032292274
B1822563727646N12151878WA0027500276004003032292284
B1822573727649N12151884WA0027500275004003035294274
B1822583727651N12151890WA0027400275004003035290286
B1822593727652N12151896WA0027400274004003033286275
B1823003727654N12151903WA0027400273004003035287285
B1823013727657N12151909WA0027400273004003035296297
B1823023727659N12151916WA0027400272004003038303291
B1823033727662N12151922WA0027400271004003038304298
B1823043727666N12151927WA0027300270004004037305280
B1823053727666N12151932WA0027300271004004037293254
B1823063727668N12151938WA0027300269004004032284236
B1823073727666N12151942WA0027300266004004030255224
B1823083727663N12151945WA0027200266004003029196206
B1823093727660N12151945WA0027100266004003023164173
B1823103727657N12151944WA0027000268004003023152154
B1823113727655N12151943WA0027000268004003016159152
B1823123727654N12151942WA0026900267004003015163154
B1823133727652N12151942WA0026700267004003012169155
B1823143727651N12151941WA0026600266004003011160149
B1823153727649N12151940WA0026600264004003014162152
B1823163727648N12151938WA0026500265004004012129160
B1823173727647N12151938WA0026500263004003012126159
B1823183727646N12151938WA0026400261004003007171170
B1823193727644N12151939WA0026400259004003014226187
B1823203727643N12151942WA0026300257004003020226192
B1823213727640N12151944WA0026200255004003020213182
B1823223727638N12151946WA0026000254004003020212154
B1823233727636N12151947WA0026000252004003017213186
B1823243727634N12151950WA0025800251004003019228187
B1823253727631N12151954WA0025600250004003028226189
B1823263727630N12151957WA0025400249004004023228193
B1823273727627N12151961WA0025400252004003026232184
B1823283727625N12151963WA0025200253004003023221191
B1823293727624N12151964WA0025000253004003007229187
B1823303727623N12151966WA0025000250004003012233185
B1823313727621N12151969WA0025000248004003012221195
B1823323727618N12151971WA0024900246004003019210183
B1823333727615N12151973WA0024900248004003019204183
B1823343727613N12151975WA0024900247004003016206181
B1823353727611N12151976WA0024900245004003016203175
B1823363727609N12151977WA0024800244004003016205185
B1823373727608N12151978WA0024800242004003013206174
B1823383727604N12151979WA0024600241004003018193176
B1823393727601N12151980WA0024600240004003015182178
B1823403727599N12151980WA0024500239004003015181179
B1823413727598N12151981WA0024400236004003015196188
B1823423727595N12151983WA0024300232004003015206181
B1823433727591N12151985WA0024300232004003021204175
B1823443727587N12151986WA0024000232004003028193180
B1823453727583N12151986WA0023800233004003028189180
B1823463727581N12151987WA0023600233004003021193183
B1823473727578N12151989WA0023600232004003016212187
B1823483727576N12151991WA0023400230004003016209183
B1823493727572N12151992WA0023200227004003026198176
B1823513727569N12151993WA0023100227004003026188177
B1823523727566N12151994WA0023100227004003026190177
B1823533727563N12151994WA0023000226004003022190169
B1823543727561N12151995WA0022900226004003016199187
B1823553727558N12151996WA0022800225004003019195187
B1823563727555N12151998WA0022800223004003019201179
B1823573727552N12151999WA0022700223004003020207181
B1823583727550N12152001WA0022600224004003020202174
B1823593727548N12152001WA0022600224004003012192172
B1824003727546N12152001WA0022600222004004013178174
B1824013727543N12152002WA0022500219004003013191184
B1824023727539N12152003WA0022400217004003020198193
B1824033727536N12152006WA0022300217004003028214196
B1824043727533N12152009WA0022300218004003029220197
B1824053727530N12152012WA0022200218004003029212188
B1824063727527N12152014WA0022100215004003023209182
B1824073727524N12152016WA0022100213004003023217191
B1824083727521N12152019WA0022100212004003023220205
B1824093727519N12152024WA0022000210004003029236230
B1824103727517N12152029WA0021900208004003031254239
B1824113727517N12152034WA0021700207004003030272267
B1824123727517N12152045WA0021600203004003028279249
B1824133727517N12152049WA0021300201004003024267259
B1824143727517N12152054WA0021100199004003026265258
B1824153727517N12152059WA0021100199004003026259249
B1824163727516N12152065WA0020800198004003029255239
B1824173727514N12152069WA0020600197004003029237221
B1824183727511N12152072WA0020400195004003025206192
B1824193727507N12152073WA0020400193004003026181168
B1824203727504N12152071WA0020200190004003026148148
B1824213727500N12152069WA0020000189004003030145129
B1824223727499N12152063WA0019800188004003031102123
B1824233727497N12152058WA0019800186004003028095121
B1824243727496N12152053WA0019600185004003028105142
B1824253727493N12152049WA0019400184004003028124159
B1824263727489N12152046WA0019200185004003028152163
B1824273727486N12152045WA0019200185004003028171182
B1824283727482N12152044WA0019000186004003024179195
B1824293727479N12152044WA0018800185004003024188201
B1824303727475N12152045WA0018600184004003024198219
B1824313727472N12152048WA0018600182004003024222218
B1824323727469N12152052WA0018500181004003028233229
B1824333727468N12152055WA0018400180004003022247241
B1824343727467N12152058WA0018300181004003022259257
B1824353727467N12152059WA0018300180004003010247320
B1824363727466N12152060WA0018200181004003005247275
B1824373727466N12152061WA0018200180004003005225247
B1824383727465N12152061WA0018100179004003003225246
B1824393727465N12152061WA0018100179004003003225243
B1824403727465N12152060WA0018100179004003002077243
B1824413727465N12152061WA0018100180004003002076243
B1824423727466N12152061WA0018100180004003002076243
B1824433727466N12152061WA0018100181004003002076243
B1824443727466N12152061WA0018100181004003000076243
B1824453727466N12152061WA0018100181004003000076243
B1824463727466N12152061WA0018100180004003000076243
B1824473727466N12152061WA0018100180004003000076243
B1824483727466N12152061WA0018100181004003000076243
B1824493727466N12152061WA0018100182004003000076243
B1824503727466N12152061WA0018100181004003000076243
B1824513727466N12152061WA0018100181004003000076243
B1824523727466N12152061WA0018100181004003000076243
B1824533727466N12152061WA0018100182004004000076243
B1824543727466N12152061WA0018100181004003000076243
B1824553727466N12152061WA0018100181004003000076243
B1824563727466N12152062WA0018100181004003001076243
B1824573727466N12152062WA0018100181004003000076243
B1824583727466N12152062WA0018100181004003001076243
B1824593727466N12152062WA0018100182004003000076243
B1825003727466N12152062WA0018100182004003001076243
B1825013727466N12152062WA0018100181004003001076243
B1825023727466N12152062WA0018100181004003001076243
B1825033727466N12152062WA0018100181004003000076243
B1825043727466N12152062WA0018100181004003000076243
B1825053727466N12152062WA0018100182004003000076243
B1825063727465N12152061WA0018100181004003002093243
B1825073727465N12152061WA0018100182004003002093243
GUZ72LtcO2daVSn3g8Pin/bgbKeOg9/X+Hfqy8Ng6Y9HwgF6QPiU1v5nBm2lggyCw
GcNPBYSO0I3SA6BHJETdg2oNNONldizqH0cLCEYa5n3/FbacmWKnGmmmbz24QiED5
GIcxY9EI8lbM9MX+9zwsOtO2WW+k6mwLT/4OdUVcHXRA=

