AXFH000
HFDTE011125
HFPLTPILOT:Scott O’Brien
HFGTYGLIDERTYPE:Ozone SwiftSix
HFDTM100GPSDATUM:WGS84
HFRFWFIRMWAREVERSION:9.3
HFRHWHARDWAREVERSION:iPhone 15
HFFTYFRTYPE:Flyskyhy,9.3
HFGPS:Bluetooth vario
HFPRSVARIO:Bluetooth vario
HFCCLCOMPETITIONCLASS:Paraglider
HFTZNTIMEZONE:-7
HFSITSITE:Ed Levin 600ft,US
I053638FXA3941VXA4244GSP4547CCO4850HDT
C011125193339011125000100TASK
C0000000N00000000ETAKEOFF
C3731062N12153514W00000000000400000000360000STARTAREA 
C3726317N12149880W00000000000400000000360000FINISHAREA Big Dog Vineyards
C0000000N00000000ELANDING
B1934083727673N12151640WA0035200351001100000316063
B1934093727673N12151640WA0035200351001100000316063
B1934103727673N12151640WA0035100351001100000316068
B1934113727672N12151640WA0035100351001100001236095
B1934123727673N12151640WA0035100351001100001236110
B1934133727673N12151640WA0035100351001100001236111
B1934143727673N12151640WA0035100351001100001236115
B1934153727673N12151640WA0035100351001100000236107
B1934163727673N12151640WA0035100351001100000236123
B1934173727673N12151640WA0035100351001100000236119
B1934183727673N12151640WA0035100351001100001236117
B1934193727673N12151640WA0035100351001100001236119
B1934203727673N12151640WA0035100351001100001236120
B1934213727673N12151640WA0035100351001100001236120
B1934223727673N12151641WA0035100351001100001236119
B1934233727673N12151641WA0035100351001100001236119
B1934243727673N12151641WA0035100351001100000236120
B1934253727673N12151641WA0035200351001100000236122
B1934263727673N12151641WA0035200351001100001236122
B1934273727673N12151641WA0035100351001100002274122
B1934283727673N12151641WA0035200351001100001264122
B1934293727673N12151641WA0035100351001100001264109
B1934303727673N12151641WA0035200351001100001289061
B1934313727673N12151641WA0035100351001100001289111
B1934323727673N12151640WA0035100351001100002098112
B1934333727672N12151640WA0035200351001100001114110
B1934343727672N12151640WA0035100351001100001168293
B1934353727672N12151640WA0035100351001100004255261
B1934363727672N12151641WA0034900351001100006255269
B1934373727671N12151643WA0034700351001100010253268
B1934383727671N12151646WA0034600351001100016257274
B1934393727670N12151649WA0034600351001100019255263
B1934403727669N12151653WA0034800351001100022247255
B1934413727667N12151656WA0034900350001100021231253
B1934423727664N12151659WA0034900350001100020214230
B1934433727661N12151660WA0034800350001100020205217
B1934443727658N12151661WA0034900350001100022193213
B1934453727653N12151661WA0034800350001100025182200
B1934463727648N12151660WA0034700350001100029169195
B1934473727643N12151658WA0034600349001100031169185
B1934483727639N12151657WA0034400349001100031171185
B1934493727634N12151657WA0034300348001100027181189
B1934503727631N12151658WA0034300348001100024188197
B1934513727629N12151660WA0034300347001100018206205
B1934523727627N12151662WA0034300347001100015217221
B1934533727627N12151665WA0034200347001100012246230
B1934543727628N12151668WA0034100346001100015284248
B1934553727631N12151671WA0034100345001100021319270
B1934563727635N12151673WA0034300345001100025331301
B1934573727640N12151672WA0034500344001100025004314
B1934583727644N12151671WA0034600344001100025015353
B1934593727647N12151668WA0034600344001100024021002
B1935003727651N12151666WA0034500343001100025021003
B1935013727655N12151665WA0034500342001100025012352
B1935023727659N12151665WA0034500342001100027001343
B1935033727664N12151665WA0034600342001100027354328
B1935043727668N12151667WA0034600342001100024347328
B1935053727670N12151669WA0034600341001100020324319
B1935063727671N12151673WA0034600341001100022309304
B1935073727672N12151678WA0034600341001100023294298
B1935083727673N12151683WA0034900342001100021293299
B1935093727674N12151686WA0035000342001100017296295
B1935103727675N12151688WA0035000342001100014313298
B1935113727676N12151690WA0035000342001100013314296
B1935123727678N12151692WA0034900341001100017306295
B1935133727679N12151696WA0034700340001100020289270
B1935143727679N12151700WA0034700339001100020272255
B1935153727677N12151704WA0034600337001100021238224
B1935163727675N12151707WA0034500336001100022230209
B1935173727672N12151709WA0034400335001100020209199
B1935183727665N12151707WA0034300333001100028162190
B1935193727659N12151702WA0034200333001100037148160
B1935203727655N12151697WA0034100332001100037140153
B1935213727650N12151690WA0034000331001100039129145
B1935223727647N12151683WA0034100331001100041125136
B1935233727643N12151677WA0034200331001100039124146
B1935243727640N12151671WA0034300331001100034128147
B1935253727637N12151667WA0034300331001100030137163
B1935263727633N12151663WA0034200331001100033150170
B1935273727628N12151660WA0034100331001100032157178
B1935283727624N12151658WA0034100331001100029165197
B1935293727620N12151657WA0034100330001100026169209
B1935303727616N12151656WA0033900328001100026181220
B1935313727612N12151657WA0033600326001100026205232
B1935323727610N12151660WA0033400325001100023226247
B1935333727610N12151664WA0033300324001100026272262
B1935343727610N12151669WA0033300323001100024282286
B1935353727612N12151673WA0033300322001100022290285
B1935363727614N12151675WA0033300321001100019303282
B1935373727616N12151677WA0033100319001100018313292
B1935383727618N12151680WA0033000318001100022307299
B1935393727621N12151683WA0033000316001100025311311
B1935403727624N12151687WA0033100315001100023317309
B1935413727627N12151689WA0033100315001100021317296
B1935423727629N12151692WA0033200314001100021312299
B1935433727632N12151695WA0033000314001100023309314
B1935443727635N12151699WA0033000314001100026313317
B1935453727638N12151702WA0032900313001100028320313
B1935463727642N12151705WA0033000313001100027325329
B1935473727645N12151708WA0033000313001100022332321
B1935483727648N12151709WA0032900313001100019330312
B1935493727650N12151711WA0032700313001100019319309
B1935503727652N12151714WA0032400311001100021310304
B1935513727655N12151718WA0032200311001100025302289
B1935523727657N12151722WA0032400310001100026300263
B1935533727658N12151727WA0032500310001100024298287
B1935543727659N12151731WA0032400308001100019287306
B1935553727660N12151735WA0032200308001100020282296
B1935563727661N12151739WA0032100307001100025286302
B1935573727662N12151744WA0032100307001100027285259
B1935583727663N12151749WA0032200307001100026285302
B1935593727664N12151753WA0032300307001100022289299
B1936003727665N12151757WA0032200307001100015292289
B1936013727666N12151759WA0032200307001100016296269
B1936023727667N12151762WA0031900307001100019292281
B1936033727667N12151766WA0031900306001100023282268
B1936043727668N12151771WA0031900307001100025274281
B1936053727667N12151776WA0031900307001100022265280
B1936063727666N12151780WA0031800307001100020257293
B1936073727666N12151783WA0031700307001100020263286
B1936083727666N12151787WA0031500307001100022276304
B1936093727666N12151791WA0031700306001100021285309
B1936103727667N12151795WA0031700307001100020295323
B1936113727669N12151798WA0031700307001100018317312
B1936123727672N12151799WA0031700306001100017337322
B1936133727675N12151799WA0031600306001100023350329
B1936143727679N12151800WA0031600306001100028346336
B1936153727683N12151802WA0031700306001100026345312
B1936163727686N12151803WA0031800306001100020336289
B1936173727688N12151805WA0031600306001100018323285
B1936183727688N12151808WA0031400305001100018271271
B1936193727686N12151812WA0031300304001100024243248
B1936203727684N12151815WA0031400304001100023234225
B1936213727681N12151818WA0031400303001100020222229
B1936223727676N12151817WA0031400303001100027173228
B1936233727670N12151815WA0031300302001100031163188
B1936243727665N12151812WA0031200302001100035160191
B1936253727659N12151810WA0031000300001100033167186
B1936263727655N12151809WA0030900300001100030173191
B1936273727650N12151808WA0030700299001100028183203
B1936283727646N12151809WA0030500297001100027188216
B1936293727641N12151810WA0030400297001100026192227
B1936303727638N12151811WA0030200296001100024204231
B1936313727635N12151813WA0030100295001100023219240
B1936323727633N12151817WA0029900295001100022240249
B1936333727632N12151821WA0029800294001100019256260
B1936343727633N12151824WA0029600293001100018277269
B1936353727634N12151827WA0029500292001100017296286
B1936363727636N12151829WA0029300290001100018317293
B1936373727639N12151832WA0029200289001100019318309
B1936383727641N12151834WA0029100288001100020324312
B1936393727644N12151836WA0029200287001100019340318
B1936403727647N12151837WA0029100286001100020354336
B1936413727650N12151836WA0029000285001100019006320
B1936423727652N12151836WA0028900284001100017356282
B1936433727655N12151837WA0028700283001100017349332
B1936443727657N12151838WA0028500281001100016337325
B1936453727659N12151840WA0028300280001100016316317
B1936463727660N12151843WA0028100279001100018305298
B1936473727662N12151846WA0028000278001100016315292
B1936483727663N12151848WA0028000277001100014315291
B1936493727664N12151850WA0027900275001100011295284
B1936503727664N12151852WA0028000275001100009268273
B1936513727664N12151853WA0028000275001100005268266
B1936523727664N12151854WA0028000274001100000268261
B1936533727664N12151854WA0028100273001100000268332
B1936543727664N12151854WA0028000273001100000268359
B1936553727663N12151854WA0028000274001100000268201
B1936563727663N12151854WA0028000274001100000268217
B1936573727663N12151854WA0028100274001100000268234
B1936583727663N12151854WA0028100274001100000268273
B1936593727663N12151854WA0028000274001100000268273
B1937003727663N12151854WA0028000274001100000268273
B1937013727663N12151854WA0028000274001100000268273
B1937023727663N12151854WA0028000274001100000268273
B1937033727663N12151854WA0028000274001100000268273
B1937043727663N12151854WA0028100274001100000268273
B1937053727663N12151854WA0028000274001100000268273
B1937063727663N12151854WA0028100274001100000268273
B1937073727663N12151854WA0028000274001100000268273
B1937083727663N12151854WA0028000274001100000268273
B1937093727663N12151854WA0028000274001100000268273
B1937103727663N12151854WA0028000274001100000268273
B1937113727663N12151854WA0028000274001100000268273
B1937123727663N12151854WA0028000274001100000268273
B1937133727663N12151854WA0028000274001100000268273
B1937143727663N12151854WA0028000274001100000268273
B1937153727663N12151854WA0028000274001100000268273
B1937163727663N12151854WA0028000274001100000268273
B1937173727663N12151854WA0028000274001100000268273
GFz87nDw4RudST932sm0GUAROOCk1J1heQCgCxFr7bvQLHI4bCG4VfemwTb77+PT8
Ggf5uZnCLjH2DkrQCvRyOV2OL7i4bBVtzrgA+DnIzPomB1zRxipfJkVyFqDB2CigL
GzLkD7THZkma2PST6ZGB5gxQ2ETIw6GR6BFFrwPN5SZQ=

