AXFH000
HFDTE270624
HFPLTPILOT:Scott O’Brien
HFGTYGLIDERTYPE:BGD Epic M
HFDTM100GPSDATUM:WGS84
HFRFWFIRMWAREVERSION:8.2.3
HFRHWHARDWAREVERSION:Unknown device (iPhone15,4)
HFFTYFRTYPE:Flyskyhy,8.2.3
HFGPS:Internal
HFPRSVARIO:Internal Vario
HFCCLCOMPETITIONCLASS:Paraglider
HFTZNTIMEZONE:-7
HFSITSITE:Mission Ridge (Fremont- San Jose),US
I053638FXA3941VXA4244GSP4547CCO4850HDT
C270624191819270624000106TASK
C0000000N00000000ETAKEOFF
C3645916N11905906W00004009999999000000360000STARTAREA DNLNCH
C3645916N11905906W00000000000400000000360000TURNAREA DNLNCH
C3644815N11904600W00000000000400000000360000TURNAREA SONTAG
C3644227N11904778W00000000000400000000360000TURNAREA LASTCH
C3645916N11905906W00000000000400000000360000TURNAREA DNLNCH
C3645983N11907769W00000000000400000000360000TURNAREA BIGCAT
C3644130N11906307W00000000000400000000360000TURNAREA DNLPLZ
C3644130N11906307W00004009999999000000360000FINISHAREA DNLPLZ
C0000000N00000000ELANDING
E191850PEVBackground
B1918503731062N12153521WA0058800587005010004213353
B1918513731062N12153521WA0058800587005010004154007
B1918523731061N12153521WA0058700587005010005151025
B1918533731060N12153520WA0058700586005010004164041
B1918543731060N12153520WA0058700586005010004174192
B1918553731059N12153520WA0058700586005010005186166
B1918563731058N12153520WA0058700586005010005166198
B1918573731057N12153520WA0058700586005010005150110
B1918583731057N12153520WA0058700586005010003192290
B1918593731056N12153521WA0058600586005010002264153
B1919003731057N12153521WA0058600585005010003289358
B1919013731057N12153522WA0058600585005010003270328
B1919023731057N12153523WA0058600586005010006256263
B1919033731056N12153525WA0058500586005010007262234
B1919043731057N12153526WA0058500586005010005261254
B1919053731056N12153527WA0058500586005010009252249
B1919063731056N12153529WA0058500585005010011247237
B1919073731055N12153531WA0058500585005010009247231
B1919083731055N12153532WA0058400585005010009239237
B1919093731054N12153534WA0058400585005010013239260
B1919103731053N12153536WA0058400585005010015249254
B1919113731052N12153539WA0058400584005010016259253
B1919123731052N12153543WA0058300583005010016255253
B1919133731051N12153546WA0058200583005010017254259
B1919143731051N12153549WA0058100582005010021253264
B1919153731050N12153553WA0058000581005010023261271
B1919163731050N12153558WA0058000581005010021263271
B1919173731050N12153562WA0057900581005010022277266
B1919183731050N12153566WA0057900581005010020279260
B1919193731051N12153569WA0057900580005010019294267
B1919203731052N12153572WA0057900580005010016296281
B1919213731054N12153575WA0057900580005010016302297
B1919223731055N12153577WA0058000580005010017295305
B1919233731056N12153581WA0058000579005010024294315
B1919243731058N12153585WA0057900579005010022295324
B1919253731060N12153588WA0057900579005010021303330
B1919263731061N12153592WA0057900578005010020295337
B1919273731063N12153595WA0057900578005010024290340
B1919283731064N12153600WA0057900578005010024283340
B1919293731064N12153604WA0057900578005010023285341
B1919303731065N12153608WA0057900578005010021278341
B1919313731065N12153612WA0058000578005010018253015
B1919323731063N12153614WA0058000577005010020207010
B1919333731059N12153615WA0058000577005010027174006
B1919343731055N12153613WA0058000577005010032146004
B1919353731051N12153609WA0057900577005010035137003
B1919363731048N12153604WA0057800576005010034129003
B1919373731045N12153599WA0057800576005010029127003
B1919383731043N12153595WA0057700576005010025124003
B1919393731042N12153590WA0057600576005010024118357
B1919403731041N12153585WA0057500576005010024117358
B1919413731039N12153581WA0057400575005010022122358
B1919423731038N12153578WA0057200575005010016116359
B1919433731037N12153576WA0057000575005010009107359
B1919443731037N12153576WA0057000574005010008313359
B1919453731040N12153580WA0056800574005010031326359
B1919463731045N12153585WA0056600573010019044340359
B1919473731051N12153589WA0056400573010019042340359
B1919483731057N12153593WA0056400573010019031337359
B1919493731063N12153596WA0056400572010019027341359
B1919503731067N12153598WA0056500572005010029344359
B1919513731071N12153600WA0056600572005010033335359
B1919523731077N12153603WA0056600571005010038332359
B1919533731083N12153607WA0056500570005010040341359
B1919543731089N12153610WA0056500569005010044341357
B1919553731094N12153612WA0056500569005010032338357
B1919563731098N12153615WA0056600569005010021306358
B1919573731099N12153618WA0056700569005010019304358
B1919583731101N12153622WA0057000569005010019304358
B1919593731103N12153624WA0057200569005010017312359
B1920003731104N12153627WA0057300569005010018315359
B1920013731107N12153629WA0057400569005010020317359
B1920023731109N12153632WA0057400569005010020318359
B1920033731111N12153634WA0057500569005010019321359
B1920043731113N12153636WA0057500569005010019325359
B1920053731116N12153638WA0057500569005010018332359
B1920063731118N12153639WA0057500570005010019336359
B1920073731122N12153641WA0057300570005010022333359
B1920083731125N12153643WA0057200570005010028329359
B1920093731130N12153646WA0057100570005010031330359
B1920103731134N12153649WA0057000570005010029334359
B1920113731139N12153651WA0057000570005010029348359
B1920123731145N12153653WA0057100570005010033351359
B1920133731150N12153654WA0057100569005010037352359
B1920143731156N12153655WA0057200569005010037353359
B1920153731162N12153656WA0057200569005010036351359
B1920163731167N12153657WA0057200569005010035348359
B1920173731172N12153658WA0057200569005010033345359
B1920183731177N12153660WA0057200569005010032345359
B1920193731182N12153661WA0057100568005010031344359
B1920203731187N12153663WA0057100568005010031341359
B1920213731191N12153666WA0057000568005010030324359
B1920223731194N12153669WA0056900567005010028314359
B1920233731197N12153673WA0056800567005010029311359
B1920243731200N12153677WA0056700567005010028308359
B1920253731202N12153682WA0056700567005010027303359
B1920263731204N12153686WA0056700566005010027304359
B1920273731207N12153690WA0056700566005010027309355
B1920283731211N12153693WA0056700566005010034343351
B1920293731216N12153695WA0056800566005010034347348
B1920303731221N12153695WA0056900566005010034351345
B1920313731226N12153696WA0057000566005010035350348
B1920323731231N12153697WA0057100566005010035349351
B1920333731236N12153698WA0057200566005010035347349
B1920343731247N12153701WA0057300567005010034346350
B1920363731257N12153703WA0057600568005010032353352
B1920383731266N12153705WA0057800569005010031351354
B1920393731271N12153705WA0057900570005010030350354
B1920413731278N12153707WA0058100571005010023346354
B1920423731281N12153709WA0058200571005010019346356
B1920433731284N12153709WA0058300572005010016341357
B1920443731286N12153711WA0058300572005010016334357
B1920453731288N12153712WA0058400572005010016331358
B1920463731290N12153714WA0058400572005010017328358
B1920473731292N12153716WA0058300573005010018326358
B1920483731294N12153718WA0058200573005010019326359
B1920493731296N12153720WA0058000573005010020326359
B1920503731299N12153722WA0057900573005010023328359
B1920513731302N12153725WA0057800574005010024330359
B1920523731305N12153727WA0057700574005010024335359
B1920533731309N12153728WA0057700574005010025337359
B1920543731312N12153730WA0057600574005010025335359
B1920553731316N12153732WA0057600574005010025332359
B1920563731319N12153735WA0057500574005010025331359
B1920573731323N12153737WA0057400574005010026335359
B1920583731327N12153739WA0057300574005010026339359
B1920593731330N12153740WA0057200574005010025340359
B1921003731334N12153742WA0057100574005010025336359
B1921013731338N12153744WA0057000574005010026333359
B1921023731342N12153746WA0056900574005010026333359
B1921033731345N12153748WA0056700573005010026331359
B1921043731349N12153750WA0056600573005010026328359
B1921053731352N12153753WA0056400573005010025325359
B1921063731355N12153756WA0056300572005010025321359
B1921073731358N12153759WA0056200572005010025317359
B1921083731360N12153762WA0056100571005010025315359
B1921093731363N12153766WA0056000571005010024316359
B1921103731365N12153769WA0055900570005010023318359
B1921113731368N12153771WA0055900570005010021316359
B1921123731368N12153774WA0055900568005010018303359
B1921133731370N12153777WA0055900568005010019299359
B1921143731371N12153780WA0055900567005010020297359
B1921153731372N12153784WA0055900567005010021299359
B1921163731374N12153788WA0055800567005010021301359
B1921173731375N12153791WA0055800566005010018302359
B1921183731376N12153793WA0055800566005010017304359
B1921193731376N12153796WA0055900566005010013308359
B1921203731377N12153798WA0055900566005010011305000
B1921213731377N12153798WA0055900566005010005313000
B1921223731376N12153798WA0055800565005010001221000
B1921233731376N12153798WA0055600565005010006131000
B1921243731373N12153793WA0055300564005010019121000
B1921253731370N12153788WA0055100564005010026117000
B1921263731367N12153782WA0054900563005010026121000
B1921273731364N12153777WA0054700563005010025127000
B1921283731361N12153773WA0054700562005010025131359
B1921293731357N12153769WA0054600561005010024132359
B1921303731354N12153765WA0054600561005010022133359
B1921313731352N12153762WA0054600561005010019132359
B1921323731349N12153759WA0054700561005010017144359
B1921333731346N12153758WA0054800560005010018158359
B1921343731344N12153756WA0054900560005010018163359
B1921353731341N12153755WA0055000560005010018152359
B1921363731338N12153753WA0055000559005010019139359
B1921373731335N12153750WA0055100559005010021136359
B1921383731332N12153747WA0055200559005010020144359
B1921393731329N12153744WA0055200559005010020152359
B1921403731326N12153742WA0055300560005010023152359
B1921413731322N12153739WA0055400560005010023147359
B1921423731319N12153737WA0055500560005010019132359
B1921433731317N12153734WA0055600560005010018131359
B1921443731315N12153731WA0055800560005010016132359
B1921453731313N12153729WA0056000560005010012138359
B1921463731311N12153728WA0056200561005010011156359
B1921473731309N12153728WA0056300561005010009172359
B1921483731307N12153727WA0056300561005010011168359
B1921493731305N12153727WA0056500562005010012171359
B1921503731304N12153727WA0056700562005010008204359
B1921513731303N12153728WA0056900563005010010237359
B1921523731302N12153730WA0057100564005010011245359
B1921533731301N12153732WA0057300564005010014226359
B1921543731299N12153735WA0057600565005010014213359
B1921553731297N12153736WA0057800566005010010210359
B1921563731295N12153737WA0057900567005010009203359
B1921573731294N12153738WA0058000567005010013189359
B1921583731290N12153738WA0058000567005010030172000
B1921593731285N12153736WA0057900568005010035157000
B1922003731280N12153733WA0057800568005010034151000
B1922013731275N12153731WA0057600568005010030153359
B1922023731271N12153729WA0057500569005010026162000
B1922033731267N12153727WA0057500569005010029163000
B1922043731263N12153725WA0057500569005010032156000
B1922053731258N12153722WA0057500569005010033146000
B1922063731254N12153719WA0057500570005010031139000
B1922073731251N12153716WA0057600570005010023134000
B1922083731249N12153713WA0057600570005010023142000
B1922093731245N12153710WA0057600570005010026152000
B1922103731241N12153708WA0057600570005010032152000
B1922113731237N12153705WA0057600570005010032141000
B1922123731234N12153701WA0057600571005010029133000
B1922133731231N12153697WA0057600571005010025135000
B1922143731228N12153694WA0057600571005010023137000
B1922153731226N12153691WA0057600571005010025139000
B1922163731222N12153688WA0057600571005010029145000
B1922173731219N12153685WA0057600571005010031145000
B1922183731215N12153682WA0057600571005010030145359
B1922193731211N12153679WA0057500571005010027149359
B1922203731207N12153676WA0057400570005010026152359
B1922213731203N12153674WA0057300570005010027155000
B1922223731200N12153672WA0057200570005010027155000
B1922233731196N12153670WA0057100570005010028152000
B1922243731192N12153667WA0057100570005010027149000
B1922253731189N12153665WA0057100570005010028149359
B1922263731185N12153662WA0057000570005010029149359
B1922273731181N12153659WA0057000569005010032148000
B1922283731177N12153656WA0057000569005010033149000
B1922293731172N12153653WA0057000569005010033148000
B1922303731168N12153649WA0057000569005010035145000
B1922313731164N12153645WA0056900569005010037144000
B1922323731159N12153641WA0056900568005010039145000
B1922333731154N12153637WA0056900568005010039146000
B1922343731149N12153633WA0056800568005010038147000
B1922353731144N12153629WA0056800568005010037145000
B1922363731140N12153626WA0056800568005010034149359
B1922373731136N12153623WA0056800568005010028152359
B1922383731132N12153621WA0056800568005010025156359
B1922393731129N12153619WA0056900568005010025155000
B1922403731125N12153617WA0057000568005010027152000
B1922413731122N12153615WA0057100568005010029147000
B1922423731118N12153612WA0057100569005010029144359
B1922433731114N12153609WA0057200569005010028146359
B1922443731111N12153606WA0057300569005010021152359
B1922453731109N12153605WA0057500570005010017159359
B1922463731106N12153604WA0057600570005010017156359
B1922473731104N12153602WA0057700571005010019154359
B1922483731101N12153601WA0057800571005010019161359
B1922493731099N12153600WA0057900572005010019177359
B1922503731096N12153601WA0057900572005010019189000
B1922513731093N12153601WA0057900572005010019182000
B1922523731090N12153601WA0057900573005010019165000
B1922533731088N12153600WA0057900573005010021153000
B1922543731085N12153598WA0057900573005010021146000
B1922553731082N12153595WA0057900574005010021142000
B1922563731080N12153593WA0057900574005010022143000
B1922573731077N12153590WA0057900574005010023143000
B1922583731075N12153587WA0057900574005010024145000
B1922593731072N12153585WA0057800574005010025147000
B1923003731069N12153582WA0057700574005010025148000
B1923013731065N12153579WA0057700575005010026149000
B1923023731062N12153577WA0057600575005010026150000
B1923033731059N12153575WA0057600575005010026151000
B1923043731055N12153572WA0057600575005010027155000
B1923053731051N12153570WA0057500575005010028157000
B1923063731047N12153568WA0057400575005010029153000
B1923073731043N12153565WA0057300575005010030147000
B1923083731039N12153562WA0057300576005010030144000
B1923093731036N12153559WA0057200576005010029144000
B1923103731032N12153555WA0057200576005010030143000
B1923123731029N12153552WA0057200576005010032139000
B1923133731025N12153548WA0057200576005010036141000
B1923143731021N12153543WA0057100576005010037143000
B1923153731016N12153539WA0057100576005010036146000
B1923163731012N12153536WA0057100576005010035147000
B1923173731007N12153533WA0057000576005010033154359
B1923183731003N12153530WA0057000576005010031157359
B1923193730999N12153528WA0057000576005010029162359
B1923203730995N12153527WA0057000576005010026165359
B1923213730991N12153526WA0057100577005010024170359
B1923223730988N12153526WA0057200577005010024173359
B1923233730984N12153525WA0057200577005010022179359
B1923243730981N12153525WA0057300578005010023179359
B1923253730978N12153525WA0057300578005010021184359
B1923263730975N12153526WA0057400578005010014206359
B1923273730974N12153527WA0057600579005010012224359
B1923283730973N12153530WA0057700579005010013241359
B1923293730973N12153532WA0057800580005010016268359
B1923303730974N12153535WA0057900580005010019307004
B1923313730977N12153538WA0058000580005010026338011
B1923323730982N12153540WA0058000580005010028355007
B1923333730988N12153540WA0058100580005010035030002
B1923343730994N12153536WA0058200579005010043037348
B1923353731000N12153531WA0058300579005010039036336
B1923363731006N12153526WA0058400579005010038025333
B1923373731011N12153524WA0058400579005010031008329
B1923383731015N12153524WA0058400579010019029349328
B1923393731017N12153529WA0058300579010019015247028
B1923403731015N12153530WA0058200578010019019176021
B1923413731012N12153529WA0058100578010019019149019
B1923423731009N12153527WA0058100578010019019138345
B1923433731007N12153524WA0058100578010019020150348
B1923443731003N12153523WA0058100579010019020162349
B1923453731000N12153521WA0058200579010019018160351
B1923463730997N12153519WA0058200579010019018150352
B1923473730994N12153517WA0058300580010019020145354
B1923483730991N12153515WA0058400580010019023147355
B1923493730988N12153512WA0058500580010019021145356
B1923503730984N12153510WA0058600580010019026160357
B1923513730980N12153509WA0058700580010019024168357
B1923523730976N12153509WA0058700580010019021184358
B1923533730973N12153510WA0058700580010019017197358
B1923543730971N12153511WA0058600580010019017209358
B1923553730968N12153513WA0058600580010019017220359
B1923563730966N12153515WA0058500580010019016221359
B1923573730964N12153517WA0058500580010019017209359
B1923583730962N12153518WA0058500581010019018199359
B1923593730959N12153519WA0058500581010019019196359
B1924003730956N12153520WA0058500581010019021196359
B1924013730953N12153522WA0058500581010019021200359
B1924023730950N12153524WA0058500581010019021215359
B1924033730947N12153526WA0058500581010019024214359
B1924043730945N12153529WA0058400581010019025230359
B1924053730942N12153533WA0058200581005010025233359
B1924063730941N12153537WA0058000580005010025237359
B1924073730939N12153541WA0057800580005010025239359
B1924083730938N12153545WA0057600579005010025238359
B1924093730936N12153550WA0057400578005010025237359
B1924103730934N12153554WA0057200577005010025236359
B1924113730933N12153559WA0057000576005010026234359
B1924123730930N12153563WA0056900575005010026231359
B1924133730928N12153567WA0056700574005010026228359
B1924143730925N12153571WA0056600573005010026225359
B1924153730923N12153574WA0056400572005010026223359
B1924163730920N12153578WA0056300571005010027223359
B1924173730917N12153582WA0056200569005010028224359
B1924183730914N12153586WA0056000568005010028220359
B1924193730910N12153589WA0055800566005010027213359
B1924203730907N12153592WA0055600565005010027208359
B1924213730903N12153594WA0055500563005010027203359
B1924223730899N12153596WA0055300562005010026196359
B1924233730895N12153597WA0055300560005010026194359
B1924243730891N12153598WA0055100559005010026194359
B1924253730887N12153599WA0054900557005010025196359
B1924263730883N12153601WA0054800556005010025199359
B1924273730880N12153603WA0054600555005010025202359
B1924283730876N12153604WA0054500553005010026203359
B1924293730872N12153607WA0054400552005010027202359
B1924303730869N12153609WA0054300550005010029201359
B1924313730864N12153610WA0054100549010019029201359
B1924323730860N12153612WA0053900547005010028201359
B1924333730857N12153614WA0053700545010019028199359
B1924343730853N12153616WA0053500544010019030195359
B1924353730848N12153617WA0053400543010019029190359
B1924363730844N12153618WA0053300541010019028189359
B1924373730840N12153619WA0053200540010019025187359
B1924383730837N12153619WA0053100539005010024187359
B1924393730833N12153620WA0053100538005010024184359
B1924403730830N12153620WA0053000537005010026187359
B1924413730826N12153621WA0053000536005010029191359
B1924423730821N12153622WA0052800535005010032181000
B1924433730817N12153622WA0052600534005010030179000
B1924443730812N12153622WA0052400533005010029180000
B1924453730808N12153621WA0052300532005010028174000
B1924463730804N12153620WA0052200532005010030172000
B1924473730799N12153619WA0052100531005010034170000
B1924483730794N12153618WA0052000530005010034169359
B1924493730789N12153617WA0051800529005010033170359
B1924503730784N12153616WA0051700528005010032168359
B1924513730780N12153615WA0051500527005010031169359
B1924523730775N12153614WA0051400526005010031172359
B1924533730771N12153614WA0051200525005010031187359
B1924543730766N12153615WA0051100524005010033198359
B1924553730762N12153618WA0050800523005010031204359
B1924563730757N12153620WA0050600521005010031204359
B1924573730753N12153623WA0050300520005010033210359
B1924583730749N12153627WA0050100518005010034215359
B1924593730745N12153631WA0049900516005010034216359
B1925003730741N12153635WA0049900514005010034218359
B1925013730737N12153639WA0049700513005010034221359
B1925023730733N12153644WA0049500511005010034227359
B1925033730730N12153649WA0049300509005010034233359
B1925043730727N12153654WA0049100508005010035244359
B1925053730725N12153660WA0048900506005010033255359
B1925063730724N12153666WA0048700505005010031260359
B1925073730724N12153671WA0048500503005010030261359
B1925083730723N12153677WA0048300501005010031260359
B1925093730722N12153683WA0048100499005010031260359
B1925103730722N12153689WA0047900497005010034264359
B1925113730721N12153695WA0047700495005010034265359
B1925123730721N12153701WA0047500493005010033264359
B1925133730721N12153707WA0047300491005010032264359
B1925143730721N12153713WA0047100489005010034269359
B1925153730721N12153719WA0046900486005010037275359
B1925163730722N12153725WA0046700484005010034273359
B1925173730722N12153731WA0046600482005010028266359
B1925183730722N12153735WA0046600480005010019264359
B1925193730721N12153738WA0046600479005010019261359
B1925203730721N12153742WA0046600477005010020263359
B1925213730721N12153746WA0046700475005010022265359
B1925223730721N12153750WA0046700474005010025266359
B1925233730720N12153755WA0046700472005010024262359
B1925243730719N12153759WA0046800471005010021233359
B1925253730717N12153761WA0046800469005010021215359
B1925263730714N12153763WA0046900468005010019207359
B1925273730711N12153764WA0047000466005010019194000
B1925283730708N12153763WA0047000465005010023174000
B1925293730704N12153761WA0047000464010019036161000
B1925303730698N12153758WA0046900462010019042145000
B1925313730693N12153752WA0046800461010019044137000
B1925323730688N12153747WA0046700459010019042132000
B1925333730684N12153740WA0046600458010019038127000
B1925343730681N12153734WA0046600457010019034115000
B1925353730679N12153728WA0046700455010019034108000
B1925363730678N12153722WA0046700454010019038102000
B1925373730677N12153714WA0046700453010019040088001
B1925393730678N12153707WA0046700452010019038069359
B1925403730681N12153701WA0046700451010019034050358
B1925413730685N12153697WA0046700450010019034038353
B1925423730689N12153693WA0046600448010019036026340
B1925433730694N12153692WA0046500447010019034009338
B1925443730698N12153693WA0046400448005010033350335
B1925453730702N12153695WA0046300448005010031332339
B1925463730705N12153699WA0046300447010019027304344
B1925473730707N12153703WA0046200447010019024294348
B1925483730707N12153708WA0046100448010019022285349
B1925493730708N12153712WA0046100448010019023284351
B1925503730709N12153717WA0046200448010019024292353
B1925513730710N12153721WA0046200449010019027304354
B1925523730713N12153726WA0046300449010019029307354
B1925533730715N12153730WA0046300449010019030301355
B1925543730717N12153735WA0046300449010019025294357
B1925553730718N12153739WA0046300449010019022295357
B1925563730720N12153743WA0046300449010019022301357
B1925573730721N12153747WA0046200449010019020304357
B1925583730723N12153750WA0046100449010019020294358
B1925593730723N12153753WA0046100449010019020297358
B1926003730725N12153756WA0046000449010019017294358
B1926013730725N12153759WA0045800449010019016293358
B1926023730726N12153762WA0045600449010019015283359
B1926033730726N12153765WA0045500449010019018270359
B1926043730725N12153768WA0045300448010019021251359
B1926053730724N12153772WA0045100448010019022261359
B1926063730724N12153776WA0044800447010019021259359
B1926073730723N12153779WA0044600447010019022245359
B1926083730721N12153783WA0044300446010019024242359
B1926093730719N12153787WA0044100446010019028242359
B1926103730718N12153793WA0043900446005010037260359
B1926113730717N12153800WA0043800446005010037261359
B1926123730716N12153806WA0043700446005010034258359
B1926133730714N12153812WA0043700446005010028250359
B1926143730712N12153816WA0043700446005010026235359
B1926153730710N12153820WA0043700446005010025237359
B1926163730708N12153824WA0043700446005010023242359
B1926173730707N12153828WA0043700446005010024245359
B1926183730705N12153833WA0043600446005010026246359
B1926193730703N12153837WA0043500445005010026247359
B1926203730701N12153841WA0043300445005010025245359
B1926213730700N12153845WA0043100445005010024247359
B1926223730698N12153849WA0042900445005010027243359
B1926233730696N12153854WA0042700444005010029248359
B1926243730694N12153859WA0042500444005010031252359
B1926253730693N12153865WA0042300443005010032262359
B1926263730692N12153870WA0042100443005010029258359
B1926273730691N12153875WA0042000443005010025249359
B1926283730690N12153878WA0042000442005010022243359
B1926293730688N12153881WA0042000442005010021238359
B1926303730686N12153883WA0041900441005010021230359
B1926313730684N12153886WA0041800440005010021226359
B1926323730681N12153888WA0041700440005010021222359
B1926333730678N12153890WA0041700440005010023221359
B1926343730675N12153893WA0041500439005010024216359
B1926353730672N12153896WA0041300439005010024221359
B1926363730670N12153899WA0041000438005010023229359
B1926373730668N12153903WA0040800437005010025243359
B1926383730666N12153907WA0040500437005010026244359
B1926393730664N12153912WA0040300436005010026238359
B1926403730662N12153916WA0040100436005010026229359
B1926413730659N12153920WA0039900435005010027227359
B1926423730656N12153925WA0039700434005010034254359
B1926433730655N12153931WA0039500433005010032252359
B1926443730653N12153936WA0039300432005010030242359
B1926453730650N12153941WA0039000431005010031234359
B1926463730647N12153946WA0038800430005010031230359
B1926473730644N12153951WA0038600429005010030231359
B1926483730641N12153956WA0038400427005010030238359
B1926493730639N12153961WA0038100426005010031246359
B1926503730636N12153966WA0038100425005010029236359
B1926513730634N12153971WA0037900423005010029229359
B1926523730631N12153975WA0037700422005010030227359
B1926533730627N12153979WA0037500421005010029224359
B1926543730624N12153983WA0037200419005010029229359
B1926553730621N12153987WA0037000418005010030231359
B1926563730619N12153991WA0036700416005010029230359
B1926573730616N12153996WA0036400414005010029223359
B1926583730613N12154000WA0036200413005010029224359
B1926593730611N12154003WA0035900410005010031241359
B1927003730610N12154009WA0035600407005010034247359
B1927013730608N12154015WA0035400403005010034244359
B1927023730606N12154022WA0035100398005010031244359
B1927033730605N12154029WA0034800393005010032251359
B1927043730604N12154035WA0034500390005010034256359
B1927053730603N12154043WA0034300387005010031257359
B1927063730602N12154048WA0034200384005010029256359
B1927073730601N12154053WA0034100382005010027255359
B1927083730600N12154058WA0034100380005010026251359
B1927093730599N12154063WA0033900377005010025249359
B1927103730597N12154067WA0033900375005010026248359
B1927113730596N12154071WA0033800373005010025238359
B1927123730594N12154075WA0033800371005010025230359
B1927133730591N12154079WA0033800369005010025228359
B1927143730589N12154083WA0034000367005010019234359
B1927153730587N12154086WA0034200366005010017225359
B1927163730586N12154088WA0034400364005010017214359
B1927173730584N12154090WA0034600362005010019216359
B1927183730582N12154092WA0034600361005010018223359
B1927193730580N12154094WA0034600359005010017223359
B1927203730578N12154096WA0034500357005010017222359
B1927213730576N12154098WA0034400356005010017226359
B1927223730574N12154100WA0034300354005010018235359
B1927233730573N12154103WA0034200353005010018245359
B1927243730572N12154106WA0034100351005010018265358
B1927253730573N12154109WA0034000350005010022302353
B1927263730576N12154111WA0033900348005010023320351
B1927273730579N12154113WA0033700346005010023342347
B1927283730587N12154107WA0033700341005010024350349
B1927293730591N12154109WA0033600339005010022344349
B1927303730594N12154110WA0033500337005010022322349
B1927313730597N12154112WA0033400335005010024298350
B1927323730599N12154116WA0033100333005010024281351
B1927333730599N12154120WA0032900331005010022262352
B1927343730599N12154124WA0032600329005010021250353
B1927353730598N12154128WA0032300327005010022241355
B1927363730596N12154132WA0032000325005010025233355
B1927373730593N12154137WA0031700323005010027236356
B1927383730591N12154141WA0031400321005010029232357
B1927393730588N12154146WA0031200319005010028232357
B1927403730586N12154150WA0030900317005010027229358
B1927413730583N12154154WA0030700315005010027228358
B1927423730581N12154158WA0030600313005010026230358
B1927433730578N12154162WA0030400311005010027234359
B1927443730576N12154167WA0030200310005010028233359
B1927453730573N12154171WA0030200308005010028227359
B1927463730570N12154175WA0030100307005010031224359
B1927473730564N12154183WA0030000306005010028223359
B1927493730561N12154186WA0030100305005010028220359
B1927503730558N12154190WA0030200305005010026223359
B1927513730554N12154197WA0030300304005010018259359
B1927523730555N12154199WA0030400303005010014289357
B1927533730556N12154201WA0030400303005010013305000
B1927543730559N12154203WA0030500302005010024338004
B1927553730564N12154205WA0030500301005010026358012
B1927563730570N12154204WA0030400301005010027012029
B1927573730575N12154201WA0030400300005010034044036
B1927593730582N12154188WA0030400300010019039074041
B1928003730584N12154181WA0030300299010019039075328
B1928013730584N12154176WA0030200299010019024132336
B1928023730579N12154172WA0030200298010019026144339
B1928033730574N12154170WA0030200296010019028162343
B1928043730570N12154169WA0030200295010019022187345
B1928053730567N12154170WA0030200295010019022192349
B1928063730563N12154171WA0030300294010019024191351
B1928073730559N12154173WA0030400294010019028192353
B1928083730554N12154174WA0030500294005010028190353
B1928093730549N12154174WA0030500294005010029166355
B1928103730544N12154173WA0030600293005010028166356
B1928113730540N12154172WA0030700294005010020162356
B1928123730536N12154171WA0030800294005010020167357
B1928133730533N12154171WA0030900294005010022179357
B1928143730530N12154171WA0030900294005010022187358
B1928153730526N12154172WA0030900293005010021191358
B1928163730523N12154174WA0030800293005010018194358
B1928173730520N12154175WA0030700293005010018202359
B1928183730517N12154177WA0030600293005010023206359
B1928193730513N12154180WA0030600293005010030213359
B1928203730509N12154184WA0030500293005010032219359
B1928213730505N12154188WA0030300293005010032221359
B1928223730501N12154192WA0030200292005010027210359
B1928233730497N12154196WA0030100291005010029207359
B1928243730494N12154199WA0030100291005010026209359
B1928253730490N12154202WA0030100291005010031205359
B1928263730485N12154205WA0030200290005010033202359
B1928273730480N12154207WA0030200290005010038187359
B1928283730474N12154208WA0030100290005010039183359
B1928293730468N12154208WA0030100289005010031173359
B1928303730463N12154208WA0030000289005010034176359
B1928313730458N12154207WA0030000289005010034168359
B1928323730453N12154206WA0030000289005010037171359
B1928333730448N12154205WA0030000288005010037174359
B1928343730442N12154205WA0029900287005010036178359
B1928353730437N12154205WA0029800287005010034181359
B1928363730432N12154205WA0029600286005010031185359
B1928373730428N12154206WA0029600286010019029189359
B1928383730424N12154207WA0029500285005010027190359
B1928393730420N12154208WA0029300284005010029190359
B1928403730415N12154209WA0029200284005010031192359
B1928413730411N12154210WA0029100283005010031195359
B1928423730407N12154212WA0028900282005010030196359
B1928433730403N12154214WA0028700281005010029195359
B1928443730399N12154215WA0028500280005010027191359
B1928453730395N12154216WA0028300279005010030187359
B1928463730390N12154217WA0028000277005010033187359
B1928473730385N12154217WA0027800276005010033187359
B1928483730380N12154218WA0027600274005010035185359
B1928493730375N12154219WA0027300272010019035184359
B1928503730370N12154219WA0027100271010019035184359
B1928513730364N12154220WA0026900269010019035185359
B1928523730359N12154221WA0026700268010019034186359
B1928533730354N12154222WA0026500266010019034188359
B1928543730349N12154223WA0026500265010019033186359
B1928553730344N12154223WA0026300263010019035180359
B1928563730339N12154223WA0026200262010019033178359
B1928573730335N12154222WA0026000261010019032180359
B1928583730330N12154222WA0025900260010019032181359
B1928593730325N12154222WA0025800259010019032182359
B1929003730321N12154223WA0025700258010019030185359
B1929013730317N12154223WA0025600257010019028189359
B1929023730313N12154224WA0025500255010019024206359
B1929033730310N12154226WA0025400254010019021213359
B1929043730308N12154229WA0025300253010019019224359
B1929053730307N12154230WA0025200252005010016240359
B1929063730307N12154233WA0025200251005010020281359
B1929073730309N12154236WA0025200250005010023306358
B1929083730311N12154240WA0025200249005010021307357
B1929093730314N12154243WA0025300248005010010295358
B1929103730316N12154242WA0025300247010019015042341
B1929113730317N12154240WA0025200246010019009037345
B1929123730320N12154240WA0025200244010019021005352
B1929133730324N12154239WA0025100243010019029013001
B1929143730329N12154236WA0024900242010019032025001
B1929153730334N12154232WA0024600240010019030039005
B1929163730338N12154228WA0024300239010019029045002
B1929173730342N12154224WA0024000239010019028042003
B1929183730346N12154219WA0023700239050095033040000
B1929193730351N12154214WA0023500239010019033044009
B1929203730356N12154209WA0023300238010019034045007
B1929213730360N12154204WA0023000238050095033035013
B1929223730365N12154200WA0022700238050095030034001
B1929233730369N12154197WA0022400238050095028039000
B1929243730373N12154192WA0022200238050095031042335
B1929253730377N12154188WA0021900238050095031034314
B1929263730382N12154186WA0021700237010019023012305
B1929273730386N12154185WA0021400237010019020351306
B1929283730389N12154186WA0021200236010019016326310
B1929293730390N12154188WA0020900236010019012279317
B1929303730390N12154191WA0020900235010019014238321
B1929313730388N12154194WA0020600234010019019221328
B1929323730385N12154197WA0020300233010019022211332
B1929333730382N12154200WA0020000231010019025206337
B1929343730378N12154203WA0019700229005010028201342
B1929353730374N12154204WA0019500229005010029200345
B1929363730370N12154206WA0019200228005010029205348
B1929373730365N12154210WA0019000227005010032209351
B1929383730361N12154213WA0018700226005010031210352
B1929393730358N12154216WA0018500226005010028220354
B1929403730354N12154220WA0018400225005010028222355
B1929413730349N12154227WA0018300222005010026223356
B1929423730346N12154231WA0018200221005010021246357
B1929433730344N12154235WA0018200220005010019245358
B1929443730343N12154238WA0018200220005010016248359
B1929453730343N12154240WA0018200219005010012257359
B1929463730346N12154239WA0018200217005010015321358
B1929473730348N12154241WA0018200217005010021347006
B1929483730352N12154241WA0018200216005010028008012
B1929493730357N12154240WA0018200216005010032022012
B1929503730361N12154237WA0018200215005010026038014
B1929513730365N12154233WA0018200215005010026037358
B1929523730368N12154230WA0018200214005010024041356
B1929533730371N12154228WA0018200213005010028027359
B1929543730375N12154226WA0018300213005010029012352
B1929553730379N12154225WA0018300212005010023002345
B1929563730383N12154224WA0018300211005010019013335
B1929573730386N12154223WA0018300211005010016013325
B1929583730388N12154223WA0018300210005010013349324
B1929593730390N12154224WA0018200209005010018321323
B1930003730393N12154227WA0018100208005010027305319
B1930013730394N12154231WA0018000208005010024286325
B1930023730394N12154235WA0017800207005010021244325
B1930033730392N12154239WA0017600206005010022229331
B1930043730389N12154243WA0017600206005010020229336
B1930053730386N12154248WA0017400204005010021224341
B1930063730383N12154253WA0017400203005010025227344
B1930073730380N12154258WA0017400202005010029230347
B1930083730376N12154263WA0017300201005010032237349
B1930093730374N12154269WA0017200200005010031243352
B1930103730372N12154275WA0017100200005010031240354
B1930113730369N12154280WA0017000199005010026239354
B1930123730366N12154284WA0017000199005010024228354
B1930133730364N12154288WA0017100199005010023222356
B1930143730361N12154291WA0017100199005010020219356
B1930153730358N12154293WA0017200199010019019217357
B1930163730356N12154295WA0017200198010019016214357
B1930173730354N12154297WA0017100198010019018206358
B1930183730351N12154299WA0017000198005010022206358
B1930193730347N12154301WA0016800198005010025207358
B1930203730344N12154303WA0016700198005010024206359
B1930213730340N12154305WA0016600198010019022205359
B1930223730337N12154307WA0016400198010019022204359
B1930233730334N12154308WA0016400198010019021203359
B1930243730331N12154309WA0016300197005010018204007
B1930253730330N12154306WA0016300197010019006137005
B1930263730331N12154303WA0016200195005010006123005
B1930273730332N12154301WA0016100193005010004119002
B1930283730333N12154299WA0016000191005010004121003
B1930293730334N12154298WA0016000188005010003128002
B1930303730335N12154297WA0016000186005010003111002
B1930313730335N12154297WA0015900186005010002126000
B1930323730335N12154296WA0015900184005010001139000
B1930333730335N12154296WA0015900184005010001135000
B1930343730335N12154296WA0015900184005010001135000
B1930353730335N12154296WA0015900184005010001133000
B1930363730335N12154296WA0015900184005010001130000
B1930373730335N12154296WA0015900184005010000000000
B1930383730335N12154296WA0015900184005010000000000
B1930393730335N12154296WA0015900184005010000000000
B1930403730335N12154296WA0015900184005010000000000
B1930413730335N12154296WA0015900184005010000000000
B1930423730335N12154296WA0015900184005010000000000
B1930433730335N12154296WA0015900184005010000000000
B1930443730335N12154296WA0015900184005010000000000
B1930453730335N12154296WA0015900184005010000153000
B1930463730335N12154296WA0015900184005010000000000
B1930473730335N12154296WA0015900184005010000189000
B1930483730335N12154296WA0015900184005010000000000
B1930493730335N12154296WA0015900184005010001029000
B1930503730335N12154296WA0015900184005010000000000
B1930513730335N12154296WA0015900184005010000000000
B1930523730335N12154296WA0015900184005010001072000
B1930533730336N12154295WA0015900182005010002075000
B1930543730336N12154295WA0015900180005010001074000
B1930553730336N12154295WA0015900178005010001138000
B1930563730336N12154295WA0015900178005010001116000
B1930573730336N12154294WA0015900176005010002119000
B1930583730336N12154294WA0015900175005010000114000
B1930593730336N12154294WA0015900175005010000000000
GbzX1ZAGJLqPoDg6NggRehIEMq3AKtek1KTzmaevKPolLjok0O5WkbTgKnGh17580
GvjnOHEmGT7ClQeZj1TjXhU864ynepIlI5cHEScOYXiwaBOcRDMo5S06hsnrnI3IX
GRHMuCacWDo31UauzWdGmkPztewUith58nX6NlEUEdjQ=

