AXFH000
HFDTE111124
HFPLTPILOT:Scott O’Brien
HFGTYGLIDERTYPE:Ozone Swift 6
HFDTM100GPSDATUM:WGS84
HFRFWFIRMWAREVERSION:8.2.5
HFRHWHARDWAREVERSION:iPhone 15
HFFTYFRTYPE:Flyskyhy,8.2.5
HFGPS:Internal
HFPRSVARIO:Internal Vario
HFCCLCOMPETITIONCLASS:Paraglider
HFTZNTIMEZONE:-3
I053638FXA3941VXA4244GSP4547CCO4850HDT
C111124224229111124000105TASK
C0000000N00000000ETAKEOFF
C3832449N11204411W00000000001000000000360000STARTAREA T04
C3832449N11204411W00030009999999000000360000TURNAREA T04
C3833533N11148217W00000000002000000000360000TURNAREA P30
C3845304N11125100W00000000006000000000360000TURNAREA S08
C3913309N11109083W00000000002000000000360000TURNAREA F04
C3935774N11050460W00000000003000000000360000TURNAREA G14
C3935774N11050460W00000000000400000000360000FINISHAREA G14
C0000000N00000000ELANDING
B2242592023066S07008660WA0042900432010019000000010
B2243002023066S07008660WA0043000432010019000000015
B2243012023066S07008660WA0043000432010019000000010
B2243022023065S07008661WA0043000433010019000000013
B2243032023065S07008661WA0043100433010019000000006
B2243042023065S07008661WA0043100433010019000000028
B2243052023065S07008661WA0043100433010019000000034
B2243062023065S07008661WA0043200433010019001331033
B2243072023065S07008661WA0043200433010019001030351
B2243082023065S07008661WA0043200433010019001345357
B2243092023065S07008661WA0043200433010019002354325
B2243102023065S07008662WA0043200433010019003316310
B2243112023064S07008661WA0043300434010019001258334
B2243122023064S07008661WA0043300434010019002274305
B2243132023064S07008662WA0043400434010019004350337
B2243142023063S07008661WA0043400434010019009001276
B2243152023062S07008661WA0043400434010019002273140
B2243162023062S07008661WA0043400434010019005159151
B2243172023063S07008661WA0043400434010019006151181
B2243182023064S07008660WA0043400434010019012168175
B2243192023067S07008660WA0043300433010019017195167
B2243202023069S07008661WA0043300432010019017192162
B2243212023072S07008661WA0043200432010019015156143
B2243222023074S07008659WA0043200432010019017135131
B2243242023075S07008657WA0043100431010019020118126
B2243252023077S07008654WA0043100431010019024106127
B2243262023078S07008650WA0043100431010019025104135
B2243272023079S07008646WA0043100430010019024110151
B2243282023081S07008643WA0043000430010019024123151
B2243292023083S07008640WA0043000430010019022138159
B2243302023085S07008638WA0043000429010019021137146
B2243312023087S07008635WA0043000429010019020122135
B2243322023088S07008632WA0043000429010019021103132
B2243332023089S07008629WA0043100429010019021100134
B2243342023090S07008626WA0043200428010019021100133
B2243352023090S07008622WA0043200428010019023110129
B2243362023092S07008619WA0043300428010019025115132
B2243372023093S07008615WA0043300428010019024107139
B2243382023094S07008612WA0043400428010019019099131
B2243392023094S07008609WA0043400428010019017106125
B2243402023096S07008607WA0043500428010019017126127
B2243412023097S07008605WA0043500428010019016132139
B2243422023099S07008603WA0043600428010019015131147
B2243432023100S07008601WA0043700428010019012128154
B2243442023101S07008600WA0043700428010019012138158
B2243452023103S07008599WA0043800428010019008177171
B2243462023105S07008602WA0043800427010019022236189
B2243472023108S07008606WA0043800427010019029241231
B2243482023107S07008612WA0043800427010019041291242
B2243492023105S07008618WA0043800426010019043291284
B2243502023102S07008624WA0043800426010019039311291
B2243512023097S07008629WA0043700426010019038321298
B2243522023093S07008633WA0043700426010019036323301
B2243532023088S07008637WA0043700426010019038326306
B2243542023082S07008642WA0043700426010019039323303
B2243552023077S07008646WA0043700425010019040322302
B2243562023071S07008652WA0043700426010019041320294
B2243572023065S07008657WA0043700427010019041318287
B2243582023061S07008662WA0043700427010019038313283
B2243592023058S07008667WA0043700427010019033295274
B2244002023057S07008671WA0043700427010019033275257
B2244012023058S07008676WA0043700427010019029257238
B2244022023059S07008680WA0043700427010019023234217
B2244032023062S07008682WA0043700428010019021190195
B2244042023066S07008680WA0043700429010019025139165
B2244052023068S07008676WA0043700429010019029108133
B2244062023069S07008671WA0043600430010019029086112
B2244072023069S07008667WA0043600431010019025077101
B2244082023068S07008663WA0043700431010019022078106
B2244092023068S07008660WA0043700432010019021091112
B2244102023068S07008656WA0043700432010019024102121
B2244112023070S07008652WA0043700432010019026105125
B2244122023071S07008648WA0043700432010019025106127
B2244132023072S07008645WA0043700433010019021112132
B2244142023073S07008642WA0043700433010019019124138
B2244152023075S07008639WA0043600433010019019126140
B2244162023077S07008637WA0043600433010019017121143
B2244172023078S07008634WA0043600433010019018120144
B2244182023080S07008632WA0043600433010019019129144
B2244192023082S07008630WA0043600433010019018137150
B2244202023083S07008628WA0043600433010019017142156
B2244212023086S07008626WA0043500432010019019151164
B2244222023089S07008625WA0043500432010019022156161
B2244232023092S07008624WA0043400431010019025166157
B2244242023095S07008623WA0043300431010019021155149
B2244252023098S07008621WA0043200431010019018127139
B2244262023099S07008619WA0043100431010019020113128
B2244272023100S07008616WA0043100431010019023112125
B2244282023102S07008612WA0043100431010019024117133
B2244292023103S07008609WA0043100431010019023123138
B2244302023105S07008606WA0043100431010019022119139
B2244312023107S07008603WA0043100431010019022117140
B2244322023109S07008600WA0043000431010019023120139
B2244332023111S07008597WA0043000431010019022129142
B2244342023112S07008595WA0043000431010019018119150
B2244352023113S07008592WA0043000430010019015112149
B2244362023114S07008590WA0043100430010019016099141
B2244372023115S07008587WA0043100430010019017125161
B2244382023117S07008586WA0043100430010019021156165
B2244392023120S07008585WA0043100430010019021177171
B2244402023123S07008586WA0043100429010019019198189
B2244412023126S07008587WA0043100429010019019217211
B2244422023127S07008590WA0043100429010019019248226
B2244432023127S07008593WA0043100429010019024273244
B2244442023126S07008597WA0043100428010019032291263
B2244452023124S07008603WA0043200428010019039299284
B2244462023121S07008608WA0043200427010019040301295
B2244472023118S07008614WA0043200427010019037307299
B2244482023114S07008619WA0043100427010019036324307
B2244492023109S07008623WA0043000427010019038323307
B2244502023104S07008627WA0043000427010019041322298
B2244512023099S07008631WA0043000426010019044323297
B2244522023093S07008636WA0042900426010019044323297
B2244532023088S07008640WA0042900426010019040321295
B2244542023084S07008644WA0042900426010019038317286
B2244552023079S07008648WA0042900426010019038311282
B2244562023076S07008652WA0042900426010019036304275
B2244572023073S07008657WA0043000426010019033300269
B2244582023070S07008662WA0043000426010019032297270
B2244592023068S07008666WA0043100426010019029294263
B2245002023066S07008670WA0043100426010019029296260
B2245012023065S07008674WA0043200426010019030290260
B2245022023064S07008679WA0043200426010019032284268
B2245032023063S07008684WA0043200426010019033284259
B2245042023061S07008689WA0043200426010019033292279
B2245052023059S07008694WA0043200426010019034299292
B2245062023056S07008698WA0043300426010019036306289
B2245072023052S07008703WA0043300426010019036309278
B2245082023049S07008707WA0043300427010019034301263
B2245092023048S07008712WA0043300427010019031278247
B2245102023049S07008717WA0043300427010019029243223
B2245112023052S07008719WA0043300427010019027200196
B2245122023056S07008720WA0043300427010019025166167
B2245132023059S07008718WA0043200427010019025119145
B2245142023060S07008713WA0043200428010019029097118
B2245152023061S07008708WA0043100428010019025094119
B2245162023061S07008704WA0043000429010019023098118
B2245172023062S07008700WA0043000429010019024099120
B2245182023063S07008696WA0043000429010019028099115
B2245192023063S07008691WA0043100430010019032097112
B2245202023064S07008686WA0043100430010019032093114
B2245212023064S07008681WA0043100430010019030089112
B2245222023064S07008676WA0043000431010019030091118
B2245232023064S07008672WA0043000431010019028097115
B2245242023065S07008668WA0043000431010019025102124
B2245252023066S07008664WA0043100432010019024100121
B2245262023066S07008660WA0043100432010019024097124
B2245272023067S07008656WA0043200432010019023105135
B2245282023068S07008653WA0043200432010019021124147
B2245292023071S07008651WA0043200432010019022141163
B2245302023073S07008649WA0043200432010019022147157
B2245312023076S07008647WA0043200432010019023145151
B2245322023079S07008644WA0043200432010019022139146
B2245332023081S07008642WA0043200432010019019127141
B2245342023083S07008640WA0043100432010019019122148
B2245352023084S07008637WA0043100432010019021125139
B2245362023087S07008634WA0043100432010019024129140
B2245372023089S07008631WA0043100432010019025134152
B2245382023091S07008628WA0043100432010019024127146
B2245392023093S07008625WA0043100432010019022119140
B2245402023095S07008622WA0043100432010019021118135
B2245412023096S07008619WA0043100432010019020115144
B2245422023097S07008616WA0043200432010019021113144
B2245432023099S07008613WA0043200432010019027114132
B2245442023101S07008609WA0043300433010019027115136
B2245452023102S07008605WA0043300433010019022108142
B2245462023103S07008602WA0043400434010019020101138
B2245472023103S07008599WA0043500434010019020106135
B2245482023104S07008596WA0043500434010019022112140
B2245492023106S07008593WA0043500434010019023117149
B2245502023107S07008590WA0043600435010019024111135
B2245512023108S07008586WA0043600435010019022104137
B2245522023109S07008583WA0043700435010019019103134
B2245532023110S07008580WA0043700436010019018108133
B2245542023111S07008577WA0043800436010019018112132
B2245552023112S07008575WA0043900436010019018112132
B2245562023113S07008572WA0043900436010019018115136
B2245572023115S07008569WA0044000437010019019120094
B2245582023116S07008567WA0044000437010019013130106
B2245592023117S07008566WA0044000437010019006118118
B2246002023117S07008567WA0044000438010019003187161
B2246012023117S07008568WA0043900438010019002226203
B2246022023117S07008568WA0043900438010019003252253
B2246032023118S07008568WA0043900439010019002253219
B2246042023118S07008569WA0043900439010019001256217
B2246052023117S07008569WA0043900439010019001279204
B2246062023117S07008570WA0043900439010019001276165
B2246072023117S07008570WA0043900439010019001277162
B2246082023117S07008570WA0043900439010019003294162
B2246092023117S07008570WA0043900439010019002279162
B2246102023117S07008570WA0043800439010019001276166
B2246112023116S07008571WA0043800439010019001244163
B2246122023116S07008571WA0043800439010019001292161
B2246132023116S07008571WA0043800439010019000268161
B2246142023116S07008571WA0043800439010019000000161
B2246152023116S07008571WA0043800439010019000000161
B2246162023116S07008571WA0043800439010019000000161
B2246172023116S07008571WA0043800439010019000000161
B2246182023116S07008571WA0043800439010019000000161
B2246192023116S07008571WA0043800439010019000000161
B2246202023116S07008571WA0043800439010019000000161
B2246212023116S07008571WA0043800439010019000000161
B2246222023116S07008571WA0043800439010019000000161
B2246232023116S07008571WA0043800439010019000000161
B2246242023116S07008571WA0043800439010019000000161
B2246252023116S07008571WA0043800439010019000000161
B2246262023116S07008571WA0043800439010019000000161
B2246272023116S07008571WA0043800439010019001117161
B2246282023116S07008571WA0043800439010019001114161
B2246292023116S07008571WA0043800439010019003214161
B2246302023117S07008571WA0043800439010019002234164
GPxRVpvSJftJQvJD9/IVQx3P7FhLdJHmXaTidct1stcM63c5Z78XsqSvDNBLE31Sk
GtKwJ+4RXDGidlw7wQ7Tvxo+dANrWxvN8tpGaFqqrVdNTiZ+h4OjaxQCh/RwXMqA0
GdsllOzwiFxBR8Z7zOMMQf1UD96w/+cfSxgHkAxxYstw=

