AXFH000
HFDTE140925
HFPLTPILOT:Scott O’Brien
HFGTYGLIDERTYPE:Ozone Swift 6
HFDTM100GPSDATUM:WGS84
HFRFWFIRMWAREVERSION:9.3
HFRHWHARDWAREVERSION:iPhone 15
HFFTYFRTYPE:Flyskyhy,9.3
HFGPS:Internal
HFPRSVARIO:Internal Vario
HFCCLCOMPETITIONCLASS:Paraglider
HFTZNTIMEZONE:-7
HFSITSITE:Pacifica (Dumps- San Francisco),US
I053638FXA3941VXA4244GSP4547CCO4850HDT
C140925002958130925000100TASK
C0000000N00000000ETAKEOFF
C3731062N12153514W00000000000400000000360000STARTAREA 
C3726317N12149880W00000000000400000000360000FINISHAREA Big Dog Vineyards
C0000000N00000000ELANDING
B0030263740363N12229626WA0006600066004003001331073
B0030273740363N12229626WA0006600067004003002242101
B0030283740363N12229626WA0006600066004003001255068
B0030293740363N12229626WA0006600066004003000255059
B0030303740363N12229627WA0006600066004003001279054
B0030313740363N12229627WA0006600067004003001226059
B0030323740363N12229627WA0006600067004003002269016
B0030333740363N12229628WA0006600066004003000269000
B0030343740363N12229628WA0006600066004003000269359
B0030353740363N12229628WA0006600066004003000261017
B0030363740363N12229628WA0006600067004003002267018
B0030373740363N12229629WA0006600066004003000267018
B0030383740363N12229629WA0006600066004003001248128
B0030393740363N12229628WA0006600067004003001098122
B0030403740363N12229627WA0006600067004003005078111
B0030413740363N12229626WA0006600067004003003074145
B0030423740364N12229625WA0006600067004003003071131
B0030433740364N12229625WA0006700068004003003080080
B0030443740364N12229623WA0006700069004003007080071
B0030453740364N12229622WA0006800069004003007073099
B0030463740364N12229622WA0006800068004003002062027
B0030473740364N12229622WA0006900068004003008256250
B0030483740364N12229624WA0006900067004003007256242
B0030493740364N12229626WA0006900067004003007253286
B0030503740364N12229627WA0006800068004003006242260
B0030513740363N12229628WA0006800069004003006242263
B0030523740363N12229629WA0006800069004003007242258
B0030533740362N12229630WA0006800070004003007234245
B0030543740361N12229632WA0006900072004003008229245
B0030553740357N12229633WA0007000075004003013198218
B0030563740356N12229634WA0007200077004003013176203
B0030573740354N12229633WA0007300079004003015150210
B0030583740352N12229632WA0007400080004003015151205
B0030593740349N12229631WA0007600080004003016164193
B0031003740346N12229630WA0007700081004003019171201
B0031013740343N12229629WA0007900085004003022160200
B0031023740340N12229627WA0008000088004003022134188
B0031033740338N12229624WA0008200088004003021127166
B0031043740336N12229623WA0008400089004003018143166
B0031053740334N12229619WA0008500093004003018133170
B0031063740330N12229618WA0008700093004003025164160
B0031073740327N12229616WA0008800094004003026148179
B0031083740324N12229613WA0008900096004003026140169
B0031093740322N12229610WA0009000096004003026133161
B0031103740320N12229607WA0009100097004003023128154
B0031113740317N12229603WA0009300097004003027129151
B0031123740315N12229599WA0009400097004003028132149
B0031133740311N12229596WA0009600099004003028135151
B0031143740309N12229593WA0009600100004003028143153
B0031153740306N12229591WA0009700103004003022145160
B0031163740304N12229589WA0009900105004003012155164
B0031173740303N12229588WA0010000105004003013152173
B0031183740301N12229587WA0010100105004003012155172
B0031193740299N12229585WA0010200106004003013145174
B0031203740297N12229582WA0010400107004003019129168
B0031213740294N12229577WA0010500109004003034114153
B0031223740292N12229571WA0010600110004003037111142
B0031233740290N12229565WA0010700111004003035114151
B0031243740288N12229560WA0010800113004003035128163
B0031253740285N12229558WA0011000113004003026145175
B0031263740284N12229560WA0011100112004003016238189
B0031273740282N12229560WA0011100112004003016195240
B0031283740287N12229565WA0011200114004003016323216
B0031293740290N12229566WA0011400117004003025339290
B0031303740292N12229568WA0011500120004003025337304
B0031313740294N12229569WA0011500121004003013326297
B0031323740295N12229571WA0011600122004003013317278
B0031333740297N12229572WA0011800123004003012333281
B0031343740299N12229573WA0011900124004003012342278
B0031363740300N12229575WA0011900123004003014318272
B0031373740302N12229576WA0012100124004003014302267
B0031383740302N12229578WA0012300124004003012292264
B0031393740303N12229579WA0012400125004003008304269
B0031403740304N12229581WA0012400126004003011322264
B0031413740305N12229583WA0012500126004003015313269
B0031423740307N12229585WA0012600127004003014301270
B0031433740307N12229587WA0012600128004003014300277
B0031443740308N12229588WA0012600130004003007308268
B0031453740309N12229589WA0012700130004003009328276
B0031463740311N12229589WA0012900129004003009341284
B0031473740312N12229590WA0013000127004003011329274
B0031483740314N12229593WA0013000128004003017312270
B0031493740316N12229595WA0013100129004003017302282
B0031503740316N12229597WA0013100131004003014300270
B0031513740316N12229597WA0013100131004003006305276
B0031523740317N12229598WA0013100131004003006315278
B0031533740318N12229600WA0013200131004003012312280
B0031543740319N12229602WA0013200131004003013311283
B0031553740321N12229604WA0013200131004003012315277
B0031563740322N12229605WA0013200132004003012323284
B0031573740323N12229606WA0013200131004003011329279
B0031583740325N12229607WA0013300132004003013334290
B0031593740327N12229608WA0013300133004003015333289
B0032003740332N12229610WA0013400134004003017354317
B0032013740335N12229610WA0013400134004003019005336
B0032023740339N12229609WA0013500133004003034010342
B0032033740345N12229608WA0013500133004003040014349
B0032043740350N12229606WA0013600135004003038017337
B0032053740355N12229604WA0013600136004003038017335
B0032063740359N12229603WA0013700137004003032014332
B0032073740363N12229601WA0013700138004003025013336
B0032083740367N12229600WA0013700138004003029012334
B0032093740372N12229599WA0013800138004003029010336
B0032103740377N12229598WA0013800138004003032007329
B0032113740381N12229597WA0013800140004003032009332
B0032123740385N12229596WA0013900140004003028016326
B0032133740390N12229594WA0014000141004003028022321
B0032143740394N12229593WA0014100140004003028013331
B0032153740398N12229593WA0014100139004003029354311
B0032163740402N12229594WA0014100140004003029344305
B0032173740405N12229594WA0014200142004003016348298
B0032183740407N12229594WA0014200143004003016006292
B0032193740409N12229594WA0014200143004003010003293
B0032203740411N12229595WA0014300143004003010343285
B0032213740412N12229596WA0014400143004003012324284
B0032223740414N12229598WA0014400143004003014314281
B0032233740415N12229599WA0014400145004003014315276
B0032243740416N12229600WA0014500146004003009339276
B0032253740417N12229600WA0014600147004003007352275
B0032263740418N12229601WA0014700147004003007333278
B0032273740419N12229602WA0014700147004003010312272
B0032283740420N12229603WA0014700148004003010298269
B0032293740420N12229605WA0014800148004003010301264
B0032303740421N12229606WA0014900149004003008294265
B0032313740421N12229606WA0014900150004003006303263
B0032323740422N12229607WA0015000150004003006302261
B0032333740422N12229609WA0015100150004003009305260
B0032343740423N12229610WA0015200151004003009303259
B0032353740424N12229612WA0015200152004003010302261
B0032363740425N12229614WA0015300153004003011309287
B0032373740428N12229615WA0015400155004003019337286
B0032383740431N12229616WA0015500156004003025349309
B0032393740435N12229617WA0015500157004003025354307
B0032403740439N12229617WA0015600158004003029352311
B0032413740443N12229618WA0015700160004003029348301
B0032423740447N12229620WA0015800162004003026342292
B0032433740450N12229622WA0015800164004003026329280
B0032443740452N12229623WA0016000166004003021309260
B0032453740452N12229625WA0016200167004003013253250
B0032463740452N12229626WA0016400170004003008289225
B0032473740450N12229626WA0016400172004003011172218
B0032483740445N12229620WA0016600172004003041136192
B0032493740442N12229614WA0016800172004003041128142
B0032503740441N12229605WA0017000175004003041097135
B0032513740440N12229595WA0017000176004003052091122
B0032523740439N12229587WA0017200177004003046095123
B0032533740437N12229578WA0017300179004003046100131
B0032543740436N12229571WA0017500180004003043106140
B0032553740432N12229567WA0017500181004003038120149
B0032563740430N12229564WA0017700182004003029145165
B0032573740429N12229563WA0017900183004003011175192
B0032583740428N12229563WA0018100184004003011241234
B0032593740427N12229565WA0018100186004003009267250
B0033003740427N12229566WA0018300187004003009248249
B0033013740426N12229567WA0018500188004003010214252
B0033023740424N12229568WA0018700189004003012206245
B0033033740424N12229570WA0018700190004003012230256
B0033043740423N12229571WA0018800192004003009238257
B0033053740422N12229572WA0019000193004003007246265
B0033063740422N12229573WA0019200193004003006223251
B0033073740421N12229574WA0019200194004003007226263
B0033083740420N12229575WA0019300194004003010232264
B0033093740419N12229577WA0019500195004003010230251
B0033103740418N12229578WA0019600197004003011226252
B0033113740417N12229579WA0019600198004003011211250
B0033123740416N12229580WA0019700199004003010190241
B0033133740414N12229580WA0019800200004003011188243
B0033143740412N12229580WA0020000202004003011193248
B0033153740410N12229581WA0020000204004004013204256
B0033163740408N12229582WA0020100204004003014192228
B0033173740406N12229582WA0020300204004003014176250
B0033183740404N12229581WA0020400204004003014163250
B0033193740403N12229580WA0020400204004003013164245
B0033203740401N12229580WA0020500204004003011178243
B0033213740400N12229580WA0020600204004003008194243
B0033223740400N12229581WA0020600205004003003203248
B0033233740399N12229581WA0020600205004003003196249
B0033243740399N12229581WA0020600205004003002196245
B0033253740400N12229582WA0020700204004003002299243
B0033263740400N12229584WA0020700204004003010298241
B0033273740401N12229586WA0020700205004003013297269
B0033283740402N12229588WA0020700206004003013292273
B0033293740402N12229589WA0020800208004003010294276
B0033303740402N12229590WA0020800209004003003268270
B0033313740402N12229590WA0020800209004003003268276
B0033323740402N12229591WA0020900209004003003269272
B0033333740403N12229592WA0020900209004003006281275
B0033343740403N12229593WA0021000210004003006278276
B0033353740403N12229595WA0021000210004003007267269
B0033363740402N12229596WA0021100210004003007255283
B0033373740402N12229597WA0021200210004003005250280
B0033393740402N12229598WA0021300210004003005250274
B0033403740403N12229599WA0021300211004003005317267
B0033413740405N12229600WA0021300211004003015323271
B0033423740407N12229602WA0021300212004003015323283
B0033433740409N12229604WA0021300213004003015315281
B0033443740410N12229606WA0021300213004003013309283
B0033453740411N12229607WA0021300214004003013307285
B0033463740412N12229609WA0021400215004003014306277
B0033473740413N12229611WA0021400216004003014304284
B0033483740414N12229613WA0021400217004003013299267
B0033493740415N12229615WA0021500218004003010287270
B0033503740415N12229616WA0021600218004003008268272
B0033513740414N12229618WA0021700217004003011254274
B0033523740414N12229620WA0021700217004003012260282
B0033533740414N12229622WA0021800219004003011277274
B0033543740415N12229624WA0021800220004003011305279
B0033553740416N12229624WA0021900221004003011333277
B0033563740418N12229625WA0021900221004003008346281
B0033573740419N12229625WA0022000221004003008342279
B0033583740419N12229625WA0022000221004003005323275
B0033593740421N12229627WA0022100221004003008320274
B0034003740422N12229628WA0022200223004003013324282
B0034013740424N12229629WA0022300223004003013319269
B0034023740425N12229631WA0022300224004003012312275
B0034033740425N12229631WA0022300225004003006292276
B0034043740425N12229633WA0022400225004003006248263
B0034053740424N12229635WA0022400226004003013231271
B0034063740422N12229636WA0022500228004003013230265
B0034073740421N12229638WA0022500230004003010233264
B0034083740421N12229638WA0022600232004003007235261
B0034093740420N12229639WA0022800234004003007206259
B0034103740419N12229639WA0022900236004003006206248
B0034113740418N12229639WA0022900236004003013175258
B0034123740415N12229639WA0023100235004003013170236
B0034133740414N12229638WA0023300235004003013168239
B0034143740413N12229638WA0023500234004003010172236
B0034153740412N12229638WA0023500235004003002174240
B0034163740412N12229638WA0023600235004003003174236
B0034173740412N12229638WA0023600235004003003294235
B0034183740412N12229639WA0023600237004003003339233
B0034193740413N12229639WA0023600237004003002339230
B0034203740413N12229639WA0023600237004003002338230
B0034213740414N12229640WA0023700237004003009300229
B0034223740415N12229642WA0023700238004003009291267
B0034233740415N12229644WA0023700240004003010293272
B0034243740416N12229645WA0023800241004003010292270
B0034253740416N12229646WA0023800243004003004289266
B0034263740416N12229647WA0023900243004003006290266
B0034273740416N12229648WA0023900244004003005279267
B0034283740416N12229649WA0024100245004003005285274
B0034293740417N12229650WA0024200246004003004293272
B0034303740417N12229650WA0024300247004003003280274
B0034313740417N12229651WA0024300246004003005297268
B0034323740418N12229652WA0024500246004003005294280
B0034333740418N12229653WA0024600246004003007286276
B0034343740418N12229655WA0024700246004003009279276
B0034353740418N12229656WA0024700247004003007271278
B0034363740418N12229657WA0024700247004003007271279
B0034373740418N12229659WA0024700247004003006273279
B0034383740418N12229660WA0024800246004003006273275
B0034393740418N12229662WA0024800245004003010264268
B0034403740418N12229664WA0024800245004003009254265
B0034413740417N12229665WA0024800247004003009246269
B0034423740417N12229666WA0024800247004003005243266
B0034433740417N12229666WA0024800247004003003251266
B0034443740417N12229667WA0024800246004003003265263
B0034453740416N12229668WA0024800246004003009258263
B0034463740416N12229670WA0024800247004003009255270
B0034473740416N12229671WA0024800247004003007253267
B0034483740416N12229671WA0024800248004003000251271
B0034493740416N12229671WA0024800247004003002251253
B0034503740416N12229671WA0024800246004003001251252
B0034513740416N12229672WA0024800245004003009274271
B0034523740416N12229674WA0024800246004003009259276
B0034533740416N12229675WA0024800247004003009254288
B0034543740415N12229675WA0024800247004003010211272
B0034553740414N12229674WA0024800245004003010097269
B0034563740415N12229672WA0024800242004003010070261
B0034573740416N12229672WA0024800238004003010345261
B0034583740418N12229676WA0024700237004003017291273
B0034593740418N12229679WA0024600240004003017276272
B0035003740418N12229681WA0024600243004003010249269
B0035013740418N12229681WA0024400246004003010266277
B0035023740419N12229681WA0024400248004003007067268
B0035033740419N12229681WA0024400247004003003266273
B0035043740419N12229681WA0024400247004003001266270
B0035053740416N12229683WA0024500245004003023209254
B0035063740413N12229684WA0024600245004003023201253
B0035073740411N12229685WA0024700246004003021202259
B0035083740410N12229686WA0024700247004003015195249
B0035093740408N12229686WA0024800247004003010180260
B0035103740406N12229686WA0024800246004003014172254
B0035113740404N12229686WA0024800245004003017187242
B0035123740401N12229687WA0024800244004003015197256
B0035133740400N12229688WA0024700244004003015208259
B0035143740398N12229689WA0024700243004003012211252
B0035153740397N12229689WA0024700244004003011192250
B0035163740395N12229691WA0024700243004003013219253
B0035173740393N12229692WA0024700243004003013202247
B0035183740391N12229693WA0024600243004003013201257
B0035193740389N12229694WA0024500242004003014201253
B0035203740387N12229696WA0024500241004003016204256
B0035213740385N12229697WA0024500241004003016209266
B0035223740383N12229698WA0024400242004003015209253
B0035233740382N12229699WA0024400243004003013202258
B0035243740380N12229700WA0024400244004003013190252
B0035253740378N12229700WA0024400243004003015185249
B0035263740376N12229700WA0024400242004003017189254
B0035273740373N12229701WA0024400242004003017198246
B0035283740370N12229702WA0024400243004003018193252
B0035293740368N12229702WA0024400243004003018185258
B0035303740366N12229703WA0024500243004003014182252
B0035313740364N12229703WA0024500243004003014187254
B0035323740361N12229704WA0024500243004003014199241
B0035333740359N12229705WA0024500243004003016199234
B0035343740357N12229705WA0024500243004003016175234
B0035353740355N12229705WA0024500242004003016161241
B0035363740352N12229704WA0024500241004003017170249
B0035373740349N12229705WA0024500236004003017196254
B0035383740347N12229707WA0024500234004003020219259
B0035393740345N12229709WA0024300233004003020228263
B0035403740343N12229711WA0024300233004003013220252
B0035413740341N12229712WA0024100231004003013195243
B0035423740339N12229713WA0023900230004003013192252
B0035433740337N12229714WA0023700229004003014206239
B0035453740335N12229716WA0023700228004003018220247
B0035463740333N12229717WA0023500228004003018206245
B0035473740330N12229718WA0023300229004003017186232
B0035483740328N12229718WA0023200229004003017170238
B0035493740327N12229718WA0023200228004003013176250
B0035503740325N12229719WA0023200227004003012220249
B0035513740324N12229721WA0023100226004003017229237
B0035523740322N12229723WA0023100227004003013220248
B0035533740321N12229724WA0023100228004003013210243
B0035543740319N12229724WA0023000228004003011193245
B0035553740318N12229724WA0023000227004003008186262
B0035563740316N12229725WA0023000226004003012193254
B0035573740315N12229725WA0023000225004003012198253
B0035583740313N12229726WA0023000225004003012194256
B0035593740311N12229726WA0022900225004003011188261
B0036003740310N12229726WA0022900224004003013190249
B0036013740307N12229727WA0022900223004003017198253
B0036023740305N12229728WA0022800223004003015205272
B0036033740302N12229730WA0022600223004003012209259
B0036043740301N12229731WA0022600224004003008215260
B0036053740300N12229732WA0022600223004003011222251
B0036063740299N12229734WA0022500223004003011219250
B0036073740297N12229735WA0022500223004003013214264
B0036083740296N12229737WA0022500223004003013211265
B0036093740295N12229738WA0022500223004003008216272
B0036103740294N12229739WA0022500222004003008225284
B0036113740293N12229740WA0022500221004003008235271
B0036123740293N12229741WA0022500220004003008238271
B0036133740292N12229742WA0022500219004003008246280
B0036143740292N12229744WA0022500219004003010265284
B0036153740293N12229746WA0022400219004003017312289
B0036163740298N12229745WA0022400219004003017004292
B0036173740301N12229745WA0022300219004003020004308
B0036183740303N12229744WA0022200219004003020004306
B0036193740305N12229744WA0022100219004003012003305
B0036203740307N12229744WA0022100219004003017008308
B0036213740311N12229743WA0022000218004003017007309
B0036223740314N12229743WA0022000218004003022009307
B0036233740317N12229742WA0021900217004003022010312
B0036243740319N12229742WA0021900217004003014013299
B0036253740321N12229741WA0021900217004003016020317
B0036263740323N12229739WA0021800217004003014030301
B0036273740325N12229738WA0021800217004003014042302
B0036283740326N12229737WA0021800215004003011034305
B0036293740328N12229736WA0021800212004003013011292
B0036303740330N12229736WA0021700210004003015355308
B0036313740332N12229737WA0021600208004003014345303
B0036323740334N12229737WA0021600207004003014342283
B0036333740334N12229737WA0021500206004003000351308
B0036343740333N12229737WA0021300205004003007130290
B0036353740333N12229736WA0021100203004003007108289
B0036363740333N12229735WA0021100200004003006067292
B0036373740333N12229735WA0020900198004003006320275
B0036383740334N12229737WA0020700197004003008272266
B0036393740333N12229738WA0020500198004003007236265
B0036403740332N12229739WA0020500198004003007213242
B0036413740331N12229740WA0020300197004003007202260
B0036423740330N12229741WA0020200197004003008196254
B0036433740328N12229741WA0020000195004003011195233
B0036443740326N12229742WA0020000196004003014204258
B0036453740324N12229743WA0020000196004003014206250
B0036463740322N12229744WA0019900196004003014199238
B0036473740320N12229745WA0019900196004003015184247
B0036483740317N12229745WA0019900195004003016178241
B0036493740315N12229745WA0019900194004003017184249
B0036503740312N12229746WA0019800193004003017198249
B0036513740310N12229747WA0019800193004003017209258
B0036523740308N12229749WA0019800194004003017211254
B0036533740306N12229750WA0019700195004003015210246
B0036543740305N12229752WA0019700195004003014211252
B0036553740303N12229754WA0019600195004003014216252
B0036563740301N12229755WA0019600194004003014222261
B0036573740300N12229758WA0019600193004003016236266
B0036583740300N12229762WA0019600193004003017268270
B0036593740300N12229766WA0019600192004003019261270
B0037003740299N12229769WA0019600192004003019246263
B0037013740298N12229772WA0019600193004003018245276
B0037023740297N12229775WA0019600194004003016264280
B0037033740298N12229776WA0019500196004003014311286
B0037043740298N12229777WA0019500197004003005285291
B0037053740299N12229777WA0019500197004003005334284
B0037063740299N12229778WA0019600195004003005265270
B0037073740299N12229780WA0019700194004003006274267
B0037083740300N12229782WA0019700194004003013288276
B0037093740301N12229783WA0019700196004003007326285
B0037103740301N12229783WA0019700196004003007016286
B0037113740302N12229783WA0019700196004003005019293
B0037123740303N12229783WA0019700195004003005352291
B0037133740304N12229784WA0019700194004003008324302
B0037143740306N12229786WA0019700194004003017319306
B0037153740308N12229788WA0019700194004003017332314
B0037163740311N12229788WA0019700194004003017356323
B0037173740313N12229788WA0019700194004003018012295
B0037183740316N12229787WA0019700192004003018011293
B0037193740318N12229787WA0019600190004003010357263
B0037203740319N12229787WA0019600188004003010325246
B0037213740314N12229788WA0019500185004003010182229
B0037223740309N12229785WA0019400182004003026153198
B0037233740305N12229777WA0019200180004003046118163
B0037243740301N12229769WA0019200176004003057122103
B0037253740300N12229759WA0019000170004004057110093
B0037263740305N12229754WA0018600158004004051082150
B0037273740310N12229754WA0018200149005006039023091
B0037283740315N12229755WA0018200142005006024008008
B0037293740313N12229758WA0017600129006006004060333
B0037303740309N12229750WA0017000120006006032105283
B0037313740310N12229743WA0016200118005006028086141
B0037323740314N12229744WA0016200110006006028026089
B0037333740317N12229747WA0015400110006006015346335
B0037343740310N12229748WA0014600130004004043163299
B0037353740310N12229746WA0014000132004004043089191
B0037363740310N12229745WA0014000134004004020089090
B0037373740308N12229745WA0013700131004004012166022
B0037383740305N12229745WA0013600126004003012184230
B0037393740298N12229742WA0013600127004003051161235
B0037403740294N12229738WA0013600130004003051137172
B0037413740291N12229731WA0013600130004003046110140
B0037423740289N12229723WA0013600129004003046094107
B0037433740289N12229713WA0013500128004003050083081
B0037443740290N12229703WA0013500128004003053084063
B0037453740291N12229693WA0013300128004004054082057
B0037463740295N12229686WA0013200130004003053065047
B0037473740299N12229679WA0013100129004003047053028
B0037483740303N12229671WA0013100130004003047058014
B0037493740308N12229667WA0013100130004003044043008
B0037513740313N12229662WA0013100129004003044034349
B0037523740319N12229662WA0013000129004003041001339
B0037533740324N12229662WA0013000130004003039345318
B0037543740327N12229664WA0013000132004003025326304
B0037553740330N12229665WA0013000134004003025334297
B0037563740333N12229666WA0013000135004003017357294
B0037573740335N12229666WA0013000135004003015352299
B0037583740337N12229667WA0013100134004003017331295
B0037593740340N12229669WA0013200134004003019323297
B0038003740342N12229671WA0013300135004003019336300
B0038013740345N12229671WA0013300136004003019353304
B0038023740347N12229672WA0013400135004003018350297
B0038033740350N12229673WA0013500135004003018334289
B0038043740352N12229676WA0013500134004003019314279
B0038053740354N12229678WA0013500134004003019305294
B0038063740356N12229680WA0013500135004003019313287
B0038073740358N12229682WA0013500136004003016329299
B0038083740360N12229684WA0013500135004003020338321
B0038093740363N12229686WA0013500134004003021331296
B0038103740366N12229686WA0013600133004003021351298
B0038113740369N12229689WA0013600133004004021329298
E003811PEVBackground
B0038123740371N12229692WA0013600131004004020315311
B0038133740377N12229696WA0013600129004006024330002
B0038143740382N12229696WA0013600132004004024350354
B0038153740385N12229698WA0013500131004004027343341
B0038163740389N12229700WA0013500131004003027333330
B0038173740392N12229702WA0013500131004003024324322
B0038183740395N12229705WA0013600131004003024323312
B0038193740398N12229707WA0013600131004003024328313
B0038203740401N12229710WA0013600132004003024331310
B0038213740405N12229711WA0013600135004004025341309
B0038223740408N12229713WA0013500134004003025332300
B0038233740411N12229716WA0013500134004004026324298
B0038243740413N12229718WA0013500134004003025337301
B0038253740417N12229720WA0013500134004003025335303
B0038263740420N12229722WA0013500133004003025335308
B0038273740424N12229724WA0013500132004003027329297
B0038283740427N12229727WA0013500133004003029323280
B0038293740431N12229730WA0013500134004003028322289
B0038303740433N12229733WA0013500135004003028321288
B0038313740436N12229737WA0013500138004003026315276
B0038323740437N12229739WA0013500137004003017297273
B0038333740438N12229742WA0013500138004003017270255
B0038343740437N12229744WA0013600137004003014238253
B0038353740434N12229746WA0013700137004003014196259
B0038363740431N12229746WA0013700138004003022179259
B0038373740428N12229745WA0013700139004003025159263
B0038383740424N12229743WA0013800140004003025150274
B0038393740422N12229742WA0013900140004003023153279
B0038403740418N12229740WA0013900140004003023161282
B0038413740414N12229739WA0014000140004003025165285
B0038423740410N12229737WA0014000141004003029159286
B0038433740406N12229734WA0014100142004003029150289
B0038443740403N12229732WA0014100144004003026140291
B0038453740400N12229729WA0014200143004003024143292
B0038463740397N12229727WA0014300142004003024155293
B0038473740393N12229725WA0014400142004003029163294
B0038483740389N12229724WA0014400142004003029165296
B0038493740386N12229722WA0014400144004003027155296
B0038503740384N12229720WA0014500145004003021145297
B0038513740382N12229719WA0014500144004003015143298
B0038523740379N12229717WA0014500142004003019157298
B0038533740376N12229717WA0014600140004003022171298
B0038543740372N12229716WA0014600139004003022181298
B0038553740369N12229716WA0014500139004003022177298
B0038563740367N12229715WA0014500139004003021166299
B0038573740365N12229715WA0014500138004003015161299
B0038583740362N12229715WA0014400137004003015173299
B0038593740359N12229715WA0014300136004003015190299
B0039003740357N12229716WA0014300134004003018195299
B0039013740354N12229716WA0014200134004003019188299
B0039023740352N12229716WA0014000134004003013173299
B0039033740350N12229717WA0014000134004003013183299
B0039043740348N12229717WA0014000134004003010202299
B0039053740347N12229718WA0013900134004003009207299
B0039063740346N12229718WA0013800134004003009158299
B0039073740345N12229717WA0013700133004003010138299
B0039083740343N12229716WA0013700131004003012156299
B0039093740340N12229715WA0013700129004003012164299
B0039103740337N12229712WA0013700125004003020148299
B0039113740332N12229706WA0013600123004003036131299
B0039123740328N12229697WA0013600124004003057118299
B0039133740325N12229690WA0013400126004003057117299
B0039143740321N12229685WA0013200127004003042133299
B0039153740318N12229683WA0013000125004003029157299
B0039163740314N12229681WA0013000124004003029168299
B0039173740309N12229679WA0012900123004003035165299
B0039183740305N12229677WA0012800124004003035166299
B0039193740301N12229677WA0012700125004003029171299
B0039203740300N12229677WA0012700125004003022197299
B0039213740298N12229678WA0012700124004003012197299
B0039223740295N12229678WA0012700122004003021196299
B0039233740292N12229680WA0012700121004003029201299
B0039243740289N12229682WA0012700120004003024204299
B0039253740287N12229684WA0012600123004003024215306
B0039263740285N12229684WA0012600124004003016206305
B0039273740283N12229685WA0012500123004003012206304
B0039283740281N12229687WA0012500122004003018205302
B0039293740278N12229689WA0012500120004003018208300
B0039303740275N12229691WA0012500120004003023215309
B0039313740273N12229694WA0012500121004003023221313
B0039323740271N12229696WA0012500122004003016215311
B0039333740269N12229698WA0012500122004003016223311
B0039343740267N12229699WA0012500123004003015201315
B0039353740265N12229701WA0012400122004003014232314
B0039363740263N12229703WA0012400121004003015220310
B0039373740262N12229704WA0012400121004003014218307
B0039383740260N12229706WA0012400120004003014226302
B0039393740259N12229708WA0012400119004003014230301
B0039403740258N12229711WA0012400118004003015234293
B0039413740256N12229713WA0012300118004003016228283
B0039423740254N12229715WA0012300119004003015213274
B0039433740252N12229716WA0012200119004003017194275
B0039443740249N12229716WA0012200119004003017178280
B0039453740246N12229715WA0012100119004003022164284
B0039463740242N12229713WA0012100120004003026155288
B0039473740239N12229711WA0012100120004003026150291
B0039483740236N12229709WA0012100120004003027143291
B0039493740232N12229705WA0012100120004003027139294
B0039503740228N12229701WA0012200119004003029143296
B0039513740224N12229698WA0012200119004003034147305
B0039523740220N12229695WA0012200118004003031152314
B0039533740216N12229693WA0012100118004003031158298
B0039543740213N12229691WA0012000117004003028160289
B0039553740209N12229690WA0012000116004003025164291
B0039563740205N12229689WA0012000115004003027177287
B0039573740202N12229689WA0011900114004003027180285
B0039583740198N12229689WA0011800112004003024182278
B0039593740195N12229689WA0011800113004003023180284
B0040003740191N12229689WA0011800112004003022178288
B0040013740188N12229689WA0011700112004003022181282
B0040023740185N12229689WA0011600113004003022185289
B0040033740182N12229689WA0011600112004003018184295
B0040043740180N12229690WA0011600112004003017196313
B0040053740179N12229691WA0011500111004003010239316
B0040063740178N12229693WA0011500111004003011252331
B0040073740179N12229696WA0011500111004003011302326
B0040083740181N12229698WA0011500113004003016313325
B0040093740182N12229699WA0011400114004003009336325
B0040103740183N12229700WA0011400114004003009336318
B0040113740184N12229702WA0011500114004003009323315
B0040123740186N12229704WA0011500113004003012324312
B0040133740188N12229705WA0011500113004003017339310
B0040143740191N12229705WA0011500112004003017357311
B0040153740193N12229705WA0011500111004003016357306
B0040163740195N12229706WA0011500110004003016343305
B0040173740197N12229708WA0011400108004003020328304
B0040183740200N12229710WA0011300107004003027326304
B0040193740203N12229713WA0011200108004003024327303
B0040203740207N12229714WA0011100107004004024342302
B0040213740209N12229716WA0011000108004004023321302
B0040223740213N12229717WA0010900106004003024349301
B0040233740217N12229718WA0010800105004004029336301
B0040243740220N12229719WA0010700104004004026346301
B0040253740224N12229719WA0010600103004004028356300
B0040263740228N12229718WA0010600102004004026007300
B0040273740232N12229718WA0010500101004004025007300
B0040283740236N12229719WA0010400098004003026346300
B0040293740238N12229722WA0010300096004003025304300
B0040303740239N12229725WA0010300096004003024253297
B0040313740237N12229726WA0010100093004003019192291
B0040323740235N12229726WA0010000093004003021162290
B0040333740233N12229725WA0009800092004003021165290
B0040343740231N12229726WA0009700091004003013210294
B0040353740230N12229728WA0009600088004003013235293
B0040363740228N12229730WA0009500087004003015216282
B0040373740224N12229731WA0009400086004003025192271
B0040383740221N12229730WA0009300086004003027165261
B0040393740218N12229728WA0009200086004003027144262
B0040403740215N12229725WA0009000087004003027131264
B0040413740212N12229720WA0009000087004003029125265
B0040423740210N12229715WA0009000087004003033116270
B0040433740207N12229709WA0009000087004003037113274
B0040443740205N12229703WA0009000088004003035115282
B0040453740202N12229698WA0009000088004003035129287
B0040463740199N12229695WA0009100088004003030150293
B0040473740196N12229694WA0009100087004003022176295
B0040483740194N12229695WA0009100087004003022210299
B0040493740193N12229697WA0009100086004003019263310
B0040503740194N12229701WA0009100086004003019306317
B0040513740197N12229703WA0009100086004003024336323
B0040523740201N12229705WA0009100087004003029343321
B0040533740205N12229706WA0009000091004004030343319
B0040543740211N12229704WA0009000089004003030014316
B0040553740216N12229704WA0009000089004003032004311
B0040563740221N12229703WA0009000089004003035001309
B0040573740228N12229703WA0009000087004003041000308
B0040583740233N12229703WA0009000085004003041358307
B0040593740241N12229701WA0009000086004003041010305
B0041003740247N12229700WA0008900086004003043008304
B0041013740253N12229699WA0008800086004003043007304
B0041023740259N12229698WA0008800085004003040010302
B0041033740265N12229696WA0008700084004003044015302
B0041043740272N12229694WA0008700081004003044014301
B0041053740279N12229692WA0008600079004003046010301
B0041063740286N12229691WA0008600077004003049007300
B0041073740293N12229689WA0008400076004003049010300
B0041083740300N12229686WA0008300077004003049015300
B0041093740305N12229682WA0008100078004003046038300
B0041103740310N12229677WA0007900078004003042038300
B0041113740314N12229673WA0007800077004003040039300
B0041123740319N12229670WA0007800075004003038025300
B0041133740325N12229666WA0007800072004003041026300
B0041143740332N12229662WA0007700074004003041026299
B0041153740338N12229657WA0007700076004003051033299
B0041163740343N12229652WA0007600077004003051035299
B0041173740349N12229648WA0007600078004003041031299
B0041183740355N12229644WA0007600079004003043027299
B0041193740360N12229640WA0007600080004003043027299
B0041203740366N12229636WA0007700082004003045027299
B0041213740372N12229633WA0007700083004003045025299
B0041223740377N12229630WA0007800085004003034023299
B0041233740382N12229628WA0008000087004003034017299
B0041243740386N12229627WA0008200087004003031009299
B0041253740390N12229626WA0008200088004003027009299
B0041263740394N12229625WA0008400088004003027011299
B0041273740399N12229624WA0008500088004003033008299
B0041283740404N12229624WA0008700087004003033000299
B0041293740408N12229624WA0008700088004003033350299
B0041303740412N12229625WA0008800089004003028337299
B0041313740414N12229627WA0008800089004003020318299
B0041323740415N12229629WA0008900090004003012303299
B0041333740417N12229631WA0008900091004003012303299
B0041343740418N12229632WA0008900091004003012315299
B0041353740420N12229634WA0009000092004003014326299
B0041363740422N12229636WA0009000092004003016327299
B0041373740424N12229637WA0009000092004003016325299
B0041383740425N12229639WA0009100094004003016304300
B0041393740425N12229641WA0009200094004003012260300
B0041403740424N12229643WA0009300094004003012204294
B0041413740421N12229643WA0009300093004003015180285
B0041423740417N12229642WA0009400094004003030164287
B0041433740413N12229640WA0009500095004003030157288
B0041443740409N12229639WA0009500095004003030159290
B0041453740405N12229638WA0009500096004003027169293
B0041463740401N12229637WA0009600096004003026173292
B0041473740397N12229636WA0009700097004003026169293
B0041483740394N12229635WA0009700097004003026165292
B0041493740390N12229634WA0009700098004003025170294
B0041503740386N12229634WA0009800099004003025174295
B0041513740383N12229633WA0009800101004003024180295
B0041523740380N12229633WA0009900102004003022177290
B0041533740376N12229633WA0009900103004003022173290
B0041543740373N12229632WA0010100103004003022172285
B0041553740370N12229632WA0010200103004003022179287
B0041563740367N12229633WA0010300104004003020186285
B0041573740364N12229633WA0010300104004003018190292
B0041583740362N12229633WA0010400103004003019182292
B0041593740359N12229633WA0010500103004003019181285
B0042003740355N12229634WA0010600103004003019193285
B0042013740353N12229635WA0010600103004003019188286
B0042023740351N12229635WA0010600106004003014190290
B0042033740349N12229636WA0010600106004003015182281
B0042043740346N12229635WA0010600104004003014170276
B0042053740344N12229636WA0010600103004003015184281
B0042063740342N12229636WA0010700101004003015192281
B0042073740339N12229637WA0010700100004003021189277
B0042083740336N12229637WA0010700100004003020184271
B0042093740333N12229637WA0010700099004003020181277
B0042103740330N12229637WA0010600098004003020182284
B0042113740327N12229638WA0010500097004003017194282
B0042123740324N12229639WA0010300095004003022196273
B0042133740321N12229640WA0010300096004003019196270
B0042143740318N12229641WA0010200095004003020192282
B0042153740315N12229641WA0010100094004003020174275
B0042163740313N12229641WA0010000094004003020178273
B0042173740310N12229641WA0010000095004003018178278
B0042183740308N12229640WA0009900095004003017161282
B0042193740305N12229639WA0009800093004003018166284
B0042203740302N12229639WA0009700093004003020176283
B0042213740299N12229639WA0009700093004004020176294
B0042223740297N12229638WA0009700094004004017169288
B0042233740295N12229638WA0009700094004004013169291
B0042243740293N12229638WA0009600093004003013198297
B0042253740292N12229638WA0009600094004003011190275
B0042263740289N12229638WA0009600093004003015181291
B0042273740287N12229637WA0009600092004003015162256
B0042283740284N12229636WA0009500091004003017159262
B0042293740280N12229634WA0009500091004003025151271
B0042303740276N12229630WA0009500090004003036142270
B0042313740272N12229627WA0009500089004003036143274
B0042323740268N12229623WA0009400090004003033138281
B0042333740265N12229620WA0009400090004003031144284
B0042343740261N12229618WA0009300089004003030158290
B0042353740257N12229616WA0009300090004003026166294
B0042363740254N12229616WA0009200091004003026186294
B0042373740252N12229617WA0009200091004003018233307
B0042383740252N12229619WA0009200090004003017287318
B0042393740254N12229622WA0009200090004003017322321
B0042403740258N12229623WA0009200091004003027344325
B0042413740262N12229623WA0009200089004003036007322
B0042423740267N12229621WA0009200091004003036019318
B0042433740272N12229620WA0009300091004003036009307
B0042443740274N12229623WA0009300089004003029307301
B0042453740274N12229626WA0009300086004003026251295
B0042463740274N12229630WA0009300085004003026263294
B0042473740270N12229632WA0009200086004003026199284
B0042483740265N12229630WA0009100091004003027157278
B0042493740262N12229628WA0009100091004003027132278
B0042503740259N12229625WA0009100092004003027137282
B0042513740255N12229622WA0009100089004003032149284
B0042523740251N12229621WA0009100088004003028180295
B0042533740248N12229622WA0009100088004003028200306
B0042543740249N12229627WA0009100086004003028297322
B0042553740250N12229629WA0009100085004003019315329
B0042563740259N12229628WA0009100086004003060008326
B0042573740264N12229626WA0009100089004003038019319
B0042583740267N12229627WA0009100089004003038349304
B0042593740270N12229628WA0009000089004003018337292
B0043003740269N12229631WA0008900086004003019256290
B0043013740263N12229634WA0008900087004003044197284
B0043023740259N12229633WA0008900089004003034168280
B0043033740254N12229633WA0008800091004003034175281
B0043043740251N12229629WA0008800090004003033135286
B0043053740249N12229623WA0008800089004003030125288
B0043063740245N12229621WA0008800087004003031157293
B0043073740241N12229620WA0008800085004003030180293
B0043083740238N12229621WA0008800085004003028207294
B0043093740237N12229622WA0008800085004003018253303
B0043103740237N12229622WA0008800085004003003220309
B0043113740236N12229623WA0008800085004003003220305
B0043123740236N12229624WA0008700084004003003221306
B0043133740235N12229625WA0008700085004003007224311
B0043143740235N12229627WA0008600086004003008224310
B0043153740235N12229627WA0008600086004003005279317
B0043163740235N12229628WA0008600085004003005318313
B0043173740236N12229629WA0008600085004003005284312
B0043183740236N12229630WA0008600084004003006274318
B0043193740236N12229632WA0008600084004003010280312
B0043203740236N12229634WA0008500084004003007290320
B0043213740236N12229635WA0008500085004003007274303
B0043223740236N12229636WA0008500084004003007256309
B0043233740236N12229637WA0008500083004003007231305
B0043243740234N12229639WA0008400082004003010228305
B0043253740234N12229640WA0008400082004003005230299
B0043263740233N12229640WA0008400082004003006225303
B0043273740232N12229641WA0008400081004003006225301
B0043283740231N12229643WA0008300079004003011223306
B0043293740230N12229646WA0008300078004003016245338
B0043303740233N12229648WA0008300077004003022325354
B0043313740237N12229650WA0008200074004003034350349
B0043323740242N12229650WA0008100074004003034004349
B0043333740247N12229649WA0008100074004003035005337
B0043343740251N12229647WA0008000077004003035016325
B0043353740255N12229647WA0007800077004003024003312
B0043363740258N12229648WA0007700076004003024342305
B0043373740259N12229653WA0007700072004003024275303
B0043383740259N12229658WA0007700071004003029256300
B0043393740258N12229662WA0007600074004003029235299
B0043403740256N12229663WA0007500077004003011178304
B0043413740255N12229662WA0007500080004003011131303
B0043423740255N12229660WA0007500077004003011087290
B0043433740254N12229660WA0007600073004003009197292
B0043443740252N12229662WA0007600069004003015223291
B0043453740249N12229666WA0007600069004003033220291
B0043463740247N12229667WA0007600072004003033200299
B0043473740246N12229667WA0007500074004003013093301
B0043483740246N12229665WA0007500073004003009079294
B0043493740245N12229666WA0007500071004003007199288
B0043503740244N12229667WA0007400068004003015222282
B0043513740240N12229671WA0007300068004003037221278
B0043523740237N12229673WA0007200071004003023202269
B0043533740234N12229673WA0007200073004003023168251
B0043543740232N12229668WA0007200072004003023117238
B0043553740229N12229663WA0007200072004003036120234
B0043563740228N12229653WA0007100070004003056101233
B0043573740228N12229644WA0007100069004003056084355
B0043583740232N12229635WA0007100069004003056052333
B0043593740236N12229627WA0007100068004003056054320
B0044003740244N12229629WA0007100067004003053346309
B0044013740249N12229631WA0007100067004003053317304
B0044023740250N12229635WA0007100067004003035267293
B0044033740248N12229638WA0007000067004003027213286
B0044043740245N12229638WA0006900067004003027167283
B0044053740242N12229635WA0006900068004003030142287
B0044063740239N12229632WA0006800069004003030135290
B0044073740236N12229631WA0006800069004003026153294
B0044093740234N12229630WA0006800069004003018171296
B0044103740233N12229633WA0006800066004003019267304
B0044113740234N12229636WA0006800066004003019289315
B0044123740235N12229638WA0006800067004003018320321
B0044133740238N12229639WA0006800068004003018342323
B0044143740241N12229640WA0006800068004003020002322
B0044153740244N12229639WA0006800067004003026009323
B0044163740248N12229639WA0006800066004003030000317
B0044173740253N12229640WA0006800065004003030354316
B0044183740257N12229639WA0006800065004003031359311
B0044193740262N12229639WA0006800067004003032007311
B0044203740267N12229637WA0006800067004003032011309
B0044213740271N12229636WA0006800068004003032016305
B0044223740276N12229635WA0006800068004003032002304
B0044233740280N12229635WA0006800069004003032357303
B0044243740285N12229635WA0006800071004003028001302
B0044253740288N12229634WA0006900072004003023008301
B0044263740292N12229634WA0007000072004003023007301
B0044273740295N12229634WA0007000072004003021345300
B0044283740297N12229635WA0007000072004003017327298
B0044293740296N12229638WA0007100073004003014254294
B0044303740292N12229639WA0007100071004003032186286
B0044313740288N12229638WA0007100071004003034164282
B0044323740284N12229636WA0007100072004003032154278
B0044333740281N12229635WA0007100073004003029157289
B0044343740274N12229633WA0007100072004003024165283
B0044353740270N12229632WA0007100070004003026173280
B0044363740266N12229631WA0007100069004003026168277
B0044373740263N12229630WA0007100068004003027165280
B0044383740259N12229629WA0007100068004003027170287
B0044393740255N12229630WA0007100067004003023186289
B0044403740252N12229631WA0007000067004003023201294
B0044413740250N12229632WA0007000066004003022223316
B0044423740249N12229634WA0007000067004003014263322
B0044433740250N12229635WA0006900067004003014324329
B0044443740253N12229636WA0006800065004003023354335
B0044453740257N12229636WA0006800065004003032009333
B0044463740261N12229634WA0006800065004003032017329
B0044473740266N12229632WA0006700065004003032020321
B0044483740269N12229632WA0006700065004003030003308
B0044493740272N12229632WA0006700063004003019351302
B0044503740273N12229635WA0006700061004003019286300
B0044513740271N12229638WA0006600062004003019232295
B0044523740267N12229639WA0006500061004003020178288
B0044533740264N12229639WA0006400062004003020156288
B0044543740263N12229638WA0006400061004003010144289
B0044553740260N12229638WA0006300060004003015176277
B0044563740257N12229639WA0006200056004003015195277
B0044573740253N12229640WA0006100056004003027204290
B0044583740251N12229642WA0006100058004003027236306
B0044593740252N12229645WA0006000058004003016299335
B0045003740255N12229647WA0005900055004003031341338
B0045013740259N12229648WA0005900055004003031348339
B0045023740264N12229649WA0005900056004003035001342
B0045033740269N12229648WA0005800055004003035006339
B0045043740274N12229644WA0005800054004003041034333
B0045053740279N12229640WA0005800053004003044033327
B0045063740285N12229637WA0005800053004003042024320
B0045073740290N12229635WA0005700053004003042008312
B0045083740295N12229634WA0005700051004003035013309
B0045093740299N12229636WA0005600051004003027331308
B0045103740301N12229639WA0005600052004003027313305
B0045113740303N12229641WA0005500052004003019318301
B0045123740304N12229643WA0005400051004003015287300
B0045133740304N12229646WA0005300049004003015245296
B0045143740302N12229648WA0005300047004003022215287
B0045153740298N12229649WA0005300047004003028184281
B0045163740295N12229649WA0005200047004003028163280
B0045173740291N12229647WA0005100048004003028149282
B0045183740289N12229645WA0005100048004003025145287
B0045193740287N12229644WA0005000047004003014158292
B0045203740284N12229644WA0005000046004003017196293
B0045213740281N12229645WA0004900045004003017200293
B0045223740278N12229645WA0004900045004003022184295
B0045233740275N12229645WA0004900046004003022161296
B0045243740273N12229644WA0004800047004003013167296
B0045253740272N12229645WA0004800046004003013218304
B0045263740271N12229649WA0004800043004003013266311
B0045273740274N12229653WA0004800042004003019310312
B0045283740277N12229655WA0004700042004003028336313
B0045293740280N12229656WA0004700043004003020344309
B0045303740282N12229659WA0004700042004003020306304
B0045313740283N12229662WA0004600041004003018284303
B0045323740282N12229665WA0004500039004003018246295
B0045333740279N12229667WA0004400039004003019203289
B0045343740277N12229668WA0004400039004003021172284
B0045353740274N12229668WA0004300039004003021172279
B0045363740273N12229669WA0004200037004003017210291
B0045373740271N12229671WA0004200035004003017241297
B0045383740270N12229674WA0004200035004003018245300
B0045393740269N12229676WA0004100034004003012242296
B0045403740268N12229678WA0003900034004003012248309
B0045413740268N12229679WA0003900034004003010227313
B0045423740268N12229679WA0003900033004003004245352
B0045433740268N12229678WA0003800033004003003245201
B0045443740268N12229678WA0003700033004003001245233
B0045453740268N12229678WA0003600032004003000245249
B0045463740267N12229678WA0003600032004003000245249
B0045473740268N12229678WA0003600033004003000245260
B0045483740267N12229678WA0003600033004003002245263
B0045493740267N12229678WA0003600033004003000245272
B0045503740267N12229678WA0003600033004003000245274
B0045513740267N12229677WA0003600033004003000245279
B0045523740267N12229678WA0003500033004003000245284
B0045533740267N12229678WA0003500032004003000245287
B0045543740267N12229678WA0003500032004003000245289
B0045553740267N12229678WA0003500032004003000245291
B0045563740267N12229678WA0003500033004003000245293
B0045573740267N12229678WA0003500033004003000245294
B0045583740267N12229677WA0003500033004003001245295
B0045593740267N12229677WA0003500033004003000245296
B0046003740267N12229677WA0003600033004003000245296
B0046013740267N12229677WA0003600033004003000245297
B0046023740267N12229677WA0003600033004003000245297
B0046033740267N12229678WA0003600032004003000245297
B0046043740267N12229678WA0003600033004003001245298
B0046053740267N12229677WA0003600033004003002132298
B0046063740267N12229677WA0003600033004003002132298
B0046073740267N12229677WA0003600033004003002132299
B0046083740266N12229676WA0003600033004003002132299
B0046093740266N12229676WA0003600033004003002131299
B0046103740266N12229675WA0003600034004003002131299
GQwSpLqAYWHE8e5rPkO2KDR1TRvU9Fn8W+XLt5WMmUzBH4Qzhai6FrlD08wpjB0GX
G0aHidrb8W5Bz6kLkYaGAk7jOfeDL25g6IlWNIq/3/uoUQ/X69Vt2BRKf8sDSNEDo
G+IJnib+9e9QVvMKXs7/Hfl+tbLlshUTihwF/M5UUI/g=

