AXFH000
HFDTE080326
HFPLTPILOT:Scott O’Brien
HFGTYGLIDERTYPE:Ozone Swift 6
HFDTM100GPSDATUM:WGS84
HFRFWFIRMWAREVERSION:9.4
HFRHWHARDWAREVERSION:iPhone 15
HFFTYFRTYPE:Flyskyhy,9.4
HFGPS:Bluetooth vario
HFPRSVARIO:Bluetooth vario
HFCCLCOMPETITIONCLASS:Paraglider
HFTZNTIMEZONE:-7
HFSITSITE:Ed Levin,US
I053638FXA3941VXA4244GSP4547CCO4850HDT
C080326193135080326000102TASK
C0000000N00000000ETAKEOFF
C1956332N10339238W00010009999999000000360000STARTAREA Tapalpa
C2003837N10343513W00000000001000000000360000TURNAREA ATV
C1958948N10346610W00000000001000000000360000TURNAREA Rocks
C1956335N10336845W00000000001000000000360000FINISHAREA TapalpaLZ
C0000000N00000000ELANDING
B1932053728532N12151678WA0069900699001100000068012
B1932063728532N12151678WA0069900699001100000068043
B1932073728532N12151678WA0069900699001100000068053
B1932083728532N12151679WA0069900699001100003253061
B1932093728532N12151679WA0069900699001100004043062
B1932103728532N12151679WA0069900699001100005012033
B1932113728533N12151679WA0069900699001100004330002
B1932123728533N12151679WA0069900699001100003008070
B1932133728533N12151679WA0069900699001100001029038
B1932143728533N12151679WA0069900699001100000029046
B1932153728533N12151679WA0069900699001100000029034
B1932163728533N12151679WA0069900699001100001029013
B1932173728533N12151679WA0069900699001100000029023
B1932183728533N12151679WA0069900699001100001093070
B1932193728533N12151679WA0069900699001100001093056
B1932203728533N12151679WA0069900699001100001093054
B1932213728533N12151679WA0069900699001100001093067
B1932223728533N12151679WA0070000699001100001093059
B1932233728534N12151679WA0069900699001100001093058
B1932243728534N12151679WA0070000699001100002047091
B1932253728534N12151679WA0069900699001100000047228
B1932263728534N12151679WA0069900699001100001047230
B1932273728533N12151679WA0069900699001100001047215
B1932283728533N12151679WA0069800699001100002233217
B1932293728533N12151680WA0069700699001100003249227
B1932303728533N12151681WA0069500699001100006258222
B1932313728533N12151682WA0069500699001100010258231
B1932323728532N12151685WA0069500699001100012264236
B1932333728532N12151688WA0069400699001100014272236
B1932343728532N12151691WA0069400699001100016277232
B1932353728532N12151695WA0069400699001100019273255
B1932363728532N12151700WA0069400698001100022267246
B1932373728531N12151706WA0069400698001100026268278
B1932383728531N12151711WA0069400698001100027266257
B1932393728530N12151717WA0069400698001100027266271
B1932403728530N12151722WA0069300697001100028270258
B1932413728530N12151728WA0069000696001100029268272
B1932423728530N12151734WA0068900695001100032267283
B1932433728529N12151741WA0068900694001100030271311
B1932443728530N12151746WA0068900693001100028279294
B1932453728531N12151751WA0068900693001100026288290
B1932463728533N12151756WA0068700691001100029295284
B1932473728535N12151761WA0068600689001100033296282
B1932483728537N12151767WA0068500688001100033295275
B1932493728539N12151773WA0068500687001100030294279
B1932503728541N12151778WA0068500686001100028297272
B1932513728543N12151783WA0068300686001100027294274
B1932523728545N12151788WA0068300685001100030290272
B1932533728546N12151793WA0068200683001100033284265
B1932543728547N12151800WA0068200682001100033284276
B1932553728548N12151805WA0068200681001100031286283
B1932563728549N12151810WA0068200680001100026287277
B1932573728551N12151815WA0068200680001100024293280
B1932583728552N12151819WA0068100679001100027288266
B1932593728553N12151824WA0068000677001100031285284
B1933003728554N12151830WA0068000676001100033284272
B1933013728555N12151836WA0068000675001100031281274
B1933023728556N12151842WA0068000675001100029280281
B1933033728557N12151847WA0068100675001100027283290
B1933043728558N12151852WA0068100676001100026291306
B1933053728560N12151856WA0068300677001100028302280
B1933063728562N12151861WA0068500679001100028308284
B1933073728564N12151865WA0068600681001100025307262
B1933083728566N12151869WA0068700682001100025296264
B1933093728567N12151873WA0068700682001100026286267
B1933103728567N12151878WA0068600682001100025277259
B1933113728564N12151883WA0068700683001100025246254
B1933123728561N12151886WA0068700683001100022224231
B1933133728557N12151888WA0068600683001100022212212
B1933143728552N12151887WA0068600682001100027173204
B1933153728546N12151884WA0068600681001100035151167
B1933163728542N12151880WA0068700681001100035142143
B1933173728538N12151875WA0068600681001100033130134
B1933183728538N12151868WA0068600681001100028109123
B1933193728541N12151861WA0068600680001100028072101
B1933203728545N12151856WA0068700679001100030045062
B1933213728549N12151852WA0068800680001100028038033
B1933223728554N12151850WA0068900679001100030028027
B1933233728559N12151854WA0069000680001100025344017
B1933243728562N12151859WA0069100680001100024311334
B1933253728564N12151863WA0069200681001100021298306
B1933263728565N12151867WA0069200681001100019281294
B1933273728565N12151871WA0069200681001100021265280
B1933283728564N12151875WA0069100681001100023250264
B1933293728562N12151880WA0069000681001100024239251
B1933303728560N12151883WA0068900681001100022227242
B1933313728555N12151883WA0068700681001100024186232
B1933323728551N12151883WA0068700681001100024176195
B1933333728546N12151879WA0068800681001100032150186
B1933343728542N12151874WA0068900681001100032136155
B1933353728539N12151868WA0069000680001100033129140
B1933363728537N12151862WA0069100680001100032115132
B1933373728538N12151855WA0069000681001100029082117
B1933383728539N12151849WA0068900681001100030069078
B1933393728544N12151843WA0069000680001100039053063
B1933403728549N12151837WA0069000681001100039046047
B1933413728555N12151833WA0068900681001100035023039
B1933423728560N12151834WA0068900682001100031355014
B1933433728565N12151836WA0069000681001100030338344
B1933443728570N12151839WA0069100682001100031324328
B1933453728572N12151844WA0069200684001100027310313
B1933463728575N12151848WA0069300685001100024299296
B1933473728577N12151852WA0069300686001100025296290
B1933483728579N12151857WA0069400687001100028301286
B1933493728581N12151861WA0069500687001100029303283
B1933503728584N12151866WA0069400687001100027298272
B1933513728585N12151870WA0069200687001100026295273
B1933523728587N12151875WA0069000687001100026295271
B1933533728589N12151879WA0068800687001100028294283
B1933543728590N12151885WA0068700686001100032291283
B1933553728592N12151892WA0068700686001100034294279
B1933563728594N12151898WA0068800686001100031296277
B1933573728595N12151903WA0068900686001100029289276
B1933583728596N12151909WA0068900686001100031283277
B1933593728597N12151915WA0068800685001100031277280
B1934003728598N12151920WA0068800684001100031279278
B1934013728599N12151926WA0068700683001100031279280
B1934023728600N12151932WA0068600682001100031274276
B1934033728602N12151937WA0068500680001100033272273
B1934043728603N12151944WA0068400679001100034268276
B1934053728604N12151950WA0068300677001100037262264
B1934063728605N12151957WA0068200675001100039261268
B1934073728606N12151964WA0068200672001100041263257
B1934083728606N12151971WA0068100670001100043262263
B1934093728607N12151978WA0068100667001100045262263
B1934103728608N12151987WA0068100664001100049266266
B1934113728609N12151995WA0068100661001100051269270
B1934123728611N12152004WA0068000658001100055271274
B1934133728612N12152012WA0068000655001100053273269
B1934143728613N12152020WA0068000652001100051272262
B1934153728615N12152028WA0068100649001100050274267
B1934163728615N12152034WA0068400648001100045272266
B1934173728615N12152041WA0068500646001100042271262
B1934183728616N12152047WA0068500644001100041272272
B1934193728618N12152052WA0068400642001100043274278
B1934203728621N12152056WA0068300640001100040279273
B1934213728622N12152062WA0068200639001100040280285
B1934223728623N12152067WA0068200639001100037281283
B1934233728624N12152072WA0068200639001100033282276
B1934243728625N12152076WA0068100638001100029282277
B1934253728628N12152077WA0068000639001100028283258
B1934263728629N12152078WA0067800640001100028285275
B1934273728631N12152079WA0067800643001100028289286
B1934283728633N12152081WA0068000645001100027293299
B1934293728635N12152084WA0068000647001100027303310
B1934303728639N12152084WA0067900650001100024321306
B1934313728642N12152085WA0067800652001100027329296
B1934323728646N12152087WA0067600652001100029326311
B1934333728650N12152089WA0067600653001100030327293
B1934343728654N12152092WA0067500654001100029329291
B1934353728658N12152094WA0067400656001100027330287
B1934363728661N12152096WA0067300656001100025323300
B1934373728664N12152099WA0067200656001100026312295
B1934383728667N12152103WA0066900654001100029310297
B1934393728670N12152107WA0066900654001100030314303
B1934403728673N12152111WA0066900653001100029313296
B1934413728676N12152114WA0066800654001100027318306
B1934423728679N12152117WA0066900654001100025320293
B1934433728682N12152120WA0066900655001100027316297
B1934443728685N12152123WA0066700654001100025314294
B1934453728688N12152126WA0066500653001100023318300
B1934463728691N12152129WA0066300652001100025323287
B1934473728694N12152132WA0066100650001100028319278
B1934483728697N12152136WA0066000650001100029315282
B1934493728700N12152140WA0065900649001100029306276
B1934503728702N12152144WA0065800649001100026293273
B1934513728702N12152149WA0065700648001100024277266
B1934523728702N12152154WA0065600647001100023262256
B1934533728701N12152158WA0065400646001100023253241
B1934543728699N12152162WA0065300645001100025241231
B1934553728696N12152166WA0065100644001100027231224
B1934563728693N12152168WA0065000642001100026207218
B1934573728689N12152169WA0065000641001100024190193
B1934583728685N12152169WA0065000640001100023179182
B1934593728682N12152168WA0064900639001100022164174
B1935003728679N12152166WA0064700638001100023151165
B1935013728675N12152164WA0064500636001100028152161
B1935023728671N12152162WA0064400635001100031159175
B1935033728666N12152160WA0064400635001100031164183
B1935043728662N12152159WA0064600635001100028174186
B1935053728658N12152161WA0064600634001100026190191
B1935063728654N12152163WA0064600633001100024206199
B1935073728652N12152166WA0064300632001100024220214
B1935083728650N12152170WA0064200631001100027229223
B1935093728647N12152175WA0064000629001100029229227
B1935103728644N12152179WA0063900628001100028231229
B1935113728642N12152184WA0063700628001100027235229
B1935123728640N12152188WA0063700627001100026237228
B1935133728638N12152192WA0063700627001100025236211
B1935143728635N12152196WA0063800627001100024230221
B1935153728633N12152199WA0063700627001100020219209
B1935163728631N12152200WA0063600627001100017208216
B1935173728628N12152202WA0063400626001100021209219
B1935183728626N12152204WA0063400625001100024218225
B1935193728623N12152208WA0063400624001100026221214
B1935203728620N12152211WA0063400623001100024226229
B1935213728618N12152214WA0063400624001100019233219
B1935223728617N12152216WA0063300623001100019233220
B1935233728615N12152220WA0063100622001100024225218
B1935243728611N12152223WA0063000621001100028217213
B1935253728608N12152226WA0063000620001100026214220
B1935263728605N12152229WA0063000621001100022212216
B1935273728602N12152231WA0063000621001100020210220
B1935283728599N12152233WA0062900621001100022215216
B1935293728596N12152236WA0062900620001100025218214
B1935303728593N12152239WA0062900621001100026218219
B1935313728590N12152242WA0063000621001100025218222
B1935323728587N12152245WA0063100622001100023222222
B1935333728584N12152248WA0063200623001100023224216
B1935343728582N12152251WA0063300624001100022221198
B1935353728579N12152253WA0063400625001100024210191
B1935363728576N12152255WA0063400625001100024197173
B1935373728572N12152256WA0063300626001100022184173
B1935383728569N12152256WA0063200625001100022173158
B1935393728566N12152255WA0063100624001100023162137
B1935403728562N12152253WA0062900624001100026151134
B1935413728559N12152250WA0062700623001100029144129
B1935423728556N12152245WA0062700622001100030130116
B1935433728554N12152240WA0062600622001100030121113
B1935443728553N12152234WA0062500621001100028109110
B1935453728552N12152229WA0062300620001100028105106
B1935463728552N12152223WA0062200618001100029100103
B1935473728553N12152216WA0062000617001100031090099
B1935483728555N12152209WA0062000615001100033075089
B1935493728558N12152202WA0061800614001100033065076
B1935503728561N12152197WA0061600611001100034057064
B1935513728565N12152192WA0061500610001100033052057
B1935523728570N12152189WA0061300608001100034025051
B1935533728576N12152189WA0061200607001100033005022
B1935543728581N12152189WA0061200605001100030354001
B1935553728585N12152191WA0061100604001100030338347
B1935563728589N12152195WA0061000603001100030323330
B1935573728592N12152199WA0061000603001100029312312
B1935583728595N12152203WA0061100603001100026306296
B1935593728597N12152207WA0061200604001100022295294
B1936003728598N12152211WA0061200604001100020292287
B1936013728599N12152214WA0061200604001100023299296
B1936023728602N12152218WA0061100603001100027306286
B1936033728604N12152223WA0061100603001100031307291
B1936043728607N12152228WA0061100603001100032303287
B1936053728609N12152234WA0061000603001100034295279
B1936063728612N12152240WA0061000602001100035291286
B1936073728614N12152246WA0061000602001100035294297
B1936083728616N12152252WA0061000602001100034299294
B1936093728619N12152257WA0060900602001100032303294
B1936103728622N12152262WA0060900602001100030304294
B1936113728624N12152267WA0060800602001100031304292
B1936123728627N12152272WA0060700601001100033304294
B1936133728630N12152277WA0060500600001100036307290
B1936143728634N12152283WA0060400599001100036305288
B1936153728637N12152289WA0060200598001100036301281
B1936163728639N12152295WA0060100597001100035297288
B1936173728642N12152301WA0060000596001100036298292
B1936183728644N12152307WA0059800595001100036300284
B1936193728647N12152313WA0059700593001100037298277
B1936203728649N12152319WA0059700592001100037293275
B1936213728651N12152326WA0059700592001100036289279
B1936223728653N12152332WA0059600591001100033289285
B1936233728655N12152337WA0059600591001100031290269
B1936243728656N12152343WA0059500590001100032289277
B1936253728658N12152349WA0059400589001100034289281
B1936263728660N12152355WA0059200588001100035289280
B1936273728662N12152361WA0059100586001100035288278
B1936283728663N12152368WA0059000585001100034285274
B1936293728664N12152374WA0058900584001100032286277
B1936303728666N12152379WA0058800583001100031289282
B1936313728668N12152385WA0058600582001100032292280
B1936323728670N12152391WA0058500580001100035294273
B1936333728672N12152397WA0058300579001100038294273
B1936343728675N12152404WA0058300578001100038294278
B1936353728677N12152410WA0058400577001100037297293
B1936363728680N12152416WA0058500577001100035303286
B1936373728683N12152421WA0058400578001100033309289
B1936383728686N12152425WA0058500577001100033308281
B1936393728689N12152430WA0058400576001100035306263
B1936403728693N12152436WA0058400576001100036308285
B1936413728696N12152441WA0058400575001100036307278
B1936423728699N12152446WA0058400575001100032305273
B1936433728702N12152451WA0058400574001100029301277
B1936443728704N12152455WA0058300574001100029299275
B1936453728706N12152460WA0058200573001100031299271
B1936463728708N12152465WA0058000572001100033296261
B1936473728710N12152471WA0058000571001100035295271
B1936483728713N12152477WA0057900570001100034294277
B1936493728715N12152483WA0057900569001100035295275
B1936503728717N12152489WA0057800569001100036298272
B1936513728720N12152495WA0057800568001100037300280
B1936523728723N12152501WA0057700568001100036300270
B1936533728725N12152507WA0057800568001100034298265
B1936543728727N12152512WA0057800568001100030293268
B1936553728728N12152517WA0057800568001100026283264
B1936563728729N12152521WA0057700568001100024278266
B1936573728730N12152526WA0057600567001100026284274
B1936583728731N12152531WA0057500567001100028293278
B1936593728733N12152535WA0057400566001100029300279
B1937003728735N12152540WA0057200565001100030301271
B1937013728738N12152545WA0057000563001100033298270
B1937023728740N12152551WA0056900562001100036296287
B1937033728742N12152557WA0056900561001100037298293
B1937043728745N12152563WA0056800560001100038304286
B1937053728748N12152569WA0056900560001100035306280
B1937063728751N12152574WA0057000561001100032303262
B1937073728754N12152579WA0057200563001100030296270
B1937083728755N12152584WA0057200563001100026289272
B1937093728756N12152588WA0057200563001100022283259
B1937103728756N12152592WA0057200562001100022278264
B1937113728757N12152596WA0057000562001100026273269
B1937123728757N12152601WA0056900561001100028275273
B1937133728757N12152606WA0057000561001100026276274
B1937143728758N12152610WA0057000561001100022283267
B1937153728759N12152614WA0056900561001100024287273
B1937163728760N12152619WA0056800560001100026285268
B1937173728761N12152624WA0056800559001100029284267
B1937183728762N12152629WA0056700558001100029281250
B1937193728762N12152634WA0056700558001100027276245
B1937203728762N12152639WA0056700557001100025268243
B1937213728761N12152643WA0056800557001100024258253
B1937223728760N12152647WA0057000557001100021255247
B1937233728759N12152651WA0057000559001100020252256
B1937243728759N12152654WA0057100560001100019260269
B1937253728758N12152658WA0057200560001100022267279
B1937263728759N12152663WA0057300561001100026278300
B1937273728760N12152668WA0057200561001100029288315
B1937283728762N12152673WA0057300561001100028300331
B1937293728765N12152675WA0057300561001100027335340
B1937303728770N12152675WA0057300562001100029358010
B1937313728775N12152672WA0057300562001100031025029
B1937323728778N12152666WA0057300563001100031047049
B1937333728778N12152659WA0057300563001100030085072
B1937343728776N12152653WA0057500564001100029109104
B1937353728774N12152648WA0057500564001100026118127
B1937363728771N12152645WA0057700565001100022153135
B1937373728767N12152644WA0057800565001100022165164
B1937383728764N12152644WA0058000566001100021182174
B1937393728761N12152644WA0058000568001100019189192
B1937403728758N12152645WA0058200569001100021197201
B1937413728755N12152647WA0058300570001100023208212
B1937423728752N12152649WA0058500571001100026220227
B1937433728749N12152653WA0058600572001100026232236
B1937443728747N12152657WA0058700573001100025246248
B1937453728747N12152662WA0058700574001100024264260
B1937463728748N12152667WA0058700574001100025270272
B1937473728750N12152671WA0058600574001100024290276
B1937483728755N12152673WA0058600575001100027331292
B1937493728760N12152674WA0058600576001100031348331
B1937503728765N12152675WA0058700577001100029359350
B1937513728769N12152673WA0058800577001100029018001
B1937523728773N12152669WA0058800577001100032033022
B1937533728777N12152665WA0058800578001100033037038
B1937543728779N12152660WA0058800578001100030052042
B1937553728777N12152653WA0058800578001100028089059
B1937563728775N12152646WA0058700578001100032109099
B1937573728772N12152642WA0059000578001100026127118
B1937583728767N12152640WA0059200579001100023164136
B1937593728763N12152639WA0059400579001100023182172
B1938003728759N12152641WA0059500581001100025193188
B1938013728756N12152642WA0059600584001100022200203
B1938023728753N12152644WA0059600586001100018208215
B1938033728750N12152646WA0059500586001100020217219
B1938043728749N12152650WA0059400586001100025242225
B1938053728748N12152655WA0059100585001100027266246
B1938063728749N12152660WA0059400586001100030277266
B1938073728750N12152666WA0059500586001100030281280
B1938083728751N12152671WA0059700588001100026291282
B1938093728753N12152675WA0059600588001100025303294
B1938103728756N12152679WA0059600588001100024310305
B1938113728760N12152680WA0059400587001100027343312
B1938123728765N12152680WA0059400587001100032007344
B1938133728770N12152677WA0059400587001100035037010
B1938143728773N12152672WA0059500588001100034041040
B1938153728775N12152667WA0059600589001100029057044
B1938163728776N12152662WA0059700589001100026068067
B1938173728777N12152656WA0059800589001100027078084
B1938183728777N12152651WA0059700589001100031087092
B1938193728776N12152643WA0059700590001100035096111
B1938203728774N12152636WA0060100591001100035100116
B1938213728772N12152630WA0060200591001100030111126
B1938223728769N12152626WA0060200590001100026130136
B1938233728766N12152624WA0060100591001100022143151
B1938243728762N12152626WA0060100591001100018183165
B1938253728759N12152631WA0060100591001100024227197
B1938263728757N12152636WA0060000591001100024241233
B1938273728757N12152642WA0060100593001100026277245
B1938283728759N12152647WA0060200593001100026297275
B1938293728763N12152650WA0060200594001100027335293
B1938303728768N12152650WA0060300595001100032001329
B1938313728773N12152649WA0060300595001100034008358
B1938323728778N12152647WA0060500596001100035019006
B1938333728783N12152644WA0060600596001100037027018
B1938343728787N12152640WA0060800597001100035039027
B1938353728789N12152634WA0061000598001100031053040
B1938363728788N12152627WA0061000599001100026085057
B1938373728785N12152622WA0061200600001100026108094
B1938383728783N12152618WA0061400601001100023122118
B1938393728780N12152615WA0061400602001100020138134
B1938403728777N12152615WA0061300603001100017164151
B1938413728772N12152619WA0061300603001100023215175
B1938423728768N12152623WA0061400604001100028222215
B1938433728766N12152628WA0061400604001100025241221
B1938443728765N12152633WA0061400605001100025255237
B1938453728766N12152638WA0061500607001100024279249
B1938463728769N12152642WA0061500607001100026313270
B1938473728773N12152646WA0061600608001100027323302
B1938483728779N12152646WA0061700609001100034355314
B1938493728784N12152646WA0061800610001100034005349
B1938503728789N12152644WA0062000610001100034017001
B1938513728793N12152641WA0062000611001100031031014
B1938523728796N12152636WA0062000612001100031045031
B1938533728799N12152630WA0062000613001100034059047
B1938543728800N12152624WA0062000613001100035068063
B1938553728800N12152616WA0062100614001100035093073
B1938563728798N12152610WA0062100613001100030105100
B1938573728794N12152608WA0062200613001100019137114
B1938583728791N12152608WA0062300613001100014179150
B1938593728786N12152612WA0062500615001100023209188
B1939003728784N12152616WA0062600616001100022235210
B1939013728783N12152621WA0062600617001100021253231
B1939023728784N12152626WA0062600617001100025276246
B1939033728785N12152632WA0062600618001100027291267
B1939043728786N12152637WA0062600618001100028302281
B1939053728790N12152641WA0062500618001100029325291
B1939063728795N12152642WA0062500619001100031346315
B1939073728799N12152641WA0062700619001100027010337
B1939083728804N12152636WA0062800620001100031042004
B1939093728806N12152630WA0062800620001100030064044
B1939103728806N12152624WA0062900620001100031087070
B1939113728804N12152617WA0063000621001100034111095
B1939123728801N12152612WA0063100621001100031121120
B1939133728798N12152608WA0063200621001100027133131
B1939143728794N12152607WA0063400622001100022166144
B1939153728790N12152609WA0063500623001100024203175
B1939163728787N12152611WA0063500624001100021223206
B1939173728785N12152615WA0063400624001100021231222
B1939183728784N12152619WA0063300624001100024248228
B1939193728784N12152624WA0063300624001100027265242
B1939203728787N12152631WA0063200624001100033295257
B1939213728790N12152636WA0063200624001100036319286
B1939223728796N12152639WA0063200625001100040346310
B1939233728802N12152640WA0063300625001100037354339
B1939243728808N12152637WA0063400625001100035020348
B1939253728812N12152634WA0063600626001100033031017
B1939263728815N12152629WA0063500626001100031045030
B1939273728816N12152623WA0063500626001100029073047
B1939283728816N12152617WA0063300626001100031083081
B1939293728815N12152610WA0063300626001100030097092
B1939303728812N12152605WA0063200626001100030112108
B1939313728808N12152601WA0063300626001100027142123
B1939323728802N12152600WA0063400627001100029173154
B1939333728797N12152600WA0063600629001100028181181
B1939343728794N12152601WA0063700630001100023185186
B1939353728790N12152601WA0063700630001100021190193
B1939363728787N12152602WA0063600631001100022192205
B1939373728783N12152604WA0063500630001100026199214
B1939383728779N12152607WA0063400630001100029210232
B1939393728775N12152610WA0063400630001100030218238
B1939403728772N12152615WA0063500630001100027231243
B1939413728771N12152620WA0063500630001100026250251
B1939423728774N12152627WA0063400630001100031290266
B1939433728776N12152633WA0063400631001100031301296
B1939443728781N12152637WA0063400631001100032325306
B1939453728787N12152637WA0063400631001100039356325
B1939463728793N12152636WA0063400630001100038006357
B1939473728799N12152635WA0063500630001100037013007
B1939483728804N12152633WA0063500629001100036019015
B1939493728807N12152629WA0063400630001100033035022
B1939503728810N12152623WA0063300629001100034054040
B1939513728812N12152617WA0063200629001100033060062
B1939523728811N12152610WA0063300628001100031091069
B1939533728810N12152604WA0063400627001100030104103
B1939543728808N12152600WA0063500626001100023117116
B1939553728803N12152599WA0063500626001100022162132
B1939563728799N12152600WA0063500626001100021198171
B1939573728796N12152602WA0063300626001100019206201
B1939583728793N12152607WA0063200625001100029237207
B1939593728791N12152612WA0063000624001100031244234
B1940003728790N12152618WA0063100624001100031261240
B1940013728790N12152625WA0063100624001100031280255
B1940023728793N12152630WA0063100624001100030307272
B1940033728797N12152634WA0063000624001100028317298
B1940043728802N12152635WA0062900623001100033344307
B1940053728808N12152636WA0062900623001100036357337
B1940063728813N12152636WA0062800623001100035006353
B1940073728818N12152632WA0062700622001100036035004
B1940083728822N12152627WA0062700622001100037045038
B1940093728824N12152621WA0062700621001100033055049
B1940103728825N12152615WA0062800622001100031066066
B1940113728826N12152610WA0062800622001100028072077
B1940123728827N12152605WA0062800622001100027073085
B1940133728828N12152599WA0062700622001100030076088
B1940143728829N12152593WA0062700621001100033081099
B1940153728829N12152587WA0062600621001100035088112
B1940163728829N12152581WA0062700620001100032094136
B1940173728826N12152577WA0062700619001100024117136
B1940183728824N12152574WA0062500618001100021131153
B1940193728820N12152576WA0062500617001100018185166
B1940203728816N12152578WA0062700617001100023201196
B1940213728812N12152581WA0062800619001100021212212
B1940223728810N12152584WA0062700619001100016215212
B1940233728808N12152586WA0062500618001100018215221
B1940243728806N12152589WA0062300616001100024227230
B1940253728803N12152593WA0062100615001100027233246
B1940263728801N12152599WA0062100614001100031241259
B1940273728799N12152605WA0062100614001100030251267
B1940283728800N12152612WA0062100614001100031283278
B1940293728802N12152618WA0062000614001100031295293
B1940303728805N12152623WA0061900613001100032306304
B1940313728809N12152628WA0061800613001100031316315
B1940323728815N12152629WA0061600612001100035348325
B1940333728821N12152628WA0061500611001100037008355
B1940343728826N12152625WA0061500611001100038030016
B1940353728831N12152621WA0061600611001100037032038
B1940363728834N12152616WA0061600610001100031045040
B1940373728836N12152611WA0061600610001100028057054
B1940383728836N12152606WA0061400609001100027070069
B1940393728836N12152600WA0061400608001100030082087
B1940403728836N12152594WA0061400607001100033092102
B1940413728835N12152587WA0061500606001100032098112
B1940423728834N12152582WA0061500606001100029102114
B1940433728832N12152577WA0061500607001100027109125
B1940443728831N12152572WA0061600607001100027110127
B1940453728829N12152568WA0061500607001100028114137
B1940463728827N12152563WA0061400607001100027123156
B1940473728824N12152560WA0061400606001100026133159
B1940483728821N12152558WA0061300606001100022149169
B1940493728817N12152558WA0061200606001100020167178
B1940503728814N12152559WA0061100605001100019188191
B1940513728811N12152562WA0061000604001100021209204
B1940523728808N12152567WA0060900603001100023229216
B1940533728806N12152572WA0060700602001100028236228
B1940543728805N12152578WA0060600601001100031255235
B1940553728804N12152585WA0060600601001100030260246
B1940563728803N12152590WA0060500601001100025255249
B1940573728802N12152595WA0060400600001100024247251
B1940583728801N12152599WA0060200599001100026249241
B1940593728799N12152604WA0060000597001100030250244
B1941003728798N12152610WA0060100596001100031252245
B1941013728796N12152616WA0060000595001100031253263
B1941023728795N12152621WA0060100595001100028259254
B1941033728795N12152626WA0060100595001100025268252
B1941043728795N12152632WA0060000594001100028268243
B1941053728794N12152637WA0059800593001100031263232
B1941063728793N12152643WA0059700591001100034253227
B1941073728791N12152649WA0059800591001100031248212
B1941083728789N12152653WA0059800590001100027237213
B1941093728786N12152656WA0059700589001100026219207
B1941103728782N12152658WA0059700589001100027203203
B1941113728778N12152660WA0059800589001100026200184
B1941123728775N12152661WA0059900590001100023199192
B1941133728772N12152662WA0060000591001100021195186
B1941143728768N12152663WA0060000592001100023191183
B1941153728765N12152664WA0060000591001100025191171
B1941163728761N12152665WA0059900591001100025188161
B1941173728757N12152665WA0059700591001100024178155
B1941183728754N12152665WA0059500590001100023167151
B1941193728751N12152661WA0059300589001100029131143
B1941203728748N12152656WA0059100588001100028121122
B1941213728748N12152650WA0059000587001100027092113
B1941223728749N12152645WA0058900586001100028077093
B1941233728751N12152640WA0058700584001100030064081
B1941243728754N12152635WA0058600582001100031050067
B1941253728758N12152631WA0058500581001100032039052
B1941263728762N12152628WA0058300580001100032027040
B1941273728767N12152626WA0058200578001100033016027
B1941283728772N12152625WA0058100577001100035006015
B1941293728778N12152625WA0058000575001100037357003
B1941303728784N12152626WA0057900574001100037351352
B1941313728789N12152628WA0057900572001100037344344
B1941323728795N12152632WA0058000572001100038335336
B1941333728800N12152636WA0058100573001100037328326
B1941343728804N12152640WA0058100572001100033320318
B1941353728806N12152644WA0058100572001100028304310
B1941363728808N12152649WA0057900571001100026293292
B1941373728808N12152654WA0057800570001100027284275
B1941383728808N12152660WA0057700569001100030274262
B1941393728807N12152666WA0057700569001100030264253
B1941403728805N12152672WA0057800569001100031249244
B1941413728802N12152677WA0057800568001100028238230
B1941423728799N12152681WA0057700567001100027232226
B1941433728796N12152685WA0057700565001100029228206
B1941443728793N12152688WA0057500564001100027219200
B1941453728789N12152691WA0057400563001100024209198
B1941463728786N12152692WA0057200562001100022196189
B1941473728782N12152692WA0057100560001100023178183
B1941483728778N12152691WA0056800558001100025169162
B1941493728774N12152689WA0056700557001100025158155
B1941503728771N12152687WA0056500556001100026144147
B1941513728768N12152683WA0056300555001100029134137
B1941523728766N12152678WA0056100553001100029119133
B1941533728765N12152672WA0055900552001100026108123
B1941543728764N12152667WA0055700551001100026100117
B1941553728764N12152662WA0055400549001100027102121
B1941563728763N12152657WA0055000547001100025109128
B1941573728760N12152652WA0054900545001100029124137
B1941583728757N12152648WA0054800543001100030133155
B1941593728753N12152644WA0054700542001100030139146
B1942003728748N12152641WA0054800541001100030146153
B1942013728744N12152638WA0054800540001100030145151
B1942023728740N12152634WA0054700540001100032145166
B1942033728736N12152631WA0054600538001100037147157
B1942043728730N12152627WA0054500537001100039150158
B1942053728725N12152624WA0054600536001100038153163
B1942063728720N12152621WA0054600536001100035158169
B1942073728715N12152619WA0054600536001100031164162
B1942083728711N12152618WA0054500535001100026167165
B1942093728707N12152617WA0054500535001100027162160
B1942103728704N12152615WA0054500535001100027157177
B1942113728700N12152614WA0054500534001100025156162
B1942123728697N12152612WA0054300534001100025161181
B1942133728693N12152611WA0054200533001100025164176
B1942143728689N12152610WA0054100532001100027167194
B1942153728685N12152609WA0054100531001100027172196
B1942163728681N12152608WA0054000530001100027183182
B1942173728677N12152609WA0054000530001100026195193
B1942183728673N12152611WA0054000529001100028198184
B1942193728669N12152613WA0054000529001100029193194
B1942203728665N12152614WA0054000530001100028188181
B1942213728661N12152614WA0054100530001100026189193
B1942223728658N12152615WA0054000530001100022189177
B1942233728654N12152616WA0053900529001100022185177
B1942243728651N12152616WA0053800528001100027181183
B1942253728646N12152616WA0053700527001100032174179
B1942263728641N12152615WA0053900526001100031174184
B1942273728637N12152614WA0054000527001100030173182
B1942283728633N12152614WA0054000527001100027176198
B1942293728629N12152614WA0054000528001100025185201
B1942303728625N12152615WA0053900527001100026196218
B1942313728621N12152617WA0053700526001100028206219
B1942323728617N12152620WA0053600524001100030213231
B1942333728614N12152624WA0053500523001100031223237
B1942343728611N12152628WA0053400522001100029232235
B1942353728609N12152632WA0053300521001100028242236
B1942363728607N12152637WA0053100519001100029246230
B1942373728605N12152642WA0052900517001100030240225
B1942383728602N12152647WA0052700515001100031230213
B1942393728599N12152651WA0052400514001100030226204
B1942403728596N12152655WA0052100512001100029217201
B1942413728591N12152657WA0051900511001100030209196
B1942423728585N12152658WA0051800509001100033195188
B1942433728580N12152659WA0051700508001100032188177
B1942443728575N12152659WA0051500505001100032180173
B1942453728570N12152659WA0051200503001100036174171
B1942463728564N12152658WA0051100501001100038172165
B1942473728558N12152657WA0051000500001100037171157
B1942483728553N12152655WA0050900499001100035167155
B1942493728548N12152654WA0050800498001100034162153
B1942503728543N12152651WA0050600496001100035160151
B1942513728538N12152649WA0050400494001100037158137
B1942523728533N12152646WA0050200491001100038154138
B1942533728528N12152643WA0050000489001100037150136
B1942543728524N12152639WA0049900487001100036147131
B1942553728519N12152635WA0049700485001100037144131
B1942563728514N12152630WA0049500484001100039141128
B1942573728510N12152625WA0049400482001100039137129
B1942583728505N12152620WA0049300480001100038136133
B1942593728502N12152616WA0049200479001100036135131
B1943003728498N12152611WA0049100477001100036132126
B1943013728494N12152605WA0049000476001100036129127
B1943023728491N12152600WA0048900474001100036129127
B1943033728487N12152595WA0048800473001100038136142
B1943043728482N12152590WA0048700472001100038142138
B1943053728478N12152586WA0048700471001100036141132
B1943063728474N12152581WA0048500470001100035134122
B1943073728471N12152576WA0048400469001100035127134
B1943083728468N12152571WA0048300467001100035127136
B1943093728464N12152566WA0048000465001100037135139
B1943103728460N12152561WA0047900464001100039137134
B1943113728455N12152555WA0047900463001100039133127
B1943123728452N12152550WA0047700462001100036128138
B1943133728449N12152545WA0047700462001100034127133
B1943143728445N12152539WA0047600461001100035127126
B1943153728442N12152534WA0047500460001100037127129
B1943163728439N12152528WA0047400458001100039123124
B1943173728435N12152522WA0047300458001100041124125
B1943183728432N12152515WA0047300457001100042124123
B1943193728428N12152508WA0047500457001100040123122
B1943203728425N12152502WA0047600458001100037121129
B1943213728423N12152497WA0047600458001100033121125
B1943223728420N12152492WA0047600458001100028122126
B1943233728418N12152487WA0047500457001100029123127
B1943243728416N12152482WA0047400457001100034121124
B1943253728413N12152476WA0047400456001100037118126
B1943263728410N12152470WA0047500456001100036120131
B1943273728408N12152465WA0047500456001100032124129
B1943283728405N12152461WA0047500457001100028129122
B1943293728402N12152456WA0047400456001100028125123
B1943303728400N12152452WA0047200455001100030120130
B1943313728398N12152446WA0047000454001100035120134
B1943323728395N12152440WA0046900453001100038123129
B1943333728392N12152434WA0046800453001100038125134
B1943343728388N12152429WA0046900452001100037129143
B1943353728384N12152424WA0046800452001100037134150
B1943363728380N12152419WA0046700451001100039140152
B1943373728375N12152414WA0046700450001100041145146
B1943383728370N12152410WA0046800450001100039148150
B1943393728365N12152407WA0046800450001100037153158
B1943403728360N12152404WA0046800450001100033155158
B1943413728356N12152402WA0046700450001100033156153
B1943423728352N12152399WA0046600449001100033153154
B1943433728347N12152396WA0046500448001100036150158
B1943443728342N12152393WA0046400448001100038152155
B1943453728337N12152390WA0046500448001100038156150
B1943463728332N12152388WA0046400448001100034161145
B1943473728327N12152386WA0046400448001100030163157
B1943483728323N12152385WA0046200448001100030163159
B1943493728319N12152383WA0046000447001100033164160
B1943503728313N12152381WA0045800446001100039164162
B1943513728307N12152379WA0045800445001100043165158
B1943523728301N12152377WA0045800444001100042164155
B1943533728295N12152375WA0045800444001100038160159
B1943543728290N12152372WA0045800444001100037155160
B1943553728285N12152369WA0045700444001100039155165
B1943563728279N12152366WA0045700443001100042158159
B1943573728274N12152363WA0045700443001100043158149
B1943583728268N12152360WA0045800443001100041155140
B1943593728263N12152357WA0045900443001100037154153
B1944003728259N12152355WA0046000443001100031152155
B1944013728256N12152352WA0046000443001100024153161
B1944023728253N12152351WA0046000443001100022156159
B1944033728250N12152349WA0045900443001100027158159
B1944043728246N12152347WA0045900443001100033154160
B1944053728241N12152344WA0046100444001100033152165
B1944063728237N12152341WA0046200444001100029150191
B1944073728234N12152339WA0046300445001100024161199
B1944083728231N12152339WA0046200445001100022181203
B1944093728228N12152342WA0046100445001100029217210
B1944103728225N12152346WA0046100446001100032225235
B1944113728222N12152351WA0046200446001100031233245
B1944123728222N12152357WA0046200447001100028267255
B1944133728224N12152362WA0046200448001100028290276
B1944143728227N12152367WA0046200448001100028305295
B1944153728232N12152369WA0046200448001100031334307
B1944163728237N12152370WA0046100448001100031342337
B1944173728242N12152369WA0046100449001100031003344
B1944183728247N12152366WA0045900448001100032026006
B1944193728251N12152361WA0045800448001100037047030
B1944203728255N12152355WA0045800447001100039054052
B1944213728258N12152348WA0045700447001100036062059
B1944223728257N12152340WA0045600446001100036092066
B1944233728256N12152333WA0045700445001100037098098
B1944243728254N12152327WA0045700445001100033108103
B1944253728251N12152322WA0045700444001100029117114
B1944263728248N12152319WA0045700444001100028129127
B1944273728243N12152316WA0045700444001100028145139
B1944283728238N12152314WA0045600444001100029152148
B1944293728234N12152312WA0045600444001100029149149
B1944303728230N12152309WA0045500443001100029144149
B1944313728226N12152305WA0045300442001100032139143
B1944323728223N12152301WA0045200441001100032138144
B1944333728219N12152297WA0045200440001100032142147
B1944343728214N12152294WA0045100439001100032147152
B1944353728210N12152291WA0045000439001100031149142
B1944363728206N12152288WA0045000439001100033145149
B1944373728202N12152284WA0045000439001100032140147
B1944383728199N12152280WA0045100439001100030134144
B1944393728195N12152276WA0045000439001100031136150
B1944403728192N12152272WA0045000439001100031140141
B1944413728188N12152268WA0045100439001100032140139
B1944423728184N12152264WA0045100439001100032136140
B1944433728181N12152260WA0045000439001100033132141
B1944443728178N12152255WA0045000438001100034130141
B1944453728174N12152250WA0044800438001100035132140
B1944463728170N12152246WA0044800437001100035135138
B1944473728167N12152241WA0044700436001100034133136
B1944483728163N12152236WA0044700435001100033130128
B1944493728160N12152232WA0044500434001100032131139
B1944503728157N12152227WA0044300433001100032133137
B1944513728153N12152223WA0044100432001100033138143
B1944523728149N12152219WA0044000431001100034139135
B1944533728145N12152215WA0043900430001100034139139
B1944543728142N12152211WA0043900429001100034137143
B1944553728138N12152206WA0043800428001100033139144
B1944563728134N12152203WA0043600427001100032141132
B1944573728130N12152199WA0043500426001100033140140
B1944583728126N12152194WA0043400425001100036136138
B1944593728122N12152189WA0043200424001100040135144
B1945003728117N12152184WA0043100422001100042136149
B1945013728112N12152179WA0042900420001100043141153
B1945023728107N12152174WA0042900419001100043144147
B1945033728102N12152169WA0042900418001100041143139
B1945043728097N12152165WA0042900418001100039140144
B1945053728093N12152160WA0042900417001100037136143
B1945063728089N12152155WA0042900417001100037138145
B1945073728085N12152151WA0042800416001100038140150
B1945083728081N12152146WA0042800415001100036140128
B1945093728077N12152142WA0042800415001100032139142
B1945103728073N12152138WA0042700414001100031140144
B1945113728069N12152135WA0042500412001100034143142
B1945123728065N12152131WA0042300411001100036146142
B1945133728060N12152128WA0042200409001100036148143
B1945143728056N12152124WA0042100408001100035147146
B1945153728051N12152121WA0042000407001100033148155
B1945163728047N12152118WA0041700405001100033150154
B1945173728043N12152115WA0041600404001100034154150
B1945183728038N12152112WA0041400402001100035153147
B1945193728033N12152109WA0041300400001100036148148
B1945203728029N12152105WA0041200399001100035145157
B1945213728025N12152102WA0041000397001100034148159
B1945223728020N12152099WA0040800396001100033153156
B1945233728016N12152097WA0040600393001100034155151
B1945243728011N12152094WA0040400392001100036151148
B1945253728006N12152090WA0040300390001100038147155
B1945263728001N12152086WA0040200388001100039147154
B1945273727996N12152083WA0040100387001100037151151
B1945283727992N12152079WA0040000387001100033150144
B1945293727988N12152076WA0039900385001100032149153
B1945303727984N12152073WA0039700383001100033148156
B1945313727979N12152070WA0039500381001100035150161
B1945323727974N12152067WA0039300379001100037154154
B1945333727969N12152064WA0039200377001100036154154
B1945343727965N12152061WA0039100376001100035152153
B1945353727960N12152058WA0039000375001100033151159
B1945363727956N12152055WA0038800373001100033153161
B1945373727951N12152053WA0038500371001100036155154
B1945383727946N12152050WA0038400369001100038154152
B1945393727941N12152046WA0038300371001100038151150
B1945403727936N12152043WA0038200370001100037149153
B1945413727932N12152039WA0038100369001100036149155
B1945423727927N12152036WA0038000368001100034150157
B1945433727923N12152033WA0037800366001100034150153
B1945443727918N12152030WA0037600365001100036151152
B1945453727913N12152027WA0037500363001100037152156
B1945463727908N12152023WA0037400362001100038151159
B1945473727903N12152020WA0037200361001100038151155
B1945483727898N12152017WA0037200360001100037150150
B1945493727894N12152013WA0037000358001100036147152
B1945503727889N12152009WA0036800357001100036145153
B1945513727885N12152006WA0036700355001100036145154
B1945523727880N12152002WA0036500354001100035147149
B1945533727876N12151998WA0036400352001100034146161
B1945543727872N12151994WA0036400351001100035142149
B1945553727868N12151990WA0036200350001100037139150
B1945563727864N12151985WA0036100348001100038138152
B1945573727859N12151981WA0036000347001100038138146
B1945583727855N12151976WA0035800346001100039139149
B1945593727850N12151971WA0035700344001100040142157
B1946003727845N12151967WA0035500341001100041147151
B1946013727840N12151963WA0035500341001100040150146
B1946023727834N12151959WA0035400339001100039150114
B1946033727830N12151956WA0035400339001100036145135
B1946043727826N12151951WA0035200338001100035139146
B1946053727822N12151947WA0035000336001100034135153
B1946063727818N12151943WA0034800335001100034138155
B1946073727814N12151939WA0034700333001100034143157
B1946083727810N12151935WA0034700332001100032147162
B1946093727806N12151932WA0034500332001100029151164
B1946103727803N12151930WA0034500331001100028155167
B1946113727799N12151928WA0034300329001100029157160
B1946123727794N12151925WA0034200327001100032157167
B1946133727790N12151923WA0034000325001100034155166
B1946143727785N12151920WA0033800324001100034154164
B1946153727781N12151918WA0033800322001100034152155
B1946163727777N12151915WA0033700321001100032153161
B1946173727772N12151913WA0033600320001100030156156
B1946183727768N12151911WA0033400318001100030157154
B1946193727764N12151908WA0033300317001100034155146
B1946203727759N12151905WA0033300316001100035153143
B1946213727755N12151902WA0033400316001100034149125
B1946223727751N12151898WA0033500316001100031144129
B1946243727744N12151891WA0033300315001100030133134
B1946253727741N12151886WA0033200314001100033128127
B1946263727738N12151881WA0033200313001100037126134
B1946273727735N12151875WA0033200312001100036127125
B1946283727731N12151870WA0033300312001100033131135
B1946293727728N12151866WA0033200312001100029134120
B1946303727725N12151862WA0033200312001100028135135
B1946313727722N12151858WA0033100312001100029136130
B1946323727719N12151854WA0033100311001100031134129
B1946333727716N12151850WA0033000311001100032132132
B1946343727713N12151845WA0033100311001100031131120
B1946353727710N12151841WA0033100311001100031129131
B1946363727707N12151836WA0033000311001100034129128
B1946373727703N12151831WA0033000310001100037128128
B1946383727699N12151825WA0033100311001100039130131
B1946393727696N12151820WA0033100311001100037131109
B1946403727692N12151815WA0033100311001100033129124
B1946413727689N12151810WA0033200311001100032125122
B1946423727687N12151804WA0033100311001100034122124
B1946433727684N12151799WA0033200311001100036122115
B1946443727681N12151793WA0033400312001100033120107
B1946453727679N12151788WA0033400312001100029117124
B1946463727677N12151783WA0033500312001100026115123
B1946473727675N12151779WA0033400312001100029115125
B1946483727673N12151773WA0033300313001100033114112
B1946493727671N12151767WA0033200313001100038112113
B1946503727669N12151760WA0033400313001100038110121
B1946513727667N12151753WA0033500314001100036109103
B1946523727666N12151747WA0033700315001100033109114
B1946533727665N12151742WA0033700316001100027108112
B1946543727663N12151737WA0033800316001100028106101
B1946553727662N12151731WA0033700316001100032106096
B1946563727661N12151726WA0033800316001100032106106
B1946573727659N12151720WA0034000317001100030108132
B1946583727658N12151715WA0034100318001100026114135
B1946593727656N12151711WA0034100318001100025121135
B1947003727653N12151707WA0034200319001100030126137
B1947013727650N12151702WA0034200320001100032128142
B1947023727648N12151698WA0034200320001100030131132
B1947033727645N12151693WA0034200321001100030132156
B1947043727642N12151689WA0034300322001100032132145
B1947053727638N12151684WA0034300323001100033130151
B1947063727635N12151680WA0034500324001100032132138
B1947073727632N12151676WA0034700326001100029135155
B1947083727629N12151672WA0034700327001100026136160
B1947093727626N12151669WA0034700329001100028135157
B1947103727623N12151665WA0034800329001100031138179
B1947113727619N12151662WA0034800330001100030146183
B1947123727615N12151659WA0034800330001100027155194
B1947133727612N12151658WA0034800331001100024168193
B1947143727608N12151659WA0034700332001100022186199
B1947153727605N12151662WA0034800332001100025205212
B1947163727601N12151665WA0034900333001100025209228
B1947173727599N12151668WA0035100334001100023221242
B1947183727596N12151671WA0035000335001100022234255
B1947193727595N12151675WA0035000335001100021249267
B1947203727597N12151680WA0034900334001100024296281
B1947213727600N12151684WA0034900335001100024306314
B1947223727604N12151686WA0034900335001100025332318
B1947233727609N12151684WA0034900335001100026007336
B1947243727615N12151678WA0035000336001100035036000
B1947253727619N12151674WA0035100337001100033040023
B1947263727623N12151670WA0035100337001100031037022
B1947273727627N12151666WA0035000337001100029032018
B1947283727631N12151664WA0035000337001100030016012
B1947293727636N12151663WA0035100338001100028012359
B1947303727640N12151663WA0035300340001100026002355
B1947313727644N12151664WA0035400341001100024351345
B1947323727648N12151665WA0035500341001100022346335
B1947333727651N12151667WA0035500341001100022334331
B1947343727653N12151671WA0035600342001100022317320
B1947353727656N12151674WA0035700344001100022317310
B1947363727658N12151677WA0035800345001100021329306
B1947373727661N12151679WA0035800344001100023334305
B1947383727665N12151681WA0035800344001100023326299
B1947393727667N12151684WA0035700344001100025317290
B1947403727669N12151688WA0035600343001100024300282
B1947413727668N12151693WA0035600343001100023255268
B1947423727666N12151697WA0035600343001100022241240
B1947433727663N12151699WA0035500343001100018201229
B1947443727660N12151699WA0035400342001100019178204
B1947453727656N12151696WA0035400342001100025155188
B1947463727652N12151692WA0035300342001100030142163
B1947473727648N12151687WA0035300342001100033131146
B1947483727645N12151681WA0035200342001100035122132
B1947493727643N12151674WA0035200341001100036114125
B1947503727641N12151668WA0035200341001100034113129
B1947513727638N12151662WA0035200340001100034118136
B1947523727635N12151656WA0035100339001100034126150
B1947533727632N12151651WA0035000339001100033133158
B1947543727628N12151648WA0034900338001100031144167
B1947553727624N12151648WA0034900338001100028178179
B1947563727620N12151649WA0035000337001100027188203
B1947573727616N12151650WA0035200338001100025197208
B1947583727614N12151653WA0035300338001100019206217
B1947593727613N12151656WA0035300339001100016223224
B1948003727612N12151659WA0035300339001100016245242
B1948013727613N12151663WA0035200339001100018265262
B1948023727614N12151668WA0035200339001100021279280
B1948033727616N12151672WA0035200339001100022292293
B1948043727618N12151676WA0035200338001100025308299
B1948053727622N12151680WA0035200338001100026321315
B1948063727626N12151682WA0035300338001100027333322
B1948073727630N12151684WA0035200337001100026344333
B1948083727634N12151685WA0035200337001100026347332
B1948093727638N12151686WA0035200337001100029348331
B1948103727642N12151687WA0035200336001100031349317
B1948113727647N12151689WA0035200337001100031345318
B1948123727651N12151691WA0035100336001100028337313
B1948133727654N12151693WA0035100335001100025328304
B1948143727657N12151696WA0035000334001100024320299
B1948153727660N12151699WA0034900333001100025309291
B1948163727662N12151703WA0034700332001100027298280
B1948173727664N12151708WA0034700332001100027291275
B1948183727665N12151713WA0034600331001100026288266
B1948193727666N12151717WA0034500331001100023283267
B1948203727667N12151721WA0034400330001100021281263
B1948213727667N12151725WA0034200328001100022274258
B1948223727667N12151729WA0034000326001100026271258
B1948233727667N12151735WA0033900325001100028270256
B1948243727667N12151740WA0034000325001100027271258
B1948253727667N12151745WA0034100325001100026271260
B1948263727667N12151750WA0034200325001100022272266
B1948273727668N12151753WA0034300326001100021276263
B1948283727668N12151757WA0034300326001100021279272
B1948293727669N12151761WA0034300325001100020287276
B1948303727670N12151764WA0034200325001100021295268
B1948313727672N12151768WA0034200324001100023291257
B1948323727673N12151772WA0034100324001100024281255
B1948333727673N12151777WA0034000323001100025269255
B1948343727672N12151782WA0033900323001100026261257
B1948353727672N12151787WA0033900322001100026261256
B1948363727671N12151791WA0033800322001100026262243
B1948373727670N12151796WA0033800321001100025263245
B1948383727670N12151801WA0033800321001100024261249
B1948393727669N12151805WA0033800322001100022253256
B1948403727668N12151809WA0033800321001100022250256
B1948413727667N12151813WA0033700321001100022258274
B1948423727667N12151817WA0033600321001100023268268
B1948433727667N12151822WA0033600320001100025277266
B1948443727668N12151826WA0033500319001100027278264
B1948453727668N12151832WA0033500319001100027276264
B1948463727669N12151837WA0033400318001100027274263
B1948473727669N12151842WA0033400318001100028273263
B1948483727670N12151847WA0033300317001100029273263
B1948493727670N12151853WA0033300317001100030270258
B1948503727670N12151859WA0033300317001100030268264
B1948513727669N12151864WA0033400317001100029268274
B1948523727669N12151869WA0033400317001100028271278
B1948533727670N12151874WA0033500317001100027279279
B1948543727671N12151879WA0033500317001100026285284
B1948553727672N12151884WA0033500318001100026287272
B1948563727673N12151889WA0033500318001100025285258
B1948573727674N12151893WA0033600318001100025271242
B1948583727673N12151898WA0033500318001100026250227
B1948593727670N12151902WA0033600318001100027227213
B1949003727666N12151904WA0033500318001100027199192
B1949013727661N12151903WA0033400317001100031164174
B1949023727657N12151898WA0033300317001100035138148
B1949033727653N12151893WA0033200317001100034131124
B1949043727652N12151886WA0033000315001100031102118
B1949053727655N12151879WA0032900314001100032069091
B1949063727658N12151873WA0032700313001100037056055
B1949073727663N12151869WA0032500312001100036042042
B1949083727669N12151867WA0032300311001100037016026
B1949093727675N12151868WA0032300309001100034358000
B1949103727680N12151872WA0032300309001100035331342
B1949113727685N12151876WA0032300308001100033321318
B1949123727687N12151880WA0032400308001100028310310
B1949133727688N12151885WA0032400307001100024293299
B1949143727688N12151890WA0032500308001100023275285
B1949153727687N12151895WA0032600308001100024264266
B1949163727686N12151900WA0032500308001100025257255
B1949173727685N12151904WA0032600309001100025255248
B1949183727684N12151909WA0032500309001100023252248
B1949193727683N12151913WA0032600309001100022249248
B1949203727681N12151917WA0032600309001100022255253
B1949213727681N12151921WA0032500309001100024263261
B1949223727680N12151926WA0032500310001100024267256
B1949233727680N12151931WA0032600310001100023267260
B1949243727680N12151935WA0032700311001100020265251
B1949253727679N12151938WA0032800312001100019257236
B1949263727678N12151942WA0032800312001100019243231
B1949273727676N12151945WA0032700312001100022225215
B1949283727674N12151947WA0032700312001100021215202
B1949293727671N12151949WA0032700312001100020203193
B1949303727667N12151949WA0032600312001100020182185
B1949313727663N12151946WA0032500311001100025156174
B1949323727659N12151943WA0032400311001100031146156
B1949333727656N12151938WA0032400311001100031136144
B1949343727653N12151933WA0032400310001100032123133
B1949353727651N12151927WA0032200310001100033113121
B1949363727650N12151919WA0032100310001100034101113
B1949373727651N12151912WA0032000309001100036087100
B1949383727655N12151904WA0032100308001100040064086
B1949393727658N12151898WA0032100308001100038052058
B1949403727663N12151893WA0032100307001100035041046
B1949413727667N12151890WA0032000307001100032035032
B1949423727673N12151889WA0031800306001100034009025
B1949433727678N12151889WA0031700304001100035357357
B1949443727683N12151891WA0031600303001100033342344
B1949453727687N12151895WA0031600301001100031317328
B1949463727690N12151899WA0031500300001100028300304
B1949473727690N12151905WA0031500299001100026278289
B1949483727690N12151909WA0031500298001100022266271
B1949493727688N12151912WA0031500297001100019248255
B1949503727686N12151916WA0031500296001100021243246
B1949513727684N12151920WA0031400295001100025243240
B1949523727682N12151924WA0031400295001100025241247
B1949533727681N12151928WA0031400295001100022243248
B1949543727679N12151931WA0031300294001100019248250
B1949553727678N12151935WA0031100293001100021249247
B1949563727677N12151939WA0030900292001100024248250
B1949573727676N12151944WA0030800290001100029249254
B1949583727674N12151949WA0030800290001100030254265
B1949593727673N12151955WA0030900290001100030260238
B1950003727673N12151961WA0031100290001100030265274
B1950013727673N12151966WA0031200290001100026267238
B1950023727672N12151971WA0031200291001100022266263
B1950033727672N12151975WA0031200291001100024265262
B1950043727672N12151980WA0031200290001100028262268
B1950053727671N12151986WA0031400290001100029271282
B1950063727672N12151991WA0031500290001100027276295
B1950073727673N12151995WA0031700290001100025282279
B1950083727674N12151999WA0031600290001100020290277
B1950093727675N12152002WA0031500290001100019287266
B1950103727676N12152005WA0031200289001100020282250
B1950113727676N12152010WA0031100287001100025268236
B1950123727675N12152016WA0031100288001100028259230
B1950133727673N12152021WA0031200289001100025243212
B1950143727671N12152024WA0031300289001100022226209
B1950153727667N12152026WA0031400290001100021202194
B1950163727663N12152024WA0031500290001100024162178
B1950173727659N12152020WA0031500291001100028132153
B1950183727656N12152015WA0031500291001100031123127
B1950193727656N12152008WA0031400291001100033092118
B1950203727658N12152001WA0031400292001100036068088
B1950213727661N12151995WA0031500292001100035061060
B1950223727664N12151991WA0031500292001100030041052
B1950233727669N12151990WA0031500293001100028009029
B1950243727673N12151991WA0031500292001100024346352
B1950253727677N12151994WA0031500293001100026324328
B1950263727680N12151998WA0031500293001100026307304
B1950273727682N12152003WA0031500292001100026296290
B1950283727684N12152008WA0031500292001100028298285
B1950293727686N12152013WA0031400291001100029294276
B1950303727687N12152018WA0031400291001100029286271
B1950313727688N12152023WA0031300291001100027273254
B1950323727688N12152028WA0031200292001100023262247
B1950333727687N12152032WA0031000292001100021254245
B1950343727686N12152035WA0030900291001100022244234
B1950353727683N12152039WA0030700290001100026231216
B1950363727680N12152043WA0030700289001100025223213
B1950373727677N12152046WA0030800289001100024218218
B1950383727674N12152048WA0030900289001100022207225
B1950393727672N12152050WA0030900289001100018214239
B1950403727670N12152052WA0030900289001100019228239
B1950413727668N12152055WA0030800288001100021239254
B1950423727667N12152059WA0030800288001100022247261
B1950433727666N12152063WA0030700288001100022262282
B1950443727666N12152067WA0030600287001100022275276
B1950453727667N12152071WA0030500286001100023286270
B1950463727668N12152076WA0030300284001100025286271
B1950473727668N12152080WA0030200284001100025280253
B1950483727669N12152085WA0030300284001100026273250
B1950493727668N12152090WA0030200284001100025257233
B1950503727666N12152095WA0030300284001100026242220
B1950513727664N12152099WA0030400284001100026232216
B1950523727661N12152101WA0030400284001100025213207
B1950533727657N12152103WA0030400284001100024200192
B1950543727652N12152101WA0030400284001100025168188
B1950553727648N12152098WA0030200283001100027156164
B1950563727644N12152094WA0030100283001100030141155
B1950573727641N12152089WA0030000282001100034132142
B1950583727638N12152082WA0030000282001100036122132
B1950593727638N12152074WA0029800281001100037097122
B1951003727639N12152066WA0029800280001100039082098
B1951013727641N12152058WA0029800279001100038074083
B1951023727643N12152052WA0029600279001100036068075
B1951033727646N12152046WA0029500278001100035061068
B1951043727649N12152041WA0029300277001100038059060
B1951053727652N12152034WA0029200276001100042062064
B1951063727655N12152027WA0029200275001100043064078
B1951073727658N12152020WA0029300275001100040067078
B1951083727659N12152013WA0029400275001100037075091
B1951093727659N12152007WA0029300274001100036081101
B1951103727659N12152001WA0029400274001100035092101
B1951113727658N12151993WA0029400275001100039094095
B1951123727657N12151986WA0029500274001100037088088
B1951133727658N12151980WA0029400273001100034081112
B1951143727658N12151973WA0029300273001100035078109
B1951153727659N12151967WA0029200272001100037085114
B1951163727659N12151960WA0029300272001100039092120
B1951173727658N12151953WA0029400271001100037095120
B1951183727657N12151946WA0029600271001100033096123
B1951193727656N12151941WA0029600272001100029097119
B1951203727654N12151938WA0029500272001100026111117
B1951213727652N12151933WA0029300271001100029114125
B1951223727649N12151928WA0029200271001100034119120
B1951233727647N12151922WA0029200271001100034114113
B1951243727645N12151917WA0029200270001100031105107
B1951253727644N12151911WA0029200270001100030098107
B1951263727644N12151906WA0029100270001100030095106
B1951273727643N12151900WA0029000269001100031097101
B1951283727642N12151894WA0029000269001100033098111
B1951293727641N12151888WA0029000269001100034098100
B1951303727641N12151882WA0029000269001100034098107
B1951313727640N12151876WA0029100270001100032098116
B1951323727639N12151870WA0029100270001100029099106
B1951333727638N12151865WA0029000270001100029105127
B1951343727636N12151860WA0028900269001100031108121
B1951353727635N12151854WA0028800267001100031110136
B1951363727633N12151849WA0028600266001100029114144
B1951373727631N12151845WA0028400265001100029124160
B1951383727628N12151841WA0028300264001100031135163
B1951393727624N12151837WA0028100263001100032143175
B1951403727619N12151835WA0027900262001100031153186
B1951413727615N12151833WA0027900261001100028167195
B1951423727611N12151835WA0027700259001100028198209
B1951433727607N12151838WA0027500258001100029213230
B1951443727604N12151843WA0027400257001100028230240
B1951453727604N12151849WA0027300256001100026262248
B1951463727606N12151855WA0027100255001100026288266
B1951473727609N12151860WA0027000253001100027300283
B1951483727611N12151865WA0026700250001100029300288
B1951493727614N12151870WA0026600248001100031294282
B1951503727616N12151876WA0026500247001100032289274
B1951513727617N12151882WA0026600246001100030286264
B1951523727618N12151888WA0026700246001100027284264
B1951533727619N12151892WA0026800247001100024280264
B1951543727620N12151897WA0026900247001100023282272
B1951553727621N12151901WA0026800247001100023284278
B1951563727622N12151905WA0026800247001100023282276
B1951573727623N12151910WA0026700246001100025286280
B1951583727624N12151914WA0026600245001100027291286
B1951593727626N12151919WA0026500244001100029295279
B1952003727628N12151924WA0026500243001100028297268
B1952013727630N12151929WA0026500244001100026293264
B1952023727631N12151934WA0026400243001100024286245
B1952033727631N12151938WA0026400243001100023274238
B1952043727631N12151942WA0026300242001100023258232
B1952053727629N12151946WA0026200241001100025240220
B1952063727626N12151950WA0025900241001100025223213
B1952073727622N12151951WA0025800240001100024203210
B1952083727616N12151949WA0025700239001100030169196
B1952093727611N12151947WA0025700239001100030164179
B1952103727607N12151945WA0025500238001100028167180
B1952113727602N12151944WA0025300237001100030169173
B1952123727597N12151942WA0025200235001100033167175
B1952133727592N12151940WA0025100233001100037163171
B1952143727587N12151938WA0025000232001100036165170
B1952153727581N12151937WA0025000232001100034165159
B1952163727577N12151935WA0024900231001100030164172
B1952173727573N12151933WA0024900230001100029162162
B1952183727568N12151932WA0024800229001100029165191
B1952193727564N12151931WA0024700229001100029175206
B1952203727560N12151931WA0024600228001100029187221
B1952213727555N12151933WA0024500227001100030202230
B1952223727552N12151937WA0024300226001100028217239
B1952233727550N12151941WA0024100224001100027233246
B1952243727550N12151947WA0023900222001100026256251
B1952253727551N12151952WA0023700221001100027275263
B1952263727552N12151958WA0023600219001100028278267
B1952273727552N12151963WA0023400218001100027269252
B1952283727552N12151969WA0023300216001100027256239
B1952293727550N12151973WA0023200214001100027243227
B1952303727548N12151978WA0023000213001100028229215
B1952313727544N12151981WA0022900211001100026215203
B1952323727540N12151980WA0022700209001100027177197
B1952333727535N12151979WA0022600208001100029164174
B1952343727531N12151976WA0022500206001100028153169
B1952353727528N12151972WA0022400205001100027141168
B1952363727525N12151970WA0022300203001100027151170
B1952373727521N12151967WA0022100201001100028156183
B1952383727517N12151968WA0021800199001100028194190
B1952393727513N12151972WA0021700197001100033217217
B1952403727510N12151976WA0021600195001100028229232
B1952413727510N12151981WA0021600194001100025267237
B1952423727511N12151986WA0021500194001100023277253
B1952433727511N12151990WA0021400192001100023267256
B1952443727511N12151995WA0021200190001100024249248
B1952453727508N12151999WA0021000189001100027234236
B1952463727505N12152002WA0021000187001100027218224
B1952473727500N12152004WA0020800186001100025201213
B1952483727496N12152004WA0020700184001100024183203
B1952493727492N12152002WA0020500183001100025163191
B1952503727488N12151999WA0020400181001100028160188
B1952513727484N12151998WA0020200180001100027174186
B1952523727479N12151999WA0020100178001100027202185
B1952533727475N12152002WA0019900177001100027202210
B1952543727472N12152004WA0019900176001100024209208
B1952553727469N12152006WA0019700175001100023206213
B1952563727465N12152008WA0019400173001100026202212
B1952573727461N12152010WA0019200171001100028206210
B1952583727458N12152012WA0019200169001100026206214
B1952593727455N12152015WA0019200171001100024203229
B1953003727455N12152015WA0019200170001100007209234
B1953013727456N12152014WA0019200170001100000209224
B1953023727455N12152014WA0019200169001100000209195
B1953033727456N12152014WA0019200168001100000209181
B1953043727456N12152014WA0019200170001100000209181
B1953053727456N12152014WA0019200171001100000209193
B1953063727456N12152014WA0019200171001100000209197
B1953073727456N12152014WA0019200171001100000209206
B1953083727456N12152014WA0019200171001100000209204
B1953093727456N12152014WA0019200171001100000209210
B1953103727456N12152014WA0019300171001100000209214
B1953113727456N12152014WA0019200171001100000209214
B1953123727456N12152014WA0019200171001100000209216
B1953133727456N12152014WA0019200171001100000209219
B1953143727456N12152014WA0019200171001100000209218
B1953153727456N12152014WA0019200171001100000209223
B1953163727456N12152014WA0019200171001100000209223
B1953173727456N12152014WA0019200171001100000209223
B1953183727456N12152014WA0019200171001100000209223
B1953193727456N12152014WA0019200171001100000209222
B1953203727456N12152014WA0019300171001100000209225
B1953213727456N12152014WA0019300171001100000209203
B1953223727456N12152014WA0019200171001100000209211
B1953233727456N12152014WA0019200171001100000209215
B1953243727456N12152014WA0019200171001100000209213
B1953253727456N12152014WA0019300171001100000209218
B1953263727456N12152014WA0019200171001100000209217
B1953273727456N12152014WA0019200171001100000209220
B1953283727456N12152014WA0019300171001100000209222
B1953293727456N12152014WA0019200171001100000209222
B1953303727456N12152014WA0019300171001100000209223
B1953313727456N12152014WA0019300171001100000209222
B1953323727456N12152014WA0019200171001100000209215
B1953333727456N12152014WA0019200171001100000209224
Ga3XHVW7bvr8IgCKeechABQJeXCdSz/AkOKco5NyaPe8lkVsA5bhdWfEadwFtbCOW
G6jUbNb4M2V/XaE1aGCpkJZluU+vXGLerUP6sSAXFmHozuLqdhMLQ70r07ugvfJ3+
Gs6OtvxOkvxdkTOgosBAicwEi8ZdWathoEQTawEKgcZU=

