AXFH000
HFDTE021125
HFPLTPILOT:Scott O’Brien
HFGTYGLIDERTYPE:Ozone Swift 6
HFDTM100GPSDATUM:WGS84
HFRFWFIRMWAREVERSION:9.3
HFRHWHARDWAREVERSION:iPhone 15
HFFTYFRTYPE:Flyskyhy,9.3
HFGPS:Bluetooth vario
HFPRSVARIO:Bluetooth vario
HFCCLCOMPETITIONCLASS:Paraglider
HFTZNTIMEZONE:-8
HFSITSITE:Ed Levin 600ft,US
I053638FXA3941VXA4244GSP4547CCO4850HDT
C021125195127021125000100TASK
C0000000N00000000ETAKEOFF
C3731062N12153514W00000000000400000000360000STARTAREA 
C3726317N12149880W00000000000400000000360000FINISHAREA Big Dog Vineyards
C0000000N00000000ELANDING
E195157PEVBackground
B1951573727669N12151639WA0035200352001100002042104
B1951583727669N12151639WA0035200352001100001032170
B1951593727669N12151639WA0035200352001100000026186
B1952003727670N12151639WA0035300352001100000026198
B1952013727670N12151639WA0035200352001100000026193
B1952023727670N12151639WA0035200352001100000026183
B1952033727670N12151639WA0035200352001100000026179
B1952043727670N12151639WA0035200352001100000026181
B1952053727670N12151639WA0035200352001100000026180
B1952063727670N12151639WA0035200352001100000026166
B1952073727670N12151639WA0035200352001100000026164
B1952083727670N12151639WA0035200352001100000026165
B1952093727670N12151639WA0035200352001100000026165
B1952103727670N12151639WA0035300352001100000026074
B1952113727670N12151639WA0035200352001100000026099
B1952123727670N12151639WA0035200352001100000026048
B1952133727670N12151639WA0035200352001100000026043
B1952143727670N12151639WA0035200352001100000026052
B1952153727670N12151639WA0035200352001100000026075
B1952163727670N12151639WA0035200352001100000026061
B1952173727670N12151639WA0035200352001100000026065
B1952183727670N12151639WA0035200352001100000026065
B1952193727670N12151639WA0035200352001100000026015
B1952203727670N12151639WA0035100352001100000026184
B1952213727670N12151639WA0035100352001100000026173
B1952223727670N12151639WA0035000352001100000026008
B1952233727669N12151639WA0034900352001100005242237
B1952243727669N12151641WA0034700352001100008248288
B1952253727668N12151643WA0034600352001100012236245
B1952263727666N12151645WA0034500352001100016231239
B1952273727664N12151648WA0034800352001100020230247
B1952283727662N12151652WA0034800351001100020242265
B1952293727661N12151656WA0034600350001100021249293
B1952303727659N12151660WA0034500349001100022247302
B1952313727657N12151664WA0034300348001100024238306
B1952323727655N12151668WA0034200347001100025235316
B1952333727653N12151672WA0034300346001100026235328
B1952343727651N12151677WA0034100345001100027243336
B1952353727649N12151682WA0034100344001100027255339
B1952363727649N12151687WA0034100343001100026264343
B1952373727648N12151692WA0034000342001100022256347
B1952383727647N12151696WA0033800340001100022248348
B1952393727646N12151700WA0033500338001100024254349
B1952403727645N12151705WA0033100337001100027255354
B1952413727644N12151711WA0033000335001100029263355
B1952423727645N12151718WA0033100333001100029274355
B1952433727645N12151724WA0033100332001100026272356
B1952443727646N12151728WA0032900330001100022269356
B1952453727645N12151732WA0032800329001100021257356
B1952463727643N12151736WA0032700327001100022243357
B1952473727641N12151740WA0032700326001100024248358
B1952483727640N12151745WA0032900326001100024255358
B1952493727639N12151749WA0033000324001100024258358
B1952503727638N12151753WA0033300323001100022258359
B1952513727638N12151757WA0033500324001100018261359
B1952523727638N12151759WA0033600325001100015265359
B1952533727639N12151762WA0033600326001100018277359
B1952543727640N12151766WA0033700327001100022287359
B1952553727641N12151769WA0033800327001100021301359
B1952563727644N12151772WA0033800327001100021315359
B1952573727648N12151773WA0033900327001100022337359
B1952583727652N12151772WA0034000327001100026002009
B1952593727657N12151768WA0034200329001100026034012
B1953003727661N12151763WA0034300330001100030048016
B1953013727663N12151758WA0034300331001100032054016
B1953023727665N12151751WA0034200331001100033072018
B1953033727665N12151744WA0034100331001100031088017
B1953043727663N12151738WA0034100332001100030101016
B1953053727658N12151733WA0034000332001100029139014
B1953063727654N12151730WA0034200333001100028144012
B1953073727649N12151727WA0034400335001100027147349
B1953083727644N12151725WA0034800336001100025154351
B1953093727640N12151724WA0035100339001100025162353
B1953103727636N12151724WA0035200341001100020168354
B1953113727634N12151724WA0035300343001100018170355
B1953123727631N12151723WA0035300344001100017179356
B1953133727628N12151724WA0035100344001100018189357
B1953143727626N12151726WA0035000345001100018203358
B1953153727625N12151729WA0035100346001100017233359
B1953163727627N12151732WA0035000346001100009303358
B1953173727632N12151733WA0035200347001100023007359
B1953183727636N12151733WA0035300348001100023018002
B1953193727639N12151731WA0035300349001100022032003
B1953203727643N12151729WA0035300349001100024031013
B1953213727647N12151726WA0035400348001100031033019
B1953223727651N12151723WA0035600349001100031044020
B1953233727655N12151718WA0035700350001100034050025
B1953243727657N12151713WA0035900351001100032057028
B1953253727659N12151707WA0036000352001100030071024
B1953263727658N12151701WA0036000352001100027092026
B1953273727656N12151696WA0036000353001100026107024
B1953283727651N12151692WA0036200353001100028133338
B1953293727646N12151690WA0036200355001100026165345
B1953303727642N12151689WA0036300356001100026172348
B1953313727638N12151690WA0036400357001100023179353
B1953323727635N12151694WA0036500357001100021223355
B1953333727635N12151700WA0036600359001100019271357
B1953343727636N12151705WA0036700360001100017285357
B1953353727638N12151708WA0036700361001100017306002
B1953363727643N12151709WA0036800361001100021347011
B1953373727648N12151707WA0036900362001100026020015
B1953383727653N12151703WA0036900363001100031042020
B1953393727656N12151698WA0037000364001100035054020
B1953403727659N12151692WA0037100364001100036060022
B1953413727661N12151686WA0037200365001100031069023
B1953423727659N12151681WA0037200365001100028095021
B1953433727656N12151676WA0037300366001100025118342
B1953443727652N12151673WA0037400367001100022139347
B1953453727648N12151672WA0037500367001100021162350
B1953463727643N12151674WA0037600367001100024194353
B1953473727640N12151676WA0037800368001100022205355
B1953483727638N12151680WA0037900369001100017228357
B1953493727638N12151683WA0037800370001100013256359
B1953503727640N12151686WA0037700370001100014303000
B1953513727645N12151688WA0037800370001100022354010
B1953523727650N12151687WA0038000371001100024013016
B1953533727653N12151684WA0038100371001100025046019
B1953543727655N12151678WA0038100371001100030078021
B1953553727655N12151671WA0038200372001100030091023
B1953563727654N12151666WA0038300373001100027106020
B1953573727651N12151662WA0038400373001100023125344
B1953583727648N12151661WA0038400373001100017166348
B1953593727644N12151662WA0038500374001100021196351
B1954003727641N12151665WA0038600375001100020215353
B1954013727639N12151668WA0038600375001100021239356
B1954023727639N12151674WA0038600377001100021269357
B1954033727641N12151678WA0038700377001100020293358
B1954043727646N12151680WA0038900378001100025341358
B1954053727650N12151681WA0038900378001100026352006
B1954063727655N12151680WA0039000379001100027011013
B1954073727659N12151677WA0038900380001100029032021
B1954083727663N12151672WA0039000381001100032040020
B1954093727665N12151665WA0039000381001100034062021
B1954103727666N12151659WA0038900381001100033078021
B1954113727665N12151652WA0038800380001100032102020
B1954123727662N12151646WA0038700380001100032111019
B1954133727658N12151641WA0038600378001100031131017
B1954143727654N12151640WA0038700378001100024162347
B1954153727648N12151640WA0038800378001100027185351
B1954163727644N12151642WA0039000379001100025199354
B1954173727641N12151645WA0039100380001100020211356
B1954183727639N12151649WA0039100380001100017239357
B1954193727639N12151653WA0039100381001100016256358
B1954203727641N12151657WA0039000381001100018290359
B1954213727644N12151661WA0039000381001100019304357
B1954223727648N12151664WA0039000381001100022329007
B1954233727653N12151664WA0039000381001100025355013
B1954243727658N12151662WA0039100381001100026028014
B1954253727662N12151657WA0039100381001100031047015
B1954263727665N12151651WA0039300382001100033054013
B1954273727668N12151645WA0039300383001100031064011
B1954283727669N12151639WA0039100383001100034069012
B1954293727670N12151633WA0039000383001100032080012
B1954303727669N12151627WA0038900382001100029093010
B1954313727664N12151622WA0038800381001100029132010
B1954323727660N12151618WA0038600380001100033141009
B1954333727655N12151617WA0038400380001100033170352
B1954343727650N12151617WA0038600380001100032174354
B1954353727645N12151617WA0038700380001100031177355
B1954363727640N12151618WA0038900380001100029179356
B1954373727637N12151619WA0039000381001100024185357
B1954383727634N12151622WA0039100383001100020194357
B1954393727631N12151623WA0039100382001100021191358
B1954403727628N12151624WA0039000381001100023190358
B1954413727625N12151625WA0039100381001100026198358
B1954423727621N12151627WA0039100381001100025204358
B1954433727618N12151629WA0039100382001100021207359
B1954443727615N12151631WA0039100383001100018214359
B1954453727613N12151634WA0039100383001100019229359
B1954463727612N12151637WA0039000383001100019242359
B1954473727611N12151641WA0038800382001100023251359
B1954483727611N12151645WA0038800382001100020274359
B1954493727614N12151649WA0038700382001100021302357
B1954503727619N12151651WA0038800382001100023321353
B1954513727622N12151653WA0038800382001100020328350
B1954523727626N12151655WA0038800382001100018339348
B1954533727629N12151656WA0038600381001100019348002
B1954543727632N12151656WA0038500381001100018358013
B1954553727636N12151655WA0038400380001100024020031
B1954563727641N12151651WA0038400379001100028036021
B1954573727644N12151647WA0038500378001100028043025
B1954583727647N12151642WA0038500378001100028052022
B1954593727650N12151637WA0038400378001100026065018
B1955003727651N12151632WA0038300377001100028075022
B1955013727652N12151626WA0038100376001100029083021
B1955023727652N12151620WA0038100376001100032093019
B1955033727651N12151614WA0038200375001100031108017
B1955043727648N12151609WA0038400375001100023121017
B1955053727644N12151608WA0038600375001100017162345
B1955063727641N12151608WA0038800376001100016177349
B1955073727638N12151609WA0038800377001100019184351
B1955083727635N12151610WA0038700377001100018179352
B1955093727632N12151610WA0038600376001100019189354
B1955103727629N12151611WA0038500376001100020199355
B1955113727626N12151615WA0038400375001100024227357
B1955123727624N12151619WA0038300374001100024241357
B1955133727623N12151624WA0038300374001100021250358
B1955143727623N12151628WA0038300374001100017263359
B1955153727623N12151631WA0038100373001100016274359
B1955163727625N12151634WA0037800372001100016293358
B1955173727629N12151636WA0037700372001100017325358
B1955183727633N12151637WA0037500371001100023346004
B1955193727639N12151637WA0037500369001100028357011
B1955203727644N12151636WA0037500369001100029008014
B1955213727649N12151635WA0037500368001100029015008
B1955223727653N12151634WA0037400367001100030009001
B1955233727658N12151633WA0037300366001100031001358
B1955243727663N12151633WA0037200365001100032353348
B1955253727668N12151635WA0037200364001100031343337
B1955263727673N12151637WA0037100363001100030331325
B1955273727677N12151640WA0037100362001100028321315
B1955283727680N12151644WA0036900362001100026309320
B1955293727681N12151648WA0037000360001100024293322
B1955303727681N12151653WA0037100360001100021287331
B1955313727681N12151657WA0037200360001100020278337
B1955323727680N12151662WA0037300360001100019280342
B1955333727681N12151666WA0037500362001100019282347
B1955343727681N12151669WA0037700363001100018275347
B1955353727681N12151673WA0037900365001100014267349
B1955363727680N12151675WA0038000366001100010258352
B1955373727680N12151677WA0037800367001100011256353
B1955383727679N12151679WA0037600367001100012253353
B1955393727678N12151682WA0037400367001100017242354
B1955403727676N12151685WA0037300366001100020232354
B1955413727672N12151688WA0037100366001100024209354
B1955423727667N12151689WA0037000365001100028183355
B1955433727662N12151688WA0037000364001100031170355
B1955443727657N12151686WA0036900364001100031162356
B1955453727652N12151683WA0036900362001100029153002
B1955463727648N12151680WA0036700361001100030146002
B1955473727644N12151676WA0036500359001100034140001
B1955483727640N12151672WA0036500358001100038138001
B1955493727636N12151666WA0036700357001100042134001
B1955503727631N12151660WA0037100356001100041134000
B1955513727628N12151654WA0037100356001100036127000
B1955523727626N12151649WA0037100355001100031120000
B1955533727624N12151643WA0036800355001100031117000
B1955543727622N12151637WA0036500354001100033113000
B1955553727621N12151630WA0036300354001100034103000
B1955563727621N12151623WA0036400353001100033093000
B1955573727623N12151616WA0036500353001100031083000
B1955583727626N12151611WA0036500352001100031069000
B1955593727631N12151606WA0036400352001100031058000
B1956003727635N12151601WA0036200352001100030062000
B1956013727637N12151596WA0036100351001100031067000
B1956023727639N12151589WA0036200351001100032075000
B1956033727639N12151583WA0036100351001100031082000
B1956043727638N12151577WA0035900349001100027098359
B1956053727637N12151574WA0035800348001100020092359
B1956063727636N12151574WA0035700347001100004092359
B1956073727634N12151578WA0035800346001100009240359
B1956083727632N12151582WA0035600345001100016248359
B1956093727630N12151586WA0035500344001100020259359
B1956103727628N12151591WA0035300343001100024262359
B1956113727627N12151597WA0035200342001100025264359
B1956123727626N12151603WA0035200341001100024268359
B1956133727626N12151608WA0035100340001100021273359
B1956143727626N12151612WA0035000339001100021278359
B1956153727626N12151616WA0034900338001100024285359
B1956163727627N12151622WA0034800337001100027288359
B1956173727629N12151627WA0034900336001100027291359
B1956183727630N12151632WA0035000335001100026296359
B1956193727632N12151635WA0035000335001100022304359
B1956203727634N12151638WA0035000335001100021322359
B1956213727637N12151640WA0034900334001100021318359
B1956223727639N12151643WA0034900334001100022317359
B1956233727642N12151646WA0034900334001100023324359
B1956243727645N12151648WA0035000335001100024331359
B1956253727649N12151650WA0035100335001100023342357
B1956263727652N12151651WA0035000336001100022344353
B1956273727655N12151652WA0034900335001100024337349
B1956283727658N12151654WA0034900335001100025328344
B1956293727661N12151657WA0034800334001100023317344
B1956303727663N12151660WA0034800334001100019306346
B1956313727665N12151663WA0034700334001100016296346
B1956323727665N12151666WA0034600334001100016278348
B1956333727666N12151669WA0034400333001100019282351
B1956343727667N12151673WA0034300332001100024283352
B1956353727668N12151678WA0034300332001100026283354
B1956363727668N12151683WA0034400332001100027281356
B1956373727669N12151688WA0034600332001100023279356
B1956383727670N12151692WA0034600332001100020282357
B1956393727670N12151696WA0034500332001100024276357
B1956403727671N12151700WA0034500332001100025273357
B1956413727671N12151705WA0034700333001100024275358
B1956423727671N12151709WA0034800334001100021276358
B1956433727672N12151713WA0034900334001100017286358
B1956443727672N12151715WA0034800334001100015288359
B1956453727673N12151718WA0034700334001100015286359
B1956463727673N12151721WA0034600333001100019276359
B1956473727673N12151725WA0034700333001100024271359
B1956483727673N12151730WA0034800333001100021269359
B1956493727673N12151733WA0034900334001100018258359
B1956503727671N12151736WA0034900334001100015245359
B1956513727669N12151737WA0034900334001100016219359
B1956523727665N12151738WA0034900334001100018195359
B1956533727661N12151737WA0034900334001100022172000
B1956543727656N12151734WA0034900334001100028148000
B1956553727652N12151729WA0035000334001100029137000
B1956563727650N12151723WA0035000334001100029121000
B1956573727648N12151717WA0035000333001100028110000
B1956583727647N12151711WA0034900333001100027100000
B1956593727649N12151704WA0034900333001100029079002
B1957003727653N12151698WA0034900332001100025063356
B1957013727658N12151694WA0034900331001100025040345
B1957023727664N12151695WA0034900329001100020010339
B1957033727667N12151699WA0035000328001100016313340
B1957043727668N12151703WA0035200329001100017292343
B1957053727669N12151707WA0035400330001100015284347
B1957063727670N12151710WA0035500332001100015286351
B1957073727671N12151714WA0035600332001100018285353
B1957083727672N12151718WA0035500332001100019285354
B1957093727673N12151721WA0035400332001100017286354
B1957103727674N12151725WA0035200333001100015281354
B1957113727674N12151728WA0035100333001100014267354
B1957123727671N12151732WA0034900333001100022212355
B1957133727668N12151734WA0034900333001100022196355
B1957143727664N12151734WA0035000334001100021180356
B1957153727661N12151734WA0035000334001100019181357
B1957163727658N12151735WA0034800334001100019189357
B1957173727655N12151736WA0034700334001100022194358
B1957183727652N12151737WA0034700333001100022186358
B1957193727649N12151737WA0034700333001100020179358
B1957203727646N12151737WA0034600333001100018184359
B1957213727643N12151738WA0034400331001100019191359
B1957223727640N12151739WA0034200330001100021202359
B1957233727637N12151741WA0034100329001100024206359
B1957243727634N12151743WA0034000328001100024189359
B1957253727630N12151743WA0034000327001100024175000
B1957263727627N12151741WA0034000326001100025161000
B1957273727623N12151738WA0034000326001100023147000
B1957283727621N12151735WA0033900326001100024139000
B1957293727618N12151732WA0033700325001100024135000
B1957303727616N12151727WA0033400324001100026126000
B1957313727615N12151721WA0033200322001100029117000
B1957323727614N12151714WA0033200322001100031102000
B1957333727614N12151708WA0033100321001100031109000
B1957343727612N12151702WA0032900321001100030115000
B1957353727610N12151697WA0032800320001100029125000
B1957363727606N12151693WA0032900319001100031138000
B1957373727602N12151690WA0032800318001100028153359
B1957383727599N12151690WA0032600315001100021176359
B1957393727595N12151693WA0032300314001100023201359
B1957403727593N12151698WA0032200313001100025227359
B1957413727591N12151703WA0032300313001100024238359
B1957423727589N12151708WA0032200312001100023235359
B1957433727588N12151712WA0031900310001100023236359
B1957443727587N12151717WA0031700309001100024246359
B1957453727586N12151722WA0031600309001100026253359
B1957463727586N12151728WA0031500307001100029257359
B1957473727586N12151734WA0031400307001100026263359
B1957483727587N12151739WA0031300305001100025267359
B1957493727587N12151744WA0031200305001100026270359
B1957503727588N12151749WA0031200304001100026273359
B1957513727588N12151754WA0031100303001100025277359
B1957523727589N12151758WA0031000302001100023281359
B1957533727590N12151762WA0031000300001100023282359
B1957543727591N12151767WA0030800299001100024281359
B1957553727591N12151771WA0030700296001100026279359
B1957563727592N12151776WA0030600295001100027280359
B1957573727593N12151781WA0030400293001100026280359
B1957583727593N12151785WA0030400292001100023277359
B1957593727594N12151789WA0030300291001100020269359
B1958003727593N12151793WA0030200290001100019258359
B1958013727592N12151796WA0030100289001100018251359
B1958023727591N12151799WA0030100289001100017252359
B1958033727591N12151802WA0030100289001100015254359
B1958043727590N12151805WA0030100289001100015249359
B1958053727589N12151808WA0030100288001100017245359
B1958063727588N12151811WA0030000287001100021246359
B1958073727586N12151815WA0030000287001100024252359
B1958083727585N12151820WA0030000287001100024260359
B1958093727585N12151824WA0030000286001100023259359
B1958103727584N12151828WA0029900286001100023258359
B1958113727583N12151833WA0029800285001100027260359
B1958123727583N12151838WA0029600283001100029259359
B1958133727582N12151843WA0029500282001100027253359
B1958143727580N12151847WA0029300281001100024249359
B1958153727579N12151851WA0029100279001100022252359
B1958163727578N12151855WA0028900277001100025258359
B1958173727578N12151860WA0028700275001100028262359
B1958183727577N12151866WA0028600275001100028264359
B1958193727577N12151871WA0028600274001100024264359
B1958203727577N12151875WA0028500273001100020277359
B1958213727577N12151878WA0028200272001100020284359
B1958223727579N12151882WA0028000270001100023292359
B1958233727581N12151886WA0027900268001100024306359
B1958243727585N12151889WA0027800267001100026320358
B1958253727588N12151891WA0027800266001100026332003
B1958263727593N12151892WA0027700264001100025351007
B1958273727597N12151891WA0027600263001100028006011
B1958283727602N12151889WA0027600262001100030009008
B1958293727607N12151888WA0027500261001100030359353
B1958303727611N12151889WA0027400260001100030346340
B1958313727616N12151891WA0027400260001100029333335
B1958323727620N12151894WA0027500260001100030323336
B1958333727622N12151897WA0027500259001100027313338
B1958343727624N12151901WA0027500259001100024301343
B1958353727626N12151905WA0027400260001100023295342
B1958363727627N12151909WA0027400260001100024293348
B1958373727629N12151914WA0027400259001100026291350
B1958383727630N12151919WA0027400260001100027291351
B1958393727632N12151923WA0027400260001100026292351
B1958403727633N12151928WA0027500261001100023291355
B1958413727634N12151931WA0027600262001100019291356
B1958423727635N12151934WA0027500262001100018300356
B1958433727637N12151937WA0027400262001100020313357
B1958443727641N12151939WA0027300262001100024329357
B1958453727645N12151941WA0027300262001100030341356
B1958463727650N12151943WA0027400262001100033343351
B1958473727655N12151945WA0027400262001100029333338
B1958483727658N12151948WA0027400262001100029321334
B1958493727661N12151952WA0027400262001100028308334
B1958503727663N12151956WA0027400262001100024306341
B1958513727666N12151960WA0027400263001100024301345
B1958523727667N12151964WA0027300262001100024287344
B1958533727668N12151968WA0027200262001100024276344
B1958543727668N12151972WA0027200262001100023277348
B1958553727669N12151977WA0027200262001100023281351
B1958563727670N12151981WA0027300262001100024282352
B1958573727670N12151986WA0027300262001100025285353
B1958583727672N12151990WA0027400262001100024290354
B1958593727673N12151994WA0027400262001100024286356
B1959003727673N12151999WA0027500263001100024275356
B1959013727673N12152003WA0027600264001100022266357
B1959023727673N12152007WA0027700265001100017268357
B1959033727673N12152010WA0027600265001100015272358
B1959043727673N12152013WA0027400264001100015267358
B1959053727673N12152016WA0027300263001100019259358
B1959063727671N12152020WA0027200262001100024249358
B1959073727670N12152024WA0027300263001100024242358
B1959083727668N12152028WA0027600263001100022239358
B1959093727665N12152030WA0027700264001100019225358
B1959103727663N12152032WA0027700263001100016216359
B1959113727661N12152034WA0027600263001100017225359
B1959123727659N12152036WA0027500263001100019233359
B1959133727658N12152040WA0027400262001100021246359
B1959143727657N12152044WA0027400262001100020261359
B1959153727657N12152048WA0027400262001100017275359
B1959163727659N12152051WA0027300261001100018297359
B1959173727660N12152054WA0027100260001100021288359
B1959183727660N12152058WA0027000260001100022272359
B1959193727660N12152062WA0026900258001100022257359
B1959203727657N12152065WA0026800257001100017229359
B1959213727654N12152065WA0026600256001100017175000
B1959223727650N12152062WA0026500255001100021143000
B1959233727647N12152056WA0026400253001100026126000
B1959243727644N12152050WA0026300252001100030115000
B1959253727643N12152044WA0026100250001100030108000
B1959263727641N12152038WA0025800246001100033104000
B1959273727640N12152031WA0025600243001100035099000
B1959283727640N12152024WA0025400241001100036090000
B1959293727640N12152017WA0025400240001100036082000
B1959303727642N12152010WA0025200238001100034072000
B1959313727644N12152004WA0025100237001100033068000
B1959323727645N12151998WA0024900235001100033077000
B1959333727646N12151991WA0024700234001100036084000
B1959343727645N12151984WA0024700232001100038095000
B1959353727644N12151977WA0024800231001100036097000
B1959363727643N12151970WA0024900230001100032095000
B1959373727642N12151965WA0024800229001100029103000
B1959383727639N12151962WA0024600229001100026120000
B1959393727636N12151958WA0024600228001100029134000
B1959403727632N12151954WA0024600229001100031133000
B1959413727628N12151950WA0024800231001100029130000
B1959423727626N12151946WA0024800231001100027123000
B1959433727623N12151942WA0024800231001100026120000
B1959443727621N12151937WA0024700231001100026120000
B1959453727619N12151934WA0024600230001100025129000
B1959463727616N12151930WA0024600230001100025136359
B1959473727613N12151927WA0024600230001100027141000
B1959483727610N12151924WA0024600230001100028142000
B1959493727606N12151921WA0024600230001100027140000
B1959503727603N12151918WA0024700231001100025133000
B1959513727601N12151915WA0024600232001100022133000
B1959523727598N12151912WA0024600232001100024140000
B1959533727595N12151908WA0024500231001100028137000
B1959543727592N12151904WA0024600231001100029129000
B1959553727590N12151900WA0024500231001100029123000
B1959563727587N12151896WA0024600232001100027124000
B1959573727585N12151892WA0024600232001100024127000
B1959583727583N12151889WA0024600233001100023128000
B1959593727581N12151885WA0024500232001100024129000
B2000003727578N12151882WA0024400232001100025134000
B2000013727575N12151879WA0024300231001100026147000
B2000023727571N12151877WA0024100230001100028159359
B2000033727567N12151876WA0024000229001100026168359
B2000043727564N12151876WA0023900228001100025180359
B2000053727560N12151880WA0023800227001100026215359
B2000063727559N12151885WA0023700226001100026239359
B2000073727558N12151891WA0023500225001100027258359
B2000083727559N12151897WA0023400223001100027272359
B2000093727560N12151902WA0023400222001100027285359
B2000103727562N12151908WA0023200221001100028295359
B2000113727565N12151912WA0023100219001100028302359
B2000123727567N12151917WA0023000217001100029294359
B2000133727569N12151923WA0022900215001100031285359
B2000143727570N12151929WA0022800214001100031274359
B2000153727569N12151934WA0022900213001100029266359
B2000163727569N12151940WA0023000213001100027264359
B2000173727568N12151944WA0023100213001100023256359
B2000183727566N12151947WA0023000212001100017245359
B2000193727565N12151950WA0022900212001100018236359
B2000203727563N12151953WA0022700210001100022239359
B2000213727562N12151957WA0022600208001100026243359
B2000223727560N12151961WA0022500207001100026248359
B2000233727559N12151966WA0022500207001100023245359
B2000243727557N12151969WA0022300206001100020241359
B2000253727555N12151973WA0022200205001100022238359
B2000263727554N12151977WA0022100203001100024240359
B2000273727552N12151980WA0021900202001100023240359
B2000283727550N12151984WA0021800201001100021238359
B2000293727549N12151987WA0021600200001100019234359
B2000303727547N12151990WA0021600198001100019234359
B2000313727545N12151993WA0021500197001100021243359
B2000323727544N12151997WA0021300196001100023254359
B2000333727544N12152002WA0021200195001100024260359
B2000343727542N12152006WA0021000193001100023244359
B2000353727541N12152010WA0020600192001100025241359
B2000363727538N12152012WA0020200190001100020210359
B2000373727533N12152010WA0020200188001100023168000
B2000383727529N12152007WA0020300188001100026136000
B2000393727527N12152002WA0020400187001100024126000
B2000403727525N12151998WA0020300186001100024123000
B2000413727522N12151994WA0020200184001100025131000
B2000423727518N12151991WA0020100183001100029151000
B2000433727513N12151988WA0020100182001100028163359
B2000443727508N12151987WA0020000182001100026171359
B2000453727505N12151990WA0019800182001100023216359
B2000463727502N12151993WA0019600182001100026229359
B2000473727499N12151999WA0019600181001100032234359
B2000483727496N12152003WA0019500180001100030222359
B2000493727492N12152006WA0019500179001100028213000
B2000503727487N12152007WA0019400178001100027193000
B2000513727483N12152006WA0019400178001100024175000
B2000523727480N12152005WA0019300177001100019169000
B2000533727477N12152004WA0019000175001100020178359
B2000543727474N12152004WA0018800173001100024191359
B2000553727470N12152006WA0018600172001100026201359
B2000563727466N12152008WA0018600171001100023209359
B2000573727464N12152010WA0018600170001100020217359
B2000583727462N12152013WA0018600169001100016222000
B2000593727460N12152014WA0018800169001100013221000
B2001003727459N12152015WA0018700169001100008207359
B2001013727458N12152015WA0018700169001100004207002
B2001023727458N12152015WA0018700168001100000207002
B2001033727458N12152016WA0018700170001100000207001
B2001043727457N12152016WA0018700171001100000207030
B2001053727457N12152016WA0018700171001100000207000
B2001063727457N12152016WA0018700171001100000207000
B2001073727457N12152016WA0018700171001100000207358
B2001083727457N12152016WA0018700171001100000207355
B2001093727457N12152016WA0018700171001100000207035
B2001103727457N12152016WA0018700171001100000207012
B2001113727457N12152016WA0018700171001100000207007
B2001123727457N12152016WA0018700171001100000207007
B2001133727457N12152016WA0018700171001100000207008
B2001143727457N12152016WA0018700171001100000207009
B2001153727457N12152016WA0018700171001100000207010
B2001163727457N12152016WA0018700171001100000207012
B2001173727457N12152016WA0018700171001100000207013
B2001183727457N12152016WA0018700171001100000207351
B2001193727457N12152016WA0018700171001100000207353
B2001203727457N12152016WA0018700171001100000207352
B2001213727457N12152016WA0018700171001100000207352
B2001223727457N12152016WA0018700171001100000207349
B2001233727457N12152016WA0018700171001100000207349
B2001243727457N12152016WA0018700171001100000207346
B2001253727457N12152016WA0018700171001100000207348
B2001263727457N12152016WA0018700171001100000207358
B2001273727457N12152016WA0018700171001100000207342
B2001283727457N12152016WA0018700171001100000207345
B2001293727457N12152016WA0018700171001100000207090
GiD9uyeWJqbWnlQKc3Jn0JE6TBfN9YaNOfyGu95Hlv8eudLmBAdujEYi9LeImToCF
G85O5mpKZEvhNiyI8dZtn2mGnJvJoFy55qZj3M/FpNF7FWBDWIgTilVfG5hNNLLVS
Gjj54FWRMumzgT9MVi3TnmgA/qIAhw5TbbbLbiaB60V0=

