AXFH000
HFDTE070625
HFPLTPILOT:Scott O’Brien
HFGTYGLIDERTYPE:Ozone Swift 6
HFDTM100GPSDATUM:WGS84
HFRFWFIRMWAREVERSION:8.2.6
HFRHWHARDWAREVERSION:iPhone 15
HFFTYFRTYPE:Flyskyhy,8.2.6
HFGPS:Bluetooth vario
HFPRSVARIO:Bluetooth vario
HFCCLCOMPETITIONCLASS:Paraglider
HFTZNTIMEZONE:-7
HFSITSITE:Ed Levin,US
I053638FXA3941VXA4244GSP4547CCO4850HDT
C070625191830070625000103TASK
C0000000N00000000ETAKEOFF
C3730317N12154316W00000000000100000000360000STARTAREA mission LZ
C3727936N12151061W00000000000200000000360000TURNAREA crosses
C3728301N12153970W00000000002900000000360000TURNAREA valley
C3727689N12151593W00000000000040000000360000TURNAREA Ed 600
C3730317N12154316W00000000000100000000360000FINISHAREA mission LZ
C0000000N00000000ELANDING
B1919013728538N12151678WA0069600697000100000185020
B1919023728538N12151678WA0069600697000100000185078
B1919043728538N12151678WA0069600697000100000185044
B1919053728538N12151678WA0069700697000100000185039
B1919063728538N12151678WA0069700697000100000185041
B1919073728538N12151678WA0069700697000100000185038
B1919083728538N12151678WA0069700697000100000185042
B1919093728538N12151678WA0069700697000100000185355
B1919103728538N12151678WA0069700697000100000185005
B1919113728538N12151678WA0069700697000100000185350
B1919133728538N12151678WA0069700697000100000185075
B1919143728538N12151679WA0069700697000100002273097
B1919153728538N12151680WA0069700697000100005283071
B1919163728538N12151681WA0069700697000100004287338
B1919173728538N12151682WA0069700697000100009280160
B1919183728539N12151684WA0069700696000100009281221
B1919193728539N12151686WA0069700696000100011280105
B1919203728539N12151688WA0069700696000100015264085
B1919213728538N12151691WA0069700695000100016263350
B1919223728538N12151695WA0069600695000100022257153
B1919233728537N12151699WA0069600695000100023256283
B1919243728536N12151704WA0069600694000100022256216
B1919253728535N12151708WA0069600692000100021246205
B1919263728534N12151712WA0069600691000100027245200
B1919273728532N12151717WA0069500692000100029243194
B1919283728530N12151721WA0069500691000100026233194
B1919293728527N12151725WA0069400690000100024217176
B1919303728524N12151727WA0069400688000100025198155
B1919313728520N12151728WA0069400685000100030193164
B1919323728515N12151730WA0069400683001100037195176
B1919333728510N12151732WA0069400681001100037196175
B1919343728505N12151734WA0069400680000100033197182
B1919353728501N12151736WA0069400682000100027193185
B1919363728497N12151737WA0069400681000100023187179
B1919373728494N12151737WA0069400679000100023187180
B1919383728490N12151738WA0069400677000100026191183
B1919393728486N12151739WA0069400675000100032189179
B1919403728480N12151740WA0069400674000100038186198
B1919413728475N12151740WA0069400673000100038178192
B1919423728469N12151740WA0069400673000100034175166
B1919433728465N12151740WA0069400673000100030181182
B1919443728460N12151741WA0069400671000100029195180
B1919453728456N12151742WA0069400669000100032195193
B1919463728451N12151744WA0069400668000100037186170
B1919473728445N12151744WA0069400667000100038180179
B1919483728439N12151744WA0069400667000100035179174
B1919493728434N12151744WA0069400666000100033183186
B1919503728429N12151745WA0069400665000100035185181
B1919513728424N12151745WA0069400664000100039185174
B1919523728418N12151746WA0069400663000100039183185
B1919533728413N12151746WA0069400662000100036183174
B1919543728408N12151747WA0069400661000100032186174
B1919553728403N12151748WA0069400660000100034192183
B1919563728398N12151749WA0069400659000100038194162
B1919573728392N12151751WA0069400658000100039192160
B1919583728386N12151753WA0069400657000100040188175
B1919593728380N12151753WA0069400657000100038181182
B1920003728374N12151753WA0069400654000100039182171
B1920013728368N12151754WA0069400652000100041185166
B1920023728362N12151755WA0069400651000100043187161
B1920033728356N12151756WA0069400650000100041185170
B1920043728350N12151756WA0069400649000100037180168
B1920053728345N12151756WA0069400647000100035174165
B1920063728340N12151755WA0069400644000100034173170
B1920073728335N12151754WA0069400641000100035175171
B1920093728323N12151755WA0069400636000100041190192
B1920103728317N12151757WA0069400634000100041200196
B1920113728312N12151761WA0069400631000100040211219
B1920123728308N12151766WA0069400628000100038223239
B1920133728304N12151771WA0069400626000100037233229
B1920143728301N12151777WA0069400623000100035233225
B1920153728298N12151782WA0069400620000100035231218
B1920163728294N12151787WA0069400617000100036226211
B1920173728290N12151792WA0069400615000100039222204
B1920183728285N12151797WA0069400613000100039218200
B1920193728281N12151802WA0069400611000100036216210
B1920203728277N12151806WA0069400608000100034214203
B1920213728272N12151809WA0069400605000100035213202
B1920223728268N12151813WA0069400601000100038215206
B1920233728263N12151817WA0069400600000100039221199
B1920243728259N12151822WA0069400597000100036222191
B1920253728255N12151826WA0069400595000100029215200
B1920263728251N12151829WA0069400594000100028205209
B1920273728248N12151831WA0069400591000100032203199
B1920283728243N12151834WA0069400588000100037209212
B1920293728238N12151838WA0069400586000100040214206
B1920303728233N12151842WA0069400584000100040213191
B1920313728228N12151846WA0069400583000100038207190
B1920323728223N12151848WA0069400581000100036197201
B1920333728218N12151850WA0069400578000100038193196
B1920343728212N12151852WA0069400576000100042197189
B1920353728206N12151855WA0069400574000100045204190
B1920363728200N12151858WA0069400574000100046202176
B1920373728193N12151861WA0069400573000100046196180
B1920383728187N12151863WA0069400572000100043190176
B1920393728180N12151865WA0069400572000100039192174
B1920403728175N12151867WA0069400571000100039198171
B1920413728169N12151869WA0069400570000100042197178
B1920423728163N12151871WA0069400568000100046192174
B1920433728156N12151872WA0069400567000100048185172
B1920443728149N12151873WA0069400566000100044181175
B1920453728142N12151874WA0069400566000100039185169
B1920463728137N12151875WA0069400565000100035190170
B1920473728132N12151876WA0069400564000100036193170
B1920483728126N12151877WA0069400563000100041189174
B1920493728120N12151878WA0069400562000100044185169
B1920503728113N12151879WA0069400562000100044183171
B1920513728107N12151880WA0069400562000100040184173
B1920523728101N12151881WA0069400561000100038189178
B1920533728095N12151882WA0069400560000100039194182
B1920543728089N12151884WA0069400558000100042200185
B1920553728083N12151888WA0069400557000100045204191
B1920563728077N12151891WA0069400557000100045207192
B1920573728071N12151895WA0069400557000100041207189
B1920583728066N12151898WA0069400557000100038205189
B1920593728061N12151901WA0069400556000100037205189
B1921003728056N12151904WA0069400555000100039204188
B1921013728050N12151907WA0069400554000100041202184
B1921023728045N12151910WA0069400553000100042201182
B1921033728039N12151913WA0069400552000100041201184
B1921043728033N12151916WA0069400552000100040201186
B1921053728028N12151918WA0069400552000100039199180
B1921063728022N12151921WA0069400550000100040200180
B1921073728016N12151924WA0069400549000100041204184
B1921083728011N12151927WA0069400548000100042207187
B1921093728005N12151931WA0069400547000100043206186
B1921103727999N12151934WA0069400546000100043202173
B1921113727993N12151937WA0069400544000100043201171
B1921123727987N12151940WA0069400543000100040202173
B1921133727982N12151943WA0069400542000100038202184
B1921143727977N12151946WA0069400540000100039199170
B1921153727971N12151948WA0069400538000100043196165
B1921163727964N12151950WA0069400535000100043193175
B1921173727958N12151952WA0069400533000100042192183
B1921183727952N12151954WA0069400530000100042193179
B1921193727946N12151956WA0069400527000100041198181
B1921203727940N12151959WA0069400524000100042202185
B1921213727934N12151962WA0069400521000100043200175
B1921223727928N12151964WA0069400518000100042197183
B1921233727923N12151967WA0069400516000100039201206
B1921243727918N12151970WA0069400514000100036211189
B1921253727913N12151974WA0069400511000100037217169
B1921263727909N12151978WA0069400509000100037215191
B1921273727904N12151982WA0069400507000100036208189
B1921283727899N12151984WA0069400505000100036196201
B1921293727894N12151985WA0069400503000100036188206
B1921303727888N12151987WA0069400501000100036192197
B1921313727883N12151989WA0069400498000100040199208
B1921323727877N12151991WA0069400496000100044198177
B1921333727871N12151994WA0069400495000100046197194
B1921343727864N12151996WA0069400494000100044195181
B1921353727859N12151998WA0069400493000100037196191
B1921363727853N12152000WA0069400492000100034197182
B1921373727849N12152002WA0069400490000100035199187
B1921383727843N12152004WA0069400487000100040196177
B1921393727837N12152006WA0069400486000100045194175
B1921403727831N12152008WA0069400485000100044193179
B1921413727824N12152010WA0069400485000100040192176
B1921423727819N12152011WA0069400484000100037189168
B1921433727813N12152012WA0069400482000100038185168
B1921443727807N12152012WA0069400481000100037185157
B1921453727801N12152012WA0069400479000100040178151
B1921463727795N12152011WA0069400478000100041174145
B1921473727788N12152010WA0069400476000100042172153
B1921483727781N12152009WA0069400474000100043173154
B1921493727774N12152009WA0069400473000100043173145
B1921503727768N12152008WA0069400470000100043173153
B1921513727761N12152007WA0069400468000100046170160
B1921523727754N12152006WA0069400466000100048169158
B1921533727746N12152004WA0069400464000100050172166
B1921543727739N12152004WA0069400464000100046183169
B1921553727732N12152005WA0069400463000100041189172
B1921563727726N12152007WA0069400462000100039185168
B1921573727720N12152007WA0069400460000100041180166
B1921583727714N12152007WA0069400457000100045180168
B1921593727707N12152008WA0069400455000100047185168
B1922003727699N12152009WA0069400454000100048186167
B1922013727692N12152010WA0069400453000100047182163
B1922023727685N12152010WA0069400452000100046177160
B1922033727678N12152009WA0069400452000100045178169
B1922043727672N12152009WA0069400451000100044180162
B1922053727665N12152009WA0069400450000100045179152
B1922063727658N12152009WA0069400448000100046171144
B1922073727651N12152007WA0069400448000100045162144
B1922083727644N12152004WA0069400448000100049158140
B1922093727637N12152001WA0069400448000100047159141
B1922103727631N12151998WA0069400448000100044160138
B1922113727625N12151995WA0069400449000100043158139
B1922123727619N12151991WA0069400449000100045154116
B1922133727613N12151987WA0069400450000100046147105
B1922143727607N12151983WA0069400450000100044147126
B1922153727602N12151979WA0069400450000100038150129
B1922163727597N12151976WA0069400451000100030153128
B1922173727593N12151973WA0069400452000100031143118
B1922183727590N12151969WA0069400452000100036136098
B1922193727586N12151962WA0069400453000100049120081
B1922203727583N12151953WA0069400453000100051107067
B1922213727582N12151944WA0069400453000100045096036
B1922223727582N12151936WA0069400453000100039085031
B1922233727584N12151930WA0069400452000100034073016
B1922243727586N12151924WA0069400451000100033061018
B1922253727589N12151919WA0069400451000100031053004
B1922263727592N12151915WA0069400452000100027044357
B1922273727595N12151911WA0069400451000100025035353
B1922283727598N12151909WA0069400451000100024028339
B1922293727601N12151907WA0069400450000100026026336
B1922303727605N12151904WA0069400449000100026022323
B1922313727609N12151903WA0069400448000100024014324
B1922323727612N12151902WA0069400447000100022000318
B1922333727615N12151903WA0069400445000100020348311
B1922343727618N12151904WA0069400443000100021339304
B1922353727621N12151906WA0069400441000100022331293
B1922363727624N12151908WA0069400439000100022321293
B1922373727626N12151911WA0069400438000100021301285
B1922383727627N12151915WA0069400437000100021280279
B1922393727627N12151919WA0069400436000100022264276
B1922403727626N12151923WA0069400435000100025252274
B1922413727624N12151928WA0069400434000100028239265
B1922423727622N12151932WA0069400433000100030225257
B1922433727618N12151935WA0069400432000100033212250
B1922443727613N12151938WA0069400431000100035198237
B1922453727607N12151939WA0069400430000100038186222
B1922463727601N12151939WA0069400430000100041177209
B1922473727595N12151938WA0069400429000100042165195
B1922483727589N12151935WA0069400429000100042156180
B1922493727583N12151931WA0069400430000100044149168
B1922503727578N12151926WA0069400431000100048144154
B1922513727572N12151920WA0069400432000100051140142
B1922523727566N12151914WA0069400433000100048135134
B1922533727561N12151908WA0069400435000100044130127
B1922543727558N12151901WA0069400436000100042124118
B1922553727555N12151895WA0069400436000100041114111
B1922563727553N12151887WA0069400436000100041103097
B1922573727553N12151879WA0069400437000100042092083
B1922583727554N12151872WA0069400437000100042078070
B1922593727556N12151864WA0069400437000100041067055
B1923003727559N12151858WA0069400437000100035058043
B1923013727562N12151853WA0069400438000100029049032
B1923023727565N12151849WA0069400439000100027048021
B1923033727567N12151846WA0069400438000100025046018
B1923043727570N12151843WA0069400437000100023035015
B1923053727573N12151841WA0069400437000100020020005
B1923063727576N12151841WA0069400437000100018000352
B1923073727579N12151842WA0069400436000100019342339
B1923083727582N12151843WA0069400435000100019343326
B1923093727585N12151844WA0069400433000100018345322
B1923103727588N12151846WA0069400431000100019340318
B1923113727591N12151847WA0069400430000100019332313
B1923123727593N12151849WA0069400429000100018323307
B1923133727595N12151851WA0069400428000100018317300
B1923143727597N12151854WA0069400427000100020312293
B1923153727599N12151857WA0069400426000100022314294
B1923163727602N12151860WA0069400426000100021318294
B1923173727604N12151862WA0069400427000100020320302
B1923183727606N12151865WA0069400427000100017314298
B1923193727608N12151867WA0069400428000100014306302
B1923203727609N12151869WA0069400427000100014303299
B1923213727610N12151871WA0069400427000100015310315
B1923223727612N12151873WA0069400426000100019333330
B1923233727615N12151874WA0069400425000100022354345
B1923243727619N12151873WA0069400424000100025015008
B1923253727623N12151869WA0069400424000100028040024
B1923263727625N12151864WA0069400423000100029060037
B1923273727626N12151858WA0069400422000100030075051
B1923283727626N12151851WA0069400421000100034088063
B1923293727626N12151844WA0069400419000100039097079
B1923303727624N12151836WA0069400417000100042106085
B1923313727622N12151828WA0069400415000100045118109
B1923323727618N12151821WA0069400412000100044129126
B1923333727613N12151816WA0069400411000100042140150
B1923343727607N12151812WA0069400409000100040155175
B1923353727601N12151810WA0069400407000100039169192
B1923363727596N12151812WA0069400406000100033201224
B1923373727592N12151816WA0069400404000100028212246
B1923383727591N12151821WA0069400403000100022260254
B1923393727592N12151824WA0069400403000100016273272
B1923403727593N12151827WA0069400404000100013292286
B1923413727594N12151829WA0069400406000100013290274
B1923423727594N12151831WA0069400409000100013286283
B1923433727595N12151833WA0069400411000100016291280
B1923443727596N12151836WA0069400411000100018292281
B1923453727598N12151840WA0069400410000100019293285
B1923463727599N12151843WA0069400409000100019296286
B1923473727601N12151846WA0069400408000100022310296
B1923483727603N12151849WA0069400408000100023324306
B1923493727606N12151851WA0069400408000100023334341
B1923503727610N12151852WA0069400408000100023345331
B1923513727613N12151850WA0069400408000100023013351
B1923523727617N12151847WA0069400410000100024031003
B1923533727620N12151844WA0069400412000100026042018
B1923543727622N12151839WA0069400413000100033051048
B1923553727625N12151833WA0069400414000100039065070
B1923563727626N12151824WA0069400415000100047087082
B1923573727623N12151814WA0069400416000100052111106
B1923583727620N12151806WA0069400417000100047125127
B1923593727614N12151801WA0069400418000100038147141
B1924003727610N12151800WA0069400418000100030173171
B1924013727606N12151800WA0069400419000100026187199
B1924023727603N12151802WA0069400419000100022207227
B1924033727601N12151804WA0069400419000100019227256
B1924043727600N12151808WA0069400417000100017262266
B1924053727602N12151812WA0069400417000100019296292
B1924063727604N12151815WA0069400418000100020316304
B1924073727606N12151817WA0069400421000100020321313
B1924083727609N12151819WA0069400424000100019331305
B1924093727612N12151820WA0069400427000100016346307
B1924103727614N12151820WA0069400428000100014346312
B1924113727617N12151821WA0069400428000100016347317
B1924123727620N12151821WA0069400428000100020353322
B1924133727623N12151821WA0069400428000100023357324
B1924143727626N12151821WA0069400430000100023007341
B1924153727630N12151820WA0069400431000100023022346
B1924163727633N12151818WA0069400432000100026036012
B1924173727636N12151814WA0069400432000100030054033
B1924183727638N12151808WA0069400432000100036067035
B1924193727639N12151800WA0069400433000100041080063
B1924203727638N12151792WA0069400434000100040091082
B1924213727637N12151784WA0069400435000100040106128
B1924223727633N12151778WA0069400435000100039124136
B1924233727628N12151774WA0069400436000100036154163
B1924243727623N12151772WA0069400437000100033173199
B1924253727618N12151775WA0069400438000100030200226
B1924263727616N12151779WA0069400439000100019243250
B1924273727617N12151783WA0069400441000100017282282
B1924283727619N12151785WA0069400443000100013331302
B1924293727621N12151786WA0069400443000100009350302
B1924303727623N12151787WA0069400442000100008344315
B1924313727624N12151787WA0069400441000100009343317
B1924323727626N12151788WA0069400440000100016354331
B1924333727629N12151787WA0069400440000100023010333
B1924343727634N12151786WA0069400440000100027015346
B1924353727638N12151784WA0069400440000100026022342
B1924363727641N12151782WA0069400441000100018032345
B1924373727643N12151780WA0069400441000100017042355
B1924383727645N12151777WA0069400440000100022049359
B1924393727647N12151773WA0069400439000100027050003
B1924403727650N12151769WA0069400438000100033053010
B1924413727653N12151763WA0069400437000100036058025
B1924423727656N12151757WA0069400436000100037065034
B1924433727658N12151750WA0069400435000100038071046
B1924443727660N12151743WA0069400434000100041073038
B1924453727662N12151735WA0069400433000100046073042
B1924463727664N12151727WA0069400433000100048076053
B1924473727665N12151718WA0069400434000100047084074
B1924483727665N12151709WA0069400435000100047096092
B1924493727663N12151700WA0069400435000100048108102
B1924503727660N12151692WA0069400435000100048120125
B1924513727656N12151685WA0069400435000100047130141
B1924523727651N12151679WA0069400436000100043141151
B1924533727645N12151676WA0069400437000100038150173
B1924543727640N12151673WA0069400438000100036159164
B1924553727635N12151672WA0069400440000100034171205
B1924563727630N12151672WA0069400443000100028180208
B1924573727626N12151672WA0069400444000100022191225
B1924583727624N12151673WA0069400444000100018203238
B1924593727622N12151675WA0069400443000100016219255
B1925003727621N12151677WA0069400443000100016234265
B1925013727620N12151680WA0069400443000100016258282
B1925023727620N12151683WA0069400443000100017289290
B1925033727622N12151685WA0069400444000100018316309
B1925043727624N12151687WA0069400444000100019349308
B1925053727628N12151686WA0069400445000100021005333
B1925063727631N12151686WA0069400445000100020008318
B1925073727634N12151685WA0069400445000100024017344
B1925083727638N12151683WA0069400445000100029022007
B1925093727642N12151680WA0069400446000100035035031
B1925103727646N12151675WA0069400446000100038048053
B1925113727649N12151668WA0069400446000100039062063
B1925123727649N12151659WA0069400447000100041088082
B1925133727646N12151650WA0069400447000100045115096
B1925143727642N12151642WA0069400447000100043123134
B1925153727636N12151638WA0069400446000100040153148
B1925163727630N12151637WA0069400446000100039175187
B1925173727624N12151637WA0069400446000100035187216
B1925183727620N12151639WA0069400446000100027200233
B1925193727618N12151642WA0069400446000100019219244
B1925203727619N12151645WA0069400447000100017286265
B1925213727621N12151649WA0069400449000100019300282
B1925223727622N12151651WA0069400452000100017312292
B1925233727624N12151653WA0069400454000100016326298
B1925243727627N12151655WA0069400454000100016335310
B1925253727629N12151656WA0069400453000100017336320
B1925263727632N12151657WA0069400451000100019342315
B1925273727635N12151658WA0069400451000100023350329
B1925283727639N12151658WA0069400450000100028003333
B1925293727643N12151657WA0069400450000100027010339
B1925303727647N12151655WA0069400450000100021016340
B1925313727650N12151654WA0069400451000100020024350
B1925323727653N12151652WA0069400450000100025032354
B1925333727656N12151648WA0069400449000100029044021
B1925353727662N12151637WA0069400448000100038072061
B1925363727662N12151629WA0069400448000100040085079
B1925373727661N12151620WA0069400448000100041097104
B1925383727658N12151612WA0069400448000100043119113
B1925393727654N12151605WA0069400447000100041125145
B1925403727647N12151602WA0069400446000100038156155
B1925413727642N12151600WA0069400445000100036169190
B1925423727636N12151601WA0069400445000100033188209
B1925433727632N12151604WA0069400444000100030202232
B1925443727630N12151608WA0069400443000100024224246
B1925453727628N12151612WA0069400443000100021242259
B1925463727628N12151616WA0069400443000100019268273
B1925473727629N12151620WA0069400443000100018289278
B1925483727630N12151623WA0069400442000100018297283
B1925493727632N12151626WA0069400441000100019302297
B1925503727634N12151629WA0069400441000100019307289
B1925513727635N12151632WA0069400441000100017318292
B1925523727637N12151634WA0069400440000100015317290
B1925533727639N12151636WA0069400439000100016306291
B1925543727640N12151638WA0069400438000100017298281
B1925553727642N12151641WA0069400437000100017304295
B1925563727643N12151643WA0069400436000100017311273
B1925573727645N12151646WA0069400435000100017317284
B1925583727647N12151648WA0069400434000100016317282
B1925593727649N12151650WA0069400433000100015311282
B1926003727650N12151652WA0069400432000100014303278
B1926013727651N12151654WA0069400431000100015295277
B1926023727652N12151657WA0069400429000100016296272
B1926033727653N12151660WA0069400428000100017294263
B1926043727654N12151663WA0069400428000100017281273
B1926053727654N12151666WA0069400427000100017269273
B1926063727654N12151669WA0069400427000100016264264
B1926073727654N12151672WA0069400426000100014272270
B1926083727654N12151675WA0069400424000100015280271
B1926093727655N12151678WA0069400423000100019279267
B1926103727655N12151682WA0069400424000100020273260
B1926113727655N12151686WA0069400424000100017269263
B1926123727655N12151688WA0069400425000100013269277
B1926133727655N12151690WA0069400425000100009270279
B1926143727655N12151692WA0069400424000100011273265
B1926153727655N12151695WA0069400423000100016272269
B1926163727655N12151698WA0069400422000100017269266
B1926173727655N12151701WA0069400423000100015264262
B1926183727655N12151704WA0069400422000100013268261
B1926193727655N12151706WA0069400421000100015275264
B1926203727656N12151709WA0069400421000100017277257
B1926213727656N12151713WA0069400420000100022278266
B1926223727656N12151717WA0069400419000100023275260
B1926233727657N12151721WA0069400419000100020273267
B1926243727657N12151725WA0069400418000100018274268
B1926253727657N12151728WA0069400416000100019275263
B1926263727657N12151732WA0069400415000100021273254
B1926273727658N12151736WA0069400414000100021272255
B1926283727658N12151740WA0069400413000100018268246
B1926293727658N12151743WA0069400413000100016267272
B1926303727658N12151747WA0069400411000100019267267
B1926313727658N12151751WA0069400410000100022270261
B1926323727658N12151755WA0069400408000100026276262
B1926333727659N12151760WA0069400408000100028286254
B1926343727660N12151765WA0069400408000100025287265
B1926353727660N12151770WA0069400408000100023274266
B1926363727660N12151774WA0069400407000100023258267
B1926373727660N12151778WA0069400405000100022260267
B1926383727660N12151782WA0069400403000100019276261
B1926393727660N12151786WA0069400402000100019283268
B1926403727661N12151789WA0069400401000100019273263
B1926413727660N12151793WA0069400400000100019261260
B1926423727660N12151796WA0069400398000100019258265
B1926433727660N12151800WA0069400396000100019266266
B1926443727660N12151804WA0069400395000100020274272
B1926453727660N12151807WA0069400395000100019268266
B1926463727659N12151811WA0069400396000100016264268
B1926473727659N12151814WA0069400395000100015267267
B1926483727659N12151816WA0069400393000100016274262
B1926493727660N12151820WA0069400392000100019279273
B1926503727660N12151824WA0069400391000100022280260
B1926513727661N12151828WA0069400391000100023279272
B1926523727661N12151832WA0069400391000100021272225
B1926533727661N12151836WA0069400392000100018268268
B1926543727661N12151839WA0069400392000100015282260
B1926553727662N12151842WA0069400391000100016297272
B1926563727663N12151845WA0069400390000100018295267
B1926573727664N12151848WA0069400390000100018283259
B1926583727665N12151851WA0069400390000100015265265
B1926593727664N12151853WA0069400391000100012254264
B1927003727664N12151856WA0069400390000100013255260
B1927013727663N12151858WA0069400389000100015261255
B1927023727663N12151861WA0069400388000100016270262
B1927033727663N12151864WA0069400388000100017267247
B1927043727663N12151867WA0069400388000100019258268
B1927053727662N12151871WA0069400387000100020249263
B1927063727661N12151874WA0069400386000100020250269
B1927073727660N12151877WA0069400385000100018263268
B1927083727660N12151881WA0069400383000100018274271
B1927093727660N12151884WA0069400382000100018272272
B1927103727660N12151887WA0069400382000100019263267
B1927113727660N12151891WA0069400381000100019254255
B1927123727659N12151894WA0069400381000100017260265
B1927133727659N12151897WA0069400380000100013274261
B1927143727659N12151900WA0069400379000100015284279
B1927153727660N12151903WA0069400379000100017279275
B1927163727660N12151906WA0069400378000100017273278
B1927173727660N12151909WA0069400378000100017274286
B1927183727660N12151912WA0069400377000100018278282
B1927193727661N12151915WA0069400378000100017278278
B1927203727661N12151918WA0069400379000100015274279
B1927213727661N12151921WA0069400379000100014265267
B1927223727661N12151924WA0069400378000100012260278
B1927233727661N12151926WA0069400377000100014267274
B1927243727661N12151929WA0069400376000100019276275
B1927253727661N12151933WA0069400376000100021288266
B1927263727662N12151936WA0069400376000100015292267
B1927273727663N12151938WA0069400376000100010276264
B1927283727663N12151940WA0069400375000100009250257
B1927293727662N12151941WA0069400373000100012251262
B1927303727662N12151944WA0069400372000100016263273
B1927313727662N12151947WA0069400371000100017276257
B1927323727662N12151950WA0069400370000100017286270
B1927333727663N12151953WA0069400369000100015287270
B1927343727664N12151956WA0069400368000100013278268
B1927353727664N12151958WA0069400367000100011267276
B1927363727664N12151960WA0069400365000100011263277
B1927373727664N12151963WA0069400363000100014266268
B1927383727664N12151966WA0069400361000100017272280
B1927393727664N12151969WA0069400361000100014275270
B1927403727664N12151971WA0069400360000100011283278
B1927413727665N12151973WA0069400359000100011284272
B1927423727665N12151975WA0069400358000100012284278
B1927433727666N12151978WA0069400357000100013283278
B1927443727666N12151980WA0069400356000100014281269
B1927453727666N12151983WA0069400354000100016281271
B1927463727667N12151986WA0069400353000100016280268
B1927473727667N12151989WA0069400352000100016276274
B1927483727668N12151992WA0069400350000100014275276
B1927493727668N12151994WA0069400348000100013282278
B1927503727669N12151997WA0069400346000100014290279
B1927513727669N12151999WA0069400344000100018292276
B1927523727670N12152002WA0069400342000100018288271
B1927533727671N12152006WA0069400341000100016277262
B1927543727671N12152009WA0069400339000100017265253
B1927553727670N12152012WA0069400337000100021254256
B1927563727669N12152016WA0069400336000100022247255
B1927573727668N12152019WA0069400335000100018243244
B1927583727667N12152022WA0069400333000100014244251
B1927593727666N12152024WA0069400332000100014239252
B1928003727665N12152027WA0069400330000100017225246
B1928013727663N12152029WA0069400328000100022223236
B1928023727660N12152032WA0069400327000100021226246
B1928033727658N12152035WA0069400327000100020233234
B1928043727657N12152038WA0069400327000100015229231
B1928053727655N12152040WA0069400327000100011217240
B1928063727654N12152041WA0069400326000100009212242
B1928073727653N12152042WA0069400323000100010237256
B1928083727652N12152044WA0069400321000100015249246
B1928093727652N12152047WA0069400321000100018259248
B1928103727651N12152050WA0069400320000100017266229
B1928113727651N12152053WA0069400321000100012266244
B1928123727651N12152055WA0069400320000100009257254
B1928133727650N12152057WA0069400319000100012241255
B1928143727649N12152059WA0069400317000100016239248
B1928153727648N12152063WA0069400316000100024238240
B1928163727646N12152067WA0069400315000100025239239
B1928173727644N12152071WA0069400315000100021245254
B1928183727644N12152074WA0069400316000100016268252
B1928193727644N12152076WA0069400316000100013285272
B1928203727645N12152079WA0069400318000100012300262
B1928213727646N12152081WA0069400320000100011266270
B1928223727645N12152083WA0069400321000100011238268
B1928233727645N12152084WA0069400320000100010254281
B1928243727645N12152086WA0069400320000100011272294
B1928253727646N12152088WA0069400320000100011293302
B1928263727648N12152090WA0069400319000100015333314
B1928273727652N12152088WA0069400319000100025022340
B1928283727656N12152085WA0069400318000100029033010
B1928293727660N12152081WA0069400317000100031047029
B1928303727663N12152074WA0069400316000100037061040
B1928313727664N12152066WA0069400315000100041074062
B1928323727664N12152057WA0069400314000100043088084
B1928333727662N12152048WA0069400313000100046107108
B1928343727659N12152040WA0069400310000100044115137
B1928353727654N12152035WA0069400309000100036135154
B1928363727649N12152032WA0069400308000100032155178
B1928373727644N12152031WA0069400307000100031165196
B1928383727640N12152032WA0069400306000100023182212
B1928393727638N12152034WA0069400306000100017195230
B1928403727636N12152035WA0069400308000100011201240
B1928413727635N12152036WA0069400307000100012219241
B1928423727634N12152038WA0069400307000100014233243
B1928433727633N12152040WA0069400306000100014250243
B1928443727632N12152043WA0069400305000100020261252
B1928453727632N12152047WA0069400303000100023259243
B1928463727631N12152051WA0069400302000100023251239
B1928473727629N12152055WA0069400302000100021241249
B1928483727627N12152058WA0069400301000100017227230
B1928493727626N12152060WA0069400301000100013214229
B1928503727624N12152061WA0069400301000100011197216
B1928513727622N12152061WA0069400299000100017184214
B1928523727619N12152061WA0069400297000100023176198
B1928533727615N12152060WA0069400296000100030165186
B1928543727610N12152057WA0069400295000100036153174
B1928553727604N12152052WA0069400293000100043140160
B1928563727599N12152045WA0069400293000100044130147
B1928573727596N12152038WA0069400290000100045122131
B1928583727592N12152030WA0069400288000100049116123
B1928593727589N12152022WA0069400286000100050108110
B1929003727587N12152012WA0069400285000100049105103
B1929013727586N12152003WA0069400285000100046102100
B1929023727586N12151995WA0069400285000100037091097
B1929033727586N12151988WA0069400284000100035084075
B1929043727587N12151981WA0069400283000100039085069
B1929053727587N12151973WA0069400282000100047090071
B1929063727587N12151964WA0069400282000100049093076
B1929073727586N12151955WA0069400282000100046095078
B1929083727586N12151947WA0069400284000100041094092
B1929093727585N12151939WA0069400284000100040097106
B1929103727584N12151932WA0069400284000100039106122
B1929113727582N12151926WA0069400284000100037117143
B1929123727578N12151922WA0069400283000100032149164
B1929133727573N12151921WA0069400283000100031172194
B1929143727569N12151922WA0069400284000100022193219
B1929153727567N12151924WA0069400284000100015217254
B1929163727568N12151926WA0069400284000100008299268
B1929173727570N12151928WA0069400285000100013331300
B1929183727573N12151928WA0069400285000100019003321
B1929193727578N12151926WA0069400286000100024014328
B1929203727582N12151925WA0069400287000100026018335
B1929213727586N12151923WA0069400287000100028020343
B1929223727590N12151921WA0069400288000100029021341
B1929233727594N12151919WA0069400289000100029027342
B1929243727597N12151917WA0069400289000100026029330
B1929253727601N12151914WA0069400289000100022024339
B1929263727604N12151913WA0069400288000100022014332
B1929273727607N12151912WA0069400287000100025012328
B1929283727611N12151911WA0069400286000100030016334
B1929293727616N12151909WA0069400286000100032019333
B1929303727620N12151907WA0069400286000100031020331
B1929313727624N12151905WA0069400286000100027022340
B1929323727628N12151903WA0069400285000100027023338
B1929333727632N12151900WA0069400284000100030027334
B1929343727636N12151897WA0069400283000100034030335
B1929353727641N12151894WA0069400283000100033028335
B1929363727645N12151892WA0069400282000100027021325
B1929373727648N12151891WA0069400281000100022008322
B1929383727651N12151891WA0069400280000100018349308
B1929393727654N12151892WA0069400279000100017327299
B1929403727655N12151895WA0069400278000100012301292
B1929413727654N12151898WA0069400278000100012265282
B1929423727654N12151900WA0069400279000100010260270
B1929433727654N12151902WA0069400280000100008278267
B1929443727654N12151904WA0069400281000100006266275
B1929453727653N12151905WA0069400281000100008239271
B1929463727652N12151907WA0069400280000100013224264
B1929473727650N12151909WA0069400280000100020220250
B1929483727648N12151912WA0069400280000100020216239
B1929493727645N12151913WA0069400280000100018201233
B1929503727642N12151914WA0069400280000100016178230
B1929513727640N12151914WA0069400279000100013173220
B1929523727638N12151914WA0069400279000100013197229
B1929533727636N12151915WA0069400278000100018213236
B1929543727633N12151918WA0069400279000100023221241
B1929553727631N12151921WA0069400281000100020227226
B1929563727629N12151924WA0069400281000100014229248
B1929573727628N12151925WA0069400282000100012218225
B1929583727626N12151927WA0069400281000100013217243
B1929593727624N12151928WA0069400280000100015217233
B1930003727623N12151930WA0069400279000100016226240
B1930013727621N12151933WA0069400277000100019230231
B1930023727619N12151936WA0069400277000100022223228
B1930033727616N12151938WA0069400276000100022209224
B1930043727613N12151939WA0069400276000100021192234
B1930053727610N12151940WA0069400274000100019185231
B1930063727607N12151941WA0069400274000100018208249
B1930073727605N12151943WA0069400273000100019227222
B1930083727603N12151947WA0069400273000100021232257
B1930093727601N12151951WA0069400274000100020234237
B1930103727599N12151954WA0069400274000100015232243
B1930113727598N12151956WA0069400274000100013230267
B1930123727596N12151958WA0069400274000100015227258
B1930133727595N12151961WA0069400273000100017232234
B1930143727593N12151964WA0069400271000100021240261
B1930153727592N12151968WA0069400268000100020252253
B1930163727591N12151971WA0069400266000100017261257
B1930173727591N12151975WA0069400265000100017267256
B1930183727591N12151978WA0069400264000100019257240
B1930193727589N12151982WA0069400263000100022237230
B1930203727587N12151985WA0069400262000100023219218
B1930213727582N12151986WA0069400261000100033189209
B1930223727576N12151986WA0069400260000100036179189
B1930233727570N12151985WA0069400260000100036167187
B1930243727565N12151982WA0069400260000100037158176
B1930253727560N12151978WA0069400260000100037145166
B1930263727555N12151973WA0069400259000100039134155
B1930273727551N12151967WA0069400258000100041127139
B1930283727548N12151960WA0069400258000100046119127
B1930293727546N12151952WA0069400257000100043107116
B1930303727547N12151943WA0069400255000100041075100
B1930313727550N12151936WA0069400254000100039061055
B1930323727553N12151930WA0069400254000100036058038
B1930333727558N12151928WA0069400254000100027030032
B1930343727562N12151928WA0069400254000100023011356
B1930353727565N12151929WA0069400255000100018348338
B1930363727566N12151931WA0069400258000100013325319
B1930373727567N12151934WA0069400259000100013301302
B1930383727568N12151937WA0069400260000100015293291
B1930393727569N12151939WA0069400261000100011288281
B1930403727570N12151942WA0069400262000100011300288
B1930413727571N12151943WA0069400261000100014323290
B1930423727573N12151945WA0069400261000100018329303
B1930433727576N12151947WA0069400262000100022329291
B1930443727579N12151950WA0069400262000100022319285
B1930453727580N12151953WA0069400263000100019299275
B1930463727581N12151956WA0069400263000100017272260
B1930473727577N12151960WA0069400263000100027215253
B1930483727573N12151963WA0069400264000100029200222
B1930493727567N12151963WA0069400264000100033170215
B1930503727562N12151960WA0069400266000100033156192
B1930513727558N12151958WA0069400265000100027159187
B1930523727554N12151957WA0069400264000100025169193
B1930533727550N12151957WA0069400264000100025184198
B1930543727547N12151958WA0069400263000100026187196
B1930553727543N12151958WA0069400264000100025183196
B1930563727539N12151958WA0069400263000100022178196
B1930573727536N12151958WA0069400263000100021180203
B1930583727532N12151958WA0069400262000100024183205
B1930593727529N12151959WA0069400261000100027190209
B1931003727524N12151961WA0069400261000100030202212
B1931013727521N12151964WA0069400261000100029216228
B1931023727518N12151967WA0069400261000100025227235
B1931033727516N12151971WA0069400261000100021249253
B1931043727516N12151975WA0069400262000100017265260
B1931053727516N12151978WA0069400262000100014267262
B1931063727517N12151980WA0069400261000100015287282
B1931073727518N12151983WA0069400261000100021306292
B1931083727520N12151986WA0069400261000100023311291
B1931093727522N12151989WA0069400262000100019312310
B1931103727524N12151992WA0069400262000100013317287
B1931113727525N12151993WA0069400261000100008329305
B1931123727527N12151994WA0069400260000100013323302
B1931133727529N12151996WA0069400261000100018320279
B1931143727530N12151998WA0069400261000100015321290
B1931153727532N12151999WA0069400262000100009319290
B1931163727532N12152000WA0069400262000100004319297
B1931173727533N12152001WA0069400263000100008311304
B1931183727534N12152002WA0069400263000100013314275
B1931193727535N12152004WA0069400263000100020315306
B1931203727537N12152007WA0069400264000100015303264
B1931213727538N12152009WA0069400264000100009283267
B1931223727538N12152010WA0069400263000100007251257
B1931233727537N12152011WA0069400263000100009232248
B1931243727536N12152013WA0069400262000100016234244
B1931253727533N12152016WA0069400261000100023220238
B1931263727530N12152019WA0069400260000100027208227
B1931273727525N12152021WA0069400259000100029193218
B1931283727520N12152021WA0069400258000100030176209
B1931293727515N12152020WA0069400254000100032168194
B1931303727510N12152018WA0069400251000100035161185
B1931313727504N12152015WA0069400248000100039153174
B1931323727499N12152011WA0069400245000100045146163
B1931333727493N12152005WA0069400243000100048139152
B1931343727488N12151998WA0069400241000100048128143
B1931353727485N12151989WA0069400238000100048110129
B1931363727485N12151979WA0069400235000100049092107
B1931373727485N12151970WA0069400234000100044088082
B1931383727485N12151963WA0069400232000100039082077
B1931393727486N12151957WA0069400230000100031068067
B1931403727489N12151952WA0069400228000100029052042
B1931413727492N12151950WA0069400226000100026031022
B1931423727496N12151948WA0069400224000100024021359
B1931433727500N12151948WA0069400223000100017008348
B1931443727502N12151949WA0069400222000100010013332
B1931453727503N12151950WA0069400220000100004013315
B1931463727503N12151950WA0069400221000100005013299
B1931473727504N12151952WA0069400219000100010311293
B1931483727506N12151954WA0069400217000100017308271
B1931493727507N12151957WA0069400216000100016306291
B1931503727509N12151959WA0069400214000100011301288
B1931513727510N12151961WA0069400210000100011295278
B1931523727510N12151963WA0069400207000100014289275
B1931533727511N12151966WA0069400204000100016276267
B1931543727511N12151970WA0069400201000100018263261
B1931553727511N12151973WA0069400199000100019255254
B1931563727510N12151976WA0069400197000100015249249
B1931573727509N12151979WA0069400195000100013244244
B1931583727508N12151981WA0069400193000100015240245
B1931593727507N12151984WA0069400191000100020229245
B1932003727504N12151987WA0069400189000100023217235
B1932013727501N12151989WA0069400188000100026209227
B1932023727497N12151992WA0069400187001100025205217
B1932033727494N12151994WA0069400185000100024203214
B1932043727491N12151996WA0069400183000100026202209
B1932053727487N12151998WA0069400182000100028201210
B1932063727483N12151999WA0069400182000100025195210
B1932073727480N12152001WA0069400181000100022194205
B1932083727477N12152002WA0069400179000100022200210
B1932093727474N12152004WA0069400177000100025209211
B1932103727470N12152006WA0069400176000100027211212
B1932113727467N12152009WA0069400175000100028206211
B1932123727463N12152011WA0069400174000100025202205
B1932133727460N12152013WA0069400174000100019196218
B1932143727458N12152013WA0069400173000100013194219
B1932153727456N12152014WA0069400172000100009203228
B1932163727456N12152015WA0069400171000100008232223
B1932173727455N12152016WA0069400170000100007258347
B1932183727455N12152017WA0069400169000100000258018
B1932193727455N12152017WA0069400169001100000258008
B1932203727455N12152016WA0069400170000100000258214
B1932213727455N12152016WA0069400170000100000258340
B1932223727455N12152015WA0069400170000100000258332
B1932233727455N12152015WA0069400169000100000258324
B1932243727455N12152015WA0069400169000100000258319
B1932253727455N12152015WA0069400170000100000258313
B1932263727455N12152015WA0069400170000100000258309
B1932273727455N12152015WA0069400170000100000258306
B1932283727455N12152015WA0069400170000100000258303
B1932293727455N12152015WA0069400170000100000258300
B1932303727455N12152015WA0069400170000100000258299
B1932313727455N12152015WA0069400170000100000258296
B1932323727455N12152015WA0069400170000100000258296
B1932333727455N12152015WA0069400170000100000258295
B1932343727455N12152015WA0069400170000100000258294
B1932353727455N12152015WA0069400170000100000258293
B1932363727455N12152015WA0069400170000100000258293
B1932373727455N12152015WA0069400170000100000258292
B1932383727455N12152015WA0069400170000100000258291
B1932393727455N12152015WA0069400170000100000258291
B1932403727455N12152015WA0069400170000100000258291
B1932413727455N12152015WA0069400170000100000258291
B1932423727455N12152015WA0069400170000100000258291
B1932433727455N12152015WA0069400170000100000258289
B1932443727455N12152015WA0069400170000100000258289
B1932453727455N12152015WA0069400170000100000258291
B1932463727455N12152015WA0069400170000100000258290
B1932473727454N12152014WA0069400171000100002258290
B1932483727454N12152014WA0069400171000100002258288
GznkUQyG2vK4BGyjU4c0Z6QmfbYiYvI9s8J6GRE2RgCgBIL+6UN4aliq2Y4LBSdrm
G1qmjMFExr1maXSZp8RIoebkDhT7mybQRER0sge927SKCMI3xeFNyxiqHd3tPNf9j
GhTmdUT6av+FPur3LIPOvPSvv6/hTt+TR+eOJXAdWVV4=
