AXFH000
HFDTE011125
HFPLTPILOT:Scott O’Brien
HFGTYGLIDERTYPE:Ozone Swift 6
HFDTM100GPSDATUM:WGS84
HFRFWFIRMWAREVERSION:9.3
HFRHWHARDWAREVERSION:iPhone 15
HFFTYFRTYPE:Flyskyhy,9.3
HFGPS:Internal
HFPRSVARIO:Internal Vario
HFCCLCOMPETITIONCLASS:Paraglider
HFTZNTIMEZONE:-7
HFSITSITE:Ed Levin 300ft,US
I053638FXA3941VXA4244GSP4547CCO4850HDT
C011125171708011125000100TASK
C0000000N00000000ETAKEOFF
C3731062N12153514W00000000000400000000360000STARTAREA 
C3726317N12149880W00000000000400000000360000FINISHAREA Big Dog Vineyards
C0000000N00000000ELANDING
E171736PEVBackground
B1717363727662N12151864WA0028300283022003000267294
B1717373727662N12151864WA0028300283022003001206289
B1717383727662N12151864WA0028300283022003000267291
B1717393727662N12151864WA0028300283022003000267289
B1717403727662N12151864WA0028300283022003000267289
B1717413727662N12151864WA0028300283022003001272282
B1717423727662N12151864WA0028300283022003001267282
B1717433727662N12151864WA0028300283022003000267285
B1717443727661N12151864WA0028300282022003000267285
B1717453727662N12151864WA0028300282022003000267285
B1717463727662N12151864WA0028200282022003000267283
B1717473727662N12151863WA0028200282022003000267282
B1717483727662N12151863WA0028200282022003000267285
B1717493727662N12151863WA0028200283022003000267286
B1717503727662N12151863WA0028200282022003000267290
B1717513727662N12151863WA0028200282022003000267311
B1717523727662N12151863WA0028200282022003000267332
B1717533727662N12151863WA0028200283022003000267333
B1717543727662N12151863WA0028200282022003000267329
B1717553727662N12151863WA0028200282022003000267319
B1717563727661N12151864WA0028200282022003000267317
B1717573727661N12151864WA0028200282022003000267257
B1717583727662N12151864WA0028200282022003000267245
B1717593727661N12151864WA0028200282022003000169266
B1718003727661N12151864WA0028200282022003001210256
B1718013727661N12151865WA0028200282022003006255028
B1718023727660N12151866WA0028200281022003018227278
B1718033727660N12151867WA0028200279022003006231042
B1718043727659N12151868WA0028100280022003008220116
B1718053727658N12151868WA0028000280022003008167167
B1718063727656N12151869WA0028000280022003015201029
B1718073727653N12151870WA0027900278022003020195052
B1718083727649N12151872WA0027800275022003020203000
B1718093727646N12151874WA0027800275022003028201000
B1718103727642N12151875WA0027600276022003028198000
B1718113727639N12151878WA0027600275022003021220000
B1718123727636N12151881WA0027500275022003025218000
B1718133727633N12151884WA0027400274022003025216000
B1718143727630N12151887WA0027300273022003025222000
B1718153727627N12151890WA0027200273022003025226000
B1718163727624N12151894WA0027100272022003027225000
B1718173727622N12151897WA0027100271022003027218000
B1718183727618N12151897WA0027000270022003027183000
B1718193727613N12151897WA0026900270022003029174000
B1718203727609N12151897WA0026900271022003029177000
B1718213727606N12151899WA0026800271022003025202000
B1718223727603N12151901WA0026800271022003025220000
B1718233727601N12151904WA0026800270022003024236000
B1718243727599N12151909WA0026700270022003024255000
B1718253727599N12151913WA0026700269022003026268000
B1718263727601N12151918WA0026700267022003031303000
B1718273727603N12151922WA0026700266022003031315000
B1718283727606N12151926WA0026700266022003031323000
B1718293727610N12151929WA0026600266022003030332000
B1718303727613N12151930WA0026600267022003026340358
B1718313727617N12151931WA0026500266022003024347357
B1718323727621N12151933WA0026400265022003028335349
B1718333727624N12151936WA0026400265022003028325345
B1718343727628N12151939WA0026300265022003031319341
B1718353727631N12151942WA0026300267022003025324345
B1718363727633N12151945WA0026200267022003025319348
B1718373727636N12151947WA0026200266022003020322351
B1718383727638N12151951WA0026200264022003020311352
B1718393727641N12151956WA0026200263022003033306352
B1718403727644N12151960WA0026200262022003033304353
B1718413727646N12151964WA0026200262022003030299354
B1718423727647N12151968WA0026100261022003024278354
B1718433727647N12151973WA0026100260022003023276355
B1718443727648N12151978WA0026100258022003028277356
B1718453727649N12151983WA0026000258022003026282356
B1718463727650N12151987WA0025900259022003026286357
B1718473727651N12151991WA0025800259022003022292358
B1718483727652N12151994WA0025700260022003022293358
B1718493727653N12151998WA0025700259022003022289358
B1718503727654N12152003WA0025700258022003022284358
B1718513727655N12152007WA0025700256022003022286359
B1718523727656N12152010WA0025600255022003020284359
B1718533727656N12152015WA0025600254022003024278359
B1718543727657N12152020WA0025500252022003024275359
B1718553727658N12152024WA0025400252022003024276359
B1718563727658N12152027WA0025300253022003023278359
B1718573727658N12152031WA0025200252022003017274359
B1718583727658N12152034WA0025100250022003019266359
B1718593727658N12152038WA0025000248022003019261359
B1719003727657N12152042WA0024900246022003022249359
B1719013727654N12152046WA0024800245022003026227359
B1719023727650N12152049WA0024800242022003029201359
B1719033727647N12152050WA0024700238022003029184359
B1719043727642N12152048WA0024500240022003029154359
B1719053727638N12152045WA0024400240022003029136000
B1719063727636N12152042WA0024200240022003029129000
B1719073727633N12152038WA0024100238022003028129000
B1719083727629N12152034WA0024000236022003033140000
B1719093727625N12152032WA0023900235022003033156000
B1719103727621N12152029WA0023800235022003033158000
B1719113727617N12152028WA0023600234022003033163000
B1719123727614N12152027WA0023500234022003021171359
B1719133727610N12152026WA0023400234022003021169359
B1719143727607N12152025WA0023300234022003021169359
B1719153727602N12152025WA0023200232022003025183359
B1719163727598N12152026WA0023100229022003029192359
B1719173727593N12152027WA0023100232022003032188359
B1719183727589N12152028WA0023100232022003032194359
B1719193727586N12152029WA0023000233022003026195359
B1719203727583N12152030WA0023000233022003019203359
B1719213727581N12152032WA0023000230022003019202359
B1719223727578N12152034WA0023000230022003020218359
B1719233727576N12152037WA0023000228022003027233359
B1719243727573N12152041WA0023000227022003027232359
B1719253727570N12152045WA0022900227022003027225359
B1719263727567N12152047WA0022800227022003025199359
B1719273727564N12152048WA0022700226022003021194359
B1719283727560N12152049WA0022600225022003024188359
B1719293727557N12152050WA0022500225022003023194359
B1719303727554N12152051WA0022500225022003023184359
B1719313727550N12152051WA0022400223022003023178359
B1719323727546N12152050WA0022300222022003027168359
B1719333727542N12152049WA0022200220022003029168359
B1719343727538N12152048WA0022100218022003029165359
B1719353727535N12152047WA0022100217022003029166359
B1719363727531N12152046WA0022000216022003024169359
B1719373727528N12152046WA0021800214022003022176359
B1719383727524N12152046WA0021700212022003026178359
B1719393727520N12152046WA0021500211022003026185359
B1719403727515N12152048WA0021400211022003029192359
B1719413727511N12152048WA0021200211022003029195359
B1719423727507N12152049WA0021100210022003022196359
B1719433727504N12152050WA0021000209022003023192359
B1719443727500N12152051WA0020900208022003023188359
B1719453727496N12152052WA0020800207022003027184359
B1719463727492N12152052WA0020700206022003029183359
B1719473727488N12152052WA0020700206022003028182359
B1719483727483N12152052WA0020600205022003029173359
B1719493727479N12152052WA0020500205022003028178359
B1719503727475N12152051WA0020500205022003026168359
B1719513727472N12152050WA0020400205022003023168359
B1719523727468N12152049WA0020400204022003024171359
B1719533727465N12152049WA0020400201022004025175359
B1719543727461N12152050WA0020300199022003025187359
B1719553727458N12152052WA0020200197022003025210359
B1719563727455N12152057WA0020100195022003028237359
B1719573727454N12152062WA0019900192022003033271359
B1719583727455N12152067WA0019700191022003033293359
B1719593727458N12152071WA0019500191022003032322359
B1720003727462N12152073WA0019300191022003030341357
B1720013727465N12152076WA0019100191022003029324356
B1720023727467N12152079WA0019000190022003023311349
B1720033727470N12152083WA0019000190022003027311348
B1720043727472N12152087WA0018900188022003025306350
B1720053727473N12152091WA0018900184022003025283348
B1720063727473N12152096WA0018800181022003025264347
B1720073727472N12152101WA0018600178022004029249345
B1720083727469N12152106WA0018400181022003032228347
B1720093727467N12152110WA0018400180022003029240348
B1720103727466N12152114WA0018300179022003025254351
B1720113727465N12152117WA0018100178022003020249354
B1720123727464N12152120WA0018000177022003020230355
B1720133727462N12152124WA0018000177022003023222354
B1720143727460N12152126WA0018000177022003020233000
B1720153727460N12152127WA0017900178022003014264000
B1720163727459N12152129WA0017900178022003008258000
B1720173727458N12152131WA0017800179022003013243000
B1720183727458N12152131WA0017800178022003013237000
B1720193727458N12152133WA0017800179022003007247000
B1720203727457N12152134WA0017800179022003006244000
B1720213727457N12152135WA0017800178022003006242000
B1720223727457N12152136WA0017800178022003004242000
B1720233727457N12152136WA0017800178022003004242000
B1720243727457N12152135WA0017800178022003003350000
B1720253727458N12152135WA0017800178022003003350000
B1720263727458N12152135WA0017800178022003000350000
B1720273727458N12152135WA0017800178022003000351000
B1720283727458N12152135WA0017800178022003000350000
B1720293727458N12152135WA0017800178022003000351357
B1720303727458N12152135WA0017800178022003001351001
B1720313727458N12152135WA0017800179022003000351357
B1720323727458N12152135WA0017800179022003000351352
B1720333727457N12152135WA0017800179022003000351353
B1720343727457N12152135WA0017800179022003000351354
B1720353727457N12152135WA0017800179022003000351355
B1720363727457N12152135WA0017800179022003000351356
B1720373727457N12152135WA0017800179022003000351357
B1720383727458N12152135WA0017800179022003000351357
B1720393727458N12152135WA0017800178022003000351357
B1720403727458N12152135WA0017800179022003000351358
B1720413727458N12152136WA0017800179022003001351358
B1720423727458N12152135WA0017800179022003000351358
B1720433727458N12152135WA0017800179022003000351359
B1720443727457N12152135WA0017800179022003000351359
B1720453727458N12152135WA0017800179022003000351359
B1720463727458N12152135WA0017800179022003000351359
B1720473727458N12152135WA0017800179022003000351359
B1720483727457N12152135WA0017800179022003000351359
B1720493727457N12152135WA0017800179022003000351359
GU1lVhYi5X27uFMwrLjqjSnIRtyRbcP9YKHnUOeK6E187jeomr6OycYw2MuIbIn6m
GmI1+ZntBWs2RbecTAgkF9xDhTymVSkuIL67rl9O8HT1gcNHZEVi0KPoIXCVxf7PU
GKQqFOh/4hIFdetIZeessJBgY3/oJ23Jl/M/WeKQB1o0=

