AXFH000
HFDTE071124
HFPLTPILOT:Scott O’Brien
HFGTYGLIDERTYPE:Ozone Swift 6
HFDTM100GPSDATUM:WGS84
HFRFWFIRMWAREVERSION:8.2.5
HFRHWHARDWAREVERSION:iPhone 15
HFFTYFRTYPE:Flyskyhy,8.2.5
HFGPS:Internal
HFPRSVARIO:Internal Vario
HFCCLCOMPETITIONCLASS:Paraglider
HFTZNTIMEZONE:-3
HFSITSITE:Iquique - Palo Buque,CL
I053638FXA3941VXA4244GSP4547CCO4850HDT
C071124215449071124000105TASK
C0000000N00000000ETAKEOFF
C3832449N11204411W00000000001000000000360000STARTAREA T04
C3832449N11204411W00030009999999000000360000TURNAREA T04
C3833533N11148217W00000000002000000000360000TURNAREA P30
C3845304N11125100W00000000006000000000360000TURNAREA S08
C3913309N11109083W00000000002000000000360000TURNAREA F04
C3935774N11050460W00000000003000000000360000TURNAREA G14
C3935774N11050460W00000000000400000000360000FINISHAREA G14
C0000000N00000000ELANDING
B2155202023081S07009054WA0020500206005010001310326
B2155212023081S07009054WA0020500206005010001300271
B2155222023081S07009054WA0020600206005010001278306
B2155232023081S07009054WA0020600206005010003331294
B2155242023080S07009054WA0020600207005010005330163
B2155252023079S07009055WA0020600207005010004313135
B2155262023078S07009055WA0020600208005010005325183
B2155272023078S07009055WA0020600208005010001222174
B2155282023078S07009055WA0020700208005010001195174
B2155292023078S07009055WA0020700208005010001159178
B2155302023078S07009055WA0020700208005010000000182
B2155312023078S07009055WA0020700208005010000000172
B2155322023078S07009055WA0020700208005010001059174
B2155332023078S07009055WA0020700208005010000000192
B2155342023078S07009055WA0020700208005010000000188
B2155352023078S07009055WA0020700208005010000000192
B2155362023078S07009055WA0020700208005010003214203
B2155372023079S07009055WA0020700208005010007207203
B2155382023080S07009056WA0020700208005010008212210
B2155392023081S07009057WA0020700208005010011223212
B2155402023083S07009058WA0020700208005010013231195
B2155412023084S07009059WA0020700208005010015221194
B2155422023086S07009060WA0020600208005010014213176
B2155432023088S07009061WA0020600208005010014190159
B2155442023090S07009061WA0020500208005010018169162
B2155452023093S07009060WA0020500207005010019144155
B2155462023095S07009057WA0020500207005010022123134
B2155472023097S07009054WA0020500207005010023121147
B2155482023099S07009052WA0020600207005010019131152
B2155492023101S07009049WA0020600207005010018136138
B2155502023102S07009047WA0020600207005010019125144
B2155512023104S07009045WA0020700207005010022115143
B2155522023106S07009042WA0020800208005010024113147
B2155532023107S07009038WA0020800208005010021117149
B2155542023108S07009036WA0020900208005010016125150
B2155552023110S07009034WA0020900209005010014140150
B2155562023112S07009032WA0020900209005010017147156
B2155572023114S07009031WA0020900209005010020149159
B2155582023116S07009029WA0020900209005010020142160
B2155592023119S07009027WA0020900209005010020135161
B2156002023121S07009025WA0020900210005010019138171
B2156012023123S07009023WA0020800210005010015162182
B2156022023125S07009024WA0020800210005010014214197
B2156032023126S07009026WA0020800210005010023258223
B2156042023126S07009030WA0020800209005010028272259
B2156052023124S07009035WA0020700209005010038309274
B2156062023120S07009038WA0020600209005010036327304
B2156072023115S07009041WA0020500209005010034334307
B2156082023110S07009044WA0020500209005010032332308
B2156092023106S07009046WA0020500209005010030323311
B2156102023102S07009050WA0020500209005010031312302
B2156112023099S07009054WA0020500209005010032311296
B2156122023095S07009057WA0020500209005010033314294
B2156132023092S07009061WA0020500210005010031323299
B2156142023088S07009064WA0020500211005010030331303
B2156152023084S07009066WA0020500212005010030336304
B2156162023080S07009068WA0020600213005010031334314
B2156172023075S07009070WA0020700214005010033328313
B2156182023071S07009073WA0020800214005010034328304
B2156192023066S07009075WA0020900215005010035337312
B2156202023062S07009077WA0020900216005010033343315
B2156212023057S07009079WA0021000217005010030339313
B2156222023053S07009081WA0021100218005010027325309
B2156232023050S07009084WA0021200219005010028316302
B2156242023047S07009087WA0021300219005010029320303
B2156252023044S07009090WA0021400220005010031329308
B2156262023039S07009092WA0021400221005010033335320
B2156272023035S07009094WA0021500221005010036337319
B2156282023029S07009096WA0021600222005010038338327
B2156292023024S07009098WA0021600222005010038339327
B2156302023019S07009100WA0021700223005010033345316
B2156312023014S07009101WA0021800224005010031343314
B2156322023010S07009103WA0021800225005010030333307
B2156332023006S07009106WA0022000226005010027316295
B2156342023004S07009109WA0022100226005010025290274
B2156352023004S07009113WA0022200226005010020250247
B2156362023006S07009115WA0022300227005010021200214
B2156372023009S07009115WA0022300227005010025154178
B2156382023012S07009112WA0022300228005010029123153
B2156392023014S07009107WA0022300228005010028106142
B2156402023015S07009103WA0022300229005010024101139
B2156412023016S07009100WA0022400229005010021106137
B2156422023017S07009097WA0022500230005010017117139
B2156432023018S07009095WA0022600230005010019124142
B2156442023020S07009092WA0022700231005010022122148
B2156452023021S07009089WA0022800231005010024111147
B2156462023022S07009085WA0022800232005010024101136
B2156472023023S07009082WA0022900232005010021104131
B2156482023024S07009079WA0022900233005010019121132
B2156492023026S07009076WA0022900233005010020136143
B2156502023028S07009074WA0023000234005010020133151
B2156512023030S07009072WA0023000234005010021122148
B2156522023031S07009069WA0023100235005010019120141
B2156532023033S07009067WA0023100236005010018129139
B2156542023035S07009064WA0023100236005010019137145
B2156552023037S07009062WA0023100236005010023132150
B2156562023039S07009059WA0023200237005010025123149
B2156572023041S07009056WA0023200237005010023118143
B2156582023042S07009053WA0023200238005010021122140
B2156592023044S07009050WA0023300238005010021126140
B2157002023046S07009047WA0023400239005010023127146
B2157012023048S07009044WA0023400240005010026121147
B2157022023050S07009040WA0023500240005010027117146
B2157032023052S07009037WA0023500241005010025116138
B2157042023053S07009033WA0023600242005010021119138
B2157052023055S07009031WA0023700243005010015122143
B2157062023056S07009029WA0023900243005010013130143
B2157072023057S07009027WA0024000244005010017127152
B2157082023059S07009025WA0024100245005010021115144
B2157092023060S07009022WA0024200246005010023106138
B2157102023060S07009018WA0024300247005010020096139
B2157112023061S07009015WA0024400248005010018094144
B2157122023061S07009012WA0024500249005010017095137
B2157132023061S07009010WA0024600249005010016118133
B2157142023063S07009008WA0024600250005010015146152
B2157152023065S07009007WA0024600250005010015180168
B2157162023067S07009008WA0024600251005010014213187
B2157172023068S07009010WA0024500251005010020261209
B2157182023068S07009014WA0024400251005010025285247
B2157192023066S07009018WA0024400252005010031298272
B2157202023064S07009022WA0024400252005010035309290
B2157212023060S07009026WA0024400252005010038313300
B2157222023056S07009031WA0024300252005010039315295
B2157232023052S07009035WA0024300252005010037314302
B2157242023048S07009039WA0024400252005010035325304
B2157252023043S07009041WA0024400253005010033334312
B2157262023039S07009043WA0024500253005010029335298
B2157272023035S07009046WA0024700254005010031327305
B2157282023031S07009049WA0024800255005010036325308
B2157292023026S07009052WA0024800255005010036326303
B2157302023022S07009055WA0024900256005010033331306
B2157312023017S07009057WA0024900256005010032336309
B2157322023013S07009059WA0024900257005010031336308
B2157332023009S07009061WA0024900258005010031334303
B2157342023005S07009063WA0024900258005010033330306
B2157352023000S07009066WA0025000259005010035330305
B2157362022996S07009068WA0025000259005010034327300
B2157372022992S07009072WA0025000260005010034321292
B2157382022988S07009075WA0025000261005010031314294
B2157392022985S07009078WA0025000261005010029315290
B2157402022982S07009082WA0025000261005010029313287
B2157412022979S07009085WA0024900262005010031310287
B2157422022976S07009089WA0024900262005010033308289
B2157432022973S07009093WA0024900262005010034310284
B2157442022970S07009097WA0024900263005010034312277
B2157452022966S07009101WA0024900263005010033309273
B2157462022964S07009105WA0025000263005010030302263
B2157472022961S07009109WA0025000264005010029293265
B2157482022960S07009114WA0025000264005010026278256
B2157492022960S07009117WA0025000265005010024269243
B2157502022960S07009121WA0025100266005010021252237
B2157512022962S07009124WA0025200266005010018239219
B2157522022964S07009125WA0025200267005010019196208
B2157532022967S07009125WA0025300267005010020168178
B2157542022970S07009124WA0025300267005010020141161
B2157552022972S07009121WA0025400268005010022120145
B2157562022974S07009118WA0025400268005010024108136
B2157572022975S07009113WA0025500268005010026100137
B2157582022976S07009108WA0025500268005010029091123
B2157592022976S07009103WA0025600268005010032084126
B2158002022976S07009098WA0025700268005010031081122
B2158012022975S07009093WA0025800268005010030083123
B2158022022975S07009088WA0025800268005010028085115
B2158032022975S07009083WA0025900269005010027102121
B2158042022976S07009079WA0025900269005010026111129
B2158052022978S07009075WA0026000270005010026114132
B2158062022979S07009072WA0026100270005010025109137
B2158072022981S07009068WA0026100271005010024107135
B2158082022982S07009064WA0026100271005010023110136
B2158092022983S07009061WA0026200272005010022112136
B2158102022984S07009058WA0026300273005010022112134
B2158112022986S07009055WA0026300273005010022118134
B2158122022987S07009052WA0026400274005010023125137
B2158132022989S07009048WA0026400274005010023122142
B2158142022991S07009045WA0026400275005010024120145
B2158152022995S07009039WA0026400276005010019131149
B2158162022997S07009037WA0026400276005010019147162
B2158172022999S07009036WA0026400277005010019147167
B2158182023001S07009034WA0026400277005010019133163
B2158192023003S07009032WA0026500278005010018120154
B2158202023004S07009029WA0026500279005010017119152
B2158212023005S07009027WA0026600279005010015126162
B2158222023007S07009026WA0026600280005010014148168
B2158232023009S07009025WA0026600280005010012174181
B2158242023010S07009025WA0026700280005010009222198
B2158252023011S07009027WA0026700281005010013247220
B2158262023012S07009029WA0026700281005010012261238
B2158272023012S07009031WA0026700281005010009294245
B2158282023011S07009032WA0026700281005010010321250
B2158292023009S07009034WA0026800281005010019326268
B2158302023006S07009036WA0026800281005010025317304
B2158312023003S07009039WA0026900281005010027318297
B2158322022999S07009042WA0027000282005010036324303
B2158332022994S07009046WA0027000282005010035330312
B2158342022989S07009048WA0027100282005010036332313
B2158352022984S07009051WA0027100283005010036331315
B2158362022979S07009054WA0027100283005010038325309
B2158372022974S07009058WA0027200284005010038320303
B2158382022968S07009063WA0027200285005010036322293
B2158392022962S07009066WA0027200285005010035323304
B2158402022958S07009070WA0027300286005010034321285
B2158412022954S07009074WA0027300287005010033314283
B2158422022950S07009077WA0027300287005010032306279
B2158432022947S07009082WA0027400288005010032306278
B2158442022943S07009086WA0027500289005010027306284
B2158452022939S07009091WA0027600290005010028317288
B2158462022934S07009094WA0027800290005010030321291
B2158472022930S07009098WA0027900291005010028317284
B2158482022927S07009101WA0028000292005010028309269
B2158492022925S07009104WA0028000292005010025292256
B2158502022924S07009107WA0028100293005010019276240
B2158512022925S07009110WA0028100293005010012264222
B2158522022926S07009111WA0028100293005010006240205
B2158532022928S07009110WA0028200293005010009150185
B2158542022930S07009107WA0028200292005010014093152
B2158552022930S07009103WA0028300292005010022075120
B2158562022929S07009099WA0028400292005010024075115
B2158572022928S07009095WA0028600292005010021081111
B2158582022929S07009091WA0028600292005010021099116
B2158592022930S07009087WA0028600293005010021107129
B2159002022931S07009084WA0028700294005010017120134
B2159012022932S07009080WA0028800295005010014122144
B2159022022933S07009078WA0028900296005010008127149
B2159032022935S07009077WA0029000296005010009206158
B2159042022936S07009078WA0029100296005010009227198
B2159052022937S07009080WA0029100296005010015241210
B2159062022938S07009083WA0029100296005010019265224
B2159072022938S07009086WA0029000297005010018285245
B2159082022937S07009088WA0029000297005010017303260
B2159092022934S07009092WA0029000297005010026315275
B2159102022931S07009096WA0029100297005010028304290
B2159112022929S07009100WA0029200298005010024282274
B2159122022928S07009104WA0029300298005010021258246
B2159132022929S07009107WA0029300298005010019245220
B2159142022930S07009109WA0029300299005010016208198
B2159152022932S07009109WA0029200299005010015154176
B2159162022934S07009107WA0029200299005010018126150
B2159172022934S07009104WA0029200300005010020107140
B2159182022935S07009100WA0029100301005010022097136
B2159192022936S07009096WA0029100301005010024094125
B2159202022936S07009091WA0029100301005010026093137
B2159212022936S07009086WA0029200301005010028093126
B2159222022936S07009081WA0029300302005010030090117
B2159232022936S07009076WA0029400303005010030087120
B2159242022936S07009071WA0029600303005010029082123
B2159252022934S07009066WA0029800304005010029078122
B2159262022934S07009061WA0029900305005010028078116
B2159272022933S07009057WA0030100305005010026083118
B2159282022933S07009052WA0030200307005010026097118
B2159292022933S07009048WA0030300308005010025098129
B2159302022933S07009044WA0030400308005010024093132
B2159312022933S07009040WA0030500310005010023091130
B2159322022933S07009036WA0030500311005010022099127
B2159332022934S07009033WA0030500311005010022110129
B2159342022936S07009029WA0030600312005010024117135
B2159352022938S07009026WA0030700312005010023122139
B2159362022940S07009023WA0030800313005010024120140
B2159372022942S07009020WA0030800314005010024115138
B2159382022943S07009016WA0030800315005010023112133
B2159392022945S07009013WA0030900316005010023115132
B2159402022946S07009009WA0031000317005010023120133
B2159412022948S07009006WA0031100318005010024125136
B2159422022950S07009003WA0031200319005010023129140
B2159432022952S07009000WA0031200320005010022128147
B2159442022955S07008998WA0031300321005010021128148
B2159452022957S07008995WA0031400321005010021124147
B2159462022959S07008993WA0031500322005010022122144
B2159472022961S07008990WA0031600322005010024125145
B2159482022963S07008987WA0031600323005010022127154
B2159492022965S07008984WA0031700323005010018133163
B2159502022966S07008983WA0031800324005010011158169
B2159512022968S07008984WA0031800325005010010225187
B2159522022969S07008986WA0031800325005010018251215
B2159532022969S07008989WA0031800326005010019260237
B2159542022969S07008992WA0031800326005010019267245
B2159552022969S07008995WA0031800326005010017275249
B2159562022969S07008998WA0031800326005010016284251
B2159572022967S07009001WA0031800326005010019304255
B2159582022964S07009003WA0031900327005010023317279
B2159592022960S07009006WA0031900327005010030322297
B2200002022955S07009010WA0031900327005010035320302
B2200012022950S07009013WA0031900327005010036320301
B2200022022946S07009017WA0031900328005010036320298
B2200032022940S07009021WA0031900328005010034322305
B2200042022936S07009025WA0031900329005010033320296
B2200052022932S07009030WA0031900329005010033315288
B2200062022927S07009034WA0032000330005010030308283
B2200072022922S07009039WA0032000330005010031305275
B2200082022918S07009044WA0032000331005010030303264
B2200092022916S07009048WA0032000331010019029298253
B2200102022914S07009052WA0032000331005010028292245
B2200112022913S07009056WA0032000332005010027289246
B2200122022911S07009060WA0032100332005010024288242
B2200132022910S07009063WA0032100333005010021290242
B2200142022909S07009066WA0032300334005010020296247
B2200152022907S07009068WA0032400335005010019298254
B2200162022906S07009071WA0032600336005010018294256
B2200172022905S07009073WA0032700336005010016292252
B2200182022904S07009074WA0032900337005010014293251
B2200192022903S07009076WA0033000338005010012295248
B2200202022902S07009077WA0033100339005010006318243
B2200212022907S07009073WA0033200339005010012127215
B2200222022912S07009069WA0033300339005010019110145
B2200232022915S07009063WA0033400339005010022087120
B2200242022917S07009058WA0033500339005010026074100
B2200252022916S07009052WA0033700339005010030069084
B2200262022915S07009047WA0033700339005010035052090
B2200272022912S07009042WA0033800340005010033058093
B2200282022909S07009036WA0034000341005010030067101
B2200292022908S07009032WA0034200341005010029071112
B2200302022907S07009027WA0034300342005010025077116
B2200312022908S07009023WA0034400343005010022089126
B2200322022910S07009019WA0034500344005010016085138
B2200332022910S07009017WA0034500345005010012066141
B2200342022910S07009015WA0034600345005010014037133
B2200352022908S07009015WA0034600345010019017000090
B2200362022906S07009017WA0034700345010019023330070
B2200372022903S07009020WA0034900344005010022311004
B2200382022901S07009023WA0035000344005010021285014
B2200392022900S07009027WA0035200345005010020281120
B2200402022900S07009030WA0035300345005010019281126
B2200412022899S07009033WA0035400345005010017280125
B2200422022899S07009036WA0035500346005010014269123
B2200432022899S07009038WA0035500346005010009222126
B2200442022901S07009039WA0035700347005010013180127
B2200452022904S07009040WA0035800347005010012172129
B2200462022906S07009040WA0035900347005010014158126
B2200472022908S07009039WA0036000348005010014138125
B2200482022910S07009037WA0036100349005010016113120
B2200492022911S07009034WA0036200349005010019090112
B2200502022910S07009032WA0036300350005010027064099
B2200512022908S07009028WA0036500351005010030058090
B2200522022906S07009024WA0036700352005010029058096
B2200532022904S07009019WA0036800352005010029070109
B2200542022902S07009015WA0037000353005010030075118
B2200552022902S07009010WA0037100353005010029082132
B2200562022902S07009006WA0037200353005010029107148
B2200572022904S07009002WA0037300354005010027110161
B2200582022905S07008998WA0037400354005010023110177
B2200592022907S07008995WA0037500355005010013112182
B2201002022907S07008994WA0037700355005010007076189
B2201012022907S07008994WA0037700355005010007008190
B2201022022905S07008994WA0037700355005010011346195
B2201032022903S07008996WA0037800355005010020325205
B2201042022901S07008999WA0037800354005010025321224
B2201052022897S07009004WA0037800354005010030307232
B2201062022895S07009008WA0037800353005010028289243
B2201072022893S07009013WA0037900354005010026284223
B2201082022892S07009017WA0038000354005010024272214
B2201092022892S07009020WA0038000354005010020259205
B2201102022893S07009023WA0038100354005010012258194
B2201112022893S07009025WA0038200354005010003297188
B2201122022892S07009025WA0038400355005010007061175
B2201132022891S07009023WA0038500356005010013068158
B2201142022890S07009019WA0038700358005010021077141
B2201152022890S07009015WA0038900358005010025080130
B2201162022889S07009011WA0039000358005010027079128
B2201172022888S07009007WA0039100358005010023081143
B2201182022888S07009003WA0039100359005010016082157
B2201192022889S07009001WA0039100359005010007135165
B2201202022890S07009000WA0039100359005010006141189
B2201212022891S07008999WA0039100359005010005142191
B2201222022892S07008999WA0039100359005010004196192
B2201232022892S07008999WA0039100359005010006296194
B2201242022891S07009001WA0039200360005010011292204
B2201252022891S07009003WA0039300360005010012267215
B2201262022891S07009005WA0039400360005010014245210
B2201272022891S07009007WA0039600360005010014241204
B2201282022892S07009008WA0039600360005010014242204
B2201292022892S07009010WA0039600360005010013242201
B2201302022893S07009012WA0039700361005010011219192
B2201312022895S07009013WA0039700360005010011212181
B2201322022897S07009015WA0039800362005010011156165
B2201332022899S07009014WA0039800362005010015142147
B2201342022900S07009012WA0039800362005010017102130
B2201352022900S07009010WA0039800364005010032075117
B2201362022898S07009006WA0039800366005010041056097
B2201372022895S07009001WA0039800368005010037048079
B2201382022891S07008998WA0039800371005010034048082
B2201392022888S07008994WA0039800373005010034048098
B2201402022884S07008989WA0039900375005010032053101
B2201412022883S07008985WA0040000377005010035075110
B2201422022881S07008980WA0040100379005010035076126
B2201432022881S07008975WA0040100380005010023087130
B2201442022881S07008972WA0040200382005010022091146
B2201452022881S07008969WA0040300383005010021093146
B2201462022882S07008966WA0040300385005010021095145
B2201472022883S07008963WA0040400386005010021098142
B2201482022883S07008960WA0040500388005010020097152
B2201492022884S07008958WA0040600389005010020093152
B2201502022884S07008955WA0040700390005010018092148
B2201512022885S07008952WA0040800392005010015101157
B2201522022885S07008950WA0040800393005010014108180
B2201532022886S07008948WA0040900394005010010111200
B2201542022887S07008947WA0040900396005010004118209
B2201552022887S07008948WA0040900397005010004273227
B2201562022887S07008949WA0040900398005010008270245
B2201572022887S07008950WA0040800399005010009271253
B2201582022888S07008953WA0040800401005010008274250
B2201592022888S07008955WA0040800402005010010263241
B2202002022887S07008959WA0040800404005010021272237
B2202012022886S07008964WA0040900406005010019257241
B2202022022886S07008968WA0040900407005010019247232
B2202032022885S07008972WA0041100408005010018248228
B2202042022885S07008975WA0041300410005010017253213
B2202052022885S07008979WA0041500411005010016247208
B2202062022886S07008982WA0041600412005010013241213
B2202072022887S07008986WA0041800414005010014194208
B2202082022889S07008987WA0041800415005010013177184
B2202092022890S07008988WA0041800416005010009137175
B2202102022890S07008987WA0041800417005010012096161
B2202112022890S07008986WA0041800419005010015088140
B2202122022890S07008984WA0041800420005010019090129
B2202132022890S07008981WA0041800421005010023092130
B2202142022891S07008977WA0041800423005010028088120
B2202152022890S07008972WA0041800424005010033076102
B2202162022889S07008967WA0041900425005010033064092
B2202172022886S07008963WA0041900427005010033061089
B2202182022883S07008958WA0041900428005010031061103
B2202192022881S07008954WA0042000430005010028063121
B2202202022880S07008950WA0042100431005010026071137
B2202212022879S07008946WA0042200433005010025080148
B2202222022879S07008942WA0042200434005010022092161
B2202232022879S07008939WA0042300435005010020081173
B2202242022878S07008936WA0042300437005010020072165
B2202252022877S07008934WA0042300437030057019062150
B2202262022875S07008932WA0042300436030057018038130
B2202272022873S07008932WA0042400436030057014025121
B2202282022871S07008932WA0042400436010019008317147
B2202292022871S07008933WA0042500435005010001011189
B2202302022871S07008933WA0042500435005010001103170
B2202312022871S07008933WA0042500435005010001081158
B2202322022871S07008933WA0042500435005010014113158
B2202332022873S07008933WA0042500434005010017103146
B2202342022875S07008932WA0042500433005010020098134
B2202352022876S07008930WA0042500432005010021094129
B2202362022877S07008929WA0042500432005010024090123
B2202372022878S07008928WA0042500432005010028089124
B2202382022879S07008925WA0042500433005010024098141
B2202392022880S07008924WA0042600433005010019119160
B2202402022883S07008923WA0042600434005010017151172
B2202412022885S07008923WA0042600434005010019170190
B2202422022888S07008924WA0042700435005010014196201
B2202432022890S07008926WA0042800435005010014244215
B2202442022891S07008929WA0042900435005010019265225
B2202452022891S07008933WA0043000435005010023279237
B2202462022890S07008938WA0043000435005010023297245
B2202472022888S07008942WA0043100436005010027314251
B2202482022885S07008947WA0043300436005010029317261
B2202492022881S07008951WA0043500436005010029304275
B2202502022879S07008956WA0043700437005010029302261
B2202512022876S07008961WA0043900438005010027298255
B2202522022875S07008966WA0044100438005010022290251
B2202532022874S07008969WA0044300439005010018276239
B2202542022874S07008972WA0044500440005010014250231
B2202552022875S07008974WA0044700440005010012237211
B2202562022876S07008976WA0045000441005010010219206
B2202572022878S07008977WA0045200441005010011199196
B2202582022880S07008978WA0045400442005010011183189
B2202592022882S07008977WA0045600443005010012163180
B2203002022885S07008976WA0045700444005010013155175
B2203012022887S07008975WA0045900445005010014144163
B2203022022889S07008973WA0046000446005010017131154
B2203032022891S07008970WA0046100448005010021113133
B2203042022892S07008966WA0046100449005010027092112
B2203052022892S07008961WA0046300450005010035073093
B2203062022890S07008956WA0046300451005010041057075
B2203072022886S07008951WA0046400453005010041045061
B2203082022882S07008947WA0046400455005010036041072
B2203092022879S07008942WA0046500456005010035050081
B2203102022876S07008938WA0046600457005010033062101
B2203112022874S07008933WA0046700458005010031071112
B2203122022873S07008929WA0046700459005010026089125
B2203132022874S07008925WA0046700459005010025095148
B2203142022875S07008921WA0046700460005010018103158
B2203152022875S07008919WA0046700461005010010092169
B2203162022876S07008919WA0046700461010019007020178
B2203172022875S07008920WA0046800462010019020316204
B2203182022873S07008924WA0046900462010019029316279
B2203192022871S07008928WA0047000463005010029300282
B2203202022870S07008933WA0047000464005010027280265
B2203212022870S07008937WA0047000464005010023263245
B2203222022870S07008941WA0047100465005010018259231
B2203232022870S07008944WA0047200466005010012260218
B2203242022871S07008947WA0047200466005010009249213
B2203252022872S07008949WA0047300467005010007226200
B2203262022873S07008950WA0047300468005010009184192
B2203272022874S07008951WA0047400469005010011169176
B2203282022876S07008951WA0047500469005010012133158
B2203292022877S07008949WA0047500470005010018101139
B2203302022877S07008946WA0047500471005010026082118
B2203312022876S07008941WA0047500472005010033070103
B2203322022874S07008936WA0047500472005010039062096
B2203332022871S07008931WA0047500473005010040060091
B2203342022868S07008926WA0047500474005010039059093
B2203352022866S07008921WA0047500475005010036065107
B2203362022864S07008916WA0047500476005010033072113
B2203372022862S07008911WA0047500478005010031080113
B2203382022862S07008907WA0047600479005010027087123
B2203392022862S07008903WA0047600480005010024092130
B2203402022862S07008898WA0047600482005010023096138
B2203412022862S07008895WA0047700484005010021100142
B2203422022863S07008891WA0047900485005010020104145
B2203432022864S07008889WA0048000487005010020111144
B2203442022865S07008887WA0048200488005010020114146
B2203452022867S07008884WA0048300490005010020113147
B2203462022868S07008882WA0048300491005010019102140
B2203472022868S07008880WA0048500492005010018097141
B2203482022869S07008877WA0048800494005010019100141
B2203492022869S07008874WA0049100495005010021106133
B2203502022870S07008871WA0049300497005010020105139
B2203512022871S07008868WA0049300498005010019098126
B2203522022871S07008865WA0049600500005010019089127
B2203532022870S07008862WA0049900501005010020086119
B2203542022870S07008859WA0050100503005010021084125
B2203552022870S07008856WA0050200504005010023086123
B2203562022870S07008852WA0050300505005010023092121
B2203572022871S07008849WA0050400506005010022095122
B2203582022871S07008846WA0050400507005010022090119
B2203592022871S07008842WA0050400508005010023084119
B2204002022871S07008838WA0050500509005010024084122
B2204012022871S07008835WA0050500510005010021098135
B2204022022872S07008832WA0050500510005010016122162
B2204032022873S07008830WA0050600511005010016136184
B2204042022875S07008829WA0050600512005010012175198
B2204052022878S07008831WA0050600513005010024234218
B2204062022879S07008835WA0050700514005010031264237
B2204072022879S07008840WA0050700514005010037286268
B2204082022877S07008846WA0050800515005010036300277
B2204092022874S07008850WA0050800516005010034302279
B2204102022872S07008855WA0050900517005010035298276
B2204112022870S07008860WA0051000517005010035293280
B2204122022868S07008866WA0051000518005010036294288
B2204132022865S07008871WA0051200519005010036295295
B2204142022862S07008876WA0051300520005010039310305
B2204152022858S07008881WA0051500521005010038326312
B2204162022854S07008885WA0051700522005010038328304
B2204172022849S07008889WA0051900523005010038321282
B2204182022846S07008893WA0052100524010019031301267
B2204192022844S07008897WA0052300525005010025282243
B2204202022844S07008900WA0052400526005010020247223
B2204212022846S07008903WA0052500526005010020228201
B2204222022848S07008905WA0052500527010019018217185
B2204232022851S07008906WA0052500528010019015164180
B2204242022853S07008903WA0052400529010019021114164
B2204252022854S07008899WA0052400530005010026099136
B2204262022854S07008895WA0052400531005010028088127
B2204272022853S07008890WA0052400532005010030078124
B2204282022852S07008884WA0052500535005010029078120
B2204292022851S07008879WA0052600537005010028079122
B2204302022850S07008874WA0052800539005010029078120
B2204322022849S07008869WA0053000540005010029074128
B2204332022848S07008864WA0053100542005010028073126
B2204342022847S07008859WA0053300544005010026079116
B2204352022846S07008855WA0053400545005010023093123
B2204362022846S07008851WA0053600547005010021100141
B2204372022847S07008848WA0053700549005010020093129
B2204382022847S07008845WA0053900550005010023080113
B2204392022846S07008841WA0054000552005010026083116
B2204402022846S07008837WA0054100553005010025089136
B2204412022847S07008833WA0054300554005010022106147
B2204422022848S07008830WA0054400556005010018136169
B2204432022850S07008829WA0054600557005010015160185
B2204442022852S07008829WA0054800559005010012212197
B2204452022854S07008831WA0054900560005010024254221
B2204462022854S07008835WA0055000561005010030276249
B2204472022853S07008840WA0055100563005010037298270
B2204482022849S07008845WA0055100564005010041313294
B2204492022845S07008850WA0055200565005010041317308
B2204502022841S07008854WA0055300566005010036325308
B2204512022836S07008858WA0055400567005010036324304
B2204522022832S07008862WA0055500568005010036315292
B2204532022829S07008867WA0055600570005010037306278
B2204542022826S07008872WA0055600571005010034300262
B2204552022824S07008877WA0055700572005010029291250
B2204562022823S07008881WA0055800573005010023273234
B2204572022823S07008884WA0055800574005010020254217
B2204582022825S07008886WA0055800575005010018204211
B2204592022828S07008887WA0055800576005010015180189
B2205002022830S07008886WA0055800577005010012157176
B2205012022832S07008885WA0055800578005010014149182
B2205022022834S07008883WA0055700578005010017152168
B2205032022836S07008882WA0055700579005010017159169
B2205042022838S07008881WA0055800580005010014156173
B2205052022842S07008878WA0055800582005010016128162
B2205062022843S07008875WA0055900583005010018128166
B2205072022845S07008873WA0056100584005010018138164
B2205082022847S07008872WA0056200586005010017148172
B2205092022850S07008870WA0056300587005010015148171
B2205102022852S07008869WA0056500587005010014142159
B2205112022853S07008867WA0056500588005010016136156
B2205122022855S07008865WA0056600589005010020127152
B2205132022857S07008862WA0056700590005010022116139
B2205142022858S07008859WA0056700591005010022106134
B2205152022859S07008856WA0056800592005010022101133
B2205162022860S07008852WA0056900593005010023100129
B2205172022861S07008848WA0057100593005010025095122
B2205182022861S07008844WA0057200594005010027085108
B2205192022860S07008839WA0057300595005010030075103
B2205202022859S07008834WA0057400596005010033067109
B2205212022857S07008829WA0057500596005010033063103
B2205222022855S07008825WA0057600597005010033065113
B2205232022852S07008820WA0057700598005010034067114
B2205242022850S07008814WA0057800599005010035073117
B2205252022849S07008809WA0057900601005010034075116
B2205262022848S07008804WA0058000602005010033076116
B2205272022847S07008798WA0058200604005010032076120
B2205282022846S07008794WA0058200605005010032080116
B2205292022845S07008788WA0058400607005010032084123
B2205302022844S07008783WA0058600609005010034088125
B2205312022844S07008778WA0058800611005010035091126
B2205322022844S07008772WA0059000614005010030095126
B2205332022845S07008768WA0059300616005010024103127
B2205342022846S07008765WA0059500619005010019107136
B2205352022847S07008762WA0059800621005010018106145
B2205362022848S07008760WA0060100623005010021099122
B2205372022849S07008756WA0060300625005010024098119
B2205382022849S07008752WA0060500627005010025098111
B2205392022850S07008748WA0060600629005010022090120
B2205402022850S07008745WA0060700631005010020083123
B2205412022849S07008742WA0060800633005010021078122
B2205422022849S07008738WA0060800634005010025083116
B2205432022849S07008734WA0060900636005010027092112
B2205442022849S07008730WA0060900638005010026090118
B2205452022849S07008726WA0060900639005010023081113
B2205462022848S07008722WA0060900641005010021079112
B2205472022847S07008719WA0060800642005010021071122
B2205482022847S07008716WA0060800643005010024081122
B2205492022847S07008712WA0060800644005010029098125
B2205502022848S07008707WA0060700645005010028104131
B2205512022849S07008703WA0060700646005010023110141
B2205522022851S07008700WA0060600647005010020114151
B2205532022852S07008697WA0060500648005010019122155
B2205542022854S07008694WA0060500649005010021128145
B2205552022857S07008693WA0060400649005010022128142
B2205562022859S07008690WA0060400650005010022123149
B2205572022861S07008688WA0060400650005010021120140
B2205582022863S07008685WA0060400650005010021122150
B2205592022865S07008682WA0060300651005010022125154
B2206002022867S07008678WA0060300651005010024129143
B2206012022869S07008675WA0060200652005010024130146
B2206022022872S07008673WA0060200652005010025124141
B2206032022874S07008670WA0060100652005010026117129
B2206042022876S07008666WA0060100653005010030111130
B2206052022878S07008661WA0060000653005010033106123
B2206062022879S07008655WA0060000653005010033098134
B2206072022879S07008650WA0060000654005010030095121
B2206082022880S07008645WA0060000654005010026099116
B2206092022880S07008641WA0060100655005010023100134
B2206102022881S07008637WA0060200656005010025109140
B2206112022883S07008633WA0060300656005010028113132
B2206122022884S07008628WA0060400658005010032103132
B2206132022885S07008623WA0060500660005010028098128
B2206142022885S07008618WA0060600662005010026098138
B2206152022885S07008614WA0060700663005010020099157
B2206162022886S07008611WA0060900665005010019102153
B2206172022887S07008607WA0061000666005010026127141
B2206182022891S07008603WA0061100667005010029131149
B2206192022894S07008600WA0061200667005010028120138
B2206202022896S07008595WA0061300669005010027107130
B2206212022898S07008590WA0061300669005010027099123
B2206222022899S07008586WA0061300671005010028097137
B2206232022899S07008581WA0061400671005010026104129
B2206242022900S07008577WA0061500672005010029101118
B2206252022901S07008573WA0061500672005010030101120
B2206262022902S07008568WA0061600672005010032096122
B2206272022902S07008563WA0061600673005010031091113
B2206282022902S07008558WA0061600673005010030084115
B2206292022902S07008552WA0061600674005010032079111
B2206302022900S07008547WA0061700674005010034077106
B2206312022899S07008542WA0061700674005010035078103
B2206322022898S07008536WA0061800675005010035082111
B2206332022898S07008531WA0061800675005010033083112
B2206342022897S07008525WA0061800675005010030083115
B2206352022896S07008520WA0061900675005010030081118
B2206362022896S07008515WA0062000675005010031086125
B2206372022896S07008510WA0062100675005010031094120
B2206382022897S07008505WA0062100675005010030101141
B2206392022898S07008500WA0062100675005010030102148
B2206402022899S07008496WA0062200675005010028099133
B2206412022900S07008492WA0062200675005010025101143
B2206422022901S07008488WA0062300675005010022111152
B2206432022903S07008485WA0062300674005010022118149
B2206442022905S07008482WA0062400674005010023115140
B2206452022906S07008479WA0062400673005010023106132
B2206462022907S07008476WA0062400673005010022095131
B2206472022908S07008472WA0062400672005010022092137
B2206482022908S07008469WA0062400672005010021100138
B2206492022909S07008466WA0062400672005010019112148
B2206502022910S07008463WA0062400672005010020123149
B2206512022912S07008460WA0062300672005010021126156
B2206522022914S07008458WA0062300671005010022129157
B2206532022916S07008455WA0062200671005010022131165
B2206542022919S07008452WA0062100671005010021132164
B2206552022921S07008450WA0062100671005010022134164
B2206562022924S07008447WA0062000670005010023135169
B2206572022926S07008444WA0061900670005010024132156
B2206582022929S07008441WA0061900670005010026127154
B2206592022931S07008437WA0061900670005010029118138
B2207002022933S07008433WA0061800669005010029111132
B2207012022934S07008428WA0061800669005010028111140
B2207022022936S07008425WA0061800669005010025112153
B2207032022937S07008421WA0061800670005010021130175
B2207042022940S07008419WA0061800670005010022159184
B2207052022943S07008420WA0061700669005010025189196
B2207062022947S07008421WA0061600670005010023212213
B2207072022949S07008423WA0061500670005010022232229
B2207082022951S07008427WA0061300670005010027250240
B2207092022951S07008432WA0061200669005010028277248
B2207102022949S07008436WA0061000669005010027290267
B2207112022946S07008440WA0060900668005010027294278
B2207122022944S07008444WA0060700668005010027298281
B2207132022941S07008448WA0060600667005010026296271
B2207142022940S07008451WA0060500666005010024286267
B2207152022939S07008455WA0060500666005010025273258
B2207162022938S07008459WA0060400666005010026273261
B2207172022938S07008463WA0060300665005010027282267
B2207182022936S07008467WA0060200664005010029298273
B2207192022934S07008471WA0060200664005010027308281
B2207202022932S07008474WA0060100663005010022301275
B2207212022931S07008477WA0060100662005010020278244
B2207222022931S07008480WA0060000661005010022255235
B2207232022932S07008483WA0060000659005010023251237
B2207242022932S07008487WA0059900658005010025264256
B2207252022932S07008491WA0059800657005010028285274
B2207262022930S07008495WA0059700657005010027298286
B2207272022928S07008499WA0059600656005010027303278
B2207282022926S07008502WA0059600656005010027302283
B2207292022924S07008506WA0059600656005010027301292
B2207302022922S07008509WA0059700655005010026305281
B2207312022919S07008512WA0059800655005010025309276
B2207322022917S07008515WA0059900655005010021293260
B2207332022917S07008518WA0060000654005010020253227
B2207342022919S07008520WA0060000653005010027194200
B2207352022924S07008520WA0060100653010019035151164
B2207362022928S07008516WA0060200652010019039117129
B2207372022929S07008509WA0060200652010019039086101
B2207382022928S07008503WA0060200652010019037070089
B2207392022926S07008498WA0060300652010019035065098
B2207402022924S07008493WA0060300652010019031065099
B2207412022922S07008488WA0060400652010019032067111
B2207422022920S07008483WA0060600651005010034070103
B2207432022919S07008479WA0060700651005010031090104
B2207442022920S07008474WA0060800651005010030109123
B2207452022922S07008469WA0060900651005010029120134
B2207462022924S07008466WA0060900651005010026113138
B2207472022925S07008462WA0060900651005010024100130
B2207482022927S07008458WA0061000650005010028096133
B2207492022928S07008454WA0061000650005010031105131
B2207502022929S07008449WA0061100650005010032111138
B2207512022931S07008445WA0061100650005010029114138
B2207522022933S07008441WA0061100649005010027112143
B2207532022935S07008437WA0061100649005010027110139
B2207542022936S07008433WA0061200649005010030111136
B2207552022938S07008429WA0061200648005010033111138
B2207562022940S07008424WA0061200648005010033106141
B2207572022941S07008419WA0061200648005010031102139
B2207582022943S07008415WA0061200648005010029106138
B2207592022944S07008411WA0061300648005010028116155
B2208002022946S07008407WA0061300647005010030124150
B2208012022949S07008403WA0061300647010019029131157
B2208022022952S07008399WA0061300647010019027136158
B2208032022955S07008396WA0061300648010019026133155
B2208042022958S07008393WA0061300648010019027128145
B2208052022960S07008390WA0061300648010019029126149
B2208062022963S07008386WA0061400647010019030126148
B2208072022966S07008382WA0061400647010019030128152
B2208082022969S07008379WA0061400647010019030131157
B2208092022972S07008375WA0061400647010019031130151
B2208102022975S07008371WA0061400647010019031126148
B2208112022977S07008367WA0061400647010019033122136
B2208122022980S07008363WA0061400647010019035125148
B2208132022983S07008358WA0061400647010019035126158
B2208142022986S07008354WA0061500647010019029119156
B2208152022988S07008350WA0061500647010019027116147
B2208162022989S07008346WA0061600648010019018114157
B2208172022990S07008344WA0061800648010019019128183
B2208182022992S07008342WA0061900648010019014167190
B2208192022995S07008342WA0061900648010019019175186
B2208202022997S07008342WA0061900648010019016189212
B2208212022999S07008344WA0061900649010019011248225
B2208222022998S07008346WA0061800649010019021293246
B2208232022997S07008350WA0061800649010019025295263
B2208242022995S07008353WA0061700649010019024284267
B2208252022994S07008357WA0061700649010019021279247
B2208262022994S07008360WA0061700649010019021280256
B2208272022993S07008364WA0061600649010019022277262
B2208282022993S07008368WA0061500649005010025273255
B2208292022992S07008372WA0061400649010019026282269
B2208302022991S07008376WA0061300649010019029295282
B2208312022988S07008380WA0061200649010019029319291
B2208322022984S07008383WA0061200649010019032323295
B2208332022981S07008386WA0061200649010019033321288
B2208342022977S07008389WA0061200648010019032320292
B2208352022973S07008392WA0061200648010019030323295
B2208362022969S07008394WA0061200648010019029329286
B2208372022966S07008397WA0061200648010019029329293
B2208382022962S07008399WA0061100648010019030323289
B2208392022958S07008402WA0061100647010019032321287
B2208402022955S07008405WA0061100647010019028314284
B2208412022953S07008408WA0061100647010019024306282
B2208422022951S07008411WA0061100647010019021302281
B2208432022950S07008414WA0061100647010019021303274
B2208442022948S07008417WA0061100647010019023306276
B2208452022946S07008420WA0061200647010019027310278
B2208462022943S07008423WA0061200647010019030310283
B2208472022940S07008427WA0061200647010019029309281
B2208482022938S07008431WA0061200646010019029307279
B2208492022935S07008434WA0061200646010019026307279
B2208502022933S07008437WA0061100646010019024302276
B2208512022931S07008440WA0061100646010019021290272
B2208522022930S07008443WA0061000647010019022282266
B2208532022930S07008447WA0061000647010019022278264
B2208542022929S07008450WA0061000647010019023289267
B2208552022927S07008454WA0061000647010019027302271
B2208562022925S07008457WA0061100647010019028311289
B2208572022923S07008461WA0061200647010019024304275
B2208582022921S07008464WA0061200647010019021285262
B2208592022921S07008467WA0061300647010019017252238
B2209002022922S07008469WA0061400647010019016231219
B2209012022924S07008470WA0061400647005010008205195
B2209022022926S07008469WA0061400647005010022124181
B2209032022928S07008465WA0061400647005010036107133
B2209042022929S07008459WA0061400646005010036091110
B2209052022929S07008453WA0061300646005010035081106
B2209062022929S07008448WA0061300645005010032078110
B2209072022928S07008443WA0061300644005010030087110
B2209082022928S07008438WA0061400643005010031098097
B2209092022930S07008434WA0061400642005010027109126
B2209102022931S07008431WA0061300641005010015132121
B2209112022932S07008429WA0061300640005010005137153
B2209122022933S07008429WA0061200639005010002092183
B2209132022933S07008428WA0061200637005010001167203
B2209142022934S07008428WA0061200636005010001223211
B2209152022934S07008428WA0061200635005010001231221
B2209162022934S07008428WA0061200634005010002231222
B2209172022935S07008428WA0061200633005010001231222
B2209182022935S07008428WA0061200633005010001236222
B2209192022935S07008428WA0061200633005010001231222
B2209202022935S07008428WA0061200633005010001232222
B2209212022935S07008428WA0061200633005010001231222
B2209222022935S07008428WA0061200633005010001229222
B2209232022935S07008428WA0061200633005010001241222
B2209242022935S07008428WA0061200633005010001232222
B2209252022935S07008428WA0061200633005010001221222
B2209262022935S07008428WA0061200633005010001233222
B2209272022935S07008428WA0061200633005010001225222
B2209282022935S07008428WA0061200633005010001000222
B2209292022935S07008428WA0061200633010019001220222
B2209302022935S07008428WA0061200633010019001234222
B2209312022935S07008428WA0061200633010019001232222
B2209322022935S07008428WA0061200633010019001233222
B2209332022935S07008428WA0061200633005010001223222
B2209342022935S07008428WA0061200633005010001221222
B2209352022935S07008428WA0061200633005010000000222
B2209362022935S07008428WA0061200633005010001173222
B2209372022935S07008428WA0061200633005010000187222
B2209382022935S07008428WA0061200633005010001159222
B2209392022935S07008428WA0061200633005010002145222
B2209402022935S07008428WA0061200633005010002143222
B2209412022935S07008428WA0061200633005010002124222
B2209422022935S07008428WA0061200633005010002125222
GJ+J0/LcP+IFrl38S0gaTA7LShtt6UesDZGrPK/czTveVG1cWvnCQvwHLwd97uF+y
GxExYJ8qzTaGaB/sqdonkI3e7uUU+VSN8UUAlG0kHPlAADUucrcw7C5CqKeCmiyi5
GTL5uSu61itb9nGpXeaaHApjsTSxEEfVuMgwXPSu2BtM=

