AXFH000
HFDTE080226
HFPLTPILOT:Scott O’Brien
HFGTYGLIDERTYPE:Ozone Swift 6
HFDTM100GPSDATUM:WGS84
HFRFWFIRMWAREVERSION:9.4
HFRHWHARDWAREVERSION:iPhone 15
HFFTYFRTYPE:Flyskyhy,9.4
HFGPS:Bluetooth vario
HFPRSVARIO:Bluetooth vario
HFCCLCOMPETITIONCLASS:Paraglider
HFTZNTIMEZONE:-6
HFSITSITE:Gravedad Cero, Tapalpa, Jalisco,MX
I053638FXA3941VXA4244GSP4547CCO4850HDT
C080226162130080226000100TASK
C0000000N00000000ETAKEOFF
C3731062N12153514W00000000000400000000360000STARTAREA 
C3726317N12149880W00000000000400000000360000FINISHAREA Big Dog Vineyards
C0000000N00000000ELANDING
B1621591956541N10339246WA0223702236001100000093229
B1622001956541N10339246WA0223602236001100000093229
B1622011956541N10339246WA0223602236001100000093230
B1622021956541N10339246WA0223602236001100000093232
B1622031956541N10339246WA0223602236001100000093230
B1622041956541N10339246WA0223702236001100000093231
B1622051956541N10339246WA0223602236001100000093230
B1622061956541N10339246WA0223602236001100000093229
B1622071956541N10339246WA0223602236001100000093227
B1622081956541N10339246WA0223602236001100000093222
B1622091956541N10339246WA0223602236001100000093222
B1622101956541N10339246WA0223602236001100000093221
B1622111956541N10339246WA0223602236001100000093220
B1622121956541N10339246WA0223602236001100000093227
B1622131956541N10339246WA0223602236001100000093259
B1622141956541N10339246WA0223602236001100000093279
B1622151956541N10339246WA0223602236001100000093275
B1622161956541N10339246WA0223602235001100000093272
B1622171956541N10339246WA0223602235001100000093268
B1622181956541N10339246WA0223602235001100000093272
B1622191956541N10339246WA0223602235001100000093280
B1622201956540N10339246WA0223602235001100000093289
B1622211956540N10339246WA0223502235001100002106247
B1622221956540N10339245WA0223502234001100004120308
B1622231956539N10339244WA0223502234001100006124259
B1622241956539N10339243WA0223502234001100005110248
B1622251956539N10339242WA0223402234001100007078134
B1622261956540N10339241WA0223302234001100009066075
B1622271956540N10339239WA0223102234001100011075094
B1622281956541N10339237WA0222902234001100014069072
B1622291956542N10339234WA0222802234001100019067079
B1622301956543N10339231WA0222902234001100021068086
B1622311956543N10339228WA0223302234001100022081068
B1622321956543N10339224WA0223202234001100024092079
B1622331956541N10339220WA0223102235001100026107090
B1622341956540N10339215WA0223002235001100030107102
B1622351956538N10339210WA0222902234001100030099109
B1622361956538N10339205WA0222902234001100030094104
B1622371956537N10339200WA0222802232001100030091097
B1622381956537N10339195WA0222602230001100032092109
B1622391956537N10339189WA0222402229001100033093104
B1622401956537N10339184WA0222402228001100031092099
B1622411956537N10339179WA0222302228001100027091103
B1622421956537N10339175WA0222302227001100028091108
B1622431956537N10339170WA0222202226001100031092103
B1622441956537N10339165WA0222102226001100033094103
B1622451956536N10339159WA0222202225001100031096120
B1622461956536N10339154WA0222102225001100030096108
B1622471956535N10339150WA0222102224001100029094104
B1622481956535N10339145WA0222102223001100031090110
B1622491956535N10339139WA0221902223001100033090094
B1622501956534N10339134WA0221802221001100035093114
B1622511956534N10339128WA0221702220001100037097104
B1622521956533N10339122WA0221702220001100034099097
B1622531956532N10339117WA0221902220001100031099101
B1622541956532N10339113WA0221802220001100025094078
B1622551956532N10339109WA0221802220001100022083087
B1622561956533N10339106WA0221702219001100023075087
B1622571956534N10339102WA0221502218001100027072104
B1622581956535N10339098WA0221502217001100029079096
B1622591956536N10339093WA0221502216001100029090103
B1623001956536N10339089WA0221302214001100029098091
B1623011956535N10339084WA0221102212001100030098093
B1623021956535N10339079WA0221002211001100033091093
B1623031956535N10339074WA0220802209001100033085084
B1623041956535N10339068WA0220702207001100032083099
B1623051956536N10339064WA0220502205001100031083080
B1623061956537N10339059WA0220302203001100031082087
B1623071956537N10339054WA0220102201001100032079080
B1623081956538N10339048WA0219702198001100034076080
B1623091956540N10339043WA0219602196001100037078104
B1623101956541N10339037WA0219502195001100036080071
B1623111956542N10339031WA0219402194001100033080073
B1623121956543N10339026WA0219302194001100031076084
B1623131956544N10339022WA0219202193001100030074076
B1623141956546N10339017WA0219102192001100030073094
B1623151956547N10339012WA0218902191001100030075078
B1623161956548N10339008WA0218902191001100028073070
B1623171956550N10339004WA0218702189001100027065073
B1623181956552N10339000WA0218602188001100029062081
B1623191956553N10338996WA0218302186001100030064084
B1623201956555N10338991WA0218102184001100030068089
B1623211956557N10338986WA0218002183001100031072096
B1623221956558N10338982WA0217902182001100030079105
B1623231956558N10338977WA0217802181001100029090113
B1623241956558N10338972WA0217502179001100029101111
B1623251956556N10338968WA0217402177001100031103101
B1623261956555N10338963WA0217102175001100034099101
B1623271956555N10338957WA0217002173001100038095110
B1623281956554N10338951WA0217002171001100038096106
B1623291956554N10338945WA0217102170001100039096083
B1623301956553N10338939WA0217202170001100035096089
B1623311956553N10338934WA0217102169001100031093088
B1623321956553N10338929WA0216902168001100032086082
B1623331956553N10338923WA0216702165001100035083108
B1623341956554N10338918WA0216702164001100036085105
B1623351956554N10338912WA0216702164001100034084074
B1623361956555N10338907WA0216902165001100031085113
B1623371956555N10338903WA0216702164001100031091092
B1623381956554N10338898WA0216702163001100032099107
B1623391956553N10338893WA0216702162001100032105084
B1623401956552N10338888WA0216702161001100033101075
B1623411956552N10338883WA0216702160001100032093073
B1623421956551N10338878WA0216902160001100033089088
B1623431956551N10338873WA0216802160001100034092080
B1623441956551N10338867WA0216802160001100034092101
B1623451956551N10338862WA0217102160001100033087065
B1623461956551N10338857WA0217102160001100031078065
B1623471956553N10338853WA0217102159001100028071073
B1623481956554N10338849WA0217202159001100024063092
B1623491956556N10338846WA0217002157001100024064084
B1623501956557N10338843WA0217002156001100027073098
B1623511956558N10338838WA0216902156001100029084099
B1623521956558N10338834WA0217002155001100030092095
B1623531956557N10338829WA0217002157001100030099108
B1623541956556N10338824WA0217002157001100028100098
B1623551956555N10338820WA0216802156001100028095108
B1623561956555N10338816WA0216702155001100030094103
B1623571956555N10338811WA0216502153001100032093101
B1623581956554N10338805WA0216302151001100035093104
B1623591956554N10338799WA0216102150001100038093091
B1624001956554N10338793WA0216002148001100038089091
B1624011956554N10338787WA0215902146001100039086089
B1624021956555N10338781WA0215702145001100040088094
B1624031956554N10338774WA0215502144001100042095099
B1624041956553N10338768WA0215402143001100041099098
B1624051956552N10338761WA0215402142001100039099090
B1624061956552N10338755WA0215302140001100038095088
B1624071956552N10338749WA0215202138001100038089082
B1624081956552N10338743WA0214902136001100038083080
B1624091956553N10338737WA0214802134001100039079084
B1624101956554N10338731WA0214702133001100039080090
B1624111956555N10338725WA0214502132001100039083088
B1624121956556N10338719WA0214402130001100039082078
B1624131956556N10338713WA0214302129001100040083093
B1624141956557N10338706WA0214002127001100040084087
B1624151956558N10338700WA0213902125001100041083089
B1624161956558N10338693WA0213902124001100043082087
B1624171956559N10338686WA0213602123001100042080078
B1624181956561N10338680WA0213702122001100040075073
B1624191956562N10338674WA0213702122001100038072073
B1624201956564N10338668WA0213602121001100036072078
B1624211956566N10338662WA0213402119001100036073076
B1624221956567N10338657WA0213202117001100038074104
B1624231956569N10338651WA0213002115001100039072071
B1624241956571N10338645WA0212902113001100042072061
B1624251956572N10338638WA0212602110001100045075063
B1624261956574N10338631WA0212202107001100049079063
B1624271956575N10338623WA0212102105001100050078057
B1624281956577N10338615WA0212002103001100050072057
B1624291956580N10338608WA0211902102001100048068056
B1624301956583N10338601WA0211802101001100045063057
B1624311956586N10338595WA0211702099001100044061053
B1624321956589N10338589WA0211502097001100043059052
B1624331956593N10338583WA0211302095001100044056052
B1624341956596N10338578WA0211102093001100044052053
B1624351956601N10338572WA0210802091001100046051057
B1624361956605N10338566WA0210502088001100046052063
B1624371956609N10338560WA0210502086001100046057075
B1624381956612N10338554WA0210302084001100046063077
B1624391956615N10338547WA0210102082001100047067075
B1624401956617N10338540WA0210102081001100044071066
B1624411956619N10338534WA0210002079001100043065062
B1624421956622N10338528WA0209802077001100043060071
B1624431956625N10338521WA0209502075001100044065091
B1624441956627N10338515WA0209302073001100044075097
B1624451956628N10338507WA0209002071001100046085103
B1624461956627N10338499WA0208902068001100045092099
B1624471956626N10338491WA0208902066001100046098116
B1624481956624N10338484WA0208702064001100048104131
B1624491956621N10338476WA0208602063001100049115132
B1624501956617N10338470WA0208302061001100052127155
B1624511956611N10338464WA0208202059001100053136153
B1624521956605N10338459WA0208402058001100048139160
B1624531956598N10338456WA0208502058001100039154161
B1624541956594N10338455WA0208502057001100029166166
B1624551956589N10338456WA0208302055001100029187170
B1624561956585N10338458WA0208002053001100031194188
B1624571956579N10338461WA0207602051001100037210197
B1624581956576N10338464WA0207402051001100029226181
B1624591956573N10338468WA0207102050001100027230198
B1625001956574N10338474WA0206902047001100024247204
B1625011956578N10338476WA0206802045001100017282226
B1625021956581N10338476WA0206902044001100014310287
B1625031956583N10338476WA0207002043001100005335356
B1625041956585N10338470WA0207002041001100017091038
B1625051956586N10338464WA0206802039001100023088075
B1625061956587N10338459WA0206402037001100025087066
B1625081956590N10338452WA0206102035001100037068056
B1625091956593N10338446WA0206102033001100038064049
B1625101956600N10338437WA0206102030001100029047055
B1625111956604N10338434WA0206002029001100027036056
B1625121956608N10338431WA0205802027001100030043050
B1625131956611N10338427WA0205602026001100034051053
B1625141956615N10338423WA0205502024001100035055051
B1625151956619N10338418WA0205502024001100034059054
B1625161956621N10338413WA0205302023001100033062050
B1625171956624N10338408WA0205202022001100032065048
B1625181956626N10338403WA0205002021001100035068048
B1625191956628N10338398WA0204902019001100035069050
B1625201956630N10338393WA0204802018001100034071050
B1625211956632N10338388WA0204702018001100034075051
B1625221956633N10338382WA0204602017001100034081052
B1625231956633N10338377WA0204502017001100034088056
B1625241956633N10338371WA0204402016001100034093061
B1625251956633N10338366WA0204302015001100033098066
B1625261956632N10338361WA0204102014001100034102069
B1625271956631N10338355WA0204002013001100034106074
B1625281956629N10338350WA0203902012001100035107081
B1625291956628N10338345WA0203702011001100034106085
B1625301956627N10338340WA0203602010001100033101082
B1625311956626N10338334WA0203502009001100032094061
B1625321956626N10338330WA0203502008001100029087041
B1625331956627N10338325WA0203202007001100027073027
B1625341956629N10338321WA0202902006001100024064019
B1625351956633N10338319WA0202502004001100027041028
B1625361956639N10338320WA0202502003001100030012035
B1625371956644N10338318WA0202402003001100031022033
B1625381956648N10338316WA0201602002001100031032044
B1625391956651N10338312WA0201202000001100030039047
B1625401956651N10338308WA0200901998001100024048345
B1625411956649N10338305WA0201301997001100017062026
B1625421956644N10338301WA0201701995001100017112021
B1625431956641N10338298WA0201501992001100022109056
B1625441956638N10338293WA0201001992001100025087067
B1625451956638N10338288WA0200701991001100038070064
B1625461956638N10338281WA0200601990001100040069044
B1625471956640N10338276WA0200601989001100038068036
B1625481956641N10338270WA0200601988001100035067037
B1625491956643N10338266WA0200501988001100031058046
B1625501956646N10338262WA0200301986001100031049058
B1625511956649N10338258WA0200001985001100033048053
B1625521956652N10338254WA0199901982001100037050055
B1625531956656N10338250WA0199801981001100036051054
B1625541956659N10338245WA0199901980001100033053061
B1625551956661N10338241WA0199801978001100029061065
B1625561956661N10338237WA0199501977001100029088071
B1625571956660N10338232WA0198901975001100031092096
B1625581956658N10338229WA0198401972001100025102051
B1625591956653N10338227WA0197901969001100023125062
B1626001956649N10338225WA0197401967001100021129102
B1626011956646N10338232WA0196901967001100011189116
B1626021956648N10338237WA0196901963001100010241238
B1626031956648N10338239WA0197001962001100011193268
B1626041956650N10338237WA0197301960001100015129250
B1626051956651N10338234WA0197301958001100016103137
B1626061956651N10338232WA0197101957001100016090060
B1626071956653N10338229WA0196501955001100016078054
B1626081956656N10338225WA0196201952001100035063046
B1626091956660N10338218WA0196001950001100042068052
B1626101956664N10338212WA0196001948001100040066058
B1626111956667N10338205WA0196201946001100041071055
B1626121956670N10338199WA0196201944001100037070062
B1626131956672N10338194WA0196001941001100033067065
B1626141956675N10338189WA0195801938001100036068060
B1626151956677N10338183WA0195501935001100039074062
B1626161956679N10338177WA0195301934001100041080067
B1626171956680N10338171WA0195301931001100040081076
B1626181956681N10338164WA0195301929001100039082078
B1626191956682N10338158WA0195301928001100036084077
B1626201956682N10338153WA0195101926001100036080076
B1626211956683N10338147WA0194901924001100038076077
B1626221956685N10338141WA0194701922001100041072076
B1626231956687N10338135WA0194501921001100041070083
B1626241956689N10338129WA0194501920001100039072074
B1626251956691N10338123WA0194101918001100039078076
B1626261956691N10338117WA0194101915001100040081075
B1626271956692N10338110WA0193801913001100043081072
B1626281956693N10338103WA0193401910001100045079063
B1626291956695N10338096WA0193101908001100049072061
B1626301956698N10338088WA0192901906001100052069071
B1626311956701N10338080WA0192801904001100052072073
B1626321956703N10338073WA0192601903001100050077087
B1626331956704N10338065WA0192501902001100047080088
B1626341956706N10338058WA0192501901001100047077087
B1626351956707N10338051WA0192401899001100046076082
B1626361956709N10338044WA0192201898001100045073081
B1626371956711N10338037WA0192101896001100045068078
B1626381956714N10338030WA0192001894001100045064079
B1626391956717N10338024WA0191801892001100046065077
B1626401956720N10338017WA0191601891001100046071076
B1626411956722N10338010WA0191301889001100047074075
B1626421956724N10338002WA0191101888001100047073076
B1626431956726N10337995WA0191101886001100047070076
B1626441956728N10337988WA0191001884001100047071080
B1626451956730N10337981WA0190901883001100046075076
B1626461956732N10337974WA0190701881001100047079076
B1626471956733N10337967WA0190601879001100048079077
B1626481956735N10337959WA0190401877001100047074068
B1626491956737N10337952WA0190401876001100045075098
B1626501956738N10337945WA0190401875001100043076158
B1626511956739N10337939WA0190501874001100039081066
B1626521956740N10337935WA0190601874001100032081065
B1626531956740N10337931WA0190301873001100027079051
B1626541956742N10337927WA0189901872001100024066043
B1626551956745N10337924WA0189601870001100026037028
B1626561956751N10337924WA0189401869001100033013007
B1626571956757N10337924WA0189501869001100033006006
B1626581956762N10337924WA0189601869001100032005006
B1626591956767N10337924WA0189501868001100029013359
B1627001956771N10337924WA0189201866001100031013357
B1627011956776N10337923WA0189001865001100032013357
B1627021956781N10337922WA0188801863001100036013001
B1627031956786N10337920WA0188801862001100034025004
B1627041956790N10337917WA0188601861001100029049013
B1627051956791N10337913WA0188301859001100026076032
B1627061956791N10337908WA0187901857001100028082058
B1627071956790N10337902WA0188101855001100034096062
B1627081956790N10337896WA0188001854001100034091080
B1627091956789N10337891WA0187501852001100034086075
B1627101956791N10337885WA0187001850001100038074075
B1627111956796N10337882WA0187001849001100036052070
B1627121956799N10337877WA0187201847001100036059055
B1627131956801N10337872WA0186801845001100035075065
B1627141956801N10337867WA0186401844001100036080075
B1627151956799N10337863WA0186401841001100029101075
B1627161956797N10337858WA0186501839001100027103092
B1627171956795N10337854WA0186401837001100026103093
B1627181956795N10337850WA0185901835001100025093091
B1627191956796N10337847WA0185601833001100019086076
B1627201956800N10337845WA0185601831001100022042049
B1627211956804N10337844WA0185601831001100021023011
B1627221956807N10337843WA0185701829001100019014355
B1627231956810N10337842WA0185601829001100018020346
B1627241956813N10337841WA0185101827001100022029348
B1627251956817N10337839WA0184801824001100027034359
B1627261956821N10337834WA0184501821001100041049009
B1627271956826N10337829WA0184501819001100044053035
B1627281956830N10337823WA0184601817001100045053045
B1627291956835N10337818WA0184601816001100040052049
B1627301956838N10337814WA0184601815001100034050048
B1627311956841N10337809WA0184301812001100033051043
B1627321956845N10337805WA0183901809001100037055041
B1627331956848N10337800WA0183601807001100041058044
B1627341956851N10337794WA0183601805001100041057051
B1627351956855N10337789WA0183601804001100040056054
B1627361956858N10337783WA0183501803001100036060054
B1627371956860N10337778WA0183401802001100034064053
B1627381956862N10337773WA0183301801001100035066057
B1627391956864N10337768WA0183201799001100036065058
B1627401956867N10337763WA0183001798001100037061058
B1627411956870N10337758WA0182901796001100038056057
B1627421956873N10337753WA0182901795001100038055055
B1627431956876N10337748WA0182801793001100038055052
B1627441956880N10337743WA0182701792001100038053048
B1627451956883N10337739WA0182601790001100038048042
B1627461956888N10337735WA0182501787001100040043042
B1627471956892N10337731WA0182301785001100040039045
B1627481956897N10337727WA0182201783001100039038047
B1627491956902N10337723WA0182101782001100039038047
B1627501956906N10337719WA0181901780001100039038046
B1627511956911N10337715WA0181701779001100040037043
B1627521956916N10337711WA0181601777001100040042042
B1627531956920N10337707WA0181401775001100040047040
B1627541956924N10337702WA0181301774001100041049041
B1627551956928N10337697WA0181101773001100041051042
B1627561956932N10337692WA0181001771001100040054043
B1627571956935N10337687WA0180801769001100041058046
B1627581956938N10337681WA0180601768001100042065051
B1627591956940N10337675WA0180501766001100041071058
B1628001956942N10337669WA0180401764001100038073066
B1628011956942N10337663WA0180401763001100034093068
B1628021956941N10337658WA0180201762001100036100092
B1628031956938N10337653WA0179901760001100037122101
B1628041956934N10337648WA0179701758001100043132132
B1628051956929N10337643WA0179501756001100042128136
B1628061956926N10337638WA0179501755001100038126137
B1628071956922N10337633WA0179501754001100034123130
B1628081956920N10337629WA0179401752001100033122119
B1628091956917N10337624WA0179201750001100034118110
B1628101956914N10337619WA0179001749001100035112107
B1628111956913N10337614WA0178801747001100037101106
B1628121956912N10337607WA0178701745001100040095106
B1628131956912N10337601WA0178701745001100037094103
B1628141956912N10337595WA0178601744001100035093093
B1628151956911N10337590WA0178601743001100034089091
B1628161956912N10337584WA0178401742001100036083085
B1628171956913N10337578WA0178301741001100037078083
B1628181956914N10337572WA0178201741001100037074082
B1628191956916N10337567WA0178201741001100037071079
B1628201956917N10337561WA0178101741001100036069080
B1628211956919N10337556WA0178001741001100037068080
B1628221956921N10337550WA0177901741001100037067074
B1628231956924N10337545WA0177801741001100036065073
B1628241956926N10337540WA0177701741001100035062069
B1628251956928N10337535WA0177601740001100034058065
B1628261956931N10337530WA0177501739001100035055066
B1628271956934N10337526WA0177401738001100036053060
B1628281956938N10337521WA0177301737001100036051054
B1628291956941N10337517WA0177301736001100035049048
B1628301956945N10337513WA0177201735001100034047042
B1628311956948N10337509WA0177101734001100034043037
B1628321956952N10337505WA0176901733001100035040031
B1628331956956N10337502WA0176801732001100036037028
B1628341956960N10337498WA0176601730001100036036023
B1628351956965N10337495WA0176501729001100036036022
B1628361956969N10337492WA0176401728001100035036020
B1628381956973N10337488WA0176301727001100035034018
B1628391956982N10337482WA0176001724001100036033014
B1628401956987N10337479WA0175901723001100036032014
B1628411956991N10337476WA0175801722001100036031013
B1628421956996N10337473WA0175601720001100036031012
B1628431957001N10337470WA0175601720001100035032012
B1628441957005N10337467WA0175401719001100035032012
B1628451957009N10337464WA0175401717001100036033012
B1628461957014N10337461WA0175201716001100036034013
B1628471957019N10337457WA0175101715001100037034014
B1628481957023N10337454WA0174901713001100039035015
B1628491957028N10337450WA0174801712001100040038017
B1628501957033N10337446WA0174701711001100039041020
B1628511957037N10337442WA0174601710001100037045023
B1628521957040N10337437WA0174601709001100036052026
B1628531957042N10337433WA0174401709001100032075034
B1628541957041N10337427WA0174101707001100036099060
B1628551957040N10337421WA0174001705001100039101091
B1628571957039N10337415WA0173901704001100036091094
B1628581957041N10337410WA0173501703001100031073081
B1628591957050N10337403WA0173301701001100037030045
B1629001957055N10337399WA0173301700001100037035029
B1629011957059N10337396WA0173101700001100033050032
B1629021957061N10337391WA0172701699001100033066040
B1629031957060N10337384WA0172601697001100041095051
B1629041957059N10337377WA0172701696001100039088084
B1629051957060N10337371WA0172801695001100036079075
B1629061957062N10337366WA0172601694001100033071071
B1629071957064N10337362WA0172501692001100031062067
B1629081957067N10337357WA0172401690001100032060060
B1629091957070N10337353WA0172201687001100034058050
B1629101957073N10337349WA0172001684001100037056052
B1629111957076N10337344WA0171901682001100038052048
B1629121957080N10337339WA0171801681001100036045048
B1629131957084N10337335WA0171701680001100035042047
B1629141957088N10337332WA0171601678001100035041048
B1629151957092N10337328WA0171501677001100035041043
B1629161957096N10337324WA0171401676001100036040040
B1629171957100N10337321WA0171301675001100036042038
B1629181957104N10337317WA0171201674001100035045033
B1629191957107N10337313WA0171101673001100035047034
B1629201957111N10337309WA0171001671001100035048033
B1629221957114N10337305WA0170801670001100036048033
B1629231957121N10337296WA0170501667001100037050033
B1629241957125N10337291WA0170401665001100037051034
B1629251957128N10337287WA0170201664001100038052035
B1629261957132N10337282WA0170001662001100037053036
B1629271957135N10337277WA0169901661001100037052039
B1629281957138N10337273WA0169701659001100037054039
B1629291957141N10337268WA0169501657001100037057042
B1629301957144N10337263WA0169301656001100037060050
B1629311957147N10337257WA0169101654001100038061053
B1629321957149N10337252WA0169001652001100038059058
B1629331957152N10337247WA0168901651001100038060061
B1629341957155N10337242WA0168901650001100038061065
B1629351957157N10337236WA0168701648001100037066063
B1629361957159N10337231WA0168501646001100037067066
B1629371957162N10337226WA0168601645001100038065066
B1629381957164N10337220WA0168401643001100039062069
B1629391957167N10337215WA0168301641001100040061062
B1629401957170N10337209WA0168201640001100039060047
B1629411957173N10337204WA0168301640001100038058033
B1629421957176N10337199WA0168201639001100036053018
B1629431957180N10337195WA0168001637001100034044021
B1629441957184N10337191WA0167801636001100034036030
B1629451957188N10337189WA0167601635001100034029037
B1629461957193N10337187WA0167501633001100037021039
B1629471957198N10337184WA0167401632001100035022030
B1629481957203N10337182WA0167301631001100033023021
B1629491957208N10337180WA0167201630001100032022015
B1629501957213N10337179WA0167001629001100033019011
B1629511957217N10337177WA0166801626001100035020012
B1629521957222N10337175WA0166601625001100035026011
B1629531957227N10337172WA0166501623001100034030014
B1629541957231N10337169WA0166301622001100033033015
B1629551957235N10337167WA0166201621001100031035015
B1629561957239N10337164WA0166001619001100031034014
B1629571957243N10337161WA0165901616001100032034013
B1629581957247N10337158WA0165801614001100034035013
B1629591957251N10337155WA0165601613001100034035015
B1630001957256N10337152WA0165501612001100033035015
B1630011957260N10337149WA0165401611001100032035014
B1630021957264N10337146WA0165301609001100031035013
B1630031957268N10337143WA0165201608001100033035012
B1630041957272N10337140WA0165101607001100034034013
B1630051957276N10337137WA0165001605001100034034013
B1630061957280N10337133WA0164901604001100034034013
B1630071957284N10337130WA0164701604001100033034012
B1630081957289N10337127WA0164701603001100033035012
B1630091957293N10337124WA0164601602001100034037014
B1630101957297N10337121WA0164601601001100034038018
B1630111957301N10337117WA0164501601001100033037020
B1630121957305N10337114WA0164401600001100033033019
B1630131957309N10337112WA0164401599001100033028020
B1630141957314N10337109WA0164301598001100033026026
B1630151957318N10337107WA0164201597001100031025021
B1630161957322N10337105WA0164201597001100031026016
B1630171957327N10337103WA0164101596001100032023015
B1630181957331N10337101WA0163901595001100033023013
B1630191957336N10337098WA0163901594001100034026012
B1630201957340N10337096WA0163801593001100034030013
B1630211957344N10337093WA0163801592001100033033015
B1630221957348N10337090WA0163701592001100032032015
B1630231957352N10337088WA0163601591001100032030016
B1630241957357N10337085WA0163501591001100032025016
B1630251957361N10337083WA0163401590001100032019012
B1630261957366N10337082WA0163301589001100032016005
B1630271957370N10337080WA0163201588001100032013000
B1630281957375N10337080WA0163101587001100031008356
B1630291957380N10337079WA0163001586001100031002351
B1630301957385N10337079WA0162901585001100032000347
B1630311957389N10337079WA0162801584001100032003345
B1630321957394N10337078WA0162701584001100031008346
B1630331957399N10337077WA0162601583001100031013350
B1630341957403N10337076WA0162501582001100031023355
B1630351957407N10337073WA0162401581001100032030004
B1630361957410N10337070WA0162201579001100030048011
B1630371957411N10337064WA0161901577001100034081029
B1630381957410N10337057WA0161801575001100036098073
B1630391957406N10337052WA0161701573001100034127100
B1630401957400N10337049WA0161601571001100035151143
B1630411957395N10337048WA0161601570001100032164172
B1630421957390N10337048WA0161501568001100031180187
B1630431957385N10337050WA0161401567001100031194204
B1630441957380N10337052WA0161301565001100032206216
B1630451957376N10337056WA0161101564001100033224225
B1630461957373N10337060WA0160901562001100031232238
B1630471957372N10337066WA0160801559001100031265245
B1630481957373N10337071WA0160701557001100033290269
B1630491957376N10337076WA0160601555001100033303288
B1630501957379N10337080WA0160501554001100031316298
B1630511957383N10337083WA0160501552001100031327310
B1630521957387N10337084WA0160301551001100031340320
B1630531957392N10337085WA0160201549001100031351334
B1630541957397N10337084WA0160101549001100031007344
B1630551957402N10337081WA0159901548001100032028001
B1630561957406N10337076WA0159801547001100034050023
B1630571957408N10337072WA0159701549001100033062046
B1630581957410N10337067WA0159601547001100033072059
B1630591957411N10337062WA0159501547001100033080070
B1631001957411N10337057WA0159401546001100033091079
B1631011957411N10337051WA0159201545001100034101090
B1631021957409N10337046WA0159101544001100035112101
B1631031957406N10337042WA0159001543001100035123113
B1631041957403N10337037WA0158901542001100035136124
B1631051957399N10337034WA0158801541001100034143139
B1631061957394N10337031WA0158701540001100032141143
B1631071957391N10337027WA0158701539001100033138142
B1631081957387N10337024WA0158601537001100033136138
B1631091957383N10337020WA0158501536001100033137140
B1631101957380N10337017WA0158401535001100033137131
B1631111957376N10337013WA0158201533001100033133121
B1631121957373N10337009WA0158101532001100033125111
B1631131957370N10337004WA0158001530001100033118105
B1631141957368N10337000WA0157801529001100029114113
B1631151957366N10336996WA0157701528001100030108112
B1631161957365N10336991WA0157501526001100033103115
B1631171957364N10336985WA0157301525001100037100113
B1631181957363N10336979WA0157101523001100037098096
B1631191957362N10336974WA0157101523001100034095080
B1631201957362N10336968WA0157001522001100032091078
B1631211957362N10336963WA0156901521001100032084082
B1631221957363N10336958WA0156801520001100035079115
B1631231957364N10336952WA0156801520001100035078094
B1631241957365N10336947WA0156701519001100033077093
B1631251957367N10336942WA0156701519001100033071077
B1631261957369N10336937WA0156501518001100034063055
B1631271957371N10336932WA0156401517001100035055060
B1631281957375N10336927WA0156401517001100036052081
B1631291957378N10336923WA0156301516001100035057075
B1631301957381N10336918WA0156201516001100033058066
B1631311957383N10336914WA0156201516001100032052050
B1631321957387N10336910WA0156101514001100032046055
B1631331957390N10336906WA0156001513001100035043073
B1631341957394N10336902WA0155901512001100035049072
B1631351957397N10336898WA0155901511001100036056065
B1631361957400N10336893WA0155801510001100035054055
B1631371957404N10336889WA0155701509001100035046055
B1631381957407N10336885WA0155601508001100036040068
B1631391957411N10336881WA0155401506001100037044076
B1631401957415N10336877WA0155201505001100036053080
B1631411957418N10336872WA0155101504001100036063081
B1631421957420N10336866WA0155001504001100034071080
B1631431957421N10336861WA0154901502001100033078084
B1631441957421N10336856WA0154701501001100033082091
B1631451957422N10336851WA0154501499001100034087091
B1631461957422N10336846WA0154401497001100035093103
B1631471957421N10336840WA0154301496001100035101107
B1631481957419N10336835WA0154201494001100033111111
B1631491957417N10336830WA0154101493001100032117119
B1631501957415N10336826WA0154001492001100032120126
B1631511957412N10336821WA0153801491001100034123129
B1631521957409N10336817WA0153701489001100034131132
B1631531957405N10336814WA0153501487001100033140139
B1631541957401N10336811WA0153401485001100033152147
B1631551957396N10336809WA0153301483001100034162158
B1631561957391N10336809WA0153101481001100035170168
B1631571957386N10336809WA0153201480001100032178174
B1631581957381N10336809WA0153101479001100029188183
B1631591957377N10336811WA0153101478001100029198192
B1632001957373N10336813WA0152901476001100032209202
B1632011957369N10336816WA0152801475001100035221212
B1632021957365N10336820WA0152701474001100035227223
B1632031957362N10336826WA0152801473001100034239229
B1632041957360N10336831WA0153001472001100033246239
B1632051957359N10336836WA0153101472001100028251249
B1632061957358N10336840WA0153001471001100028248258
B1632071957356N10336845WA0152901470001100031249259
B1632081957355N10336850WA0152701469001100035254264
B1632091957354N10336855WA0152601468001100036264273
B1632101957354N10336861WA0152401467001100034273275
B1632111957355N10336866WA0152301466001100033285284
B1632121957357N10336871WA0152201466001100033296292
B1632131957360N10336875WA0152001465001100033310300
B1632141957365N10336878WA0151901464001100032322314
B1632151957369N10336880WA0151801463001100031335323
B1632161957374N10336882WA0151801463001100031344336
B1632171957378N10336883WA0151601462001100031354344
B1632181957383N10336883WA0151501461001100032002353
B1632191957388N10336882WA0151401459001100032012002
B1632201957392N10336881WA0151201458001100031017011
B1632211957397N10336879WA0151201457001100030019015
B1632221957401N10336877WA0151201456001100028017010
B1632231957405N10336877WA0151001455001100029007000
B1632241957410N10336876WA0150801454001100029001352
B1632251957414N10336878WA0150601452001100033335345
B1632261957418N10336881WA0150401451001100033330324
B1632271957421N10336886WA0150301449001100033307320
B1632281957424N10336891WA0150201447001100033296301
B1632291957424N10336896WA0150101446001100029271292
B1632301957423N10336901WA0149901444001100030257270
B1632311957422N10336906WA0149701443001100032246252
B1632321957419N10336910WA0149601441001100033233246
B1632341957415N10336914WA0149301439001100034219233
B1632351957406N10336920WA0149301436001100033208230
B1632361957401N10336922WA0149401435001100031207219
B1632371957397N10336924WA0149501434001100027212214
B1632381957393N10336927WA0149401433001100030204216
B1632391957388N10336928WA0149401432001100034197215
B1632401957383N10336929WA0149301431001100035192206
B1632411957378N10336931WA0149301431001100033195212
B1632421957373N10336932WA0149301431001100031193180
B1632431957368N10336933WA0149201429001100030188178
B1632441957364N10336933WA0149001428001100031183187
B1632451957359N10336933WA0148701427001100034181189
B1632461957354N10336933WA0148501426001100036178200
B1632471957348N10336933WA0148501425001100035183174
B1632481957343N10336933WA0148401424001100031185172
B1632501957338N10336934WA0148401424001100029183175
B1632511957334N10336934WA0148101422001100028183165
B1632521957330N10336934WA0148001421001100030180175
B1632531957325N10336934WA0147901420001100033180159
B1632541957315N10336934WA0147601418001100029175144
B1632551957311N10336933WA0147401417001100029165138
B1632561957307N10336931WA0147301416001100029156128
B1632571957303N10336928WA0147101414001100029138137
B1632581957300N10336924WA0147001414001100028126126
B1632591957298N10336921WA0146801413001100025124119
B1633001957296N10336917WA0146801412001100022120114
B1633011957295N10336914WA0146701411001100022113095
B1633021957294N10336911WA0146401409001100023106093
B1633031957293N10336907WA0146201407001100026096096
B1633041957293N10336902WA0145901406001100029090099
B1633051957293N10336897WA0145801405001100025091078
B1633061957293N10336894WA0145701403001100023080075
B1633071957294N10336890WA0145501402001100023070077
B1633081957296N10336886WA0145401400001100026066066
B1633091957297N10336882WA0145201398001100025075063
B1633101957297N10336878WA0145001397001100025091072
B1633111957297N10336874WA0144901395001100025101090
B1633121957296N10336870WA0144901395001100025100095
B1633131957295N10336866WA0144801395001100024090093
B1633141957296N10336862WA0144801394001100023081078
B1633151957296N10336859WA0144801394001100022071058
B1633161957298N10336856WA0144701392001100022061039
B1633171957300N10336853WA0144501390001100024034028
B1633181957304N10336852WA0144301389001100029014004
B1633191957309N10336853WA0144201388001100030342349
B1633201957313N10336858WA0144101388001100030309327
B1633211957315N10336864WA0144101387001100034285302
B1633221957316N10336870WA0144101387001100032278299
B1633231957317N10336874WA0144101387001100030286302
B1633241957319N10336879WA0143901386001100028294312
B1633251957322N10336882WA0143801384001100031321318
B1633261957327N10336885WA0143801383001100033336334
B1633271957331N10336887WA0143801382001100030342350
B1633281957336N10336888WA0143901382001100025339352
B1633291957339N10336890WA0143801381001100025336357
B1633301957343N10336891WA0143701380001100025345005
B1633311957347N10336891WA0143401379001100026358012
B1633321957351N10336890WA0143201378001100027007023
B1633331957355N10336887WA0143101377001100026044026
B1633341957357N10336883WA0143101377001100025052047
B1633351957360N10336880WA0143101376001100023047045
B1633361957362N10336877WA0143001374001100022036031
B1633371957366N10336875WA0142801373001100024025023
B1633381957370N10336875WA0142701372001100026010023
B1633391957374N10336874WA0142601372001100026000026
B1633401957378N10336874WA0142501371001100024011027
B1633411957382N10336873WA0142401369001100024023035
B1633421957385N10336871WA0142101367001100026033037
B1633431957388N10336868WA0142001366001100026041046
B1633441957391N10336865WA0141901364001100026051053
B1633451957393N10336862WA0141701363001100025063061
B1633461957395N10336858WA0141401361001100027076073
B1633471957395N10336854WA0141301359001100028085085
B1633481957395N10336849WA0141201358001100027092091
B1633491957395N10336845WA0141101357001100023093092
B1633501957395N10336842WA0141201356001100020094076
B1633511957395N10336840WA0141201357001100013089102
B1633521957395N10336838WA0141201356001100007085176
B1633531957395N10336838WA0141201355001100004085111
B1633541957396N10336838WA0141201355001100003085092
B1633551957397N10336838WA0141201354001100002085079
B1633561957397N10336838WA0141201353001100000085089
B1633571957396N10336839WA0141201353001100000085077
B1633581957396N10336839WA0141201352001100000085075
B1633591957396N10336839WA0141201352001100000085071
B1634001957396N10336839WA0141201352001100000085069
B1634011957396N10336839WA0141301352001100000085066
B1634021957396N10336839WA0141301352001100000085066
B1634031957396N10336839WA0141201352001100000085064
B1634041957396N10336839WA0141201352001100000085064
B1634051957396N10336839WA0141201352001100000085064
B1634061957396N10336839WA0141201352001100000085063
B1634071957396N10336839WA0141201352001100000085062
B1634081957396N10336839WA0141201352001100000085061
B1634091957396N10336839WA0141201352001100000085061
B1634101957396N10336839WA0141201352001100000085061
B1634111957396N10336839WA0141201352001100000085061
B1634121957396N10336839WA0141201352001100000085061
B1634131957396N10336839WA0141201352001100000085061
B1634141957397N10336839WA0141201351001100002144061
B1634151957396N10336839WA0141201351001100003153060
B1634161957396N10336839WA0141201351001100002159060
B1634171957396N10336839WA0141301351001100000149060
B1634181957396N10336838WA0141201351001100000154060
B1634191957395N10336838WA0141201351001100002140060
B1634201957395N10336838WA0141201351001100002140060
B1634211957395N10336838WA0141201351001100000140060
B1634221957395N10336838WA0141201351001100000140060
B1634231957395N10336838WA0141201351001100000140060
B1634241957395N10336838WA0141201351001100000140060
GxX4JEz807XCsgmcXva2sZxtqnHEWkWCnvruP/idir1xjZGdjLKs5sACklmbNiUKR
G4a1u2Kj86tasY/EuVNOSHyzE6kbOsckDyl8Zg2L129NHblTHXm/2FwrKGodspKgE
GHM8bmfdDdKbJticrlp7f/ITXQd2oz+LRY6/9qz9oUxM=

