AXFH000
HFDTE070824
HFPLTPILOT:Scott O’Brien
HFGTYGLIDERTYPE:BGD Epic
HFDTM100GPSDATUM:WGS84
HFRFWFIRMWAREVERSION:8.2.4
HFRHWHARDWAREVERSION:Unknown device (iPhone15,4)
HFFTYFRTYPE:Flyskyhy,8.2.4
HFGPS:Internal
HFPRSVARIO:Internal Vario
HFCCLCOMPETITIONCLASS:Paraglider
HFTZNTIMEZONE:-7
HFSITSITE:Mission Ridge (Fremont- San Jose),US
I053638FXA3941VXA4244GSP4547CCO4850HDT
C070824194707070824000108TASK
C0000000N00000000ETAKEOFF
C3920440N12241116W00015009999999000000360000STARTAREA POTLAU
C3922249N12241405W00000000001000000000360000TURNAREA SNOWVL
C3920978N12239724W00000000000400000000360000TURNAREA POTLZ
C3920095N12241882W00000000000400000000360000TURNAREA TOP
C3922264N12241989W00000000001000000000360000TURNAREA SNOWLO
C3920983N12238798W00000000001000000000360000TURNAREA TROUGH
C3920095N12241882W00000000000400000000360000TURNAREA TOP
C3925826N12241497W00000000005000000000360000TURNAREA STJOHN
C3920440N12241116W00000000001500000000360000TURNAREA POTLAU
C3920978N12239724W00000000000400000000360000FINISHAREA POTLZ
C0000000N00000000ELANDING
E194738PEVBackground
B1947383731057N12153512WA0058500586005010004320267
B1947393731057N12153512WA0058500586005010000072213
B1947403731057N12153512WA0058500586005010003146329
B1947413731057N12153512WA0058600586005010002129308
B1947423731056N12153512WA0058600586005010000000227
B1947433731056N12153512WA0058600586005010001224319
B1947443731056N12153512WA0058600587005010000000000
B1947453731056N12153512WA0058600587005010000000143
B1947463731056N12153512WA0058600587005010001147294
B1947473731056N12153512WA0058600587005010001133172
B1947483731056N12153512WA0058600587005010002147294
B1947493731056N12153511WA0058600587005010005162221
B1947503731055N12153511WA0058700587005010006161185
B1947513731054N12153511WA0058700587005010007164168
B1947523731053N12153510WA0058700587005010006171026
B1947533731052N12153511WA0058700587005010006192357
B1947543731050N12153511WA0058700587005010008204010
B1947553731049N12153512WA0058700587005010011217213
B1947563731047N12153514WA0058700587005010010214230
B1947573731046N12153515WA0058700587005010012208204
B1947583731044N12153516WA0058700587005010016207214
B1947593731042N12153517WA0058600587005010015195198
B1948003731040N12153518WA0058600587005010012192186
B1948013731038N12153518WA0058600587005010012181177
B1948023731036N12153518WA0058600586005010015172170
B1948033731033N12153518WA0058600586005010019161160
B1948043731030N12153516WA0058600586005010022150159
B1948053731028N12153514WA0058600586005010021141160
B1948063731025N12153511WA0058600586005010020137160
B1948073731023N12153508WA0058600586005010020141166
B1948083731020N12153505WA0058600586005010021143126
B1948093731018N12153503WA0058600586005010021138100
B1948103731015N12153500WA0058600585005010025140074
B1948113731012N12153497WA0058600585005010029140063
B1948123731008N12153493WA0058600585005010028136054
B1948133731005N12153489WA0058600585005010026140048
B1948143731002N12153486WA0058500585005010026149040
B1948153730999N12153484WA0058500584005010026157033
B1948163730995N12153482WA0058500584005010027153026
B1948173730991N12153479WA0058400584005010030143020
B1948183730988N12153476WA0058400584005010030140019
B1948193730984N12153472WA0058400584005010031148344
B1948203730980N12153469WA0058400584005010029155347
B1948213730976N12153468WA0058300583005010026165349
B1948223730972N12153467WA0058300584005010025166008
B1948233730969N12153465WA0058300584005010024162006
B1948243730965N12153464WA0058300584005010026157005
B1948253730962N12153462WA0058300584005010026150004
B1948263730958N12153459WA0058400584005010027144003
B1948273730955N12153456WA0058400584005010028143357
B1948283730952N12153453WA0058300584005010027154357
B1948293730948N12153452WA0058300583005010026172358
B1948303730945N12153453WA0058300583005010021202359
B1948313730943N12153455WA0058100583005010021257359
B1948323730943N12153460WA0058000582005010029299359
B1948333730946N12153464WA0057900582005010033323359
B1948343730951N12153468WA0057800582005010032330359
B1948353730955N12153471WA0057600581005010029332359
B1948363730959N12153474WA0057600581005010026333359
B1948373730962N12153476WA0057600581005010027334359
B1948383730966N12153479WA0057600581005010031331359
B1948393730970N12153482WA0057600581005010032325359
B1948403730974N12153485WA0057600581005010032325359
B1948413730978N12153489WA0057600581005010033327359
B1948423730981N12153492WA0057700581005010021330359
B1948433730984N12153494WA0057700581005010018323359
B1948443730986N12153496WA0057700581005010019314359
B1948453730988N12153499WA0057700581005010023309359
B1948463730990N12153502WA0057700581005010022306359
B1948473730992N12153505WA0057700581005010020310359
B1948483730994N12153508WA0057600581005010022313359
B1948493730996N12153512WA0057600581005010026312359
B1948503730999N12153516WA0057500581005010028308359
B1948513731001N12153520WA0057500581005010029312359
B1948523731004N12153523WA0057500581005010026313359
B1948543731007N12153527WA0057500581005010023314359
B1948553731009N12153530WA0057500581005010024326359
B1948563731012N12153532WA0057600582005010023332359
B1948573731015N12153534WA0057700582005010026329359
B1948583731018N12153537WA0057800582005010026318359
B1948593731021N12153540WA0057800582005010025305359
B1949003731023N12153544WA0057800582005010026310359
B1949013731025N12153548WA0057700582005010024312359
B1949023731028N12153551WA0057600583005010027322359
B1949033731031N12153554WA0057600583005010025323359
B1949043731034N12153557WA0057600583005010027328359
B1949053731038N12153559WA0057600583005010028332359
B1949063731041N12153562WA0057500583005010029329359
B1949073731045N12153565WA0057500583005010029326359
B1949083731048N12153568WA0057500583005010026322359
B1949093731051N12153571WA0057500583005010021320359
B1949103731053N12153574WA0057500583005010020321359
B1949113731055N12153576WA0057500583005010021327359
B1949123731058N12153578WA0057500583005010025331359
B1949133731062N12153581WA0057500583005010028332359
B1949143731066N12153583WA0057500583005010029337359
B1949153731070N12153585WA0057500584005010028345359
B1949163731075N12153586WA0057500584005010029351359
B1949173731079N12153586WA0057500584005010029353359
B1949183731083N12153587WA0057600584005010031347359
B1949193731088N12153589WA0057600584005010030333359
B1949203731094N12153595WA0057600584005010024321359
B1949223731100N12153600WA0057500585005010023327359
B1949233731103N12153603WA0057500585005010023325359
B1949243731105N12153605WA0057500585005010021322359
B1949253731108N12153608WA0057500585005010024326359
B1949263731111N12153610WA0057400585005010027332359
B1949273731115N12153612WA0057300585005010028334359
B1949283731119N12153615WA0057200585005010028330359
B1949293731122N12153618WA0057000584005010029325359
B1949303731126N12153621WA0056900584005010032320359
B1949313731130N12153625WA0056700583005010034317359
B1949323731133N12153630WA0056500582005010031316359
B1949333731136N12153633WA0056300581005010026317359
B1949343731139N12153637WA0056100581005010025316359
B1949353731142N12153640WA0056000580005010025314359
B1949363731145N12153643WA0056000580005010026320359
B1949373731148N12153646WA0056000579005010025330359
B1949383731151N12153648WA0056000579005010023335359
B1949393731154N12153650WA0056100579005010023334359
B1949403731157N12153652WA0056100578005010021328359
B1949413731159N12153653WA0056200577005010021331359
B1949423731162N12153655WA0056200577005010019337359
B1949433731164N12153656WA0056200576005010017332359
B1949443731166N12153658WA0056200576005010016321359
B1949453731168N12153660WA0056200575005010017310359
B1949463731170N12153662WA0056300575005010020318359
B1949473731172N12153664WA0056300574005010021325359
B1949483731175N12153666WA0056400574005010023333359
B1949493731178N12153668WA0056500574005010023337359
B1949503731182N12153669WA0056600573005010024334359
B1949513731185N12153672WA0056700573005010029323359
B1949523731188N12153675WA0056700573005010029316359
B1949533731192N12153679WA0056700572005010026329359
B1949543731195N12153681WA0056700572005010024342359
B1949553731199N12153682WA0056800572005010024346359
B1949573731202N12153683WA0056900572005010025338359
B1949583731205N12153686WA0057000572005010024326359
B1949593731208N12153688WA0057100572005010026326359
B1950003731212N12153691WA0057100571005010027332359
B1950013731215N12153693WA0057100572005010028338359
B1950023731220N12153695WA0057100571005010029344358
B1950033731224N12153696WA0057100571005010029347353
B1950043731228N12153697WA0057100571005010031352350
B1950053731233N12153698WA0057100571005010035359347
B1950063731238N12153697WA0057100571005010039004345
B1950073731244N12153697WA0057000571005010038002343
B1950083731250N12153696WA0057000571005010035001347
B1950093731255N12153697WA0057000570005010030351349
B1950103731259N12153698WA0057000570005010028348349
B1950113731263N12153699WA0057000570005010028349351
B1950123731267N12153700WA0057000570005010029350353
B1950133731272N12153701WA0057000569005010029346354
B1950143731276N12153703WA0056900569005010029337355
B1950153731280N12153705WA0056800568005010029332356
B1950163731284N12153708WA0056700568005010030332356
B1950173731288N12153710WA0056600567005010030333357
B1950183731292N12153713WA0056500567010019030331357
B1950193731296N12153716WA0056500566010019030330358
B1950203731300N12153719WA0056400566005010031329358
B1950213731304N12153722WA0056400566005010031328358
B1950223731308N12153725WA0056400565005010030327359
B1950233731311N12153728WA0056400565005010031325359
B1950243731315N12153731WA0056400564005010031327359
B1950253731323N12153738WA0056400564005010031327359
B1950263731327N12153741WA0056400564005010032324359
B1950273731331N12153745WA0056500563005010032324359
B1950283731335N12153748WA0056500564005010030330359
B1950293731339N12153751WA0056600564005010031336359
B1950303731344N12153753WA0056800564005010034338359
B1950313731348N12153756WA0056900564005010034333359
B1950323731353N12153759WA0057100564005010029330359
B1950333731356N12153761WA0057200565005010021326359
B1950343731358N12153763WA0057400565005010018326359
B1950353731360N12153766WA0057400565005010020323359
B1950363731363N12153768WA0057500565005010025322359
B1950373731366N12153771WA0057500565005010026317359
B1950383731369N12153775WA0057500565005010025319359
B1950393731372N12153778WA0057500566005010024328359
B1950403731375N12153780WA0057400566005010023331359
B1950413731377N12153782WA0057400566005010021326359
B1950423731379N12153785WA0057400566005010018275359
B1950433731378N12153788WA0057300566005010022240359
B1950443731375N12153791WA0057300566005010023206000
B1950453731372N12153792WA0057100566005010024168000
B1950463731368N12153789WA0057100565005010028142000
B1950473731365N12153785WA0057100566005010034120000
B1950483731363N12153779WA0057100566005010036109000
B1950493731361N12153772WA0057100567005010036106000
B1950503731360N12153765WA0057300567005010035108000
B1950513731357N12153759WA0057400567005010036121000
B1950523731354N12153754WA0057500568005010035138359
B1950533731350N12153750WA0057600568010019031152359
B1950543731346N12153748WA0057600568010019026159359
B1950553731343N12153746WA0057700569010019021157359
B1950563731340N12153745WA0057800569010019015147359
B1950573731339N12153744WA0057900569010019014160359
B1950583731336N12153744WA0058100570010019019168359
B1950593731334N12153744WA0058100570010019020180359
B1951003731331N12153745WA0058100570010019014206359
B1951013731330N12153747WA0058100571010019014241359
B1951023731330N12153750WA0058000571010019024304359
B1951033731333N12153754WA0058000571010019028315357
B1951043731337N12153757WA0057900571010019034338355
B1951053731342N12153759WA0057800571010019039353345
B1951063731348N12153759WA0057800571010019042005336
B1951073731355N12153759WA0057700572010019037003339
B1951083731360N12153759WA0057700572010019029351338
B1951093731365N12153760WA0057800572010019029346343
B1951103731369N12153762WA0057800573010019025339343
B1951113731371N12153764WA0057900573010019018308343
B1951123731372N12153767WA0057900573010019017283343
B1951133731372N12153770WA0057900573010019014246344
B1951143731371N12153771WA0057900574010019013183011
B1951153731369N12153770WA0057900574010019017146009
B1951163731366N12153768WA0057900574010019023133007
B1951173731363N12153764WA0057900574010019026123006
B1951183731361N12153760WA0057800574010019025127354
B1951193731358N12153756WA0057800575010019022137355
B1951203731355N12153754WA0057700575010019021152356
B1951213731352N12153752WA0057700575010019019162357
B1951223731349N12153751WA0057600575010019018162357
B1951233731347N12153750WA0057600575010019015161358
B1951243731345N12153750WA0057600575010019013158358
B1951253731342N12153749WA0057600576010019014163358
B1951263731340N12153748WA0057600576010019017170358
B1951273731337N12153747WA0057600576010019023165000
B1951283731333N12153746WA0057600576010019023156000
B1951293731330N12153744WA0057600576010019025159000
B1951303731326N12153742WA0057700576010019022149359
B1951313731325N12153740WA0057800577010019014123359
B1951323731324N12153737WA0058000577010019012128359
B1951333731323N12153736WA0058100577010019012113000
B1951343731322N12153734WA0058200577010019017146000
B1951353731319N12153733WA0058200577010019024166000
B1951363731315N12153732WA0058200577010019026163359
B1951373731311N12153730WA0058100577010019022157359
B1951383731308N12153728WA0058100577010019021150359
B1951393731305N12153726WA0058000577010019019152359
B1951403731302N12153725WA0058000577010019021160359
B1951413731299N12153724WA0058000577010019022166359
B1951423731295N12153723WA0058000577010019021173359
B1951433731292N12153723WA0057900577010019022178000
B1951443731289N12153723WA0057900577010019023179000
B1951453731285N12153723WA0057900577010019023171000
B1951463731282N12153722WA0057900577010019020155000
B1951473731279N12153720WA0057900577010019022149000
B1951483731275N12153717WA0058000577010019025155000
B1951493731272N12153715WA0058000577010019028152000
B1951503731268N12153712WA0058100577010019030150000
B1951513731264N12153709WA0058200577010019030144359
B1951523731261N12153706WA0058200577010019021138000
B1951533731259N12153704WA0058300577010019018131000
B1951543731256N12153702WA0058300577010019026153000
B1951553731252N12153700WA0058200577010019028157000
B1951563731248N12153697WA0058200577010019030154000
B1951573731244N12153695WA0058200577010019024136359
B1951583731242N12153692WA0058100577010019022138359
B1951593731239N12153689WA0058000576010019021149359
B1952003731236N12153688WA0058000576010019025158359
B1952013731232N12153686WA0057900575010019027163359
B1952023731228N12153684WA0057800575010019027163359
B1952033731225N12153683WA0057800575010019020158359
B1952043731222N12153682WA0057700574010019020158000
B1952053731219N12153680WA0057700574010019023158000
B1952063731216N12153679WA0057700574010019026157000
B1952073731212N12153676WA0057700574010019028149000
B1952083731208N12153673WA0057700573010019029142000
B1952093731205N12153670WA0057700573010019028146000
B1952103731201N12153667WA0057700573010019028151000
B1952113731198N12153664WA0057700573010019028148000
B1952123731194N12153661WA0057700573010019028145359
B1952133731191N12153658WA0057700572010019026148359
B1952143731187N12153656WA0057600572010019025156359
B1952153731184N12153654WA0057600572010019025161000
B1952163731180N12153653WA0057600572010019027161000
B1952173731177N12153651WA0057600572010019024157359
B1952183731173N12153649WA0057600571010019023155359
B1952193731170N12153648WA0057700571010019020158359
B1952203731168N12153646WA0057700571010019019161359
B1952213731165N12153645WA0057700571010019021156000
B1952223731162N12153643WA0057700571010019025157359
B1952233731158N12153641WA0057700571010019026154359
B1952243731154N12153639WA0057600570010019027165359
B1952253731150N12153639WA0057600570010019025176359
B1952263731146N12153638WA0057600570010019027173359
B1952273731142N12153637WA0057700570010019028167359
B1952283731138N12153636WA0057800570010019029163359
B1952293731134N12153634WA0057800570010019027162359
B1952303731130N12153632WA0057900570010019026159359
B1952313731126N12153631WA0058000571010019026159359
B1952333731122N12153629WA0058000571010019027161359
B1952343731118N12153627WA0058100571010019028166359
B1952363731111N12153627WA0058100571010019018188359
B1952373731109N12153627WA0058000571010019018195359
B1952383731107N12153629WA0058000571005010016255359
B1952393731108N12153633WA0057900570005010024301356
B1952403731111N12153637WA0057700570005010030323353
B1952413731116N12153639WA0057600570005010037344354
B1952423731121N12153641WA0057500569005010037352354
B1952433731127N12153642WA0057300569005010034350356
B1952443731132N12153643WA0057200569005010031348356
B1952453731136N12153643WA0057200569005010030350356
B1952463731141N12153644WA0057300569005010028350356
B1952473731145N12153645WA0057300569005010027343357
B1952483731149N12153647WA0057400569005010028335357
B1952493731153N12153649WA0057400569010019029331358
B1952503731156N12153651WA0057500569010019025334358
B1952513731159N12153653WA0057500569010019024338358
B1952523731163N12153655WA0057500569010019023336359
B1952533731165N12153657WA0057500569010019024330359
B1952543731168N12153659WA0057600569010019026330359
B1952553731172N12153661WA0057600569010019027334359
B1952563731175N12153663WA0057600569010019025336359
B1952573731178N12153665WA0057500569010019025333359
B1952583731182N12153667WA0057500568010019026328359
B1952593731185N12153670WA0057400568010019027323359
B1953003731188N12153673WA0057400568010019027328359
B1953013731192N12153676WA0057400568010019022329359
B1953023731196N12153680WA0057500568005010014310359
B1953033731198N12153682WA0057500568005010020310359
B1953043731200N12153685WA0057600568005010024305359
B1953053731202N12153689WA0057700568005010025312359
B1953063731205N12153692WA0057800568005010022317359
B1953073731207N12153695WA0057800568005010019328359
B1953083731210N12153696WA0057800568005010020335359
B1953093731213N12153698WA0057800568005010025343357
B1953103731217N12153699WA0057700568005010030351359
B1953113731222N12153699WA0057600567005010037010352
B1953123731228N12153697WA0057400567005010037016346
B1953133731233N12153695WA0057400567005010033019339
B1953143731237N12153694WA0057400567005010028009340
B1953153731242N12153693WA0057400567005010035358346
B1953163731248N12153694WA0057400567005010038353350
B1953173731254N12153695WA0057400566005010037354349
B1953183731259N12153695WA0057400566005010038353350
B1953193731265N12153696WA0057300566005010032352350
B1953203731270N12153697WA0057300565005010030345352
B1953213731274N12153699WA0057200565005010030338353
B1953223731278N12153701WA0057200565005010029332354
B1953233731282N12153704WA0057200564005010030325355
B1953243731286N12153708WA0057100564005010028322356
B1953253731289N12153711WA0057100564005010027325356
B1953263731293N12153714WA0057100563005010026331357
B1953273731296N12153716WA0057100563005010027332357
B1953283731300N12153719WA0057100563005010028329358
B1953293731303N12153721WA0057100562005010025328358
B1953303731307N12153724WA0057100562005010029329358
B1953313731311N12153727WA0057100562005010031333358
B1953323731314N12153729WA0057200562005010022337358
B1953333731317N12153730WA0057300562005010017338359
B1953343731319N12153732WA0057400562005010019338359
B1953353731322N12153733WA0057500562005010019324359
B1953363731324N12153736WA0057500562005010022315359
B1953373731326N12153738WA0057600562005010025321359
B1953383731329N12153741WA0057600562005010024330359
B1953393731333N12153743WA0057500562005010025341359
B1953403731336N12153744WA0057500562005010024347359
B1953413731340N12153745WA0057500562005010025347359
B1953423731344N12153747WA0057500561005010029337359
B1953433731347N12153749WA0057400561005010026323359
B1953443731350N12153753WA0057300561005010022310359
B1953453731352N12153756WA0057200561005010018288359
B1953463731352N12153759WA0057100560005010012249000
B1953473731350N12153760WA0056900560005010015186000
B1953483731347N12153759WA0056800559005010021147000
B1953493731344N12153756WA0056700559005010030129000
B1953503731341N12153751WA0056600558005010033121359
B1953513731338N12153745WA0056500557005010032121359
B1953523731335N12153740WA0056500557005010031123359
B1953533731332N12153735WA0056500556005010028129359
B1953543731329N12153731WA0056500556005010026143359
B1953553731326N12153729WA0056500556005010021159359
B1953563731323N12153728WA0056600555005010018159359
B1953573731321N12153727WA0056600555005010014160359
B1953583731319N12153727WA0056600555005010013171359
B1953593731317N12153728WA0056600554010019017181359
B1954003731314N12153729WA0056700554010019020183359
B1954023731311N12153729WA0056700554010019021173359
B1954033731308N12153729WA0056700554010019019162359
B1954043731305N12153728WA0056700554010019018153359
B1954053731303N12153726WA0056700553010019020158359
B1954063731299N12153725WA0056700553010019024163359
B1954073731295N12153724WA0056700553010019026163359
B1954083731291N12153722WA0056700552010019027161359
B1954093731285N12153719WA0056600552010019020157359
B1954103731282N12153718WA0056600551010019018158359
B1954113731279N12153717WA0056600551010019019163359
B1954123731276N12153716WA0056600551010019023169359
B1954133731273N12153715WA0056600551010019025169359
B1954143731269N12153715WA0056600550010019024166359
B1954153731265N12153714WA0056500550010019024165359
B1954163731261N12153713WA0056500550010019024165000
B1954173731257N12153711WA0056500550010019027167000
B1954183731253N12153710WA0056400549010019030166000
B1954193731249N12153708WA0056400549010019028157000
B1954203731245N12153706WA0056400549010019023144359
B1954213731243N12153704WA0056400549010019020142359
B1954223731240N12153701WA0056400549010019020147000
B1954233731238N12153699WA0056500550010019022150000
B1954243731235N12153697WA0056600550005010025149000
B1954253731232N12153695WA0056700550005010027143000
B1954263731229N12153692WA0056700550005010027138000
B1954273731226N12153688WA0056700550005010027134000
B1954283731224N12153684WA0056800550005010024132359
B1954293731221N12153681WA0056800550005010025144359
B1954303731218N12153679WA0056900550005010026154000
B1954313731214N12153677WA0056900550005010027156000
B1954323731211N12153675WA0056900550005010027154000
B1954333731207N12153673WA0056800550005010025152000
B1954343731204N12153671WA0056800550005010025150000
B1954353731201N12153668WA0056700550005010027150000
B1954363731197N12153666WA0056700550005010029149000
B1954373731194N12153663WA0056700550005010027149000
B1954383731191N12153660WA0056800550005010024146000
B1954393731188N12153658WA0056800550005010023145359
B1954403731185N12153656WA0056800550005010023147359
B1954413731182N12153653WA0056900550005010023154359
B1954423731179N12153652WA0056900550005010025162359
B1954433731175N12153651WA0056900550005010025163359
B1954443731171N12153649WA0056900551005010026162359
B1954453731167N12153648WA0056900551005010026161359
B1954463731164N12153646WA0057000551005010026157000
B1954473731160N12153643WA0057000551005010025153359
B1954483731156N12153641WA0057100551005010026153359
B1954493731153N12153638WA0057100551005010028153359
B1954503731149N12153636WA0057100551005010031157359
B1954513731144N12153634WA0057100551005010032162359
B1954523731140N12153632WA0057000551005010031162000
B1954533731135N12153630WA0056900552005010032166000
B1954543731130N12153629WA0056900552005010030162000
B1954553731126N12153627WA0056900552010019030157359
B1954563731122N12153625WA0056900552010019028152359
B1954573731118N12153622WA0056900552010019026154359
B1954583731115N12153621WA0056900552010019026159359
B1954593731111N12153619WA0056800552010019027163359
B1955003731107N12153618WA0056700552010019028168359
B1955013731103N12153617WA0056600552010019028169359
B1955023731099N12153616WA0056600552010019026169359
B1955033731095N12153615WA0056500552010019024168359
B1955043731091N12153614WA0056400552010019023167000
B1955053731088N12153614WA0056400552010019024167000
B1955063731084N12153613WA0056400551010019026169359
B1955073731080N12153612WA0056300551010019029171359
B1955083731076N12153611WA0056200551010019032170000
B1955093731071N12153610WA0056200551010019034168359
B1955103731066N12153609WA0056200551010019029168359
B1955113731062N12153608WA0056200551010019025168359
B1955133731059N12153607WA0056200551010019021167359
B1955143731055N12153607WA0056300552010019021170359
B1955153731052N12153606WA0056300552010019025174359
B1955163731048N12153606WA0056400552010019028178359
B1955173731043N12153605WA0056400552010019032172359
B1955183731038N12153605WA0056400553010019026168359
B1955193731035N12153604WA0056400553010019022176359
B1955203731031N12153604WA0056400553010019026180359
B1955213731026N12153605WA0056400554010019036184000
B1955223731021N12153605WA0056500554010019032178359
B1955233731017N12153605WA0056600555010019023171359
B1955243731015N12153604WA0056800556010019014161359
B1955253731013N12153603WA0056900557005010009169000
B1955263731013N12153603WA0056900558005010008175000
B1955273731011N12153603WA0057100559005010011162000
B1955283731009N12153601WA0057200560005010022137000
B1955293731007N12153597WA0057200561005010030118000
B1955303731006N12153591WA0057200561005010038096000
B1955313731005N12153583WA0057200562005010039087000
B1955323731006N12153576WA0057100562005010038081000
B1955333731007N12153562WA0057100563005010035089000
B1955343731007N12153555WA0057000564005010036094000
B1955353731007N12153549WA0057000564005010035099000
B1955363731006N12153542WA0057000564005010032105000
B1955373731004N12153537WA0056900565005010029121000
B1955383731001N12153534WA0056800565005010027153359
B1955393730997N12153533WA0056800566005010020173359
B1955403730994N12153533WA0056800567005010016206359
B1955413730993N12153537WA0056700567005010022268359
B1955423730994N12153542WA0056700567005010029298355
B1955433730997N12153547WA0056700568010019035313352
B1955443731001N12153551WA0056700568010019032333344
B1955453731005N12153554WA0056800568010019031346344
B1955463731011N12153556WA0056800568010019039343346
B1955473731016N12153559WA0056900568010019039334348
B1955483731021N12153563WA0056900568010019035319347
B1955493731025N12153567WA0056900568010019033317350
B1955503731029N12153571WA0056900569005010030327352
B1955513731033N12153574WA0056900569005010031333353
B1955523731037N12153577WA0056900569005010030328353
B1955533731040N12153581WA0056900569005010029311354
B1955543731043N12153585WA0057000570005010029304355
B1955553731045N12153590WA0057000570005010030293356
B1955563731047N12153595WA0057100570005010025279356
B1955573731047N12153600WA0057100571005010023269357
B1955583731046N12153603WA0057100571005010018256357
B1955593731046N12153606WA0057100571005010017248357
B1956003731044N12153609WA0057100571005010021235357
B1956013731041N12153612WA0057100571005010026221358
B1956023731038N12153615WA0057100571005010026211358
B1956033731034N12153616WA0057100571005010024196358
B1956043731031N12153617WA0057100572005010019189359
B1956053731028N12153617WA0057200572005010016183359
B1956063731025N12153617WA0057200572005010018197359
B1956073731022N12153618WA0057200572005010023206359
B1956083731019N12153621WA0057300573005010026211359
B1956093731015N12153623WA0057400573005010028206359
B1956103731012N12153625WA0057500574005010017213359
B1956113731010N12153626WA0057600575005010016202000
B1956123731008N12153627WA0057700576005010019181000
B1956133731004N12153626WA0057900577005010024162000
B1956143731001N12153622WA0058100578005010033135000
B1956153730998N12153616WA0058200578005010048109000
B1956163730997N12153606WA0058200579010019054090357
B1956173730997N12153596WA0058200579010019054088348
B1956183730998N12153585WA0058200580010019052081344
B1956193731000N12153576WA0058100580010019052068346
B1956203731003N12153567WA0058100581010019053063347
B1956323731029N12153635WA0059400606004003017234357
B1956333731028N12153637WA0059500609004004017221001
B1956343731022N12153634WA0059600604004004017170001
B1956353731021N12153636WA0059700605006006020185000
B1956363731017N12153631WA0059700604007006025152000
B1956373731012N12153624WA0059700609007006028144000
B1956383731011N12153613WA0059700607008008028111001
B1956393731012N12153608WA0059600606010008027111354
B1956403731021N12153603WA0059400603011012022056346
B1956413731031N12153599WA0059300611010012022040341
B1956423731036N12153602WA0059200611011012028009343
B1956433731042N12153597WA0059100606007008033015345
B1956443731047N12153599WA0059100604008008032004346
B1956453731051N12153606WA0059100601008008033323346
B1956463731052N12153612WA0059200603009008032305348
B1956473731048N12153605WA0059300585010019019296351
B1956483731049N12153608WA0059500585010019016292352
B1956493731049N12153611WA0059600586010019014287354
B1956503731050N12153614WA0059600586010019014285354
B1956523731050N12153620WA0059700587010019016265356
B1956533731049N12153624WA0059700588010019018254356
B1956543731048N12153627WA0059700588010019017248357
B1956553731047N12153631WA0059600589005010016243357
B1956563731045N12153634WA0059600589005010015235357
B1956573731043N12153636WA0059600589005010016223358
B1956583731041N12153638WA0059600590005010017209358
B1956593731038N12153639WA0059500590005010020192358
B1957003731034N12153640WA0059500590005010019186001
B1957013731031N12153640WA0059500590005010018181000
B1957023731028N12153640WA0059400590005010016168000
B1957033731025N12153639WA0059400589005010022148000
B1957043731022N12153636WA0059300589005010029129000
B1957053731019N12153630WA0059200588005010043114000
B1957063731017N12153622WA0059000588005010046104001
B1957073731016N12153613WA0058800587005010047091000
B1957083731016N12153604WA0058700587010019048084358
B1957093731018N12153596WA0058700587010019044053344
B1957103731023N12153590WA0058600586010019041032341
B1957113731029N12153587WA0058500586010019039022345
B1957123731034N12153585WA0058500585010019036009346
B1957133731040N12153586WA0058500585010019035344346
B1957143731044N12153589WA0058500584010019036326347
B1957153731052N12153598WA0058400583010019031314349
B1957163731055N12153602WA0058400583010019030318350
B1957183731058N12153606WA0058600583010019025321352
B1957193731064N12153612WA0058700582010019024327353
B1957203731067N12153615WA0058800581010019021309354
B1957213731068N12153618WA0058800581010019019291354
B1957223731068N12153622WA0058800580010019019265354
B1957233731067N12153626WA0058700580010019022245355
B1957243731065N12153630WA0058500579010019024228356
B1957253731062N12153633WA0058400579010019025216356
B1957263731058N12153635WA0058300578010019024202357
B1957273731054N12153637WA0058300578010019023198357
B1957283731050N12153638WA0058300577010019022198358
B1957293731047N12153639WA0058300577010019022202358
B1957303731043N12153641WA0058400577010019022197358
B1957313731039N12153642WA0058500577010019022190359
B1957323731036N12153643WA0058600577010019022189359
B1957333731033N12153643WA0058700576010019022188000
B1957343731029N12153643WA0058700576010019022175000
B1957353731026N12153642WA0058700576010019024154000
B1957363731023N12153639WA0058600575010019029128000
B1957373731021N12153633WA0058500574010019041101000
B1957383731020N12153625WA0058400574010019046087000
B1957393731021N12153616WA0058200573010019046079001
B1957403731022N12153607WA0058100573010019045071356
B1957413731025N12153599WA0058000572010019046065347
B1957423731029N12153594WA0057900572010019042028342
B1957433731035N12153591WA0057800571010019040009338
B1957443731041N12153591WA0057700570010019036349337
B1957453731046N12153593WA0057600569010019029333339
B1957463731049N12153597WA0057600567010019030314342
B1957473731052N12153601WA0057600566010019027301346
B1957483731054N12153606WA0057500565010019024290348
B1957493731055N12153611WA0057400564010019023287350
B1957503731056N12153615WA0057400563010019019282351
B1957513731056N12153619WA0057400562005010019267352
B1957523731054N12153623WA0057300561005010025238352
B1957533731051N12153628WA0057200561005010026227006
B1957543731047N12153631WA0057100560005010023207004
B1957553731044N12153632WA0057000559005010022184003
B1957563731040N12153632WA0056900558005010022161002
B1957573731037N12153630WA0056800557005010026143001
B1957583731033N12153627WA0056700556005010029134001
B1957593731030N12153622WA0056600555005010031123000
B1958003731028N12153616WA0056500554005010037101000
B1958013731027N12153609WA0056400554005010038090000
B1958023731027N12153602WA0056300553005010038090000
B1958033731026N12153595WA0056200552005010038100000
B1958043731025N12153587WA0056100551005010037106000
B1958053731023N12153581WA0055900550005010036113000
B1958063731020N12153575WA0055800549005010034124000
B1958073731017N12153570WA0055800548005010033128000
B1958083731013N12153566WA0055700547005010031144000
B1958093731009N12153563WA0055600546005010031149359
B1958103731005N12153560WA0055500545005010031154359
B1958113731001N12153558WA0055400544005010031161359
B1958123730996N12153556WA0055300543005010030165359
B1958133730992N12153555WA0055300542005010029168359
B1958143730987N12153554WA0055200541005010028169359
B1958153730983N12153554WA0055100540005010029175359
B1958163730978N12153554WA0055100540005010031177359
B1958173730973N12153554WA0055000539005010030177359
B1958183730969N12153553WA0054900538005010027175359
B1958193730965N12153553WA0054900538005010026172359
B1958203730961N12153552WA0054800537005010026168000
B1958213730956N12153551WA0054800537005010028167000
B1958223730952N12153550WA0054700536005010030170000
B1958233730947N12153549WA0054600535005010030169000
B1958243730943N12153548WA0054500535005010029166359
B1958253730938N12153547WA0054400534005010031168359
B1958263730933N12153546WA0054300533005010035168359
B1958273730928N12153545WA0054300533005010036168359
B1958283730923N12153544WA0054200532005010034170359
B1958293730918N12153543WA0054200531005010034175359
B1958303730913N12153542WA0054100530005010028175359
B1958313730909N12153542WA0054000530005010028177359
B1958323730905N12153542WA0053900529005010027177359
B1958333730901N12153542WA0053800528005010028184359
B1958343730897N12153543WA0053700527005010028195359
B1958353730893N12153545WA0053500525005010028208359
B1958373730889N12153548WA0053300524005010029215359
B1958383730883N12153554WA0053100523005010024216359
B1958393730880N12153557WA0053100522005010020204359
B1958403730878N12153558WA0053100521005010018194359
B1958423730875N12153558WA0053200521005010019191359
B1958433730873N12153559WA0053300520005010015202359
B1958443730871N12153560WA0053400520005010012249357
B1958453730871N12153563WA0053400519005010017274004
B1958463730872N12153566WA0053500518005010017287015
B1958473730873N12153569WA0053500517005010019300022
B1958483730875N12153572WA0053500516005010024322025
B1958493730879N12153574WA0053400516010019021314024
B1958503730881N12153577WA0053400515010019018304341
B1958513730883N12153579WA0053300515010019014297345
B1958523730884N12153582WA0053300516010019011273347
B1958533730884N12153583WA0053300516010019011243349
B1958543730883N12153584WA0053300516010019011218352
B1958553730881N12153584WA0053400517010019013203354
B1958563730879N12153583WA0053500517010019015196356
B1958573730876N12153583WA0053500517010019016200357
B1958583730873N12153584WA0053500518010019017202358
B1958593730871N12153584WA0053400518010019017215358
B1959003730868N12153586WA0053200519010019017215358
B1959013730866N12153588WA0053000519010019021232358
B1959023730864N12153590WA0052800519010019023238359
B1959033730861N12153592WA0052600519010019023242359
B1959043730859N12153592WA0052600520010019023254359
B1959053730858N12153593WA0052500520010019023261359
B1959063730857N12153595WA0052400520010019025265359
B1959073730856N12153597WA0052200520010019026264359
B1959083730856N12153600WA0052000520010019027258359
B1959093730855N12153604WA0051900521005010027253359
B1959103730854N12153607WA0051700521005010027249359
B1959113730852N12153608WA0051600519005010022229359
B1959123730850N12153610WA0051500519005010025224359
B1959133730847N12153612WA0051500519005010029217359
B1959143730843N12153614WA0051300519005010033195359
B1959153730837N12153612WA0051200518005010033192359
B1959163730832N12153612WA0051000517005010031190359
B1959173730827N12153610WA0050800516005010028187359
B1959183730823N12153609WA0050700515005010026181359
B1959193730819N12153607WA0050600514005010026179359
B1959213730814N12153606WA0050600514005010029181359
B1959223730804N12153606WA0050300512005010034193359
B1959233730799N12153607WA0050200512005010037194359
B1959243730794N12153609WA0050100512005010030201359
B1959253730790N12153611WA0050100512005010025199359
B1959263730787N12153611WA0050200513005010022195359
B1959283730784N12153612WA0050300513005010021189359
B1959293730782N12153612WA0050500513005010018182359
B1959303730780N12153612WA0050600513005010013183359
B1959313730778N12153612WA0050600514005010010208358
B1959323730778N12153613WA0050500514005010007317007
B1959333730780N12153614WA0050400514005010017333014
B1959343730783N12153616WA0050200514005010021341017
B1959353730787N12153617WA0050000514005010026351019
B1959363730794N12153614WA0049800512010019014108020
B1959373730793N12153610WA0049700511010019037137343
B1959383730789N12153606WA0049600511010019042143349
B1959393730784N12153601WA0049500510010019039143352
B1959403730781N12153596WA0049400510050095033143353
B1959413730777N12153593WA0049400510010019028150354
B1959423730775N12153593WA0049300509010019018197356
B1959433730773N12153594WA0049200510010019018210356
B1959443730771N12153597WA0049200510010019018223357
B1959453730769N12153600WA0049000510010019018230357
B1959533730766N12153646WA0047800479006008024233359
B1959543730766N12153650WA0047700477005006024227359
B1959553730763N12153653WA0047500473005006025219359
B1959563730760N12153656WA0047400469006006025221359
B1959573730756N12153659WA0047300468005006032215359
B1959583730752N12153662WA0047100469004006032214359
B1959593730749N12153666WA0047000467004004030215359
B2000003730745N12153669WA0046800465004004030208359
B2000013730746N12153668WA0046700462010019028207359
B2000023730742N12153670WA0046500461010019031205359
B2000033730737N12153673WA0046500461010019033204359
B2000043730733N12153675WA0046300460010019031202359
B2000053730728N12153677WA0046200460010019029200359
B2000063730724N12153679WA0046100459010019028199359
B2000073730720N12153681WA0046100459010019029202359
B2000083730716N12153683WA0046000458010019033204359
B2000093730711N12153686WA0045900457010019036206359
B2000103730706N12153689WA0045800456010019037207359
B2000113730701N12153692WA0045700456010019036211359
B2000123730697N12153696WA0045700455010019032219359
B2000133730693N12153700WA0045600455010019030230359
B2000143730691N12153705WA0045600454010019033236359
B2000153730688N12153711WA0045600454005010034234359
B2000163730685N12153716WA0045700454005010033235359
B2000173730683N12153721WA0045700454005010029240359
B2000183730681N12153725WA0045800455005010024248359
B2000193730680N12153729WA0045800455005010022252359
B2000203730680N12153733WA0045900455005010020255359
B2000213730679N12153736WA0046000455005010019248359
B2000223730679N12153739WA0046100455005010019245359
B2000233730678N12153742WA0046200455005010019249359
B2000243730677N12153746WA0046300455005010019256359
B2000253730677N12153749WA0046400456005010019267359
B2000263730677N12153753WA0046400456005010018294358
B2000273730680N12153755WA0046500456005010022330000
B2000283730683N12153756WA0046600456005010027351011
B2000293730688N12153756WA0046600456005010032012014
B2000303730693N12153754WA0046700456005010034028017
B2000313730697N12153749WA0046700457010019040043021
B2000323730701N12153743WA0046700457010019043056022
B2000333730704N12153735WA0046700457010019041085023
B2000343730704N12153727WA0046700456010019039090341
B2000353730702N12153719WA0046600456010019048130347
B2000363730697N12153712WA0046500456010019049132351
B2000373730692N12153705WA0046400455010019048132354
B2000383730687N12153699WA0046400455010019047131355
B2000393730683N12153692WA0046400455010019045128356
B2000403730679N12153686WA0046400455010019042129357
B2000413730675N12153680WA0046500455010019039129358
B2000423730670N12153677WA0046500455010019035132359
B2000433730666N12153676WA0046700455010019031134000
B2000443730666N12153676WA0046800456010019020009009
B2000453730669N12153677WA0046800455010019021017012
B2000493730715N12153722WA0046700461010019037087013
B2000503730714N12153713WA0046700463005010042103013
B2000513730712N12153704WA0046800463005010042105349
B2000523730709N12153695WA0046800465005010042106352
B2000533730705N12153690WA0046700466005010037152354
B2000543730699N12153687WA0046700468005010033172355
B2000553730694N12153688WA0046700470010019026197356
B2000563730690N12153690WA0046600472010019026202357
B2000573730687N12153694WA0046500473010019030218357
B2000583730684N12153700WA0046500474010019032234358
B2000593730681N12153707WA0046600473005010033234358
B2001013730678N12153713WA0046600473005010032236358
B2001023730673N12153726WA0046700474005010031234359
B2001033730671N12153732WA0046800475005010027238359
B2001043730669N12153737WA0046900476005010026239359
B2001053730667N12153741WA0047000477005010024239359
B2001063730665N12153745WA0047100478005010021237359
B2001073730663N12153748WA0047100478005010019229359
B2001083730661N12153750WA0047100479005010024208000
B2001093730657N12153752WA0047100479005010028191000
B2001103730652N12153752WA0047100481005010037177000
B2001113730647N12153751WA0047000481005010035161000
B2001123730642N12153748WA0046800482005010040138000
B2001133730637N12153741WA0046600482005010046120000
B2001143730635N12153733WA0046400482010019051106000
B2001153730634N12153723WA0046100483010019050093359
B2001163730635N12153714WA0045800483010019044075347
B2001173730637N12153707WA0045500483010019039052344
B2001183730642N12153702WA0045200482010019035023343
B2001193730648N12153701WA0044900482010019033356344
B2001203730653N12153702WA0044600481010019032333346
B2001213730658N12153707WA0044300480010019031316346
B2001223730662N12153713WA0044000478010019031301349
B2001233730665N12153719WA0043800477005010032294352
B2001243730667N12153726WA0043600476005010032288352
B2001253730668N12153732WA0043500476005010031286353
B2001263730670N12153738WA0043400474005010029286354
B2001273730671N12153743WA0043300474005010026281355
B2001283730672N12153747WA0043300473005010018291356
B2001293730673N12153750WA0043200473005010016275356
B2001303730674N12153754WA0043000472005010023260357
B2001323730671N12153758WA0042700469005010028242358
B2001333730666N12153767WA0042500465005010026242358
B2001343730663N12153771WA0042200463005010024241358
B2001353730661N12153775WA0042000462005010025240359
B2001363730659N12153780WA0041800459005010029242359
B2001373730656N12153785WA0041600457005010032239359
B2001383730654N12153791WA0041400454005010031237359
B2001393730651N12153795WA0041200451005010026238359
B2001413730649N12153798WA0040900450005010025239359
B2001423730645N12153808WA0040500445005010030245359
B2001433730643N12153813WA0040300442005010030245359
B2001453730641N12153818WA0040100440005010028239359
B2001463730638N12153822WA0039800437005010028235359
B2001473730636N12153827WA0039600435005010029237359
B2001483730633N12153832WA0039400432005010030242359
B2001493730631N12153837WA0039300430005010031245359
B2001503730629N12153843WA0039100427005010030244359
B2001513730627N12153847WA0038900425005010028240359
B2001523730624N12153852WA0038800424005010026239359
B2001533730623N12153856WA0038700422005010025239359
B2001543730621N12153860WA0038600420005010024240359
B2001553730619N12153864WA0038600418005010023240359
B2001563730618N12153868WA0038500416005010024239359
B2001573730616N12153872WA0038400414005010025239359
B2001583730614N12153876WA0038200412005010027238359
B2001593730611N12153884WA0038100407005010027243359
B2002003730609N12153889WA0037800405005010028241359
B2002013730607N12153893WA0037800403005010028240359
B2002023730605N12153898WA0037600401005010029241359
B2002033730603N12153903WA0037500399005010028242359
B2002043730601N12153908WA0037400397005010028242359
B2002053730599N12153912WA0037200395005010028241359
B2002063730597N12153917WA0037100392005010027238359
B2002073730595N12153921WA0037000390005010027236359
B2002083730593N12153926WA0036900388005010025239359
B2002093730591N12153930WA0036800385005010024241359
B2002103730589N12153934WA0036600382005010025240359
B2002113730588N12153938WA0036400380005010027234359
B2002123730585N12153943WA0036200378005010028230359
B2002133730582N12153947WA0036000376005010029224359
B2002143730580N12153951WA0035800373005010029230359
B2002153730577N12153955WA0035600372005010029231359
B2002163730574N12153960WA0035400370005010029226359
B2002173730570N12153963WA0035300368005010028222359
B2002183730567N12153967WA0035200366005010027218359
B2002193730564N12153970WA0035100364005010028219359
B2002203730561N12153974WA0035100363005010031220359
B2002213730557N12153978WA0035100361005010034219359
B2002223730553N12153981WA0035000360005010034216359
B2002233730549N12153985WA0034900359005010034217359
B2002243730545N12153989WA0034900358005010033217359
B2002253730542N12153993WA0034900356005010029217359
B2002263730539N12153996WA0035000355005010025215359
B2002273730535N12153998WA0035000354005010025213359
B2002293730532N12154001WA0035100353005010028209359
B2002303730528N12154003WA0035100352005010029204359
B2002313730524N12154005WA0035000350005010029196359
B2002323730520N12154006WA0035000349005010029190359
B2002333730515N12154006WA0034900348005010031186359
B2002343730510N12154007WA0034800347005010034185359
B2002353730505N12154007WA0034700346005010035184000
B2002363730500N12154007WA0034600345005010035182000
B2002373730495N12154007WA0034600344005010032177000
B2002383730490N12154007WA0034500343005010033176000
B2002393730485N12154006WA0034400342005010035170000
B2002403730480N12154005WA0034300341005010037169000
B2002413730474N12154003WA0034300340005010036169000
B2002423730469N12154002WA0034200339005010034163000
B2002433730465N12154000WA0034100338005010033161000
B2002443730460N12153998WA0034000337005010033159000
B2002453730455N12153996WA0033900336005010034158000
B2002463730451N12153993WA0033800335005010039151000
B2002473730446N12153989WA0033800334005010038151359
B2002483730441N12153986WA0033600333005010038155359
B2002493730436N12153983WA0033400332005010035156359
B2002503730431N12153981WA0033200331010019034159359
B2002513730427N12153979WA0032900329010019034162359
B2002523730417N12153976WA0032700327010019034173359
B2002543730412N12153975WA0032200325010019032177359
B2002553730404N12153976WA0031900323010019028184359
B2002563730400N12153976WA0031800321010019026188359
B2002573730396N12153977WA0031600321010019026185359
B2002583730392N12153978WA0031400321010019026187359
B2002593730388N12153979WA0031200321010019026188359
B2003003730384N12153980WA0031000320010019026192359
B2003013730381N12153981WA0030800320010019026197359
B2003023730378N12153984WA0030500320010019024209359
B2003033730375N12153987WA0030300320010019025220359
B2003043730373N12153993WA0030000319010019025229359
B2003053730371N12153998WA0029800319010019026233359
B2003063730369N12154004WA0029600319010019027236359
B2003073730370N12154013WA0029400318010019031250359
B2003083730370N12154021WA0029200317010019031250359
B2003093730369N12154027WA0029100317010019030248359
B2003103730368N12154033WA0029100317010019028247359
B2003113730368N12154038WA0029100316010019022248359
B2003123730368N12154042WA0029100316010019013248359
B2003133730368N12154045WA0029000315010019012252359
B2003143730367N12154047WA0028900315010019016243359
B2003153730367N12154050WA0028900314010019021240359
B2003163730367N12154055WA0028800313010019022252359
B2003173730367N12154060WA0028600313010019018261359
B2003183730369N12154064WA0028400312010019016290359
B2003193730370N12154067WA0028300311005010021285359
B2003203730369N12154072WA0028200310005010032278359
B2003213730371N12154079WA0028000309005010036283359
B2003223730373N12154085WA0027900308005010029297359
B2003233730376N12154090WA0027800307005010027315359
B2003243730379N12154092WA0027700307005010020334359
B2003263730382N12154094WA0027700307005010018332359
B2003273730385N12154097WA0027700306005010025305359
B2003283730387N12154102WA0027600305005010029286359
B2003293730388N12154108WA0027400305005010032283359
B2003303730389N12154114WA0027300303005010028288359
B2003313730391N12154119WA0027200302005010024295359
B2003323730392N12154123WA0027100302005010020293359
B2003333730394N12154127WA0027100301005010022292359
B2003343730395N12154131WA0027100299005010027277359
B2003353730395N12154137WA0027000299005010030271359
B2003363730395N12154142WA0027000298005010026270359
B2003373730395N12154147WA0027000297005010024274359
B2003383730395N12154151WA0027000297005010017272359
B2003393730395N12154155WA0027000296005010018277359
B2003403730397N12154164WA0027000295005010029278359
B2003413730397N12154170WA0027000294005010026276359
B2003423730397N12154175WA0027000293005010024275359
B2003433730397N12154179WA0027100293005010020276359
B2003443730397N12154183WA0027100293005010020279359
B2003453730398N12154187WA0027200293005010020284359
B2003463730398N12154190WA0027200293005010021287359
B2003473730400N12154194WA0027300292005010023292359
B2003483730402N12154198WA0027300291005010021296359
B2003493730404N12154202WA0027300291005010020309359
B2003503730407N12154204WA0027300291005010020325359
B2003513730410N12154206WA0027300290005010020323359
B2003523730412N12154209WA0027400290005010022313359
B2003533730415N12154212WA0027400290005010022306359
B2003543730417N12154216WA0027300289005010023295359
B2003553730418N12154220WA0027300289005010022297359
B2003563730420N12154224WA0027200289005010020295359
B2003573730422N12154228WA0027100288005010019287359
B2003583730422N12154231WA0027000288005010021277359
B2003593730423N12154235WA0027000287005010021276359
B2004003730424N12154239WA0027000287005010019277359
B2004013730424N12154242WA0027000286005010018284359
B2004023730425N12154246WA0026900286005010019289359
B2004033730426N12154249WA0026900286005010018294359
B2004043730428N12154252WA0026900285005010019305359
B2004053730430N12154255WA0026800285005010020311359
B2004063730432N12154258WA0026800284005010020307359
B2004073730434N12154261WA0026700284005010018298359
B2004083730435N12154264WA0026600284005010018277359
B2004093730434N12154268WA0026500284005010021250359
B2004103730432N12154271WA0026400283005010025227000
B2004113730429N12154275WA0026200283005010025216000
B2004123730425N12154275WA0026100283005010028181000
B2004133730419N12154273WA0026000281005010033156000
B2004143730415N12154269WA0026000280005010032135000
B2004153730411N12154264WA0026000280005010031128000
B2004163730408N12154258WA0026000279005010031136000
B2004173730404N12154254WA0026000278005010032144000
B2004183730400N12154250WA0025900278010019034140000
B2004193730395N12154245WA0025800276010019036142000
B2004203730390N12154239WA0025800275010019036140000
B2004213730386N12154234WA0025600274010019036141000
B2004223730381N12154230WA0025300273010019034146000
B2004233730377N12154226WA0025100272010019033149359
B2004243730372N12154223WA0025000272010019033151359
B2004253730368N12154220WA0024800271010019032155359
B2004263730363N12154217WA0024600270010019032156359
B2004273730359N12154214WA0024500269010019029157359
B2004283730354N12154212WA0024300268010019029162359
B2004293730349N12154211WA0024100267010019029168359
B2004303730346N12154212WA0023900267010019016219359
B2004323730345N12154214WA0023700266010019015227359
B2004333730344N12154217WA0023400265010019016236003
B2004343730343N12154223WA0023200263010019015255009
B2004353730344N12154227WA0023000262010019014261013
B2004363730344N12154230WA0022800262010019013261008
B2004373730344N12154233WA0022700261010019012257011
B2004383730344N12154237WA0022600261010019010247005
B2004393730346N12154239WA0022500261010019003294000
B2004403730346N12154239WA0022500261010019004323348
B2004413730351N12154240WA0022400260010019012351339
B2004423730357N12154240WA0022300260010019018356335
B2004433730363N12154240WA0022100259010019019345332
B2004443730368N12154241WA0021900259010019022332334
B2004453730374N12154243WA0021700258010019024321333
B2004463730379N12154245WA0021500258010019024312335
B2004473730383N12154248WA0021400258010019022299335
B2004483730385N12154250WA0021400258010019020280022
B2004493730387N12154252WA0021400257010019016243016
B2004503730386N12154252WA0021300257010019017203012
B2004513730385N12154250WA0021300257010019021165009
B2004523730384N12154245WA0021200255010019033132008
B2004533730383N12154237WA0021100254010019039125007
B2004543730380N12154230WA0021000253010019039126006
B2004553730377N12154223WA0020900252010019041129354
B2004563730374N12154216WA0020800251010019043133356
B2004573730372N12154209WA0020700249010019037131356
B2004583730371N12154204WA0020700247010019032139357
B2004593730368N12154201WA0020500246010019034152358
B2005003730364N12154199WA0020300246010019030174358
B2005013730360N12154199WA0020200245010019020187358
B2005023730357N12154200WA0020100245010019018188359
B2005043730355N12154201WA0019900245010019018196359
B2005053730352N12154206WA0019700243010019018217359
B2005073730351N12154210WA0019500242010019020215359
B2005083730351N12154213WA0019300241010019019212359
B2005093730350N12154216WA0019100239010019017223359
B2005103730349N12154219WA0018900237010019016235359
B2005113730348N12154222WA0018700235010019019253359
B2005123730349N12154226WA0018600233010019020273359
B2005133730350N12154231WA0018400231010019023283359
B2005143730352N12154236WA0018300229010019024290359
B2005153730354N12154241WA0018100228010019025291359
B2005163730359N12154249WA0018100224010019025284359
B2005173730359N12154259WA0017900221010019032265359
B2005183730356N12154269WA0017700218010019029246359
B2005193730352N12154274WA0017500209010019024237359
B2005203730350N12154278WA0017200201005010014227001
B2005213730348N12154279WA0017100198005010004182010
B2005223730350N12154275WA0016900188005010004136006
B2005233730348N12154272WA0016800182005010001098005
B2005243730348N12154272WA0016800182005010001087002
B2005253730348N12154272WA0016800182005010001087004
B2005263730348N12154269WA0016800175005010001024004
B2005273730348N12154269WA0016800175005010001030003
B2005283730348N12154269WA0016800175005010000000003
B2005293730348N12154269WA0016800175005010000000002
B2005303730348N12154269WA0016800175005010000000002
B2005313730348N12154269WA0016800175005010001000001
B2005323730348N12154269WA0016800175005010000000001
B2005333730348N12154269WA0016800175005010000000001
B2005343730348N12154269WA0016800175005010000000000
B2005353730348N12154269WA0016800175005010000000000
B2005363730348N12154269WA0016800175005010001066000
B2005373730348N12154269WA0016800175005010000086001
B2005383730348N12154269WA0016800175005010001109003
B2005393730348N12154269WA0016800175005010001116026
B2005403730348N12154269WA0016800175005010002074000
B2005413730347N12154269WA0016800173005010002070000
B2005423730347N12154268WA0016800170005010001054000
B2005433730347N12154268WA0016800168005010000000000
B2005443730347N12154268WA0016700168005010000000000
B2005453730347N12154268WA0016700168005010001227000
B2005463730347N12154268WA0016700168005010001064000
B2005473730347N12154268WA0016700168005010001047000
B2005483730347N12154268WA0016700168005010000000000
B2005493730347N12154268WA0016700168005010000000000
B2005503730347N12154268WA0016700168005010000000000
B2005513730347N12154268WA0016700168005010001026000
B2005523730347N12154268WA0016700168005010000000000
B2005533730347N12154268WA0016700168005010000257000
GX8Yb+Jc+s2KnAZeuQYL71futaTgzgPNsaCzTRObkYL8sEKXp53jg0WIIvABfPVEg
GMHA4LrIPvQmHT7JXJUdxnLw4cT9Tjawl9Ok/CGbPGypZ2xblzo4Mx9Bo8xRS/1hu
GOap3/K1Z3zvx6zYj+aGGYXB+IcOyh+5yns+fUEQgZEM=

