AXLFLeaf1
HFDTE060626
HFFXA035
HFPLTPILOTINCHARGE:Unknown
HFGTYGLIDERTYPE:Ozone Swift 6
HFDTM100GPSDATUM:WGS84
HFRFWFIRMWAREVERSION:0.1.4-350.dev+h3.2.7
HFRHWHARDWAREVERSION:Leaf1
HFFTYFRTYPE:Leaf1,0.1.4-350.dev+h3.2.7
HFGPSTYPE:GNSS LC86G
HFPRSPRESSALTSENSOR:MS5611
HFTZNTIMEZONE:-7
I013638FXA
B1715063727668N12151639WA0034600346002
B1715073727667N12151641WA0034700346002
B1715083727667N12151644WA0034900347002
B1715093727666N12151647WA0034900347002
B1715103727664N12151648WA0034900347002
B1715113727661N12151648WA0035000348002
B1715123727657N12151648WA0034900347002
B1715133727653N12151648WA0034800347002
B1715143727648N12151648WA0034800346002
B1715153727644N12151649WA0034800345002
B1715163727640N12151651WA0034800345002
B1715173727639N12151656WA0034800344002
B1715183727639N12151660WA0034800344002
B1715193727641N12151663WA0034800343002
B1715203727644N12151663WA0034800343002
B1715213727648N12151663WA0034900343002
B1715223727651N12151662WA0035000344002
B1715233727655N12151660WA0035100345002
B1715243727659N12151657WA0035200346002
B1715253727663N12151654WA0035300347002
B1715263727667N12151650WA0035400349002
B1715273727671N12151647WA0035300349002
B1715283727674N12151645WA0035200350002
B1715293727677N12151645WA0035100349002
B1715303727679N12151646WA0035000350002
B1715313727679N12151650WA0035000349002
B1715323727676N12151653WA0035000349002
B1715333727672N12151656WA0035100348002
B1715343727667N12151656WA0035100347002
B1715353727662N12151654WA0035100347002
B1715363727657N12151650WA0035100347002
B1715373727653N12151645WA0034900346002
B1715383727648N12151641WA0034700344002
B1715393727643N12151637WA0034600342002
B1715403727637N12151636WA0034500341002
B1715413727633N12151638WA0034400339002
B1715423727631N12151641WA0034400338002
B1715433727632N12151645WA0034400337002
B1715443727635N12151648WA0034600337002
B1715453727638N12151650WA0034800338002
B1715463727641N12151650WA0034900339002
B1715473727644N12151649WA0034900340002
B1715483727647N12151648WA0034900341002
B1715493727649N12151647WA0034900342002
B1715503727652N12151647WA0034900341002
B1715513727654N12151648WA0035000343002
B1715523727656N12151648WA0035000344002
B1715533727658N12151649WA0035000345002
B1715543727660N12151649WA0035000345002
B1715553727662N12151650WA0034900345002
B1715563727664N12151651WA0035000345002
B1715573727667N12151653WA0035100346002
B1715583727669N12151653WA0035200347002
B1715593727671N12151653WA0035100348002
B1716003727673N12151652WA0035000348002
B1716013727675N12151652WA0034900347002
B1716023727677N12151653WA0034900346002
B1716033727677N12151655WA0034900345002
B1716043727676N12151658WA0034900346002
B1716053727673N12151659WA0034900346002
B1716063727669N12151659WA0035000346002
B1716073727664N12151657WA0034900346002
B1716083727660N12151655WA0034900346002
B1716093727655N12151652WA0034900345002
B1716103727650N12151649WA0034900345002
B1716113727644N12151647WA0034900344002
B1716123727639N12151646WA0034900344002
B1716133727634N12151647WA0035000344002
B1716143727630N12151648WA0035000344002
B1716153727628N12151650WA0034900344002
B1716163727629N12151653WA0035000344002
B1716173727631N12151654WA0034900344002
B1716183727635N12151654WA0034900344002
B1716193727638N12151654WA0034800344002
B1716203727640N12151653WA0034500344002
B1716213727642N12151653WA0034200342002
B1716223727644N12151656WA0034000340002
B1716233727646N12151659WA0034100338002
B1716243727648N12151664WA0034100337002
B1716253727649N12151668WA0034100337002
B1716263727650N12151671WA0034100337002
B1716273727651N12151674WA0034000336002
B1716283727651N12151676WA0033800335002
B1716293727652N12151679WA0033800334002
B1716303727653N12151683WA0034100334002
B1716313727655N12151687WA0034200333002
B1716323727657N12151691WA0034400333002
B1716333727658N12151693WA0034500334002
B1716343727659N12151694WA0034400335002
B1716353727660N12151694WA0034100336002
B1716363727661N12151695WA0034000336002
B1716373727662N12151697WA0033900335002
B1716383727663N12151699WA0034000335002
B1716393727665N12151702WA0034000337002
B1716403727667N12151705WA0034100338002
B1716413727668N12151707WA0034000338002
B1716423727669N12151709WA0034100338002
B1716433727669N12151712WA0034200338002
B1716443727669N12151715WA0034200338002
B1716453727669N12151717WA0034200339002
B1716463727670N12151719WA0034200339002
B1716473727671N12151721WA0033900338002
B1716483727673N12151723WA0033800337002
B1716493727674N12151725WA0033800336002
B1716503727676N12151728WA0033800335002
B1716513727677N12151731WA0033800335002
B1716523727677N12151734WA0033700335002
B1716533727678N12151736WA0033600334002
B1716543727678N12151739WA0033600334002
B1716553727679N12151743WA0033500333002
B1716563727679N12151746WA0033600332002
B1716573727679N12151749WA0033500333002
B1716583727678N12151751WA0033500332002
B1716593727678N12151753WA0033300332002
B1717003727677N12151756WA0033000330002
B1717013727676N12151758WA0032900328002
B1717023727675N12151762WA0032800326002
B1717033727673N12151767WA0032800325002
B1717043727672N12151770WA0032800325002
B1717053727670N12151774WA0032700325002
B1717063727670N12151777WA0032700324002
B1717073727669N12151780WA0032500323002
B1717083727668N12151784WA0032500322002
B1717093727668N12151788WA0032400321002
B1717103727667N12151791WA0032200320002
B1717113727667N12151794WA0032000319002
B1717123727666N12151797WA0031900317002
B1717133727666N12151801WA0031700315002
B1717143727665N12151805WA0031600313002
B1717153727665N12151809WA0031700312002
B1717163727664N12151814WA0031700312002
B1717173727664N12151818WA0031700312002
B1717183727664N12151822WA0031600311002
B1717193727664N12151824WA0031400310002
B1717203727664N12151825WA0031200310002
B1717213727665N12151827WA0031000308002
B1717223727665N12151831WA0031100306002
B1717233727664N12151836WA0031300305002
B1717243727663N12151840WA0031400304002
B1717253727662N12151844WA0031400304002
B1717263727661N12151847WA0031300304002
B1717273727660N12151849WA0031100303002
B1717283727659N12151852WA0031000302002
B1717293727659N12151856WA0030700301002
B1717303727660N12151860WA0030600300002
B1717313727660N12151864WA0030700299002
B1717323727660N12151867WA0030600299002
B1717333727661N12151872WA0030600299002
B1717343727662N12151876WA0030600299002
B1717353727662N12151880WA0030700300002
B1717363727663N12151884WA0030700301002
B1717373727662N12151887WA0030500301002
B1717383727661N12151890WA0030300300002
B1717393727660N12151894WA0030200299002
B1717403727658N12151899WA0030000297002
B1717413727657N12151904WA0030000296002
B1717423727656N12151909WA0030100296002
B1717433727655N12151914WA0030000296002
B1717443727655N12151919WA0030000296002
B1717453727655N12151923WA0029900296002
B1717463727656N12151926WA0029800295002
B1717473727656N12151929WA0029700294002
B1717483727656N12151932WA0029500293002
B1717493727656N12151935WA0029400292002
B1717503727657N12151939WA0029300290002
B1717513727658N12151943WA0029400290002
B1717523727658N12151947WA0029500291002
B1717533727659N12151950WA0029600291002
B1717543727659N12151952WA0029600292002
B1717553727660N12151953WA0029500291002
B1717563727660N12151955WA0029400291002
B1717573727661N12151956WA0029300290002
B1717583727663N12151957WA0029100290002
B1717593727667N12151954WA0029100289002
B1718003727672N12151948WA0029100288002
B1718013727674N12151940WA0029200288002
B1718023727673N12151930WA0029300288002
B1718033727670N12151922WA0029400289002
B1718043727668N12151914WA0029300290002
B1718053727665N12151907WA0029200290002
B1718063727663N12151900WA0029100289002
B1718073727660N12151893WA0029000288002
B1718083727657N12151885WA0029000287002
B1718093727655N12151876WA0028900287002
B1718103727655N12151868WA0028800286002
B1718113727654N12151861WA0028600285002
B1718123727652N12151854WA0028500284002
B1718133727650N12151846WA0028300282002
B1718143727646N12151838WA0028000280002
B1718153727641N12151833WA0027800278002
B1718163727635N12151832WA0027500276002
B1718173727630N12151836WA0027300272002
B1718183727628N12151841WA0027300270002
B1718193727628N12151845WA0027300269002
B1718203727629N12151847WA0027100269002
B1718213727630N12151849WA0026800267002
B1718223727630N12151851WA0026700264002
B1718233727630N12151854WA0026500262002
B1718243727629N12151858WA0026600261002
B1718253727628N12151862WA0026700260002
B1718263727627N12151866WA0026700260002
B1718273727627N12151868WA0026600260002
B1718283727627N12151870WA0026500260002
B1718293727626N12151872WA0026400260002
B1718303727625N12151875WA0026300258002
B1718313727624N12151878WA0026100257002
B1718323727623N12151880WA0025900256002
B1718333727622N12151883WA0025800255002
B1718343727621N12151885WA0025600253002
B1718353727620N12151888WA0025400252002
B1718363727618N12151890WA0025300250002
B1718373727617N12151894WA0025300249002
B1718383727616N12151897WA0025300248002
B1718393727614N12151900WA0025200248002
B1718403727613N12151902WA0025000248002
B1718413727611N12151904WA0024800247002
B1718423727610N12151906WA0024700245002
B1718433727609N12151910WA0024600243002
B1718443727607N12151914WA0024500242002
B1718453727604N12151917WA0024500242002
B1718463727601N12151920WA0024300241002
B1718473727599N12151923WA0024100240002
B1718483727597N12151926WA0023800237002
B1718493727594N12151929WA0023700235002
B1718503727592N12151933WA0023600233002
B1718513727590N12151937WA0023600233002
B1718523727588N12151941WA0023500232002
B1718533727586N12151943WA0023500232002
B1718543727585N12151946WA0023400231002
B1718553727583N12151948WA0023300230002
B1718563727582N12151951WA0023300229002
B1718573727581N12151954WA0023100229002
B1718583727579N12151957WA0023200228002
B1718593727576N12151961WA0023100227002
B1719003727573N12151964WA0023000227002
B1719013727570N12151967WA0022900227002
B1719023727568N12151969WA0022900226002
B1719033727566N12151973WA0022800225002
B1719043727565N12151977WA0022700224002
B1719053727564N12151981WA0022700223002
B1719063727563N12151985WA0022800223002
B1719073727563N12151988WA0022900224002
B1719083727562N12151991WA0022900224002
B1719093727561N12151994WA0022900225002
B1719103727561N12151996WA0023000225002
B1719113727561N12151999WA0023000225002
B1719123727560N12152001WA0023000225002
B1719133727559N12152004WA0023100226002
B1719143727558N12152006WA0023000226002
B1719153727557N12152008WA0022900226002
B1719163727556N12152011WA0022800225002
B1719173727557N12152013WA0022600224002
B1719183727560N12152015WA0022500223002
B1719193727565N12152014WA0022500222002
B1719203727570N12152012WA0022600222002
B1719213727574N12152006WA0022700222002
B1719223727577N12151999WA0022700221002
B1719233727576N12151990WA0022800221002
B1719243727572N12151982WA0022600221002
B1719253727567N12151976WA0022500221002
B1719263727560N12151975WA0022500220002
B1719273727554N12151977WA0022500219002
B1719283727550N12151982WA0022600219002
B1719293727548N12151985WA0022700219002
B1719303727547N12151987WA0022500220002
B1719313727546N12151989WA0022300220002
B1719323727546N12151990WA0022100219002
B1719333727546N12151992WA0021900217002
B1719343727547N12151995WA0021800215002
B1719353727549N12151997WA0021800214002
B1719363727550N12151999WA0021700214002
B1719373727551N12152001WA0021500213002
B1719383727550N12152002WA0021300212002
B1719393727547N12152005WA0021300211002
B1719403727544N12152007WA0021300211002
B1719413727541N12152009WA0021200210002
B1719423727540N12152010WA0021000209002
B1719433727538N12152012WA0020900207002
B1719443727536N12152015WA0020800205002
B1719453727533N12152017WA0020600204002
B1719463727529N12152018WA0020400202002
B1719473727525N12152017WA0020200200002
B1719483727520N12152012WA0020000198002
B1719493727515N12152006WA0019600196002
B1719503727513N12151998WA0019400194002
B1719513727511N12151991WA0019100191002
B1719523727508N12151985WA0018800188002
B1719533727504N12151981WA0018600185002
B1719543727498N12151981WA0018400182002
B1719553727494N12151983WA0018400180002
B1719563727491N12151986WA0018400178002
B1719573727488N12151989WA0018300179002
B1719583727486N12151991WA0018200178002
B1719593727484N12151993WA0018200177002
B1720003727481N12151997WA0018200176002
B1720013727478N12151999WA0018100176002
B1720023727476N12152002WA0018100176002
B1720033727473N12152003WA0017800175002
B1720043727472N12152005WA0017600174002
B1720053727470N12152007WA0017500173002
B1720063727467N12152009WA0017500172002
B1720073727465N12152010WA0017500172002
B1720083727464N12152012WA0017600172002
B1720093727463N12152013WA0017600171002
B1720103727463N12152012WA0017600171002
B1720113727463N12152012WA0017600171002
B1720123727463N12152012WA0017600171002
B1720133727463N12152012WA0017600170002
B1720143727463N12152012WA0017600170002
B1720153727463N12152013WA0017600170002
B1720163727463N12152013WA0017600171002
B1720173727463N12152013WA0017600171002
B1720183727463N12152013WA0017600171002
B1720193727463N12152013WA0017600171002
B1720203727463N12152013WA0017600171002
B1720213727463N12152013WA0017600171002
B1720223727463N12152013WA0017600171002
B1720233727463N12152013WA0017600171002
B1720243727463N12152013WA0017600171002
B1720253727463N12152013WA0017600171002
B1720263727463N12152013WA0017600171002
B1720273727463N12152013WA0017600171002
B1720283727463N12152013WA0017600171002
B1720293727463N12152013WA0017600171002
B1720303727463N12152013WA0017600171002
B1720313727463N12152013WA0017600171002
B1720323727463N12152013WA0017600171002
B1720333727463N12152013WA0017600171002
B1720343727463N12152013WA0017600171002
