AXFH000
HFDTE230924
HFPLTPILOT:Scott O’Brien
HFGTYGLIDERTYPE:Phi Maestro 2
HFDTM100GPSDATUM:WGS84
HFRFWFIRMWAREVERSION:8.2.4
HFRHWHARDWAREVERSION:Unknown device (iPhone15,4)
HFFTYFRTYPE:Flyskyhy,8.2.4
HFGPS:Internal
HFPRSVARIO:Internal Vario
HFCCLCOMPETITIONCLASS:Paraglider
HFTZNTIMEZONE:-6
HFSITSITE:Cove (Richfield- Monroe),US
I053638FXA3941VXA4244GSP4547CCO4850HDT
C230924232655230924000108TASK
C0000000N00000000ETAKEOFF
C3920440N12241116W00015009999999000000360000STARTAREA POTLAU
C3922249N12241405W00000000001000000000360000TURNAREA SNOWVL
C3920978N12239724W00000000000400000000360000TURNAREA POTLZ
C3920095N12241882W00000000000400000000360000TURNAREA TOP
C3922264N12241989W00000000001000000000360000TURNAREA SNOWLO
C3920983N12238798W00000000001000000000360000TURNAREA TROUGH
C3920095N12241882W00000000000400000000360000TURNAREA TOP
C3925826N12241497W00000000005000000000360000TURNAREA STJOHN
C3920440N12241116W00000000001500000000360000TURNAREA POTLAU
C3920978N12239724W00000000000400000000360000FINISHAREA POTLZ
C0000000N00000000ELANDING
B2327263838076N11203595WA0266102661005010003204201
B2327273838075N11203596WA0266102661005010006211179
B2327283838075N11203596WA0266102661005010001241144
B2327293838075N11203596WA0266102661005010001014026
B2327303838075N11203596WA0266102661005010001014349
B2327313838076N11203596WA0266102661005010003329022
B2327323838076N11203596WA0266102661005010004006011
B2327333838078N11203595WA0266102660005010006027038
B2327343838079N11203595WA0266102660005010008035033
B2327353838080N11203593WA0266002660005010011043026
B2327363838082N11203591WA0266002660005010015049041
B2327373838084N11203589WA0266002660005010016055022
B2327383838086N11203586WA0265902659005010017053189
B2327393838088N11203583WA0265802659005010020047206
B2327403838093N11203577WA0265802658010019022038202
B2327413838095N11203574WA0265802658010019019050200
B2327423838096N11203571WA0265802658010019015052207
B2327433838098N11203569WA0265802658010019011020196
B2327443838100N11203569WA0265902658005010018345176
B2327453838103N11203570WA0265902657005010023336157
B2327473838106N11203572WA0265902657005010030328139
B2327483838110N11203575WA0265902658005010025318135
B2327493838114N11203582WA0265902659005010024291135
B2327503838115N11203586WA0266002660005010022286142
B2327513838116N11203590WA0266102661005010019284149
B2327523838117N11203593WA0266302662005010016310148
B2327533838119N11203595WA0266402663005010017318165
B2327543838121N11203597WA0266502664005010021318143
B2327553838124N11203600WA0266502665005010022319133
B2327563838127N11203602WA0266602666005010019321181
B2327573838129N11203604WA0266702667005010015319204
B2327583838130N11203606WA0266702668005010013314208
B2327593838132N11203608WA0266902669005010013310224
B2328003838133N11203609WA0267102670005010015313238
B2328013838135N11203611WA0267302671005010014322246
B2328023838137N11203613WA0267402672005010014339263
B2328033838139N11203613WA0267502672005010016345279
B2328043838142N11203614WA0267602673005010017344286
B2328053838145N11203615WA0267702674005010018343336
B2328063838147N11203616WA0267702675005010016349294
B2328073838149N11203616WA0267802676005010015010300
B2328083838151N11203615WA0267902677005010016045306
B2328093838153N11203612WA0268002679005010022062318
B2328103838154N11203607WA0268102680005010027070334
B2328113838155N11203602WA0268202681005010027077347
B2328123838156N11203597WA0268302682005010027091347
B2328133838155N11203592WA0268502684005010030101340
B2328143838153N11203587WA0268602686005010033107334
B2328153838150N11203582WA0268702688005010037113331
B2328163838147N11203576WA0268802689005010040121327
B2328173838143N11203569WA0268802691005010046130306
B2328183838136N11203564WA0268902693005010052147280
B2328193838129N11203559WA0269002695010019047149241
B2328203838122N11203555WA0269102698010019047152248
B2328213838116N11203550WA0269202700010019042137243
B2328223838112N11203545WA0269502702010019040130280
B2328233838109N11203539WA0269802704010019032114329
B2328243838107N11203533WA0270002706010019030108333
B2328253838106N11203529WA0270202708010019015109031
B2328263838106N11203527WA0270402710010019006098315
B2328273838106N11203526WA0270502711010019004031312
B2328283838108N11203526WA0270602713010019005015316
B2328293838110N11203527WA0270802715010019005016319
B2328303838112N11203527WA0270902717010019005003322
B2328313838114N11203527WA0271202719010019008335324
B2328323838116N11203528WA0271302721010019009332323
B2328333838118N11203529WA0271502722010019009358324
B2328343838120N11203529WA0271502724010019014014331
B2328353838123N11203528WA0271602726010019016011339
B2328363838126N11203528WA0271602727010019017006341
B2328373838128N11203528WA0271602729010019008355341
B2328383838130N11203528WA0271702730010019006340335
B2328393838132N11203529WA0271702732010019006314332
B2328403838133N11203530WA0271802733010019011283328
B2328413838133N11203533WA0271902735010019019273319
B2328423838135N11203537WA0271902736010019019258310
B2328433838134N11203542WA0271802737010019024258305
B2328443838133N11203548WA0271702738010019032257300
B2328453838132N11203555WA0271702739010019032249293
B2328463838130N11203562WA0271602741010019036248288
B2328473838124N11203566WA0271502742010019063182285
B2328483838113N11203566WA0271402743010019063182197
B2328493838104N11203566WA0271302743010019063183196
B2328503838095N11203565WA0271302742030057057177197
B2328513838087N11203564WA0271302742010019055175189
B2328523838079N11203560WA0271302741030057040164185
B2328533838073N11203556WA0271302741010019030174164
B2328543838069N11203554WA0271302741010019027168197
B2328553838065N11203551WA0271302740010019012222170
B2328563838065N11203549WA0271302740010019013255359
B2328573838066N11203550WA0271302739010019013267351
B2328583838067N11203550WA0271302739010019011280294
B2328593838070N11203550WA0271302737010019012284328
B2329003838074N11203553WA0271302736010019022292328
B2329013838078N11203557WA0271302735010019025295320
B2329023838081N11203562WA0271302734010019024295320
B2329033838083N11203568WA0271202733010019021297321
B2329043838087N11203572WA0271202731010019021325324
B2329053838093N11203575WA0271102730010019022340339
B2329063838098N11203577WA0271002729010019021347346
B2329073838102N11203578WA0270902728010019019344350
B2329083838107N11203580WA0270902727010019016335352
B2329093838110N11203581WA0270902727010019014328353
B2329103838112N11203582WA0270802727010019013329353
B2329113838115N11203584WA0270702726010019016327342
B2329123838118N11203586WA0270602726010019019317346
B2329133838121N11203589WA0270502726010019024313346
B2329143838125N11203594WA0270302725010019027302337
B2329153838129N11203600WA0270202724010019026302341
B2329163838132N11203605WA0270002723010019024302348
B2329173838135N11203609WA0270002722010019023299343
B2329183838138N11203614WA0269902721010019024298347
B2329193838140N11203619WA0269902721010019021298357
B2329203838142N11203622WA0269802720010019013304002
B2329213838145N11203625WA0269802719010019009001007
B2329223838147N11203624WA0269702717010019012006022
B2329233838151N11203623WA0269502714010019016038024
B2329243838153N11203618WA0269402711010019028088035
B2329253838154N11203612WA0269202708010019030110066
B2329263838151N11203606WA0269102706010019041142084
B2329273838145N11203602WA0269102705010019042152124
B2329283838139N11203598WA0269002703010019042155129
B2329293838134N11203594WA0268902702010019041152128
B2329303838128N11203590WA0268902701010019040144123
B2329313838123N11203584WA0268802699010019041139120
B2329323838118N11203578WA0268802698010019044134116
B2329333838113N11203572WA0268702697010019048131113
B2329343838108N11203564WA0268602696010019050130105
B2329353838103N11203557WA0268502695010019047131103
B2329363838098N11203551WA0268502695010019042134105
B2329373838093N11203546WA0268502694010019038138098
B2329383838089N11203541WA0268502694010019037140106
B2329393838084N11203537WA0268602694010019037139104
B2329403838080N11203532WA0268702694010019039134101
B2329413838076N11203527WA0268802694010019039134107
B2329423838071N11203521WA0268902694010019039133099
B2329433838067N11203516WA0269002694010019037136101
B2329443838063N11203512WA0269002695010019037133089
B2329453838059N11203507WA0269102695010019035134102
B2329463838055N11203502WA0269202695010019035137096
B2329473838050N11203498WA0269402695010019035138095
B2329483838046N11203494WA0269502696010019038135097
B2329493838042N11203489WA0269602696010019039132086
B2329503838038N11203483WA0269802697010019038129091
B2329513838035N11203478WA0269902697010019038128096
B2329523838031N11203473WA0270002698010019038128097
B2329533838027N11203467WA0270002698010019036131098
B2329543838024N11203462WA0270102699010019034137083
B2329553838020N11203458WA0270202699010019032133077
B2329563838017N11203453WA0270302699010019031120067
B2329573838016N11203447WA0270302699010019031102056
B2329583838015N11203442WA0270402699010019029088043
B2329593838016N11203436WA0270402699010019024079034
B2330003838017N11203433WA0270402699005010015019032
B2330013838020N11203433WA0270402699005010016334000
B2330023838022N11203434WA0270402699005010014323350
B2330033838024N11203435WA0270402699005010014323352
B2330043838027N11203437WA0270502699005010015318347
B2330053838029N11203439WA0270502700005010018310327
B2330063838031N11203442WA0270602699005010022302347
B2330073838033N11203446WA0270602699005010025301343
B2330083838035N11203450WA0270602699005010024302339
B2330093838038N11203454WA0270602699005010021307343
B2330103838040N11203457WA0270602699005010020311333
B2330113838042N11203460WA0270502699005010022311335
B2330123838045N11203463WA0270502699005010023311343
B2330133838047N11203466WA0270502699005010025315348
B2330143838051N11203469WA0270502699005010025324350
B2330153838054N11203472WA0270502699005010026332351
B2330163838058N11203474WA0270502699005010028335317
B2330173838062N11203477WA0270502699005010029330334
B2330183838066N11203479WA0270602699005010027322348
B2330193838069N11203482WA0270702699005010025322327
B2330203838072N11203485WA0270802700005010023325347
B2330213838075N11203488WA0270902700005010023324324
B2330223838078N11203491WA0270902700005010024316322
B2330233838080N11203495WA0270902700005010026311331
B2330243838083N11203499WA0271002700005010027310328
B2330253838086N11203503WA0271002701005010027313329
B2330263838089N11203507WA0271002701005010025314323
B2330273838092N11203510WA0271002701005010023312321
B2330283838094N11203514WA0271002702005010022307325
B2330293838096N11203517WA0271002702005010021303319
B2330303838098N11203521WA0271002702005010021301311
B2330313838099N11203524WA0271002702005010021295314
B2330323838100N11203529WA0271002702005010024288313
B2330333838101N11203533WA0271002702005010027286315
B2330343838103N11203539WA0270902703005010030289321
B2330353838104N11203545WA0270902704005010030292319
B2330363838106N11203550WA0270902704005010026291316
B2330373838107N11203554WA0270902705005010022286319
B2330383838107N11203558WA0271002706005010021282315
B2330393838108N11203563WA0271002707005010023286323
B2330403838109N11203567WA0271002707005010026291316
B2330413838111N11203572WA0271102708005010026292306
B2330423838112N11203577WA0271202709005010024285310
B2330433838113N11203581WA0271202709005010023277321
B2330443838113N11203585WA0271202710005010023277329
B2330453838114N11203590WA0271302710005010024289346
B2330463838115N11203594WA0271302711005010023306356
B2330473838117N11203596WA0271302711005010013324006
B2330483838118N11203596WA0271302712005010010051009
B2330493838118N11203593WA0271202712005010018088030
B2330503838119N11203589WA0271202713010019024084041
B2330513838119N11203584WA0271202713010019021082044
B2330523838119N11203580WA0271202714010019019080052
B2330533838120N11203576WA0271202714010019021086066
B2330543838120N11203571WA0271202715010019026084084
B2330553838120N11203565WA0271202715010019032089081
B2330563838119N11203559WA0271202716010019035099087
B2330573838115N11203553WA0271202717010019047145087
B2330583838109N11203548WA0271102718010019044149120
B2330593838103N11203543WA0271002718010019038142125
B2331003838099N11203538WA0271002719010019040136116
B2331013838094N11203533WA0270902718010019041139112
B2331023838089N11203527WA0270902718010019052134108
B2331033838083N11203520WA0270802717010019050137105
B2331043838077N11203513WA0270702717010019049134108
B2331053838072N11203507WA0270602717010019045136106
B2331063838068N11203502WA0270502716010019035137107
B2331073838064N11203498WA0270502716010019036139108
B2331083838059N11203493WA0270502716010019039136104
B2331093838055N11203487WA0270502716010019042134106
B2331103838051N11203481WA0270502715010019042133108
B2331113838046N11203476WA0270502715010019039141107
B2331123838042N11203471WA0270502715010019038141107
B2331133838037N11203467WA0270502715010019038137105
B2331143838033N11203462WA0270502715010019039133102
B2331153838029N11203456WA0270502715010019040132102
B2331163838025N11203450WA0270602716010019040132098
B2331173838021N11203445WA0270602716010019040132105
B2331183838017N11203439WA0270602716010019039132105
B2331193838013N11203434WA0270702716010019038134109
B2331203838009N11203429WA0270702716010019037139112
B2331213838004N11203425WA0270802716010019037143098
B2331223838000N11203420WA0270902716010019039135095
B2331233837996N11203415WA0270902716010019039128081
B2331243837993N11203408WA0271002716010019039120066
B2331253837991N11203402WA0271002715010019034098056
B2331263837991N11203396WA0271002715010019029078041
B2331273837992N11203390WA0270902715010019028079025
B2331283837994N11203388WA0270902714005010022002026
B2331293837997N11203389WA0270802714010019028336352
B2331303838001N11203393WA0270802713010019024315341
B2331313838003N11203396WA0270902713010019020317338
B2331323838005N11203399WA0270902712010019013313340
B2331333838007N11203401WA0270902712010019016324338
B2331343838009N11203403WA0270902712010019017320341
B2331353838012N11203406WA0270902712010019027326339
B2331363838016N11203409WA0270902711010019030328336
B2331373838020N11203412WA0270802711010019028327337
B2331383838023N11203415WA0270802711010019025324341
B2331393838026N11203418WA0270802711010019021319341
B2331403838029N11203421WA0270902711010019020321342
B2331413838031N11203423WA0271002711010019021328343
B2331423838034N11203425WA0271002711010019022329339
B2331433838037N11203427WA0271002710010019023329342
B2331443838040N11203430WA0271002710010019023329339
B2331453838043N11203432WA0271002710010019023329343
B2331463838046N11203434WA0271002710005010020325341
B2331473838048N11203437WA0271002710005010019321336
B2331483838050N11203439WA0271002710005010019321340
B2331493838053N11203442WA0271102710005010021320338
B2331503838055N11203444WA0271102710005010021317341
B2331513838058N11203447WA0271102709005010021315335
B2331523838060N11203450WA0271002709005010022315332
B2331533838063N11203453WA0271002709005010023313323
B2331543838065N11203457WA0270902709005010026307326
B2331553838067N11203461WA0270902709005010031302329
B2331563838070N11203467WA0270702708005010036305347
B2331573838073N11203472WA0270602708005010036307329
B2331583838077N11203478WA0270602708005010034307335
B2331593838080N11203483WA0270502708005010032306336
B2332003838082N11203488WA0270502708005010028307342
B2332013838085N11203492WA0270502707005010026309333
B2332023838088N11203495WA0270502707005010028318318
B2332033838091N11203499WA0270502707005010028317317
B2332043838094N11203503WA0270502707005010031314319
B2332053838097N11203507WA0270502707005010028310330
B2332063838100N11203511WA0270402707005010027312328
B2332073838102N11203514WA0270402708005010025313317
B2332083838105N11203518WA0270402708005010026312323
B2332093838107N11203522WA0270402708005010028308323
B2332103838110N11203526WA0270402708005010031307331
B2332113838113N11203531WA0270402708005010032310336
B2332123838116N11203535WA0270402708005010032315342
B2332133838120N11203539WA0270302708005010030321348
B2332143838123N11203542WA0270202708005010026331340
B2332153838127N11203544WA0270202708010019024335331
B2332163838130N11203545WA0270202708010019022334330
B2332173838133N11203548WA0270202708010019024325333
B2332183838136N11203551WA0270102708010019027318326
B2332193838139N11203554WA0270102708010019029315315
B2332203838142N11203558WA0270102708010019029309302
B2332213838144N11203563WA0270002708010019031298293
B2332223838146N11203569WA0270002708010019035284292
B2332233838147N11203576WA0269902707010019037277284
B2332243838148N11203583WA0269802707010019038271272
B2332253838147N11203590WA0269802706010019036265270
B2332263838147N11203597WA0269802706005010038258272
B2332273838145N11203605WA0269702705005010040255299
B2332283838144N11203612WA0269702705005010043257308
B2332293838143N11203620WA0269602704005010041264331
B2332303838142N11203628WA0269602703005010038275340
B2332313838143N11203634WA0269502703005010034280350
B2332323838145N11203639WA0269302702005010022332357
B2332333838148N11203639WA0269202701005010016026022
B2332343838151N11203635WA0269002699010019027052043
B2332353838154N11203629WA0268902697010019029060056
B2332363838156N11203624WA0268702695010019025069057
B2332373838155N11203619WA0268602693010019020107056
B2332383838153N11203615WA0268502692010019031141073
B2332393838146N11203610WA0268402690010019039151118
B2332403838140N11203606WA0268302689010019040150132
B2332413838134N11203602WA0268202688010019041150127
B2332423838127N11203598WA0268102687010019041152123
B2332433838121N11203594WA0268002686010019040153118
B2332443838116N11203590WA0268002686010019039151121
B2332453838111N11203587WA0268002685010019039147119
B2332463838105N11203582WA0267902684010019040145112
B2332473838100N11203578WA0267802684010019042148103
B2332483838094N11203573WA0267802683010019040142090
B2332493838090N11203569WA0267802683010019035145084
B2332503838085N11203565WA0267802683010019034139102
B2332513838082N11203561WA0267802683010019028130109
B2332523838080N11203557WA0267902683010019026117097
B2332533838078N11203552WA0268002683010019029119090
B2332543838076N11203547WA0268002682010019033118081
B2332553838073N11203541WA0268002682010019035123083
B2332563838070N11203536WA0267902682010019031123086
B2332573838068N11203531WA0267802682010019029129090
B2332583838065N11203526WA0267802683010019028126082
B2332593838063N11203522WA0267802682010019029119075
B2333003838061N11203517WA0267802682010019031111050
B2333013838059N11203511WA0267702682010019028099038
B2333023838059N11203506WA0267702682010019026091034
B2333033838059N11203501WA0267702681010019023079029
B2333043838061N11203498WA0267702681010019017035035
B2333053838063N11203497WA0267602681005010016017015
B2333063838066N11203497WA0267502680005010020003006
B2333073838069N11203496WA0267502680005010018005001
B2333083838072N11203496WA0267502680005010019001349
B2333093838076N11203496WA0267502680005010022352348
B2333103838079N11203498WA0267402679005010026342346
B2333113838083N11203499WA0267402679005010027338339
B2333123838087N11203502WA0267402678005010025331337
B2333133838090N11203504WA0267302678005010023328337
B2333143838093N11203506WA0267302677005010023326336
B2333153838096N11203509WA0267302677005010024324332
B2333163838099N11203512WA0267302676005010025324325
B2333173838103N11203514WA0267202676005010026324326
B2333183838106N11203517WA0267202676010019026322326
B2333193838109N11203521WA0267202675010019025318323
B2333203838112N11203524WA0267202675010019026315320
B2333213838115N11203528WA0267202674010019027313312
B2333223838117N11203532WA0267102674010019029308310
B2333233838120N11203537WA0267102673010019032303308
B2333253838123N11203543WA0267102673010019035296310
B2333263838128N11203556WA0266902672005010038288294
B2333273838129N11203564WA0266902671005010039283281
B2333283838130N11203571WA0266802670005010041277297
B2333293838131N11203579WA0266802670005010042273294
B2333303838132N11203588WA0266802669005010042272182
B2333313838132N11203596WA0266702669005010042270291
B2333323838132N11203604WA0266702668005010042267288
B2333333838131N11203612WA0266702668005010044264292
B2333353838131N11203621WA0266702667005010046264283
B2333373838130N11203639WA0266602666005010048269277
B2333393838129N11203658WA0266502665005010049267275
B2333403838129N11203667WA0266502664005010049266290
B2333413838128N11203676WA0266402664005010046259284
B2333423838126N11203684WA0266302663005010045258276
B2333433838125N11203692WA0266302662005010045259277
B2333443838124N11203701WA0266202662005010049260277
B2333453838122N11203710WA0266002661005010050260277
B2333463838121N11203719WA0265902660005010050261277
B2333473838120N11203729WA0265702659010019051260277
B2333483838118N11203738WA0265502658010019053259276
B2333493838117N11203749WA0265302657010019056258274
B2333503838115N11203759WA0265102656010019052262271
B2333513838115N11203769WA0264902655010019050269272
B2333523838115N11203778WA0264702653010019048272281
B2333533838115N11203787WA0264502652010019047272284
B2333543838116N11203796WA0264302650010019047269285
B2333553838115N11203805WA0264102649010019048268285
B2333563838115N11203814WA0264102648010019051266282
B2333573838114N11203823WA0263902646010019051264278
B2333583838113N11203833WA0263702645010019049263272
B2333593838112N11203842WA0263502643010019049260281
B2334003838111N11203851WA0263402642010019045255277
B2334013838109N11203858WA0263302641010019037246275
B2334023838107N11203865WA0263302640010019034245272
B2334033838105N11203870WA0263302639010019033249276
B2334043838103N11203876WA0263402637010019035244271
B2334053838101N11203883WA0263402636010019044264262
B2334063838101N11203892WA0263302634010019048267260
B2334073838101N11203901WA0263102633010019047267279
B2334083838100N11203909WA0262902631010019039268270
B2334093838100N11203916WA0262702630010019034267277
B2334103838100N11203922WA0262502628010019035264272
B2334113838099N11203930WA0262402626010019044260278
B2334123838098N11203938WA0262202625010019047258278
B2334133838096N11203947WA0262202623010019046258278
B2334143838095N11203956WA0262102621010019044261261
B2334153838095N11203964WA0261802619010019043264263
B2334163838094N11203972WA0261602618010019044264264
B2334173838093N11203981WA0261402616010019046262293
B2334183838092N11203989WA0261302614010019047261271
B2334193838091N11203998WA0261202613010019046259282
B2334203838090N11204006WA0261102611010019044258272
B2334213838089N11204014WA0261002610010019043258286
B2334223838087N11204022WA0261002608010019043257300
B2334233838086N11204030WA0261102607010019041256304
B2334243838085N11204037WA0261102605010019039257298
B2334253838084N11204045WA0261202604010019040260269
B2334263838083N11204052WA0261202603010019043264257
B2334273838082N11204061WA0261202601010019049263264
B2334283838081N11204070WA0261102600010019051259287
B2334293838080N11204080WA0260902598010019051258277
B2334303838078N11204089WA0260702597010019051252283
B2334313838076N11204098WA0260702595010019048253243
B2334323838073N11204107WA0260502593010019046251264
B2334333838071N11204115WA0260302591010019047248248
B2334343838068N11204124WA0260102590010019051247283
B2334353838065N11204133WA0260002588010019056248216
B2334363838062N11204143WA0259802586010019054250262
B2334373838060N11204152WA0259602585010019044256262
B2334383838059N11204160WA0259502584010019041255269
B2334393838057N11204168WA0259402582010019041252268
B2334403838055N11204175WA0259202581010019044248256
B2334413838052N11204183WA0259102580010019047243278
B2334423838049N11204191WA0259002578010019046243251
B2334433838046N11204199WA0258902577010019044242256
B2334443838043N11204206WA0258802576010019043241265
B2334453838040N11204213WA0258702574010019042239265
B2334463838036N11204220WA0258602573010019043241272
B2334473838033N11204228WA0258502571010019043245266
B2334483838031N11204235WA0258502570010019045252252
B2334493838029N11204244WA0258402569010019045254255
B2334503838027N11204251WA0258202568010019042250278
B2334513838025N11204258WA0258102567010019034246290
B2334523838023N11204263WA0258002566010019027246302
B2334533838022N11204268WA0257902566010019025246298
B2334543838021N11204272WA0257902565010019026254287
B2334553838021N11204277WA0257902565010019029270291
B2334563838022N11204283WA0257902564010019034288272
B2334573838023N11204290WA0257802563010019037289276
B2334583838024N11204297WA0257502563010019036272284
B2335003838021N11204311WA0257402562010019043242292
B2335013838018N11204319WA0257402561010019042241262
B2335023838016N11204326WA0257402560010019041244259
B2335033838013N11204333WA0257302559010019041242247
B2335043838010N11204340WA0257202558010019043242257
B2335053838007N11204347WA0257102558010019041241255
B2335063838004N11204354WA0257002557010019038239244
B2335073838001N11204360WA0257002556010019037236245
B2335083837998N11204366WA0256902555010019039232260
B2335093837994N11204372WA0256802554010019040232252
B2335103837991N11204378WA0256602553010019039235262
B2335113837988N11204384WA0256502552010019037239245
B2335123837985N11204390WA0256302551010019036238268
B2335133837982N11204396WA0256102549010019036239264
B2335143837980N11204403WA0255902548010019041244241
B2335153837977N11204410WA0255602546010019046243242
B2335163837974N11204418WA0255302544010019048241273
B2335173837970N11204426WA0255102543010019046245258
B2335183837968N11204434WA0254802541010019040251252
B2335193837966N11204441WA0254502539010019039255272
B2335203837965N11204448WA0254302537010019037253248
B2335213837963N11204455WA0254102536010019040249277
B2335223837961N11204462WA0253802534010019042247271
B2335233837959N11204469WA0253602532010019042250266
B2335243837956N11204477WA0253602530010019042250270
B2335253837954N11204484WA0253302527010019041251271
B2335263837953N11204491WA0253102525010019039253269
B2335273837951N11204498WA0252902524010019035256267
B2335283837950N11204505WA0252702522010019034257254
B2335293837949N11204511WA0252502520010019034256262
B2335303837948N11204517WA0252302518010019036254258
B2335313837946N11204524WA0252202516010019038254257
B2335323837944N11204531WA0252002514010019042253260
B2335333837942N11204539WA0251702512010019043248255
B2335343837939N11204546WA0251402510010019044240256
B2335353837936N11204553WA0251102508010019045234250
B2335363837932N11204560WA0250802505010019048231241
B2335373837927N11204567WA0250502503010019049232256
B2335383837923N11204575WA0250102500010019047236247
B2335393837919N11204582WA0249802497010019045241253
B2335403837916N11204590WA0249502494010019043243236
B2335413837913N11204597WA0249102492010019041240244
B2335423837910N11204603WA0249102489010019042237254
B2335433837907N11204610WA0248802486010019043236238
B2335443837903N11204617WA0248502483010019045235236
B2335453837900N11204624WA0248302480010019044235230
B2335463837896N11204630WA0248002477010019043234229
B2335473837892N11204637WA0247702474010019042234234
B2335483837889N11204643WA0247402471010019042234231
B2335493837885N11204649WA0247102468010019044233238
B2335503837881N11204657WA0246802465010019051234239
B2335513837877N11204665WA0246502462010019053234232
B2335523837872N11204673WA0246102459010019052235253
B2335533837868N11204681WA0245702456010019049237228
B2335543837864N11204688WA0245402453010019046237241
B2335553837860N11204696WA0245102450010019045237236
B2335563837857N11204703WA0244802447010019045235249
B2335573837853N11204710WA0244502443010019045236250
B2335583837850N11204717WA0244102440010019045239232
B2335593837846N11204725WA0244102437010019047243246
B2336003837843N11204733WA0243802433010019048244222
B2336013837840N11204741WA0243402430010019046243231
B2336023837837N11204749WA0243102427010019045240239
B2336033837834N11204756WA0242702424010019044238247
B2336043837830N11204763WA0242402420010019044236251
B2336053837827N11204770WA0242102417010019045236259
B2336063837823N11204777WA0241802414010019044242242
B2336073837821N11204785WA0241602410010019043245264
B2336083837818N11204792WA0241302407010019043245250
B2336093837815N11204800WA0241002404010019045243256
B2336103837812N11204807WA0240702401010019046243258
B2336113837809N11204815WA0240402398010019047246253
B2336123837806N11204824WA0240102395010019048247264
B2336133837803N11204832WA0239802391010019047248268
B2336143837801N11204840WA0239502388010019044250273
B2336153837799N11204848WA0239302385010019041254277
B2336163837798N11204855WA0239102382010019040258209
B2336173837797N11204862WA0239102379010019041259196
B2336183837795N11204870WA0238802376010019042259243
B2336193837794N11204878WA0238602373010019041259274
B2336203837793N11204886WA0238402370010019040260271
B2336213837792N11204893WA0238202367010019041262272
B2336223837792N11204902WA0238002364010019046264267
B2336233837791N11204911WA0237702361010019049263265
B2336243837790N11204920WA0237402358010019054262262
B2336253837789N11204931WA0237202356010019052260287
B2336263837788N11204940WA0236902353010019046260279
B2336273837787N11204948WA0236702351010019043261269
B2336283837786N11204956WA0236502348010019043264265
B2336293837785N11204965WA0236402346005010045265264
B2336303837785N11204974WA0236202343005010049263264
B2336313837784N11204983WA0236002341005010052262259
B2336323837783N11204993WA0235802338005010051262280
B2336333837782N11205003WA0235602336005010048265280
B2336343837782N11205012WA0235602334005010044268282
B2336353837782N11205020WA0235302332005010041271275
B2336363837782N11205028WA0235202330005010040272278
B2336373837782N11205035WA0235002328005010041271289
B2336383837783N11205044WA0234902325005010043270280
B2336393837783N11205052WA0234702323010019044271292
B2336403837783N11205060WA0234502321010019044274286
B2336413837784N11205068WA0234302318010019043277282
B2336423837785N11205076WA0234002316010019043280285
B2336433837786N11205085WA0233802314010019044280249
B2336443837787N11205093WA0233502312010019045281301
B2336453837788N11205101WA0233302310010019039283298
B2336463837790N11205107WA0233102308010019028281300
B2336473837790N11205112WA0233002306010019023275311
B2336483837790N11205116WA0233002305010019020268296
B2336493837790N11205120WA0232902303010019027271298
B2336503837791N11205126WA0232802302010019037278292
B2336513837792N11205134WA0232702300010019039278295
B2336523837793N11205140WA0232702299010019032272313
B2336533837792N11205146WA0232602298010019023251312
B2336543837791N11205149WA0232602296010019019242306
B2336553837790N11205152WA0232502295010019023239296
B2336563837789N11205158WA0232502294010019034269265
B2336573837790N11205165WA0232402292010019041287289
B2336583837792N11205171WA0232202290010019036299321
B2336593837794N11205177WA0232002289010019026303301
B2337003837797N11205181WA0231802287010019025301318
B2337013837799N11205186WA0231602285010019033296314
B2337023837801N11205192WA0231402284010019041298304
B2337033837804N11205199WA0231302283010019039303337
B2337043837807N11205205WA0231302283010019031304327
B2337053837810N11205210WA0231302283010019025308333
B2337063837812N11205213WA0231402283010019020307012
B2337073837813N11205216WA0231702283010019015316359
B2337083837815N11205217WA0231902283010019012334007
B2337093837816N11205218WA0231902284010019012354357
B2337103837819N11205218WA0232002284010019016003347
B2337113837821N11205217WA0232002283010019021013335
B2337123837825N11205216WA0232002283010019025016338
B2337133837828N11205215WA0231902283010019025012344
B2337143837832N11205215WA0231702283010019026356345
B2337153837841N11205220WA0231502282010019036315339
B2337163837844N11205227WA0231402283010019040314318
B2337173837847N11205233WA0231202283010019033310319
B2337183837849N11205238WA0231102283010019027284316
B2337193837849N11205243WA0231002284010019028274307
B2337203837848N11205249WA0231002284010019031253294
B2337213837846N11205255WA0231102284010019036243279
B2337223837843N11205261WA0231202284010019038244281
B2337233837841N11205268WA0231202284010019039254284
B2337243837840N11205276WA0231202284010019044263279
B2337253837839N11205284WA0231102283010019045264277
B2337263837838N11205293WA0230902283010019045258272
B2337273837836N11205301WA0230702282010019045258282
B2337283837834N11205309WA0230502281010019040253288
B2337293837833N11205316WA0230302281010019038254277
B2337303837831N11205322WA0230302281010019036253255
B2337313837829N11205329WA0230202281010019038244247
B2337323837826N11205336WA0230202281010019045232230
B2337333837821N11205342WA0230202281010019054220216
B2337343837814N11205349WA0230202281010019059215199
B2337353837806N11205355WA0230302281010019059207191
B2337363837797N11205356WA0230302281010019066167183
B2337373837788N11205351WA0230302280010019066151139
B2337383837780N11205344WA0230202279010019068145121
B2337393837775N11205335WA0230102279010019058097115
B2337403837775N11205325WA0229902279010019049077069
B2337413837777N11205316WA0229702279050095041073048
B2337423837781N11205311WA0229402279030057037028046
B2337433837786N11205308WA0229202279030057034028013
B2337443837790N11205306WA0229002279030057028024003
B2337453837794N11205305WA0228902279030057024024012
B2337463837798N11205304WA0228802279030057031013006
B2337473837804N11205304WA0228702279030057039353341
B2337483837810N11205306WA0228702279010019040346329
B2337493837809N11205314WA0228602279010019027315343
B2337503837812N11205319WA0228502278010019028315333
B2337513837814N11205324WA0228502278010019032319330
B2337523837818N11205329WA0228402278010019030319330
B2337533837820N11205332WA0228402277010019026322336
B2337543837823N11205335WA0228302277010019023323349
B2337553837825N11205337WA0228302277010019019325343
B2337563837828N11205339WA0228302277010019020333359
B2337573837831N11205341WA0228202276010019021337338
B2337583837834N11205342WA0228202276010019023340342
B2337593837836N11205343WA0228202276010019016344345
B2338003837839N11205344WA0228202276010019015349353
B2338013837841N11205345WA0228202276010019015348344
B2338023837843N11205345WA0228202276010019019349349
B2338033837846N11205346WA0228202276010019023357006
B2338043837849N11205345WA0228302275010019022008357
B2338053837851N11205344WA0228302275010019017026343
B2338063837854N11205343WA0228302276010019014022330
B2338073837855N11205342WA0228402276010019007012326
B2338083837857N11205343WA0228502276010019016318310
B2338093837858N11205347WA0228602275010019026296296
B2338103837859N11205353WA0228702275010019036269280
B2338113837858N11205360WA0228802275010019042250257
B2338123837855N11205368WA0228902275010019047236241
B2338133837851N11205374WA0229002275005010044223228
B2338143837845N11205380WA0229002275010019053208276
B2338153837838N11205385WA0229102275010019051206249
B2338163837832N11205385WA0229102274010019039162240
B2338173837826N11205383WA0229002274030057040161177
B2338183837821N11205380WA0229002274030057040164172
B2338193837815N11205377WA0229002274030057041160155
B2338203837809N11205374WA0229102274030057041161150
B2338213837804N11205370WA0229202274050095040161153
B2338223837798N11205367WA0229502274010019039160154
B2338233837793N11205363WA0229802273010019039158162
B2338243837793N11205358WA0230002273010019009009149
B2338253837797N11205356WA0230102273010019017008352
B2338363837871N11205349WA0231502314004003011322011
B2338373837873N11205349WA0231702312004003016009353
B2338383837876N11205348WA0231802312004003021009332
B2338393837879N11205350WA0231902312004003021331313
B2338403837881N11205355WA0232002311004003023291303
B2338413837878N11205351WA0232002304010019026297284
B2338423837879N11205357WA0231902303010019037272276
B2338433837879N11205365WA0231902303010019045257260
B2338443837875N11205373WA0231902302010019059225246
B2338453837868N11205381WA0231802302010019063217214
B2338473837860N11205387WA0231802302010019059203206
B2338483837852N11205389WA0231702302010019054178192
B2338493837845N11205386WA0231702300010019055159164
B2338503837837N11205381WA0231702300010019058150141
B2338513837830N11205373WA0231802298030057059138131
B2338523837827N11205367WA0231802297030057020092119
B2338533837826N11205362WA0231802296030057017089037
B2338543837825N11205358WA0231902296030057018096027
B2338553837824N11205353WA0232002295030057017099030
B2338563837824N11205350WA0232202294030057014093032
B2338573837825N11205347WA0232302294030057014078026
B2338583837826N11205344WA0232302293030057013050016
B2338593837829N11205341WA0232302293010019014040004
B2339003837834N11205336WA0232302293010019012032003
B2339013837848N11205331WA0232302294010019017334009
B2339023837853N11205332WA0232302296010019017334351
B2339033837857N11205333WA0232202297010019017344357
B2339043837861N11205333WA0232202297010019016348345
B2339053837864N11205334WA0232102298010019015344337
B2339063837866N11205335WA0232002298010019013325319
B2339073837868N11205337WA0232002298010019016303313
B2339083837870N11205339WA0231902298010019018285313
B2339093837871N11205344WA0231802297010019029277299
B2339103837872N11205350WA0231702296010019034267294
B2339113837872N11205357WA0231502295010019034263288
B2339123837872N11205363WA0231502294010019036257268
B2339133837870N11205370WA0231302294010019040251267
B2339143837868N11205378WA0231102293010019043249253
B2339153837866N11205385WA0231002292010019043247251
B2339163837861N11205392WA0230802292010019056219244
B2339173837853N11205398WA0230602291010019054206215
B2339183837846N11205403WA0230402290010019054206203
B2339193837839N11205405WA0230202289010019043184202
B2339203837832N11205404WA0230002287010019053161176
B2339213837825N11205398WA0229902286010019039133140
B2339223837823N11205391WA0229702283010019036118097
B2339233837822N11205384WA0229702279010019031107080
B2339243837821N11205378WA0229602277010019031107067
B2339253837820N11205372WA0229602275010019031107067
B2339263837819N11205366WA0229502274010019029108066
B2339273837818N11205361WA0229502273010019019085065
B2339283837818N11205357WA0229402271005010016075036
B2339293837819N11205354WA0229302270005010015053024
B2339303837822N11205351WA0229202268005010019023013
B2339313837826N11205351WA0229202267005010024002357
B2339323837830N11205351WA0229002266005010024353347
B2339333837835N11205350WA0228802265005010016314348
B2339343837837N11205352WA0228702264005010018298336
B2339353837839N11205355WA0228502263010019021294333
B2339363837840N11205359WA0228402262010019023296333
B2339373837842N11205363WA0228202260010019025301345
B2339383837845N11205367WA0228002259010019027305336
B2339393837847N11205371WA0227802257010019025302316
B2339403837849N11205375WA0227602256010019024299314
B2339413837851N11205379WA0227402254010019025300297
B2339423837853N11205384WA0227202253010019029293297
B2339433837855N11205390WA0226902251010019039288285
B2339443837857N11205397WA0226702249010019042286287
B2339453837858N11205406WA0226402247010019048271293
B2339463837859N11205415WA0226102245010019045270284
B2339473837858N11205423WA0225902243010019039261305
B2339483837857N11205430WA0225802242010019037264276
B2339493837856N11205437WA0225802240010019034264290
B2339503837856N11205443WA0225802239010019034261282
B2339513837855N11205450WA0225802237010019034263298
B2339523837854N11205456WA0225802236010019035270290
B2339533837855N11205463WA0225802234010019033275291
B2339543837855N11205469WA0225802233010019033281287
B2339553837856N11205476WA0225802232010019034277286
B2339563837857N11205482WA0225702230010019034272292
B2339573837857N11205489WA0225602229010019035269286
B2339583837857N11205496WA0225402227010019036269291
B2339593837857N11205503WA0225302226010019038268288
B2340003837856N11205510WA0225102224010019038266282
B2340013837856N11205518WA0224902223010019038267275
B2340023837856N11205525WA0224802221010019037267289
B2340033837855N11205532WA0224602220010019036265277
B2340043837855N11205538WA0224402218010019036263299
B2340053837854N11205546WA0224302217010019037264281
B2340063837854N11205552WA0224202215010019036267298
B2340073837854N11205559WA0224102214010019031268285
B2340083837853N11205565WA0224102213010019028266288
B2340093837853N11205570WA0224002212010019028263289
B2340103837852N11205576WA0224002211010019032263275
B2340113837852N11205582WA0223902210010019038264281
B2340123837851N11205590WA0223802208010019038267295
B2340133837851N11205596WA0223602207010019032269284
B2340143837851N11205602WA0223502206010019029267283
B2340153837851N11205608WA0223302205010019032264284
B2340163837850N11205614WA0223102203010019036262279
B2340173837849N11205622WA0223002202010019041259278
B2340183837848N11205629WA0222802201010019040256285
B2340193837846N11205636WA0222702199010019037254287
B2340203837845N11205643WA0222502198010019035253273
B2340213837843N11205649WA0222302196010019035253273
B2340223837842N11205656WA0222202195010019038252288
B2340233837840N11205663WA0222002193010019040251274
B2340243837838N11205670WA0221802191010019041251278
B2340253837836N11205678WA0221502190010019040251275
B2340263837834N11205685WA0221302188010019041247260
B2340273837831N11205692WA0221302186010019041243271
B2340283837829N11205699WA0221002184010019044243281
B2340293837826N11205707WA0220702182010019046246282
B2340303837823N11205715WA0220402180010019047248267
B2340313837820N11205723WA0220102178010019045249272
B2340323837818N11205731WA0219702176005010042248263
B2340333837816N11205738WA0219402174010019041245261
B2340343837813N11205746WA0219102173010019043244261
B2340353837810N11205753WA0218802171010019046244263
B2340363837807N11205762WA0218502169005010047245260
B2340373837804N11205770WA0218302167010019048245258
B2340383837801N11205778WA0217902165010019049244261
B2340393837798N11205786WA0217602162010019049243265
B2340403837795N11205795WA0217302160010019048242265
B2340413837791N11205803WA0217002158010019046240253
B2340423837788N11205810WA0216702156010019045242264
B2340433837785N11205818WA0216502154010019046243250
B2340443837782N11205826WA0216302152010019048243248
B2340453837778N11205834WA0216002150010019050242255
B2340463837774N11205842WA0215802147010019051238229
B2340473837770N11205851WA0215802145010019051238260
B2340483837767N11205859WA0215602143010019050240260
B2340493837763N11205867WA0215302140010019049241261
B2340503837759N11205875WA0215102138010019052240257
B2340513837755N11205884WA0214902135010019055235253
B2340523837750N11205893WA0214602133010019057234248
B2340533837746N11205901WA0214402131010019056236247
B2340543837741N11205910WA0214102129010019055238236
B2340553837737N11205919WA0213902127010019053239204
B2340563837733N11205927WA0213702125010019051237238
B2340573837729N11205935WA0213502123010019044236252
B2340583837725N11205941WA0213402121010019038237258
B2340593837722N11205947WA0213402119010019036237265
B2341003837720N11205953WA0213302117010019042240248
B2341013837716N11205961WA0213202115010019050244276
B2341023837713N11205970WA0213002113010019049248288
B2341033837711N11205978WA0213002112010019045251260
B2341043837709N11205987WA0212802110010019039253278
B2341053837708N11205994WA0212702108010019036255265
B2341063837707N11206001WA0212602106010019036257280
B2341073837706N11206007WA0212502105010019037258258
B2341083837704N11206014WA0212402103010019038255272
B2341093837703N11206022WA0212402101010019040253265
B2341103837701N11206029WA0212302100010019039253272
B2341113837700N11206036WA0212102099010019035254258
B2341123837699N11206043WA0212002097010019035254262
B2341133837697N11206049WA0211902096010019039247265
B2341143837695N11206056WA0211802094010019041247257
B2341153837691N11206064WA0211702093010019046235265
B2341163837687N11206070WA0211502091010019045231248
B2341173837683N11206077WA0211302090010019045229249
B2341183837678N11206083WA0211202089010019045227233
B2341193837673N11206089WA0211002088010019046226239
B2341203837668N11206095WA0210802086010019047226248
B2341213837663N11206102WA0210702085010019049225232
B2341223837658N11206109WA0210702084010019049227240
B2341233837653N11206115WA0210502082010019046225227
B2341243837648N11206121WA0210402081010019042223252
B2341253837643N11206126WA0210302080010019042221237
B2341263837639N11206131WA0210302079010019043221243
B2341273837634N11206137WA0210202078010019048223220
B2341283837628N11206144WA0210202076010019049223224
B2341293837623N11206150WA0210102075010019050222232
B2341303837617N11206157WA0210002074010019049222221
B2341313837612N11206163WA0209902073010019047222225
B2341323837607N11206169WA0209802071010019046222241
B2341333837602N11206176WA0209702070010019047223221
B2341343837597N11206182WA0209602069010019048226224
B2341353837592N11206189WA0209602068010019048226232
B2341363837587N11206196WA0209502066010019047224232
B2341373837581N11206202WA0209402065010019046220249
B2341383837576N11206207WA0209302064010019046219237
B2341393837571N11206213WA0209302063010019047218246
B2341403837565N11206219WA0209202062010019050222237
B2341413837560N11206226WA0209102061010019051225240
B2341423837554N11206233WA0209002060010019052226239
B2341433837549N11206240WA0208802059010019049229249
B2341443837545N11206247WA0208702058010019046230231
B2341453837540N11206254WA0208502056010019044229242
B2341463837536N11206260WA0208402055010019044229237
B2341473837531N11206267WA0208302054010019047231226
B2341483837527N11206274WA0208202053010019048231219
B2341493837522N11206281WA0208002052010019048228222
B2341503837517N11206287WA0207902050010019047223232
B2341513837512N11206293WA0207702049010019045215236
B2341523837506N11206297WA0207602048010019044209237
B2341533837501N11206301WA0207402046010019045208244
B2341543837495N11206305WA0207202045010019046212238
B2341553837489N11206310WA0207002043010019046222248
B2341563837484N11206317WA0206802042010019047233234
B2341573837480N11206324WA0206802040010019044233240
B2341583837477N11206331WA0206502039010019038228251
B2341593837473N11206336WA0206402037010019037222260
B2342003837469N11206341WA0206202036010019038222254
B2342013837464N11206346WA0206002034010019046232247
B2342023837460N11206354WA0205802032010019049237261
B2342033837457N11206362WA0205502029010019045241259
B2342043837454N11206369WA0205202027010019038242264
B2342053837452N11206375WA0205002025010019032241262
B2342063837449N11206381WA0204802023010019035240265
B2342073837447N11206388WA0204602021010019041243270
B2342083837444N11206395WA0204502019010019043247249
B2342093837442N11206403WA0204302017010019044248261
B2342103837440N11206411WA0204102015010019042248254
B2342113837438N11206418WA0203802013010019039249282
B2342123837436N11206425WA0203602011010019037250268
B2342133837434N11206431WA0203402009010019035251273
B2342143837432N11206438WA0203402007010019036250265
B2342153837430N11206445WA0203302005010019036249273
B2342163837428N11206451WA0203102003010019038248263
B2342173837426N11206458WA0202902002010019038247266
B2342183837424N11206465WA0202802000010019038247235
B2342193837421N11206472WA0202601998010019040246252
B2342203837419N11206479WA0202501996010019039241255
B2342213837416N11206485WA0202401995010019038237266
B2342223837412N11206491WA0202401994010019038234271
B2342233837409N11206497WA0202401993010019038235269
B2342243837406N11206503WA0202501993010019040237266
B2342253837403N11206510WA0202501992010019040240251
B2342263837400N11206517WA0202601992010019041240271
B2342273837396N11206524WA0202701992010019040239268
B2342283837393N11206530WA0202701992010019039235274
B2342293837390N11206536WA0202801991010019036234284
B2342303837387N11206541WA0202901992010019033236303
B2342313837385N11206547WA0202901992010019035242301
B2342323837382N11206553WA0202901992010019035249302
B2342333837381N11206559WA0202901992010019032256299
B2342343837380N11206565WA0202801991010019028260294
B2342353837379N11206570WA0202701991010019024261289
B2342363837379N11206575WA0202601990010019022267312
B2342373837379N11206580WA0202501989010019023278314
B2342383837380N11206584WA0202301989010019025288345
B2342393837381N11206589WA0202201988010019026300349
B2342403837384N11206592WA0202101987010019022322004
B2342413837386N11206594WA0202101986010019014006351
B2342423837388N11206593WA0202101986005010014027000
B2342433837389N11206591WA0202101985010019012031012
B2342443837391N11206590WA0202101984010019010032035
B2342453837392N11206589WA0202201983010019010052020
B2342463837393N11206587WA0202201982010019015059020
B2342473837394N11206585WA0202101982010019020049005
B2342483837397N11206582WA0202101981010019021039016
B2342493837399N11206579WA0202101980010019017045052
B2342503837400N11206577WA0202001980010019014062059
B2342513837401N11206574WA0202001979010019021087066
B2342523837401N11206570WA0201901978010019027077077
B2342533837400N11206564WA0201801978010019040114088
B2342543837397N11206558WA0201701977010019047131109
B2342553837391N11206552WA0201601977010019050143129
B2342563837384N11206547WA0201601977010019048150139
B2342573837378N11206543WA0201501977005010049157143
B2342583837370N11206540WA0201501976005010053165152
B2342593837362N11206538WA0201401975005010058174166
B2343003837353N11206538WA0201401974005010059182176
B2343013837344N11206539WA0201201973005010059189188
B2343023837336N11206542WA0201101972005010054194197
B2343033837328N11206545WA0200901971005010049202206
B2343043837322N11206549WA0200801970005010043213216
B2343053837317N11206555WA0200701970005010043224235
B2343063837313N11206561WA0200601969005010044232249
B2343073837309N11206568WA0200601968005010045232264
B2343083837305N11206575WA0200501967010019042234266
B2343093837302N11206581WA0200501966010019039238274
B2343103837299N11206588WA0200501966010019039243280
B2343113837297N11206595WA0200401965010019036249284
B2343123837296N11206601WA0200401964010019031255288
B2343133837295N11206607WA0200401964010019030256292
B2343143837294N11206613WA0200401963010019031257301
B2343153837293N11206618WA0200401963010019030263306
B2343163837293N11206624WA0200401962010019027269308
B2343173837293N11206629WA0200301962010019023280296
B2343183837294N11206633WA0200301961010019022285316
B2343193837295N11206637WA0200301961010019023287300
B2343203837296N11206642WA0200201960010019025285304
B2343213837298N11206646WA0200201960010019026288291
B2343223837299N11206651WA0200101961010019025287303
B2343233837300N11206655WA0200101961010019026284305
B2343243837301N11206660WA0200101960010019028281316
B2343263837302N11206666WA0200001959010019030282327
B2343273837304N11206676WA0199901959010019026280305
B2343293837304N11206681WA0199901958010019026278311
B2343303837305N11206691WA0199901958010019027278303
B2343323837306N11206697WA0199801958010019027278283
B2343333837307N11206702WA0199801958010019027277294
B2343343837307N11206707WA0199701958010019028274301
B2343353837307N11206713WA0199501958010019028270295
B2343363837307N11206718WA0199401957010019028267291
B2343373837307N11206723WA0199301957010019026269287
B2343383837307N11206728WA0199201957010019024273286
B2343393837307N11206732WA0199101956005010025272287
B2343403837307N11206738WA0199001955005010027267307
B2343413837307N11206743WA0198901955005010028264308
B2343423837306N11206748WA0198801954005010027264308
B2343433837306N11206753WA0198801954005010025268301
B2343443837306N11206758WA0198701953005010024274287
B2343453837307N11206762WA0198601953005010023278292
B2343463837307N11206766WA0198601953005010021276291
B2343473837307N11206770WA0198501953005010020271291
B2343483837308N11206774WA0198401952005010020272289
B2343493837308N11206778WA0198401952005010020276294
B2343503837308N11206782WA0198401951005010020277295
B2343513837309N11206785WA0198301952005010020275293
B2343523837309N11206789WA0198301952005010021274296
B2343533837309N11206793WA0198301952005010022274289
B2343543837309N11206798WA0198301951005010023274290
B2343553837310N11206802WA0198201951005010024273299
B2343563837310N11206807WA0198201951005010025271304
B2343573837310N11206812WA0198101950005010025271311
B2343583837310N11206817WA0198001950005010025273310
B2343593837310N11206821WA0198001949005010024276304
B2344003837310N11206826WA0197901949005010022278302
B2344013837310N11206830WA0197901948005010021278292
B2344023837311N11206834WA0197901948005010024277298
B2344033837311N11206839WA0197801947005010027276302
B2344043837312N11206844WA0197701947005010027279306
B2344053837313N11206849WA0197601946005010024284317
B2344063837313N11206853WA0197501945005010021282313
B2344073837314N11206857WA0197401944005010021280283
B2344083837315N11206861WA0197301943005010024278307
B2344093837315N11206866WA0197201943005010028277287
B2344103837316N11206872WA0197101942005010032279302
B2344113837317N11206878WA0196901941005010033282281
B2344123837318N11206884WA0196801940005010032283281
B2344133837319N11206890WA0196601939005010028279297
B2344143837320N11206895WA0196501939005010025274296
B2344153837320N11206899WA0196501938005010022270286
B2344163837320N11206904WA0196501937005010024268283
B2344173837320N11206909WA0196501937005010028269276
B2344183837320N11206914WA0196501936005010032272283
B2344193837320N11206920WA0196401935005010032269290
B2344203837320N11206926WA0196301935005010027265298
B2344213837320N11206931WA0196301934005010023262293
B2344223837319N11206935WA0196201934005010023261277
B2344233837319N11206940WA0196201933005010027262276
B2344243837319N11206946WA0196201932005010030264274
B2344253837318N11206952WA0196201932005010031265270
B2344263837318N11206958WA0196101931005010032262268
B2344273837317N11206964WA0196101930005010034257273
B2344283837316N11206970WA0196001930005010036252269
B2344293837315N11206977WA0195901929005010036249266
B2344303837313N11206983WA0195901929005010036247266
B2344313837311N11206989WA0195901928010019034246259
B2344323837309N11206995WA0195801928005010035245255
B2344333837307N11207001WA0195801928005010036244259
B2344343837304N11207007WA0195701927005010038243260
B2344353837301N11207014WA0195601927005010042242256
B2344363837298N11207021WA0195401926005010045241238
B2344373837295N11207028WA0195401925005010043241257
B2344383837292N11207035WA0195201925005010041239258
B2344393837289N11207042WA0195001924005010039238256
B2344403837286N11207048WA0194901924010019037237257
B2344413837283N11207054WA0194801923010019040240238
B2344423837280N11207061WA0194701922010019042242237
B2344433837277N11207068WA0194501921010019043240254
B2344443837274N11207075WA0194301921010019042237245
B2344453837270N11207082WA0194101919010019040236249
B2344463837267N11207088WA0193801918010019042235240
B2344473837263N11207095WA0193501917010019046230237
B2344483837258N11207102WA0193101915010019045226250
B2344493837254N11207108WA0192801913010019043227246
B2344503837249N11207114WA0192501911010019043227231
B2344513837245N11207119WA0192201908010019042228222
B2344523837241N11207125WA0191901906010019046224229
B2344533837236N11207131WA0191501904010019048220243
B2344543837231N11207137WA0191501901010019046219232
B2344553837226N11207142WA0191301899010019044221218
B2344563837221N11207148WA0191001897010019043223222
B2344573837217N11207153WA0190701895005010043221211
B2344583837212N11207157WA0190601892005010043216227
B2344593837206N11207162WA0190401890005010044213210
B2345003837201N11207166WA0190301888005010046208223
B2345013837194N11207170WA0190101886005010048204210
B2345023837188N11207173WA0190001884005010048202196
B2345033837181N11207176WA0189801882005010046201198
B2345043837175N11207178WA0189701880005010044198192
B2345053837169N11207180WA0189601878005010044193194
B2345063837162N11207181WA0189501876005010044191188
B2345073837156N11207183WA0189401874005010046190185
B2345083837149N11207184WA0189301872005010048190173
B2345093837142N11207185WA0189101870005010049190178
B2345103837135N11207186WA0189001868005010047187176
B2345113837128N11207187WA0188901866005010046186174
B2345123837121N11207188WA0188901864005010046186167
B2345133837114N11207189WA0188701862005010047185164
B2345143837107N11207189WA0188601860005010049182163
B2345153837100N11207189WA0188501858005010049179163
B2345163837092N11207189WA0188301856005010049177161
B2345173837085N11207188WA0188201855005010047173162
B2345183837078N11207187WA0188001853005010047170158
B2345193837072N11207185WA0187901850005010047170157
B2345203837065N11207183WA0187801848005010047167157
B2345213837058N11207180WA0187701846005010050158154
B2345223837051N11207176WA0187501843005010050157142
B2345233837045N11207172WA0187401841005010049155142
B2345243837039N11207168WA0187201838005010047152137
B2345253837033N11207164WA0187101836005010045147131
B2345263837028N11207159WA0187001834005010046146126
B2345273837022N11207154WA0186901832005010046145117
B2345283837017N11207148WA0186701830005010047144110
B2345293837012N11207143WA0186701827005010045144109
B2345303837006N11207138WA0186601825005010044141103
B2345313837002N11207133WA0186501824005010044140101
B2345323836997N11207127WA0186401822005010044137093
B2345333836992N11207121WA0186201820005010042132093
B2345343836988N11207115WA0186101818005010041132092
B2345353836984N11207109WA0186001816005010040132091
B2345363836981N11207103WA0185801815005010039116092
B2345373836979N11207096WA0185601813010019039107079
B2345383836978N11207089WA0185501811010019039107078
B2345393836976N11207082WA0185301809010019037107066
B2345403836975N11207076WA0185101807010019036109073
B2345413836973N11207069WA0184901805010019035107066
B2345423836972N11207063WA0184701804010019035104063
B2345433836971N11207056WA0184601802010019035103063
B2345443836970N11207050WA0184401800010019035103065
B2345453836968N11207044WA0184301798010019033103066
B2345463836967N11207037WA0184101796010019033103071
B2345473836966N11207031WA0184101794010019033104075
B2345483836965N11207025WA0183901793010019035104048
B2345493836964N11207019WA0183801791010019036105061
B2345503836963N11207012WA0183601789010019036105058
B2345513836961N11207006WA0183501787010019033109061
B2345523836960N11207000WA0183401786010019032110072
B2345533836958N11206995WA0183201784010019033104048
B2345543836957N11206989WA0183101782010019033104050
B2345553836956N11206982WA0183001781010019035102042
B2345563836954N11206976WA0183001779010019033105043
B2345573836953N11206970WA0182901777010019032106042
B2345583836952N11206964WA0182801776010019033103046
B2345593836950N11206958WA0182701774010019033102053
B2346003836949N11206952WA0182701773010019032101057
B2346013836948N11206946WA0182601771010019028103056
B2346023836948N11206941WA0182501770010019028098052
B2346033836948N11206936WA0182501768010019028087059
B2346043836948N11206931WA0182501767010019027083051
B2346053836949N11206926WA0182401766010019027080042
B2346063836950N11206921WA0182301765005010026079038
B2346073836951N11206916WA0182201763005010026079028
B2346083836951N11206912WA0182101762005010026081025
B2346093836952N11206907WA0182101761005010026081004
B2346103836953N11206902WA0182001760005010024076004
B2346113836954N11206898WA0181901758010019022062359
B2346123836956N11206894WA0181801757010019018051352
B2346133836958N11206892WA0181601756010019017023346
B2346143836961N11206892WA0181501754010019019354345
B2346153836964N11206894WA0181401753010019021329350
B2346163836966N11206897WA0181301751010019024312347
B2346173836969N11206901WA0181301750005010022305324
B2346183836971N11206905WA0181301748005010021295309
B2346193836972N11206910WA0181301747005010023291308
B2346203836974N11206914WA0181301745005010025287325
B2346213836975N11206920WA0181201743005010025279334
B2346223836976N11206925WA0181101742005010022278324
B2346233836976N11206929WA0181101740005010018282312
B2346243836977N11206933WA0181001739005010019289308
B2346253836978N11206937WA0180901738005010021289312
B2346263836979N11206942WA0180801736005010023289296
B2346273836980N11206946WA0180701735005010022291319
B2346283836981N11206950WA0180501734005010020291313
B2346293836982N11206954WA0180401733005010020291328
B2346303836983N11206958WA0180301732005010020291317
B2346313836985N11206962WA0180301731005010021292316
B2346323836986N11206966WA0180201730005010022291321
B2346333836987N11206970WA0180201729005010022293306
B2346343836989N11206974WA0180101728005010023295298
B2346353836990N11206978WA0180001727005010024293323
B2346363836992N11206983WA0179901726005010027291336
B2346373836993N11206988WA0179901725005010030285011
B2346383836995N11206993WA0179901724005010027293358
B2346393836997N11206997WA0179801724005010022314002
B2346403836999N11206999WA0179801723005010020342353
B2346413837002N11207000WA0179801722005010021005006
B2346423837005N11206999WA0179801721005010020016020
B2346433837008N11206997WA0179701720005010018028027
B2346443837010N11206995WA0179601719005010017044023
B2346453837012N11206993WA0179601718005010018054026
B2346463837013N11206990WA0179401717005010020058045
B2346473837015N11206986WA0179301716005010025064014
B2346483837016N11206981WA0179101715005010031070018
B2346493837017N11206975WA0179001714005010032076014
B2346503837018N11206969WA0178901713005010031075015
B2346513837019N11206964WA0178801712005010026079017
B2346523837020N11206959WA0178701711005010025074016
B2346533837023N11206952WA0178501709010019018056027
B2346543837025N11206950WA0178301708010019014030026
B2346553837027N11206951WA0178201707010019014350020
B2346573837029N11206957WA0178101708010019010332000
B2346593837029N11206961WA0177901708010019011333004
B2347003837031N11206964WA0177701708010019022359002
B2347013837034N11206965WA0177601709010019022006002
B2347023837037N11206965WA0177501709010019017018007
B2347033837039N11206966WA0177401709010019013021015
B2347043837043N11206966WA0177301710010019015023027
B2347053837045N11206964WA0177201710010019018057033
B2347063837046N11206961WA0177101710010019025073040
B2347073837047N11206957WA0177001711010019030072040
B2347083837049N11206952WA0176801711010019030069045
B2347093837050N11206947WA0176601711010019027065047
B2347113837054N11206940WA0176401712010019023058039
B2347123837056N11206937WA0176301712010019023055026
B2347133837058N11206934WA0176201712010019019040010
B2347153837062N11206932WA0176101711010019017019352
B2347163837063N11206932WA0176001711010019015012346
B2347173837064N11206933WA0175901711010019012353347
B2347183837064N11206937WA0175801710010019016287348
B2347193837064N11206941WA0175701709010019014278357
B2347203837064N11206944WA0175601708010019012274352
B2347213837064N11206947WA0175601707010019010279349
B2347223837065N11206948WA0175401707010019012353355
B2347233837067N11206948WA0175301707005010015011008
B2347243837069N11206948WA0175101707005010015016011
B2347253837072N11206948WA0174901706005010013027011
B2347263837074N11206947WA0174701706005010012030013
B2347273837076N11206947WA0174501706005010016023015
B2347283837079N11206946WA0174301705005010019024012
B2347293837081N11206944WA0174101705005010017028009
B2347303837083N11206943WA0174001705005010013032004
B2347313837085N11206942WA0173801705005010011031002
B2347323837087N11206941WA0173801704005010013023008
B2347333837089N11206941WA0173701704005010019010008
B2347343837092N11206940WA0173601704005010023008012
B2347353837096N11206940WA0173401703005010022011005
B2347363837099N11206939WA0173301703005010022012003
B2347373837102N11206939WA0173201703005010013015356
B2347383837104N11206938WA0173101703005010010006356
B2347393837105N11206939WA0173001702005010014348356
B2347403837108N11206940WA0172901701005010020344351
B2347413837111N11206941WA0172701701005010022346359
B2347423837114N11206942WA0172501700005010019343355
B2347433837116N11206943WA0172301700005010015339357
B2347443837118N11206944WA0172101699010019013333359
B2347453837120N11206945WA0172001698010019014340000
B2347463837122N11206946WA0171901698010019014341356
B2347473837123N11206947WA0171901697010019014341123
B2347483837126N11206949WA0171801696010019011347251
B2347493837127N11206949WA0171701696010019009358073
B2347503837128N11206949WA0171601696005010007005082
B2347513837129N11206948WA0171601695005010006007081
B2347523837130N11206948WA0171601694005010004034066
B2347533837131N11206947WA0171601692005010002035054
B2347543837131N11206947WA0171601692005010001044056
B2347553837131N11206947WA0171601692005010000000050
B2347563837131N11206947WA0171601692005010000000046
B2347573837131N11206947WA0171601692005010000000041
B2347583837131N11206947WA0171601692005010000005039
B2347593837131N11206947WA0171601692005010001006037
B2348003837131N11206947WA0171601692005010001046033
B2348013837131N11206947WA0171601692005010001011033
B2348023837131N11206947WA0171601692005010001053032
B2348033837131N11206947WA0171601692005010001033031
B2348043837131N11206947WA0171601692005010001062030
B2348053837131N11206947WA0171601692005010000000030
B2348063837131N11206947WA0171601692005010001307023
B2348073837131N11206947WA0171601692005010000000028
B2348083837131N11206947WA0171601692005010001111023
B2348093837131N11206947WA0171601692005010000000024
B2348103837131N11206947WA0171601692005010000000024
B2348113837131N11206947WA0171601692005010001119027
B2348123837131N11206947WA0171601692005010001166027
B2348133837131N11206947WA0171601692005010003164025
B2348143837131N11206947WA0171601692005010003167026
B2348153837131N11206947WA0171601692005010002168025
B2348163837131N11206947WA0171601692005010001177025
B2348173837131N11206947WA0171601692005010001171025
B2348183837131N11206947WA0171601692005010000000025
B2348193837131N11206947WA0171601692005010000000025
B2348203837131N11206947WA0171601692005010002050025
B2348213837131N11206947WA0171601692005010001071026
B2348223837131N11206947WA0171601692005010002059026
B2348233837131N11206947WA0171601692005010005078026
B2348243837132N11206946WA0171601691005010006070030
B2348253837133N11206944WA0171601690005010006063031
B2348263837133N11206943WA0171601690005010005061004
B2348273837133N11206943WA0171601689005010002088354
B2348283837133N11206943WA0171601689005010002087348
B2348293837133N11206943WA0171601689005010004081356
B2348303837134N11206942WA0171601687005010003050358
B2348313837135N11206941WA0171601686005010003067004
B2348323837135N11206941WA0171601686005010002065008
B2348333837135N11206941WA0171601686005010004060017
B2348343837135N11206941WA0171601685005010004029021
B2348353837136N11206940WA0171601684005010004028014
B2348363837136N11206940WA0171601683005010003025012
B2348373837136N11206940WA0171601683005010003009004
B2348383837137N11206940WA0171601682005010004000009
B2348393837138N11206940WA0171601681005010004014003
B2348403837138N11206940WA0171601681005010005008003
B2348413837139N11206940WA0171601680005010005001342
B2348423837140N11206939WA0171601679005010005347359
B2348433837141N11206939WA0171601678005010005345008
B2348443837141N11206940WA0171601677005010004353017
B2348453837142N11206939WA0171601677005010004016027
B2348463837143N11206939WA0171601676005010004021008
B2348473837143N11206939WA0171601676005010004013007
B2348483837144N11206939WA0171601675005010004028358
B2348503837145N11206938WA0171601674005010003001339
B2348513837147N11206938WA0171601672005010003334359
B2348533837147N11206938WA0171601671005010003348011
B2348553837147N11206938WA0171601671005010003038059
B2348573837149N11206937WA0171601670005010001046338
B2348583837149N11206937WA0171601670005010002040316
B2348593837149N11206937WA0171601670005010001001329
B2349003837149N11206937WA0171601670005010001357341
B2349013837149N11206937WA0171601670005010000355345
B2349033837149N11206937WA0171601670005010000005349
B2349043837149N11206937WA0171601670005010001021351
B2349053837149N11206937WA0171601670005010002040356
B2349063837149N11206937WA0171601670005010001007357
B2349083837149N11206937WA0171601670005010001022359
B2349093837149N11206937WA0171601670005010001020000
B2349103837149N11206937WA0171601670005010001019001
B2349113837149N11206937WA0171601670005010001031002
B2349123837149N11206937WA0171601670005010001018003
B2349133837149N11206937WA0171601670005010001027003
B2349143837149N11206937WA0171601670005010000016003
B2349153837149N11206937WA0171601670005010000358003
B2349163837149N11206937WA0171601670005010000000004
B2349173837149N11206937WA0171601670005010000000004
B2349183837149N11206937WA0171601670005010001345004
B2349193837149N11206937WA0171601670005010001018004
B2349203837149N11206937WA0171601670005010001027004
GfPPgSLlVdlm8mfFZOHYCZCDj0DVDKatwFaWnHmYV6FG2Bktgggmk/NUOS0/Sk1ub
GNR0bg8K2MGQXyMGJ7w6kp8Vs6ejw10k/iz8QLHFtRU25G/lmWwkwEhtGAvsEaTY9
G1SepFKiZFEI3Qq/IhkCxRA1fubakAsXxEK6n2z5FXOQ=

