AXFH000
HFDTE280425
HFPLTPILOT:Scott O’Brien
HFGTYGLIDERTYPE:Ozone Swift 6
HFDTM100GPSDATUM:WGS84
HFRFWFIRMWAREVERSION:8.2.6
HFRHWHARDWAREVERSION:iPhone 15
HFFTYFRTYPE:Flyskyhy,8.2.6
HFGPS:Internal
HFPRSVARIO:Internal Vario
HFCCLCOMPETITIONCLASS:Paraglider
HFTZNTIMEZONE:-7
HFSITSITE:Mission Ridge (Fremont- San Jose),US
I053638FXA3941VXA4244GSP4547CCO4850HDT
C280425192628280425000103TASK
C0000000N00000000ETAKEOFF
C3730317N12154316W00000000000100000000360000STARTAREA mission LZ
C3727936N12151061W00000000000200000000360000TURNAREA crosses
C3728301N12153970W00000000002900000000360000TURNAREA valley
C3727689N12151593W00000000000040000000360000TURNAREA Ed 600
C3730317N12154316W00000000000100000000360000FINISHAREA mission LZ
C0000000N00000000ELANDING
B1926583731050N12153522WA0058500585004003000223054
B1926593731050N12153522WA0058500585004003000223043
B1927003731050N12153522WA0058500585004003000223045
B1927013731050N12153522WA0058500585004003000223030
B1927023731050N12153522WA0058500586004003002218059
B1927033731050N12153522WA0058500584004003002218086
B1927043731050N12153521WA0058500584004003002081115
B1927053731050N12153520WA0058500584004003000076138
B1927063731051N12153519WA0058500584004003007069139
B1927073731051N12153520WA0058500585004003007076099
B1927083731050N12153520WA0058500584004003000076092
B1927093731050N12153521WA0058500585004003000076092
B1927103731050N12153521WA0058500585004003000076096
B1927113731050N12153521WA0058500584004003000104097
B1927123731050N12153521WA0058500585004003000104270
B1927133731050N12153522WA0058500584004003003104219
B1927143731049N12153523WA0058400583004003009250247
B1927153731049N12153524WA0058400583004003009244242
B1927163731048N12153526WA0058400584004003009238255
B1927173731047N12153527WA0058400584004003011230258
B1927183731046N12153529WA0058400585004003014237263
B1927193731045N12153532WA0058400585004003015251283
B1927203731045N12153534WA0058400585004003015261294
B1927213731045N12153537WA0058400585004003015267271
B1927223731045N12153540WA0058500586004003012275303
B1927233731046N12153542WA0058600588004003015292330
B1927243731047N12153544WA0058700589004003012298301
B1927253731048N12153546WA0058800590004003012284306
B1927263731048N12153549WA0059000591004003012270311
B1927273731049N12153551WA0059100590004003019300323
B1927283731051N12153554WA0059100589004003021308330
B1927293731053N12153557WA0059100590004003020310310
B1927303731054N12153559WA0059100591004003020301316
B1927313731055N12153561WA0059200591004003015295311
B1927323731056N12153564WA0059200591004003014286300
B1927333731056N12153567WA0059200590004003017277302
B1927343731056N12153570WA0059200589004003017273309
B1927353731057N12153574WA0059200588004003020279309
B1927363731058N12153579WA0059200590004003024290280
B1927373731059N12153583WA0059100594004003022283293
B1927383731058N12153586WA0059100598004003022234265
B1927393731056N12153588WA0059100600004003016206265
B1927403731055N12153589WA0059300603004003016207282
B1927413731054N12153592WA0059500604004003016247287
B1927423731054N12153595WA0059800606004003022283310
B1927433731057N12153598WA0060100608004003032327335
B1927443731062N12153598WA0060400609004003032008357
B1927453731067N12153594WA0060600612004003039043028
B1927463731070N12153587WA0060600613004003044070055
B1927473731068N12153577WA0060800614004003061105080
B1927483731066N12153569WA0060900617004003061111119
B1927493731057N12153566WA0061100617004003059170126
B1927503731052N12153565WA0061300622004003046193191
B1927513731048N12153567WA0061400626004003027219217
B1927523731046N12153569WA0061600629004003027220249
B1927533731044N12153570WA0061800633004003015230256
B1927543731043N12153573WA0061800634004003013235265
B1927553731041N12153575WA0062100636004003018240270
B1927563731040N12153580WA0062500639004003029258290
B1927573731040N12153584WA0062900641004003021277307
B1927583731043N12153586WA0062900646004003021333321
B1927593731045N12153586WA0063200649004003022015344
B1928003731048N12153585WA0063600651004003022023000
B1928013731050N12153581WA0064000654004003022059005
B1928023731052N12153575WA0064000654004003032070027
B1928033731053N12153568WA0064300655004003048088050
B1928043731051N12153558WA0064600656004003058110080
B1928053731046N12153550WA0064900659004003058134112
B1928063731040N12153546WA0064900662004003058158144
B1928073731034N12153543WA0065200665004003035171174
B1928083731029N12153542WA0065400669004003035167205
B1928093731026N12153543WA0065700672004003032179208
B1928103731022N12153543WA0065700674004003027187220
B1928113731018N12153546WA0066000678004003030204235
B1928123731016N12153550WA0066400681004003030240246
B1928133731014N12153554WA0066900685004003028260267
B1928143731014N12153556WA0066900690004003022271287
B1928153731013N12153559WA0067300695004003010242295
B1928163731013N12153560WA0067700699004003010244290
B1928173731013N12153563WA0068200701004003010281303
B1928183731015N12153568WA0068200704004003019301313
B1928193731017N12153571WA0068700708004003026312329
B1928203731021N12153571WA0069200713004003026008342
B1928213731024N12153571WA0069700716004003026020007
B1928223731026N12153563WA0069700716004003026073016
B1928233731028N12153558WA0070200719004003035063049
B1928243731026N12153548WA0070600720004003056104051
B1928253731024N12153540WA0071000722004003050119105
B1928263731021N12153532WA0071000724004003050119125
B1928273731013N12153530WA0071300727004003047166125
B1928283731008N12153527WA0071700730004003047168192
B1928293731003N12153526WA0072000735004003037177195
B1928303730999N12153526WA0072000740004003032180212
B1928313730997N12153529WA0072300741004003025238221
B1928323730995N12153533WA0072700744004003025257269
B1928333730994N12153537WA0073100747004003024271284
B1928343730994N12153540WA0073100751004003021262297
B1928353730994N12153543WA0073500756004003014263306
B1928363730994N12153545WA0074000761004003014278301
B1928373730995N12153547WA0074500763004003012340310
B1928383730997N12153547WA0074500763004003012359330
B1928393731001N12153546WA0075000765004003029020337
B1928403731005N12153544WA0075400768004003035033003
B1928413731008N12153540WA0075800772004003034047016
B1928423731011N12153535WA0075800774004003034054025
B1928433731011N12153527WA0076200774004003042079034
B1928443731011N12153518WA0076500776004003053098064
B1928453731009N12153510WA0076800777004003049108091
B1928463731007N12153502WA0076800779004003049108105
B1928473731003N12153496WA0077100781004003040121104
B1928483730998N12153490WA0077400784004003048140121
B1928493730993N12153485WA0077600788004003047147155
B1928503730988N12153480WA0077600792004003047148165
B1928513730983N12153477WA0077900796004003035146173
B1928523730979N12153474WA0078200800004003035148181
B1928533730976N12153471WA0078600803004003029148193
B1928543730972N12153469WA0078600805004003025166193
B1928553730969N12153470WA0079000807004003024190222
B1928563730966N12153472WA0079400808004003024219241
B1928573730964N12153474WA0079800810004003024235264
B1928583730962N12153476WA0079800814004003021223272
B1928593730960N12153478WA0080200817004003013227270
B1929003730959N12153480WA0080500819004003013231282
B1929013730958N12153483WA0080800819004003013250283
B1929023730957N12153487WA0080800820004003018264286
B1929033730958N12153491WA0081100823004003023289317
B1929043730959N12153494WA0081400825004003023310314
B1929053730961N12153497WA0081600828004003021321323
B1929063730964N12153500WA0081600831004003020318328
B1929073730966N12153501WA0081900836004003019339346
B1929083730969N12153502WA0082200839004003023007348
B1929093730973N12153500WA0082500842004003023024008
B1929103730977N12153497WA0082500845004003030031010
B1929113730980N12153493WA0082900850004003034049028
B1929123730982N12153487WA0083300853004003036081043
B1929133730981N12153480WA0083800853004003036104075
B1929143730979N12153473WA0083800855004003043120107
B1929153730975N12153466WA0084300858004003045125127
B1929163730972N12153460WA0084600863004003045122139
B1929173730969N12153454WA0085000867004003038126144
B1929183730965N12153449WA0085000870004003037139155
B1929193730960N12153445WA0085400873004003043151172
B1929203730954N12153443WA0085800877004003043166183
B1929213730949N12153442WA0086200880004003043183202
B1929223730946N12153443WA0086200884004003033214217
B1929233730943N12153445WA0086700887004003020224234
B1929243730940N12153448WA0087200890004003024220247
B1929253730937N12153450WA0087700893004003024208249
B1929263730934N12153452WA0087700895004003024218260
B1929273730932N12153456WA0088100898004003025243263
B1929283730932N12153460WA0088600899004003026262286
B1929293730932N12153465WA0089000902004003026283287
B1929303730933N12153469WA0089000905004003026286304
B1929313730933N12153472WA0089300908004003015289299
B1929323730934N12153475WA0089700909004003016303305
B1929333730936N12153478WA0090000910004003016314316
B1929343730939N12153482WA0090000911004003022319321
B1929353730943N12153486WA0090300914004003029325334
B1929363730946N12153488WA0090600919004003025333338
B1929373730949N12153489WA0090900925004003025359342
B1929383730951N12153488WA0090900929004003015036345
B1929393730952N12153487WA0091200932004003013039358
B1929403730955N12153486WA0091500933004003013009357
B1929413730958N12153485WA0092000933004003031009001
B1929423730963N12153482WA0092000933004003041030020
B1929433730967N12153476WA0092400933004003041056040
B1929443730970N12153468WA0092800937004003051076059
B1929453730970N12153460WA0093100941004003051096078
B1929463730969N12153454WA0093100946004003036100099
B1929473730968N12153448WA0093300949004003036105101
B1929483730966N12153443WA0093600947004003031120113
B1929493730963N12153437WA0093800949004003031121134
B1929503730959N12153432WA0093800951004003042139156
B1929513730954N12153428WA0094100953004003040157168
B1929523730949N12153426WA0094400957004003040171191
B1929533730944N12153425WA0094700960004003033166185
B1929543730939N12153425WA0094700963004003032181207
B1929553730934N12153425WA0095000966004003034186216
B1929563730929N12153425WA0095200969004003034184234
B1929573730926N12153430WA0095600971004003034228241
B1929583730923N12153433WA0095600974004003031240262
B1929593730922N12153437WA0096000977004003024256277
B1930003730921N12153442WA0096300980004003024264274
B1930013730921N12153446WA0096700982004003022272287
B1930023730921N12153450WA0096700984004003021282296
B1930033730922N12153453WA0097100986004003023295311
B1930043730925N12153457WA0097400987004003026311329
B1930053730928N12153461WA0097800989004003026323329
B1930063730932N12153463WA0097800992004003030338339
B1930073730936N12153464WA0098100996004003029356348
B1930083730939N12153463WA0098300999004003029024358
B1930093730942N12153461WA0098601001004003025043014
B1930103730945N12153458WA0098601002004003025046023
B1930113730948N12153453WA0099001004004003033052026
B1930123730950N12153447WA0099301004004003039074042
B1930133730952N12153440WA0099601006004003039072068
B1930143730948N12153431WA0099601007004003040118068
B1930153730945N12153425WA0099901008004003042130124
B1930163730941N12153420WA0100101013004003042150145
B1930173730936N12153417WA0100301015004003042162167
B1930183730932N12153414WA0100301018004003034159179
B1930193730927N12153412WA0100501020004003031158192
B1930203730922N12153411WA0100801022004003032175199
B1930213730918N12153412WA0101101022004003032199218
B1930223730913N12153415WA0101101025004003033220236
B1930233730911N12153421WA0101501028004003034244251
B1930243730910N12153426WA0101801032004003034266272
B1930253730910N12153430WA0102101034004003030286289
B1930263730911N12153434WA0102101036004003022296304
B1930273730913N12153438WA0102301037004003025310314
B1930283730916N12153441WA0102601040004003028324319
B1930293730919N12153443WA0102901042004003027341335
B1930303730922N12153444WA0102901045004003027359344
B1930313730926N12153443WA0103201047004003025020352
B1930323730929N12153441WA0103501048004003029034002
B1930333730933N12153438WA0103801049004003029036020
B1930343730936N12153434WA0103801051004003031042024
B1930353730939N12153429WA0104101052004003033060030
B1930363730940N12153423WA0104301052004003037080050
B1930373730941N12153416WA0104501053004003037098074
B1930383730939N12153408WA0104501054004003043112095
B1930393730936N12153402WA0104701057004003044128119
B1930403730932N12153397WA0104801060004003044137140
B1930413730928N12153393WA0105001063004003038153157
B1930423730923N12153390WA0105001065004003034149175
B1930433730919N12153388WA0105201067004003033167181
B1930443730914N12153387WA0105501069004003033174200
B1930453730910N12153387WA0105501070004003030182207
B1930463730906N12153388WA0105801072004003026194225
B1930473730903N12153389WA0106101074004003022207236
B1930483730900N12153392WA0106401074004003022219240
B1930493730897N12153394WA0106401075004003022221260
B1930503730894N12153398WA0106701075004003022216249
B1930513730890N12153402WA0107001077004003032226267
B1930523730888N12153406WA0107101078004003032230271
B1930533730888N12153412WA0107101082004003032270277
B1930543730888N12153417WA0107301084004003030283295
B1930553730889N12153421WA0107501086004003026297300
B1930563730891N12153425WA0107601088004003026305310
B1930573730894N12153428WA0107601088004003026326315
B1930583730898N12153431WA0107901088004003027339327
B1930593730902N12153431WA0108101087004003035002337
B1931003730908N12153429WA0108301087004003042019353
B1931013730912N12153427WA0108501089004003036032013
B1931023730916N12153423WA0108501092004003036042018
B1931033730918N12153420WA0108601094004003022048033
B1931043730921N12153417WA0108701093004003022052034
B1931053730923N12153413WA0108801092004003022053045
B1931063730927N12153409WA0108801092004003029051045
B1931073730929N12153403WA0108901094004003034063056
B1931083730930N12153398WA0109001096004003034081066
B1931093730930N12153391WA0109101096004003033097083
B1931103730929N12153385WA0109101097004003033103098
B1931113730928N12153379WA0109201098004003038107110
B1931123730926N12153372WA0109301098004003038108118
B1931133730924N12153366WA0109401100004003038115129
B1931143730921N12153361WA0109401103004003036124131
B1931153730916N12153357WA0109501105004003036151154
B1931163730912N12153353WA0109601105004003037149154
B1931173730908N12153350WA0109801106004003036150175
B1931183730903N12153347WA0109801109004003037152167
B1931193730898N12153344WA0109901111004003033158195
B1931203730894N12153343WA0110101113004003033175190
B1931213730889N12153343WA0110301115004003030185213
B1931223730885N12153344WA0110301117004003028191223
B1931233730882N12153346WA0110501116004003024218232
B1931243730879N12153349WA0110801116004003026220248
B1931253730876N12153353WA0111001118004003026230259
B1931263730874N12153357WA0111001120004003031238271
B1931273730873N12153362WA0111201122004003027262280
B1931283730873N12153367WA0111401123004003027282294
B1931293730875N12153371WA0111401125004003027306306
B1931303730877N12153375WA0111601126004003028321315
B1931313730881N12153377WA0111801128004003031348329
B1931323730886N12153378WA0112001130004003032359350
B1931333730890N12153377WA0112001131004003031014354
B1931343730894N12153375WA0112201132004003030033010
B1931353730897N12153371WA0112401131004003032050026
B1931363730899N12153365WA0112601130004003038067040
B1931373730901N12153358WA0112601130004003038080067
B1931383730901N12153351WA0112801130004003043097079
B1931393730899N12153344WA0112901131004003041117105
B1931403730896N12153338WA0112901133004003041132130
B1931413730892N12153334WA0112901134004003037142145
B1931423730888N12153330WA0113001135004003037152163
B1931433730883N12153327WA0113001136004003037165178
B1931443730878N12153326WA0113101137004003035174192
B1931453730873N12153325WA0113101139004003035183208
B1931463730868N12153326WA0113201140004003033194215
B1931473730863N12153329WA0113401141004003032211230
B1931483730861N12153333WA0113501141004003030237251
B1931493730859N12153338WA0113701141004003032261266
B1931503730858N12153344WA0113701141004003032256282
B1931513730859N12153350WA0113801143004003032272285
B1931523730860N12153356WA0114001143004003032288297
B1931533730862N12153360WA0114101144004003030306318
B1931543730865N12153365WA0114101143004003032319325
B1931553730868N12153369WA0114101142004003032316339
B1931563730873N12153371WA0114201143004003032329339
B1931573730877N12153373WA0114201144004003032338350
B1931583730882N12153369WA0114201143004003033029354
B1931593730887N12153366WA0114201143004003035038027
B1932003730890N12153361WA0114201143004003037053037
B1932013730893N12153355WA0114301143004003037069053
B1932023730894N12153348WA0114301144004003038085071
B1932033730894N12153341WA0114301144004003038099094
B1932043730893N12153335WA0114301145004003036112113
B1932053730891N12153329WA0114301144004003037123128
B1932063730887N12153323WA0114301144004003037135140
B1932073730883N12153318WA0114301144004003042144159
B1932083730878N12153315WA0114301144004003042153168
B1932093730873N12153311WA0114301146004003033159171
B1932103730869N12153309WA0114301146004003033159172
B1932113730865N12153307WA0114301147004003028156164
B1932123730861N12153304WA0114301145004003028158184
B1932133730856N12153302WA0114301144004003031166195
B1932143730851N12153302WA0114301143004003035181211
B1932153730846N12153303WA0114301143004003035193213
B1932163730841N12153305WA0114301143004003032203200
B1932173730837N12153307WA0114301143004003032195193
B1932183730832N12153308WA0114301141004003034188152
B1932193730826N12153307WA0114201139004003041170173
B1932203730820N12153306WA0114001139004003041171192
B1932213730815N12153304WA0114001139004003037165169
B1932223730810N12153303WA0113901137004003034166164
B1932233730806N12153301WA0113801134004003034165158
B1932243730799N12153300WA0113601131004003047166156
B1932253730793N12153296WA0113501129004003049161156
B1932263730785N12153293WA0113501129004003049159159
B1932273730778N12153290WA0113301132004003049159153
B1932283730772N12153288WA0113201133004003042160143
B1932293730766N12153286WA0113001133004003042161144
B1932303730761N12153282WA0113001133004003042156151
B1932313730754N12153279WA0113001133004003042156152
B1932323730748N12153275WA0113001133004003048155146
B1932333730742N12153271WA0113001133004003048158147
B1932343730735N12153268WA0113001135004003046151145
B1932353730730N12153264WA0113001136004003045153143
B1932363730724N12153260WA0113101136004003045149141
B1932373730719N12153255WA0113201135004003045145140
B1932383730713N12153251WA0113201134004003044146141
B1932393730707N12153245WA0113201134004003044140157
B1932403730701N12153239WA0113201135004003051142141
B1932413730695N12153234WA0113301137004003051142144
B1932423730690N12153229WA0113301139004003045140135
B1932433730686N12153223WA0113301140004003043135130
B1932443730681N12153217WA0113301139004003045135144
B1932453730675N12153211WA0113401139004003048135144
B1932463730670N12153203WA0113401141004003048134141
B1932473730664N12153198WA0113501141004003052143144
B1932483730658N12153192WA0113601141004003049139137
B1932493730653N12153185WA0113601144004003049136141
B1932503730648N12153179WA0113601145004003048133132
B1932513730643N12153173WA0113701147004003048134135
B1932523730638N12153166WA0113801147004003048130127
B1932533730634N12153159WA0113901148004003048125127
B1932543730630N12153152WA0113901148004003045124128
B1932553730625N12153145WA0114101147004003045129132
B1932563730621N12153138WA0114201147004003046128126
B1932573730617N12153131WA0114301147004003048127115
B1932583730613N12153124WA0114301146004003046120122
B1932593730610N12153117WA0114301146004003044124105
B1933003730605N12153111WA0114301145004003044126127
B1933013730601N12153104WA0114201142004003048130125
B1933023730596N12153096WA0114201141004003048125118
B1933033730592N12153088WA0114101141004003052121123
B1933043730588N12153080WA0114101142004003049121128
B1933053730584N12153072WA0114001143004003049125125
B1933063730580N12153065WA0114001143004003047126128
B1933073730574N12153058WA0113901142004003047129129
B1933083730569N12153050WA0113801140004003052131125
B1933093730564N12153043WA0113801140004003054135131
B1933103730558N12153037WA0113801139004003052137138
B1933113730552N12153032WA0113701141004003052146139
B1933123730547N12153028WA0113601141004003040150140
B1933133730542N12153024WA0113601140004003040148128
B1933143730537N12153019WA0113601140004003040146133
B1933153730531N12153014WA0113601135004003042143135
B1933163730525N12153008WA0113501133004003052143139
B1933173730519N12153003WA0113401132004003052146139
B1933183730513N12152998WA0113401130004003052147147
B1933193730507N12152994WA0113301130004003047150149
B1933203730502N12152990WA0113101129004003041153153
B1933213730496N12152986WA0112901127004003042155151
B1933223730489N12152983WA0112901124004003042159149
B1933233730483N12152980WA0112701122004003047155148
B1933243730476N12152976WA0112501119004003048152145
B1933253730470N12152972WA0112401118004003048153149
B1933263730464N12152969WA0112401116004003045157157
B1933273730457N12152965WA0112201115004003045157152
B1933283730451N12152962WA0111901112004003046157149
B1933293730445N12152958WA0111701111004003048156143
B1933303730438N12152955WA0111701107004003047159147
B1933313730431N12152953WA0111401105004003048165162
B1933323730424N12152950WA0111101102004003049167155
B1933333730417N12152948WA0110801100004003049164157
B1933343730410N12152945WA0110801098004003048159152
B1933353730403N12152943WA0110501097004003048166173
B1933363730396N12152941WA0110301096004003047173168
B1933373730389N12152940WA0110001096004003047174170
B1933383730382N12152939WA0110001095004003047175174
B1933393730375N12152938WA0109801094004003047173179
B1933403730367N12152937WA0109601092004003050178180
B1933413730360N12152937WA0109401089004003051178174
B1933423730353N12152937WA0109401087004003050179176
B1933433730345N12152937WA0109201086004003051178178
B1933443730338N12152936WA0108901084004003052178184
B1933453730330N12152936WA0108701083004003052180176
B1933463730323N12152936WA0108701082004003051182183
B1933473730316N12152936WA0108401082004003048177178
B1933483730309N12152935WA0108201081004003045177188
B1933493730302N12152935WA0108001079004003045178191
B1933503730295N12152936WA0108001078004003046183190
B1933513730288N12152937WA0107901076004003046185188
B1933523730281N12152938WA0107701074004003046184186
B1933533730275N12152939WA0107601074004003046184191
B1933543730268N12152939WA0107601072004003041187191
B1933553730262N12152940WA0107401070004003041188188
B1933563730256N12152942WA0107301068004003041187189
B1933573730249N12152943WA0107101066004003044187190
B1933583730242N12152944WA0107101065004003047187189
B1933593730236N12152945WA0106901064004003045185192
B1934003730229N12152946WA0106701063004003045184184
B1934013730222N12152946WA0106501062004003043181191
B1934023730215N12152947WA0106501059004003043188187
B1934033730209N12152948WA0106401058004003044187192
B1934043730202N12152949WA0106201057004003047187189
B1934053730195N12152950WA0106001056004003047187196
B1934063730188N12152951WA0106001056004003046184188
B1934073730182N12152952WA0105801056004003045182184
B1934083730175N12152952WA0105701055004003043181185
B1934093730170N12152952WA0105501055004003036177183
B1934103730164N12152952WA0105501055004003036175184
B1934113730159N12152951WA0105501054004003036174185
B1934123730153N12152951WA0105401054004003037176190
B1934133730148N12152951WA0105301053004003037180185
B1934143730142N12152951WA0105301053004003038181188
B1934153730136N12152951WA0105301053004003039180192
B1934163730130N12152950WA0105201052004003039177190
B1934173730124N12152950WA0105201052004003039178193
B1934183730119N12152950WA0105201051004003039181199
B1934193730113N12152950WA0105101051004003041185201
B1934203730107N12152952WA0105001051004003041186199
B1934213730101N12152952WA0105001052004003039185206
B1934223730097N12152953WA0105001053004003033183196
B1934233730093N12152953WA0105001052004003028187199
B1934243730089N12152955WA0104901050004003033193202
B1934253730084N12152956WA0104901049004003033191203
B1934263730079N12152957WA0104901051004003033190203
B1934273730073N12152958WA0104901052004003036185198
B1934283730068N12152958WA0104901052004003036183192
B1934293730062N12152958WA0104901053004003039180189
B1934303730056N12152958WA0104901054004003040181198
B1934313730049N12152959WA0104901053004003040183200
B1934323730043N12152959WA0104901054004003044187195
B1934333730037N12152961WA0105001054004003044195196
B1934343730031N12152962WA0105001054004003040190157
B1934353730026N12152963WA0105001057004003040180172
B1934363730021N12152963WA0105001058004003031172165
B1934373730017N12152963WA0105101059004003028178172
B1934383730012N12152962WA0105101058004003028171181
B1934393730007N12152961WA0105201058004003037171174
B1934403730001N12152961WA0105301059004003041182181
B1934413729996N12152961WA0105401060004003037179173
B1934423729991N12152961WA0105401061004003036176178
B1934433729986N12152960WA0105501061004003031173171
B1934443729981N12152959WA0105601059004003035171184
B1934453729975N12152958WA0105601060004003037175187
B1934463729970N12152958WA0105601060004003037180181
B1934473729964N12152958WA0105601061004003038182185
B1934483729958N12152958WA0105601062004003038182176
B1934493729953N12152958WA0105701065004003037176186
B1934503729948N12152957WA0105701067004003037177185
B1934513729942N12152957WA0105801066004003037180187
B1934523729936N12152957WA0105801067004003040180185
B1934533729930N12152957WA0105901067004003040174182
B1934543729924N12152957WA0105901066004003035172184
B1934553729920N12152956WA0106001066004003035174182
B1934563729914N12152955WA0106101065004003035177194
B1934573729908N12152956WA0106201064004003038182182
B1934583729902N12152956WA0106201062004003039182187
B1934593729896N12152956WA0106201062004003041181180
B1935003729890N12152956WA0106201062004003041182169
B1935013729884N12152956WA0106101063004003040180174
B1935023729879N12152956WA0106101062004003037179169
B1935033729874N12152956WA0106001062004003036176168
B1935043729868N12152956WA0106001057004003037181158
B1935053729861N12152955WA0105901055004003045175165
B1935063729855N12152953WA0105901054004003043171154
B1935073729849N12152951WA0105801053004003043163159
B1935083729845N12152948WA0105701051004003038159157
B1935093729840N12152945WA0105501050004003036154158
B1935103729835N12152942WA0105501048004003039155160
B1935113729829N12152939WA0105301043004003039157162
B1935123729822N12152936WA0105101042004003045159162
B1935133729816N12152934WA0104901040004003045162158
B1935143729810N12152931WA0104901038004003043161160
B1935153729804N12152929WA0104601036004003043163157
B1935163729798N12152928WA0104301032004003039165161
B1935173729792N12152925WA0103901030004003039162157
B1935183729786N12152923WA0103901028004003042163155
B1935193729780N12152920WA0103601025004003043163159
B1935203729774N12152917WA0103301024004003044160140
B1935213729768N12152914WA0103001022004003044157144
B1935223729762N12152910WA0103001020004003044153146
B1935233729755N12152907WA0102701017004003046153146
B1935243729749N12152903WA0102401015004003047153154
B1935253729743N12152900WA0102101014004003046156146
B1935263729737N12152896WA0102101012004003046155143
B1935273729731N12152892WA0101801010004003045152141
B1935283729724N12152888WA0101501010004003049151142
B1935293729718N12152885WA0101301008004003049158145
B1935303729711N12152881WA0101301005004003049157149
B1935313729705N12152877WA0101001006004003047155136
B1935323729700N12152874WA0100801005004003040157154
B1935333729694N12152872WA0100701004004003041158147
B1935343729688N12152869WA0100701002004003041161151
B1935353729682N12152866WA0100501001004003043156149
B1935363729676N12152862WA0100401002004003045153158
B1935373729670N12152859WA0100301003004003045156152
B1935383729664N12152855WA0100301005004003042151146
B1935393729660N12152851WA0100201006004003041149146
B1935403729656N12152847WA0100201007004003033131153
B1935413729653N12152843WA0100201008004003033136172
B1935423729648N12152839WA0100201008004003033141166
B1935433729643N12152837WA0100201005004003035162176
B1935443729638N12152836WA0100301002004003036171188
B1935453729632N12152834WA0100400998004003040172175
B1935463729626N12152833WA0100400996004003043165171
B1935473729621N12152831WA0100400994004003040166161
B1935483729615N12152827WA0100300995004003043159174
B1935493729610N12152825WA0100100995004003034158164
B1935503729605N12152822WA0100100995004003034155159
B1935513729601N12152819WA0099900994004003034151151
B1935523729595N12152816WA0099800993004003034155145
B1935533729590N12152811WA0099600992004003048148156
B1935543729584N12152807WA0099600992004003048150151
B1935553729579N12152803WA0099500991004003043146148
B1935563729573N12152799WA0099400990004003042147149
B1935573729567N12152795WA0099200988004003042149151
B1935583729562N12152791WA0099200987004003047150149
B1935593729555N12152786WA0099000984004003047150144
B1936003729550N12152781WA0098800984004003047147143
B1936013729545N12152777WA0098600983004003046144140
B1936023729539N12152772WA0098600981004003045142138
B1936033729533N12152767WA0098400979004003047145124
B1936043729527N12152761WA0098200976004003051142128
B1936053729521N12152755WA0098000974004003051140140
B1936063729516N12152749WA0098000973004003051136134
B1936073729511N12152743WA0097800973004003049137138
B1936083729506N12152738WA0097600972004003043138139
B1936093729501N12152732WA0097400970004003043140145
B1936103729496N12152726WA0097400968004003043138138
B1936113729490N12152721WA0097200967004003046139134
B1936123729484N12152714WA0097000965004003048140138
B1936133729478N12152708WA0096800967004003051140133
B1936143729473N12152703WA0096800965004003051140133
B1936153729468N12152698WA0096600965004003045141136
B1936163729464N12152693WA0096400964004003040140135
B1936173729459N12152688WA0096200963004003040137127
B1936183729455N12152683WA0096200961004003041137136
B1936193729450N12152677WA0096100961004003042133123
B1936203729446N12152672WA0096000960004003042131122
B1936213729442N12152666WA0095900958004003042129123
B1936223729438N12152659WA0095900957004003042124129
B1936233729434N12152653WA0095800956004003045126126
B1936243729430N12152647WA0095600955004003045126125
B1936253729427N12152641WA0095500957004003042130120
B1936263729423N12152636WA0095500958004003037129128
B1936273729420N12152631WA0095400958004003035130119
B1936283729417N12152627WA0095400954004003030129121
B1936293729413N12152623WA0095300949004003031133116
B1936303729410N12152614WA0095300950004003031118122
B1936313729407N12152607WA0095300949004003046120116
B1936323729404N12152601WA0095200949004003046123110
B1936333729401N12152595WA0095100948004003033115113
B1936343729399N12152589WA0095100947004003034111113
B1936353729397N12152583WA0095000945004003034115121
B1936363729394N12152577WA0094900944004003036116117
B1936373729391N12152570WA0094700941004003040117119
B1936383729388N12152563WA0094700941004003044117111
B1936393729386N12152556WA0094600940004003044118107
B1936403729383N12152550WA0094400940004003040119123
B1936413729379N12152544WA0094100939004003039131124
B1936423729375N12152538WA0094100939004003039127117
B1936433729373N12152533WA0093900936004003035121113
B1936443729371N12152526WA0093800936004003040111122
B1936453729368N12152520WA0093600935004003039114141
B1936463729365N12152514WA0093600935004003039120147
B1936473729361N12152509WA0093500936004003038131141
B1936483729357N12152505WA0093400938004003034139148
B1936493729353N12152501WA0093300938004003034140137
B1936503729350N12152497WA0093300938004003032137146
B1936513729346N12152492WA0093300937004003032135145
B1936523729343N12152488WA0093300936004003032136155
B1936533729339N12152483WA0093300936004003033135148
B1936543729335N12152480WA0093300934004003033138150
B1936553729331N12152476WA0093300933004003033152156
B1936563729326N12152474WA0093300931004003035154159
B1936573729321N12152472WA0093200930004003035162177
B1936583729316N12152470WA0093200929004003038164165
B1936593729310N12152466WA0093100932004003044157158
B1937003729305N12152464WA0093000934004003038155091
B1937013729301N12152461WA0093000934004003036157183
B1937023729297N12152460WA0093000933004003030162176
B1937033729293N12152458WA0093000927004003032163159
B1937043729287N12152456WA0093000926004003041157156
B1937053729282N12152453WA0092900924004003040153161
B1937063729277N12152450WA0092900924004003040153163
B1937073729273N12152448WA0092900924004003035157167
B1937083729268N12152445WA0092700923004003033156161
B1937093729263N12152443WA0092500921004003038158160
B1937103729258N12152440WA0092500922004003038154154
B1937113729253N12152437WA0092400921004003038155160
B1937123729248N12152434WA0092200920004003036153160
B1937133729243N12152431WA0092100920004003037152170
B1937143729237N12152428WA0092100918004003043159179
B1937153729231N12152425WA0092000917004003043161187
B1937163729225N12152424WA0091800916004003043172199
B1937173729219N12152424WA0091700915004003042183184
B1937183729213N12152424WA0091700915004003041185184
B1937193729207N12152424WA0091600915004003041174181
B1937203729200N12152423WA0091500915004003041173170
B1937213729195N12152422WA0091300917004003041171178
B1937223729190N12152422WA0091300915004003036173174
B1937233729185N12152421WA0091300913004003036174173
B1937243729179N12152420WA0091200911004003036172169
B1937253729173N12152419WA0091200908004003036170173
B1937263729167N12152418WA0091200906004003041171163
B1937273729162N12152418WA0091100904004003041182194
B1937283729156N12152418WA0091000903004003038186185
B1937293729150N12152420WA0090800901004003041193190
B1937303729144N12152421WA0090800901004003040192195
B1937313729139N12152422WA0090500900004003040186174
B1937323729133N12152422WA0090300899004003038185190
B1937333729127N12152422WA0090100898004003039177186
B1937343729121N12152422WA0090100896004003045177201
B1937353729114N12152423WA0089900893004003045183207
B1937363729106N12152424WA0089700893004003050192210
B1937373729099N12152426WA0089500895004003050195190
B1937383729094N12152427WA0089500897004003031187185
B1937393729090N12152427WA0089400899004003031179178
B1937403729085N12152426WA0089300898004003031158183
B1937413729080N12152424WA0089300897004003032166197
B1937423729073N12152423WA0089300896004003037172192
B1937433729067N12152422WA0089400896004003047172192
B1937443729061N12152422WA0089500897004003047181185
B1937453729055N12152421WA0089500898004003041177204
B1937463729050N12152421WA0089500899004003035171198
B1937473729045N12152420WA0089500898004003035172209
B1937483729039N12152420WA0089500898004003042180213
B1937493729032N12152422WA0089500897004003045197220
B1937503729027N12152424WA0089500897004003042204221
B1937513729021N12152427WA0089500897004003042204229
B1937523729017N12152429WA0089500898004003038201235
B1937533729013N12152432WA0089500899004003032211239
B1937543729009N12152435WA0089500898004003032213240
B1937553729005N12152439WA0089500898004003032215250
B1937563729001N12152442WA0089500899004003031214239
B1937573728998N12152444WA0089500899004003022209245
B1937583728994N12152447WA0089500897004003028208246
B1937593728991N12152450WA0089600897004003028211250
B1938003728987N12152454WA0089700896004003028229252
B1938013728985N12152458WA0089700895004003030231256
B1938023728983N12152464WA0089700897004003031251258
B1938033728981N12152468WA0089700898004003031240262
B1938043728980N12152471WA0089700901004003028246266
B1938053728978N12152476WA0089700901004003022253289
B1938063728979N12152480WA0089700900004003021295299
B1938073728982N12152484WA0089700899004003032319316
B1938083728986N12152486WA0089800899004003035336341
B1938093728989N12152488WA0089800902004003032354357
B1938103728993N12152487WA0089800903004003024017003
B1938113728994N12152483WA0089800904004003024062008
B1938123728997N12152481WA0089900906004003020037032
B1938133729000N12152480WA0090000905004003022004006
B1938143729003N12152479WA0090000905004003021006002
B1938153729006N12152479WA0090000903004003021011011
B1938163729010N12152478WA0090100903004003021004023
B1938173729015N12152476WA0090200903004003037024025
B1938183729019N12152472WA0090200905004003038043037
B1938193729022N12152467WA0090200907004003037064055
B1938203729023N12152462WA0090300908004003032087071
B1938213729022N12152457WA0090300908004003029104089
B1938223729021N12152451WA0090300907004003034117106
B1938233729018N12152446WA0090300905004003034120124
B1938243729013N12152441WA0090400907004003034147130
B1938253729008N12152439WA0090400907004003038170163
B1938263729003N12152440WA0090400907004003038196192
B1938273728999N12152442WA0090500907004003031218220
B1938283728996N12152446WA0090500908004003031227245
B1938293728995N12152451WA0090600910004003031251254
B1938303728999N12152456WA0090600909004003031284274
B1938313729001N12152461WA0090600912004003029315301
B1938323729004N12152463WA0090700912004003026342324
B1938333729008N12152464WA0090800912004003028356346
B1938343729012N12152461WA0090900912004003028031000
B1938353729016N12152456WA0090900913004003037053027
B1938363729018N12152451WA0091000914004003037074052
B1938373729018N12152445WA0091100914004003034082072
B1938383729017N12152438WA0091100914004003041111080
B1938393729013N12152432WA0091100913004003041130115
B1938403729009N12152428WA0091100912004003041153135
B1938413729003N12152427WA0091200913004003041175163
B1938423728999N12152427WA0091200912004003031192189
B1938433728995N12152429WA0091200912004003032209210
B1938443728991N12152432WA0091200913004003032220234
B1938453728988N12152435WA0091200915004003032230247
B1938463728989N12152440WA0091300914004003026288261
B1938473728991N12152443WA0091300912004003028323304
B1938483728994N12152445WA0091300911004003028340328
B1938493728997N12152447WA0091300911004003027329342
B1938503729001N12152443WA0091300915004003027041335
B1938513729003N12152440WA0091300914004003024062035
B1938523729006N12152436WA0091300915004003027055052
B1938533729008N12152431WA0091400915004003035058054
B1938543729008N12152424WA0091400913004003035085067
B1938553729008N12152416WA0091400913004003040102093
B1938563729005N12152409WA0091400912004003044123115
B1938573729000N12152404WA0091400909004003046142135
B1938583728995N12152400WA0091400909004003046157150
B1938593728989N12152397WA0091300909004003046159157
B1939003728984N12152394WA0091200911004003041157155
B1939013728979N12152391WA0091100910004004037153149
B1939023728973N12152384WA0091100910004004048143162
B1939033728967N12152380WA0091100910004003048154168
B1939043728961N12152377WA0091000911004003046157174
B1939053728955N12152377WA0090900911004003044169173
B1939063728950N12152375WA0090900912004003039163167
B1939073728945N12152372WA0090900911004003035156158
B1939083728940N12152370WA0090900911004003035157149
B1939093728935N12152368WA0090900908004003035162175
B1939103728929N12152366WA0090900906004003035167165
B1939113728924N12152363WA0090900904004003040162158
B1939123728910N12152355WA0090700905004003055153161
B1939133728904N12152352WA0090600905004003050157181
B1939143728897N12152349WA0090600906004003042156178
B1939153728893N12152347WA0090400905004003041160172
B1939163728888N12152345WA0090400903004003035162173
B1939173728883N12152343WA0090300901004003037167169
B1939183728876N12152341WA0090300898004003037169179
B1939193728869N12152341WA0090300894004003045175159
B1939203728862N12152341WA0090200893004003048181180
B1939213728855N12152341WA0090000893004003047182179
B1939223728849N12152341WA0090000893004003047181177
B1939233728843N12152342WA0089700891004003042185175
B1939243728837N12152342WA0089500889004003042185177
B1939253728830N12152343WA0089200885004003042182178
B1939263728822N12152344WA0089200881004003053185183
B1939273728815N12152345WA0089000880004003053189183
B1939283728807N12152345WA0088800880004003053183173
B1939293728801N12152345WA0088500879004003048174175
B1939303728794N12152344WA0088500877004003047173175
B1939313728787N12152344WA0088300876004003049177174
B1939323728780N12152343WA0088100873004003049175169
B1939333728772N12152342WA0087800872004003049173165
B1939343728765N12152341WA0087800871004003051172165
B1939353728757N12152340WA0087600870004003051172165
B1939363728749N12152339WA0087400870004003053175178
B1939373728741N12152339WA0087200870004003053181173
B1939383728734N12152339WA0087200867004003050178174
B1939393728726N12152339WA0087000865004003048178168
B1939403728719N12152339WA0086900864004003048176172
B1939413728711N12152338WA0086700862004003053175165
B1939423728704N12152337WA0086700861004003053173158
B1939433728696N12152335WA0086600860004003050172158
B1939443728689N12152333WA0086400859004003050169164
B1939453728682N12152331WA0086300856004003051168165
B1939463728674N12152330WA0086300853004003052170165
B1939473728667N12152329WA0086100850004003052172168
B1939483728659N12152328WA0085900852004003052172160
B1939493728652N12152325WA0085700852004003050166159
B1939503728645N12152324WA0085700851004003046165168
B1939513728638N12152322WA0085500849004003048165158
B1939523728631N12152319WA0085400846004003050165167
B1939533728624N12152316WA0085200844004003050159155
B1939543728616N12152313WA0085200843004003050160166
B1939553728610N12152310WA0085000843004003049159165
B1939563728603N12152307WA0084700841004003049161173
B1939573728596N12152304WA0084500841004003049162173
B1939583728589N12152301WA0084500840004003048162175
B1939593728582N12152300WA0084300839004003048168178
B1940003728575N12152299WA0084100838004003048172179
B1940023728567N12152298WA0084000837004003048168182
B1940033728560N12152296WA0084000836004003048169184
B1940043728553N12152294WA0083900834004003048172182
B1940053728547N12152294WA0083800833004003047174177
B1940063728540N12152293WA0083600830004003047174176
B1940073728533N12152291WA0083600828004003048171170
B1940083728526N12152289WA0083400829004003048168163
B1940093728519N12152287WA0083200828004003046164165
B1940103728513N12152285WA0083000827004003045164168
B1940113728507N12152283WA0083000824004003043165166
B1940123728500N12152281WA0082800822004003047170171
B1940133728493N12152280WA0082600820004003047172168
B1940143728486N12152279WA0082400818004003046170166
B1940153728480N12152277WA0082400816004003045168165
B1940163728473N12152275WA0082200815004003045168166
B1940173728467N12152273WA0082000812004003042165166
B1940183728461N12152271WA0081800811004003043165166
B1940193728455N12152269WA0081800808004003043163163
B1940203728448N12152267WA0081500807004003043167167
B1940213728442N12152265WA0081300807004003043168169
B1940223728436N12152264WA0081100807004003039169163
B1940233728431N12152262WA0081100804004003039166163
B1940243728424N12152260WA0081000803004003039158156
B1940253728418N12152257WA0080800800004003044161170
B1940263728411N12152254WA0080600798004003048160163
B1940273728405N12152251WA0080600797004003048160170
B1940283728398N12152249WA0080500797004003048164172
B1940293728391N12152247WA0080200797004003047171173
B1940303728384N12152246WA0080000797004003047169166
B1940313728377N12152244WA0080000797004003047169165
B1940323728371N12152243WA0079800796004003042172170
B1940333728365N12152242WA0079700794004003043170168
B1940343728358N12152241WA0079500792004003043174171
B1940353728351N12152239WA0079500791004003045171167
B1940363728344N12152238WA0079500790004004045171168
B1940373728339N12152236WA0079300790004003038167169
B1940383728333N12152234WA0079200788004003043162165
B1940393728326N12152232WA0079200786004003043165162
B1940403728319N12152230WA0079100784004003048170182
B1940413728312N12152230WA0078900782004003048180187
B1940423728305N12152229WA0078700779004003045175176
B1940433728298N12152230WA0078700777004003045181180
B1940443728291N12152229WA0078500771004003045176176
B1940453728284N12152229WA0078300767004003049178179
B1940463728274N12152229WA0078000767004003051181182
B1940473728265N12152230WA0078000765004003060182176
B1940483728258N12152228WA0077600770022003060172170
B1940493728245N12152225WA0077100773022003041167177
B1940503728240N12152224WA0077100773022003035169180
B1940513728234N12152223WA0076900771022003041168178
B1940523728227N12152221WA0076900771022003046166174
B1940533728221N12152218WA0077000770022003046164158
B1940543728214N12152216WA0077000772022003046162164
B1940553728209N12152214WA0077100773022003043162175
B1940563728205N12152211WA0077200773022003029159161
B1940573728200N12152210WA0077200772022003029160165
B1940583728196N12152207WA0077200772022003029160175
B1940593728190N12152205WA0077200766022003032161161
B1941003728183N12152201WA0077200764022003043159161
B1941013728177N12152198WA0077100763022003048160162
B1941023728171N12152196WA0077100763022003048165167
B1941033728166N12152194WA0076900761022003041163171
B1941043728160N12152192WA0076600759022003038165169
B1941053728154N12152191WA0076300757022003038165169
B1941063728148N12152189WA0076300756022003042164172
B1941073728142N12152187WA0076100756022003042161169
B1941083728136N12152185WA0075900755022003042165166
B1941093728131N12152183WA0075700754022004041164167
B1941103728125N12152181WA0075700753022003040163167
B1941113728119N12152179WA0075600753022003041163168
B1941123728113N12152177WA0075400751022003041164163
B1941133728107N12152175WA0075300751022003041171170
B1941143728101N12152173WA0075300749022003041164165
B1941153728095N12152172WA0075200746022003042174171
B1941163728088N12152171WA0075000744022003047170165
B1941173728082N12152170WA0074900744022003047172171
B1941183728075N12152169WA0074900743022003045177177
B1941193728069N12152169WA0074700743022003043181179
B1941203728062N12152169WA0074500742022003043180181
B1941213728054N12152169WA0074400741022003048179168
B1941223728047N12152170WA0074400740022003049181178
B1941233728040N12152170WA0074200738022003048183173
B1941243728033N12152171WA0074100735022003048188184
B1941253728025N12152171WA0074000731022003048180179
B1941263728017N12152171WA0074000728022003053180169
B1941273728010N12152170WA0073700725022003053175168
B1941283728003N12152169WA0073400722022003050172165
B1941293727996N12152169WA0073100720022003048175170
B1941303727989N12152169WA0073100717022004048180174
B1941313727982N12152170WA0072700713022004051185175
B1941323727975N12152172WA0072300713022003051189172
B1941333727967N12152172WA0072000712022003049176169
B1941343727960N12152172WA0072000711022003048175166
B1941353727953N12152171WA0071600710022003046172164
B1941363727947N12152170WA0071300708022003042173165
B1941373727940N12152168WA0071100704022003045170166
B1941383727934N12152167WA0071100701022003045172160
B1941393727926N12152166WA0070800698022003047168159
B1941403727919N12152164WA0070500696022003051169161
B1941413727912N12152162WA0070200694022003049170162
B1941423727904N12152161WA0070200692022003049172163
B1941433727897N12152161WA0069900691022003047175164
B1941443727891N12152159WA0069600688022003046172162
B1941453727884N12152158WA0069300685022003046172161
B1941463727877N12152157WA0069300683022003044174161
B1941473727871N12152156WA0068900679022003044170163
B1941483727863N12152155WA0068600676022003044174157
B1941493727857N12152153WA0068300672022003048172157
B1941503727850N12152152WA0068300669022003048172162
B1941513727842N12152151WA0068000668022003048174160
B1941523727835N12152150WA0067600666022003048171158
B1941533727828N12152149WA0067300664022003048168158
B1941543727821N12152148WA0067300662022003047173160
B1941553727814N12152146WA0067000660022003047170162
B1941563727807N12152145WA0066700658022003049171161
B1941573727799N12152144WA0066400655022003050171160
B1941583727792N12152141WA0066400655022003050167163
B1941593727785N12152141WA0066100653022003050174169
B1942003727779N12152140WA0065900651022003046174171
B1942013727771N12152139WA0065600647022003048175163
B1942023727764N12152139WA0065600645022003049177175
B1942033727756N12152139WA0065400642022003049177163
B1942043727749N12152138WA0065100640022003049177159
B1942053727743N12152137WA0064800638022003048169157
B1942063727736N12152135WA0064800636022003041164147
B1942083727730N12152133WA0064600632022003041164159
B1942093727724N12152131WA0064300629022003041165163
B1942103727717N12152129WA0063900624022003042169166
B1942113727710N12152128WA0063900619022003049170174
B1942123727702N12152125WA0063600616022003057166175
B1942133727694N12152123WA0063200613022003055166162
B1942143727687N12152121WA0062700609022003055167161
B1942153727680N12152119WA0062700607022003052166163
B1942163727672N12152117WA0062200603022003047169164
B1942173727665N12152116WA0061700599022003047172167
B1942183727658N12152115WA0061200596022003047171165
B1942193727651N12152113WA0061200593022003047169167
B1942203727644N12152111WA0060800590022003050165162
B1942213727637N12152109WA0060300587022003047166162
B1942223727630N12152107WA0059900585022003047165162
B1942233727624N12152105WA0059900581022003047168163
B1942243727616N12152103WA0059500578022003047166166
B1942253727609N12152101WA0059100576022003049169171
B1942263727601N12152099WA0058700573022003051170173
B1942273727594N12152099WA0058700572022003051175170
B1942283727586N12152097WA0058300570022003050173167
B1942293727580N12152096WA0057900568022003048171168
B1942303727573N12152095WA0057500566022003046171167
B1942313727565N12152093WA0057500563022003050170171
B1942323727558N12152092WA0057200559022003050175174
B1942333727551N12152091WA0056800555022003050170164
B1942343727544N12152089WA0056500554022003049168163
B1942353727537N12152088WA0056500552022003046165168
B1942363727530N12152086WA0056100549022003049166165
B1942373727523N12152084WA0055800547022003050171169
B1942383727508N12152080WA0055500546022003050165173
B1942393727501N12152078WA0055200545022003048165170
B1942403727494N12152076WA0054900544022003047170169
B1942413727488N12152074WA0054700543022003047168163
B1942423727480N12152073WA0054700540022003047171162
B1942433727473N12152071WA0054500537022003050169162
B1942443727466N12152069WA0054300535022003051169159
B1942453727458N12152067WA0054200534022003048168162
B1942463727451N12152066WA0054200534022003049169159
B1942473727444N12152064WA0053900531022003048172154
B1942483727437N12152063WA0053700530022003047171155
B1942493727430N12152062WA0053500527022003047169157
B1942503727422N12152060WA0053500525022003050168159
B1942513727414N12152058WA0053300526022003054166155
B1942523727407N12152055WA0053100525022003050162151
B1942533727400N12152052WA0052900525022003050163150
B1942543727394N12152050WA0052900523022003049161151
B1942553727386N12152048WA0052700522022003046162145
B1942563727380N12152045WA0052500523022003046157146
B1942573727374N12152041WA0052400522022003045154145
B1942583727368N12152038WA0052400523022003045154145
B1942593727363N12152034WA0052400522022003044153146
B1943003727357N12152031WA0052300521022003041156152
B1943013727352N12152028WA0052300520022003041156153
B1943023727345N12152024WA0052300519022003041155149
B1943033727339N12152021WA0052200518022003045155149
B1943043727333N12152017WA0052100516022003045155145
B1943053727327N12152013WA0052000516022003044153143
B1943063727321N12152010WA0052000515022003044152140
B1943073727315N12152006WA0051900513022003044150140
B1943083727309N12152001WA0051800512022003044148138
B1943093727303N12151996WA0051700511022003047145134
B1943103727297N12151991WA0051700509022003047147154
B1943113727291N12151987WA0051500508022003049151156
B1943123727285N12151984WA0051400506022003047156156
B1943133727279N12151980WA0051200504022003045155149
B1943143727273N12151976WA0051200503022003043153145
B1943153727268N12151971WA0051000500022003045145143
B1943163727262N12151966WA0050800497022003049142141
B1943173727256N12151961WA0050500495022003049146149
B1943183727250N12151956WA0050500495022003049147142
B1943193727244N12151951WA0050200494022003047145143
B1943203727239N12151947WA0050000494022003042148147
B1943213727234N12151943WA0049800493022003044145148
B1943223727228N12151938WA0049800494022003044146149
B1943233727222N12151933WA0049600494022003046145150
B1943243727217N12151928WA0049500494022003046143148
B1943253727210N12151923WA0049500495022003051144134
B1943263727207N12151918WA0049500498022003051139126
B1943273727203N12151914WA0049500499022003037133150
B1943283727199N12151909WA0049500502022003033137154
B1943293727196N12151907WA0049700503022003032140145
B1943303727191N12151902WA0049700500022003039144146
B1943313727186N12151897WA0049900500022003048144140
B1943323727181N12151891WA0050000501022003047139150
B1943333727175N12151884WA0050200503022003048137149
B1943343727172N12151879WA0050200506022003047131138
B1943353727168N12151873WA0050300511022003036128147
B1943363727165N12151868WA0050400518022003036127163
B1943373727162N12151862WA0050600518022003036127144
B1943383727158N12151858WA0050600520022003034148151
B1943393727153N12151857WA0050800522022003034177175
B1943403727148N12151858WA0051200523022003035184203
B1943413727145N12151863WA0051600524022003037233216
B1943423727143N12151869WA0051600524022003035261262
B1943433727145N12151875WA0051900525022003037298288
B1943443727149N12151880WA0052100526022003042330317
B1943453727155N12151880WA0052300528022003044010340
B1943463727160N12151877WA0052300530022003046017014
B1943473727164N12151874WA0052500532022003044027020
B1943483727157N12151861WA0052700529022003046119027
B1943493727154N12151854WA0052900530022003047117121
B1943503727148N12151852WA0052900538022003035148119
B1943513727145N12151850WA0053100541022003035165161
B1943523727142N12151849WA0053400544022003022173181
B1943533727138N12151849WA0053700545022003022186201
B1943543727133N12151851WA0053700546022003025201220
B1943553727129N12151855WA0053900550022003038223244
B1943563727128N12151861WA0054200552004003038259260
B1943573727129N12151866WA0054500553004003038300291
B1943583727131N12151870WA0054500557004003033318319
B1943593727135N12151872WA0054800562004003033335332
B1944003727139N12151862WA0055100564004003050063347
B1944013727140N12151859WA0055300566004003050087066
B1944023727140N12151854WA0055300568004003030099095
B1944033727141N12151848WA0055600570004003026089109
B1944043727141N12151843WA0056000571004003026099111
B1944053727138N12151837WA0056300571004003038119124
B1944063727134N12151832WA0056300571004003043140143
B1944073727129N12151828WA0056500575004003042153167
B1944083727125N12151826WA0056800579004003042167175
B1944093727121N12151826WA0057000582004003031195189
B1944103727117N12151828WA0057000582004003029215217
B1944113727114N12151832WA0057300583004003033215232
B1944123727111N12151837WA0057600585004003033231233
B1944143727109N12151842WA0057800587004003033244248
B1944153727113N12151847WA0057800590004003036322260
B1944163727117N12151848WA0058100591004003036002322
B1944183727126N12151844WA0058800598004003034022030
B1944193727130N12151840WA0058800601004003033042028
B1944203727133N12151837WA0059100603004003030047049
B1944213727134N12151831WA0059400604004003032065053
B1944223727134N12151824WA0059700604004003032082073
B1944233727132N12151815WA0059700605004003039110090
B1944243727130N12151808WA0060000608004003040113123
B1944253727126N12151803WA0060200611004003035139128
B1944263727122N12151800WA0060500613004003037160154
B1944273727117N12151798WA0060500614004003037165173
B1944283727111N12151803WA0060800614004003037213181
B1944293727107N12151808WA0061000617004003042240223
B1944303727107N12151819WA0061200625004003034277281
B1944313727111N12151821WA0061400625004003030343282
B1944323727114N12151822WA0061600627004003028355342
B1944333727118N12151823WA0061900630004003027003356
B1944343727121N12151821WA0061900631004003029028004
B1944353727124N12151816WA0062100632004003034061028
B1944363727126N12151810WA0062400631004003034065062
B1944373727124N12151802WA0062700632004003036107066
B1944383727123N12151794WA0062700633004003044103110
B1944393727120N12151790WA0062900636004003033120108
B1944403727116N12151787WA0063100637004003033159124
B1944413727111N12151784WA0063300638004003033152167
B1944423727105N12151784WA0063300635004003033186161
B1944433727099N12151786WA0063500633004003041194196
B1944443727095N12151790WA0063600633004003031204204
B1944453727092N12151799WA0063700637004003046238216
B1944463727095N12151806WA0063700641004003040304246
B1944473727097N12151811WA0063800646004003040293309
B1944483727098N12151815WA0063800648004003024285304
B1944493727099N12151819WA0064000651004003018299298
B1944503727102N12151821WA0064000651004003021317310
B1944513727105N12151824WA0064200651004003021332326
B1944523727109N12151825WA0064500655004003026339340
B1944533727115N12151822WA0064800656004003029024347
B1944543727118N12151818WA0064800658004003036055025
B1944553727120N12151812WA0065100659004003036088055
B1944563727119N12151806WA0065300658004003036118087
B1944573727116N12151799WA0065500657004003040123118
B1944583727111N12151796WA0065500658004003041156124
B1944593727106N12151793WA0065600659004003036165160
B1945003727102N12151793WA0065700658004003036185170
B1945013727096N12151796WA0065800658004003036208191
B1945023727093N12151801WA0065800658004003040232216
B1945033727088N12151805WA0065900659004003040221240
B1945043727091N12151814WA0065900662004003042262230
B1945053727093N12151819WA0066000668004003042302269
B1945063727094N12151824WA0066000672004003034307308
B1945073727097N12151826WA0066100674004003023330312
B1945083727100N12151826WA0066300675004003023344337
B1945093727104N12151826WA0066600675004003030005348
B1945103727109N12151825WA0066900677004003032011007
B1945113727112N12151821WA0066900679004003032036013
B1945123727114N12151815WA0067200680004003033060035
B1945133727111N12151808WA0067400682004003033119057
B1945143727109N12151802WA0067700683004003036115118
B1945153727104N12151799WA0067700682004003039159114
B1945163727099N12151797WA0067800681004003037164164
B1945173727094N12151796WA0068000682004003039177175
B1945183727087N12151796WA0068100682004003039188197
B1945193727082N12151800WA0068100684004003042220207
B1945203727078N12151806WA0068200686004003042236238
B1945213727076N12151811WA0068200687004003039236251
B1945223727075N12151815WA0068300692004003035243260
B1945233727073N12151818WA0068300693004003023236265
B1945243727072N12151822WA0068500695004003019248263
B1945253727073N12151827WA0068700693004003025281275
B1945263727074N12151831WA0069000693004003025298304
B1945273727078N12151835WA0069000694004003034331319
B1945283727082N12151836WA0069200696004003034004348
B1945293727086N12151833WA0069400697004003034041014
B1945303727088N12151828WA0069400698004003036073044
B1945313727088N12151822WA0069600699004003036093073
B1945323727087N12151815WA0069700703004003038111093
B1945333727085N12151810WA0069800707004003038132114
B1945343727081N12151807WA0069800709004003030153134
B1945353727077N12151804WA0069900710004003031166161
B1945363727073N12151802WA0070200712004003031163174
B1945373727067N12151804WA0070400713004003033197186
B1945383727062N12151807WA0070400714004003040211218
B1945393727058N12151811WA0070700715004003033230231
B1945403727056N12151816WA0070900716004003033255249
B1945413727056N12151822WA0071100716004003032275269
B1945423727056N12151827WA0071300717004003029278290
B1945433727057N12151832WA0071300718004003027288293
B1945443727060N12151835WA0071400717004003026306302
B1945453727063N12151837WA0071600717004003027341318
B1945463727068N12151837WA0071700718004003027359346
B1945473727071N12151835WA0071700717004003029029000
B1945483727075N12151832WA0071700716004003029040032
B1945493727078N12151829WA0071800717004003032038040
B1945503727082N12151825WA0071800718004003033041043
B1945513727085N12151821WA0071800723004003032045051
B1945523727087N12151818WA0071800725004003025047057
B1945533727088N12151814WA0071900727004003024071060
B1945543727089N12151812WA0072000728004003018070084
B1945553727088N12151806WA0072000726004003033110082
B1945563727086N12151801WA0072200724004003033126123
B1945573727081N12151797WA0072300724004003037151141
B1945583727077N12151793WA0072500724004003037144168
B1945593727071N12151794WA0072500724004003040169168
B1946003727064N12151800WA0072600724004003047198190
B1946013727064N12151811WA0072600727004003047246219
B1946023727063N12151818WA0072600730004003047264260
B1946033727064N12151824WA0072600730004003040277276
B1946043727066N12151827WA0072600732004003022319290
B1946053727070N12151828WA0072600731004003024352325
B1946063727073N12151829WA0072700732004003022341353
B1946073727076N12151831WA0072700731004003022335347
B1946083727079N12151833WA0072800733004003022329350
B1946093727082N12151835WA0073000732004003024330353
B1946103727085N12151836WA0073100733004003024355353
B1946113727088N12151835WA0073100731004003024023013
B1946123727091N12151832WA0073100732004003024056032
B1946133727091N12151827WA0073200732004003029086059
B1946143727090N12151821WA0073200732004003034109091
B1946153727088N12151816WA0073200733004003039136115
B1946163727083N12151813WA0073200733004003039161141
B1946173727077N12151811WA0073200732004003041165167
B1946183727071N12151814WA0073300733004003042204173
B1946193727066N12151817WA0073300734004003039213215
B1946203727062N12151820WA0073300735004003039210230
B1946213727058N12151826WA0073300735004003037224233
B1946223727056N12151831WA0073400734004003037235246
B1946233727055N12151837WA0073400733004003031255256
B1946243727054N12151842WA0073400733004003032273276
B1946253727055N12151847WA0073400733004003031277292
B1946263727059N12151850WA0073400733004003031330297
B1946273727063N12151851WA0073400733004003029358341
B1946283727066N12151850WA0073400734004004026014003
B1946293727066N12151838WA0073300728004003057088016
B1946303727067N12151831WA0073200728004003041098089
B1946313727064N12151824WA0073200729004003042124097
B1946323727062N12151818WA0073000729004003035121106
B1946333727060N12151812WA0072800728004003035112096
B1946343727060N12151805WA0072700727004003035091092
B1946353727059N12151798WA0072700726004003035094087
B1946363727058N12151791WA0072700726004003037107097
B1946373727054N12151783WA0072600724004003046115117
B1946383727050N12151777WA0072600725004003049133123
B1946393727045N12151770WA0072600727004003046132117
B1946403727041N12151764WA0072600730004003045130107
B1946413727038N12151757WA0072600733004003043126119
B1946423727034N12151753WA0072600733004003033135102
B1946433727030N12151748WA0072600734004003036137113
B1946443727026N12151744WA0072700733004003036138110
B1946453727022N12151739WA0072800732004003037134105
B1946463727018N12151732WA0072900731004003038129112
B1946473727014N12151725WA0072900732004003048124104
B1946483727010N12151718WA0073000733004003048123097
B1946493727008N12151711WA0073100736004003045116095
B1946503727005N12151705WA0073100737004003037113101
B1946513727003N12151699WA0073100737004003037112083
B1946523727000N12151692WA0073100738004003041116097
B1946533726997N12151684WA0073200738004003048120098
B1946543726994N12151677WA0073300738004003045117092
B1946553726992N12151669WA0073300740004003045108089
B1946563726989N12151662WA0073400742004003043109078
B1946573726988N12151655WA0073500743004003040106087
B1946583726987N12151648WA0073700745004003040094101
B1946593726986N12151642WA0073700746004003033094097
B1947003726986N12151636WA0073800748004003033095105
B1947013726985N12151630WA0074000748004003033104106
B1947023726983N12151623WA0074200750004003042111122
B1947033726981N12151616WA0074200753004003042110145
B1947043726975N12151612WA0074400752004003042151161
B1947053726969N12151608WA0074600752004003042151180
B1947063726962N12151608WA0074800752004003047171194
B1947073726956N12151612WA0074800753004003043193208
B1947083726954N12151617WA0074900754004003043248227
B1947093726954N12151621WA0075000755004003035273272
B1947103726954N12151624WA0075100756004003026293292
B1947113726955N12151627WA0075100756004003016311313
B1947123726957N12151628WA0075200756004003021349333
B1947133726960N12151629WA0075300756004003025004003
B1947143726965N12151629WA0075400757004003025358012
B1947153726969N12151624WA0075400757004003027040006
B1947163726972N12151620WA0075500758004003032042040
B1947173726976N12151617WA0075600759004003028039045
B1947183726978N12151613WA0075600761004003029050048
B1947193726981N12151608WA0075600761004003029066060
B1947203726982N12151602WA0075700762004003032078080
B1947213726983N12151596WA0075800764004003034090077
B1947223726981N12151589WA0075900763004003036106095
B1947233726980N12151582WA0075900763004003036099107
B1947243726977N12151575WA0076000762004003036114119
B1947253726973N12151569WA0076100761004003042134130
B1947263726968N12151563WA0076200761004003046137153
B1947273726961N12151561WA0076200763004003048168162
B1947283726955N12151559WA0076200764004003048164188
B1947293726950N12151561WA0076300766004003044182186
B1947303726947N12151564WA0076300767004003034207204
B1947313726945N12151567WA0076300767004003025247228
B1947323726943N12151572WA0076400767004003028249268
B1947333726944N12151577WA0076400767004003029281270
B1947343726946N12151581WA0076500768004003028312301
B1947353726948N12151583WA0076500768004003023333326
B1947363726953N12151582WA0076600768004003023014342
B1947373726956N12151582WA0076700768004003026007016
B1947383726960N12151579WA0076700772004003029024014
B1947393726963N12151576WA0076700774004003026051029
B1947403726966N12151572WA0076700776004003029057053
B1947413726967N12151566WA0076800775004003029074060
B1947423726968N12151560WA0076900775004003035086076
B1947433726968N12151553WA0076900774004003035084077
B1947443726967N12151546WA0077000774004003035100086
B1947453726966N12151539WA0077100774004003039107091
B1947463726964N12151533WA0077200775004003039111092
B1947473726962N12151525WA0077200775004003042105106
B1947483726961N12151518WA0077200779004003042103115
B1947493726957N12151513WA0077200780004003038117128
B1947503726954N12151507WA0077300781004003038132139
B1947513726950N12151503WA0077300782004003037142150
B1947523726945N12151500WA0077400781004003035147163
B1947533726940N12151499WA0077500780004003039168166
B1947543726934N12151499WA0077700780004003038177184
B1947553726929N12151500WA0077700782004003038184195
B1947563726925N12151503WA0077800784004003033209197
B1947573726921N12151505WA0077900784004003025207227
B1947583726918N12151507WA0078000785004003028213228
B1947593726914N12151509WA0078000783004003025210232
B1948003726913N12151515WA0078100785004003028247232
B1948013726911N12151520WA0078200785004003025256269
B1948023726912N12151524WA0078300787004003024293278
B1948033726915N12151526WA0078300785004003024330310
B1948043726918N12151528WA0078400785004003024344340
B1948053726922N12151526WA0078500785004003025021349
B1948063726925N12151526WA0078500786004003025014019
B1948073726928N12151521WA0078500786004003033042014
B1948083726930N12151515WA0078500786004003033072037
B1948093726931N12151510WA0078600786004003033078066
B1948103726933N12151504WA0078600785004003034079074
B1948113726933N12151495WA0078600784004003035088081
B1948123726932N12151487WA0078600784004003043094086
B1948133726930N12151479WA0078500787004003043109096
B1948143726928N12151473WA0078500788004003043116111
B1948153726926N12151466WA0078500789004003037118117
B1948163726923N12151460WA0078500789004003035123131
B1948173726919N12151455WA0078500789004003040132135
B1948183726915N12151450WA0078600788004003040139143
B1948193726907N12151447WA0078600788004003040163153
B1948203726902N12151444WA0078600787004003044162176
B1948213726896N12151445WA0078700787004003044176174
B1948223726890N12151446WA0078700787004003031194189
B1948233726886N12151448WA0078700787004003033204208
B1948243726881N12151450WA0078700786004003033204220
B1948253726879N12151455WA0078700787004003033223222
B1948263726877N12151459WA0078700789004003026260241
B1948273726877N12151463WA0078700790004003026290279
B1948283726878N12151466WA0078700791004003022314304
B1948293726880N12151467WA0078700793004003016344324
B1948303726882N12151469WA0078800793004003016346350
B1948313726885N12151467WA0078800793004003023022356
B1948323726888N12151465WA0078900793004003026035025
B1948333726890N12151461WA0079100793004003026060034
B1948343726892N12151455WA0079200793004003030067058
B1948353726892N12151449WA0079200791004003035088065
B1948363726889N12151441WA0079200791004003046107083
B1948373726886N12151434WA0079300793004003046126107
B1948383726882N12151427WA0079300794004003046125130
B1948393726876N12151423WA0079300796004003045152132
B1948403726870N12151420WA0079300797004003041162160
B1948413726864N12151418WA0079300798004003041161170
B1948423726858N12151420WA0079400798004003041183170
B1948433726852N12151422WA0079400799004003041203196
B1948443726848N12151425WA0079500800004003040214217
B1948453726845N12151428WA0079600802004003027220229
B1948463726844N12151433WA0079700803004003028249241
B1948473726843N12151437WA0079700804004003027271267
B1948483726844N12151440WA0079800804004003021283287
B1948493726844N12151442WA0079900804004003017308300
B1948503726846N12151444WA0080100804004003012330323
B1948513726846N12151446WA0080100805004003015270342
B1948523726850N12151446WA0080200803004003015005312
B1948533726853N12151444WA0080300802004003022027009
B1948543726856N12151441WA0080300802004003025046025
B1948553726858N12151437WA0080300803004003030067040
B1948563726859N12151432WA0080300803004003030078059
B1948573726860N12151427WA0080300804004003028084071
B1948583726861N12151422WA0080300804004003028084073
B1948593726859N12151414WA0080300802004003031096088
B1949003726858N12151406WA0080300802004003045109103
B1949013726855N12151398WA0080300803004003049116116
B1949023726851N12151391WA0080300805004003046120133
B1949033726848N12151383WA0080300804004003048116146
B1949043726842N12151381WA0080300805004003046146148
B1949053726836N12151379WA0080300804004003043168165
B1949063726829N12151378WA0080400804004003047170186
B1949073726823N12151378WA0080400804004003047178190
B1949083726817N12151379WA0080400804004003047190201
B1949093726811N12151381WA0080400805004003039198210
B1949103726806N12151384WA0080500805004003036204219
B1949113726802N12151387WA0080500805004003036217228
B1949123726799N12151391WA0080500805004003033231240
B1949133726797N12151395WA0080400806004003028237255
B1949143726798N12151399WA0080400803004003027292265
B1949153726799N12151401WA0080400803004003020333309
B1949163726801N12151403WA0080500803004003020346339
B1949173726804N12151398WA0080500803004003020049348
B1949183726807N12151395WA0080400804004003030060032
B1949193726809N12151390WA0080400805004003030061047
B1949203726811N12151386WA0080400806004003027071051
B1949213726813N12151380WA0080400806004003030069062
B1949223726813N12151374WA0080400805004003030090068
B1949233726813N12151368WA0080400806004003036093075
B1949243726813N12151362WA0080500806004003036093072
B1949253726813N12151355WA0080500807004003035092079
B1949263726812N12151348WA0080500808004003038096091
B1949273726810N12151340WA0080500807004003038102112
B1949283726807N12151333WA0080600808004003042124126
B1949293726801N12151326WA0080600808004003050139137
B1949303726795N12151321WA0080700809004003051153157
B1949313726789N12151318WA0080700810004003051157172
B1949323726783N12151317WA0080700812004003045177176
B1949333726777N12151317WA0080800813004003042190195
B1949343726772N12151318WA0080900812004003037193209
B1949353726767N12151319WA0080900812004003034195213
B1949363726762N12151322WA0081000812004003034200217
B1949373726758N12151325WA0081000811004003034215223
B1949383726756N12151330WA0081100810004003032242238
B1949393726755N12151334WA0081100809004003030269266
B1949403726756N12151338WA0081100810004003020294289
B1949413726757N12151341WA0081100810004003020307311
B1949423726759N12151342WA0081000810004003017002321
B1949433726761N12151342WA0081000811004003016002357
B1949443726764N12151341WA0081000810004003016024004
B1949453726766N12151339WA0081000810004003023036019
B1949463726769N12151335WA0081000810004003028054036
B1949473726771N12151330WA0081000808004003028073050
B1949483726772N12151324WA0081000807004003035074066
B1949493726772N12151316WA0081000807004003035085075
B1949503726771N12151309WA0080900806004003041095073
B1949513726770N12151301WA0080900806004003041102079
B1949523726769N12151294WA0080900805004003040098082
B1949533726768N12151287WA0080800804004003039097083
B1949543726767N12151280WA0080700802004003039102088
B1949553726765N12151272WA0080700803004003045108095
B1949563726763N12151264WA0080600802004003047113103
B1949573726760N12151257WA0080500803004003045120091
B1949583726756N12151250WA0080400804004003043124093
B1949593726754N12151244WA0080400804004003038122091
B1950003726751N12151238WA0080300804004003036119108
B1950013726748N12151231WA0080300803004003045114099
B1950023726744N12151224WA0080300802004003045119103
B1950033726741N12151217WA0080300803004003045125113
B1950043726737N12151210WA0080300804004003045131142
B1950053726732N12151204WA0080400806004003045135155
B1950063726727N12151199WA0080400807004003045140166
B1950073726720N12151197WA0080400807004003045160177
B1950083726713N12151198WA0080500809004003047188196
B1950093726708N12151200WA0080500811004003047211219
B1950103726704N12151204WA0080600811004003031232241
B1950113726702N12151208WA0080600812004003031243264
B1950123726700N12151212WA0080800814004003026246274
B1950133726700N12151215WA0080900813004003023292279
B1950143726702N12151217WA0081000813004003017315317
B1950153726703N12151219WA0081000813004003018336331
B1950163726706N12151220WA0081100814004003018351344
B1950173726708N12151220WA0081200813004003017358000
B1950183726711N12151219WA0081200812004003017018006
B1950193726714N12151219WA0081200811004003017019022
B1950203726716N12151216WA0081300810004003026040031
B1950213726718N12151212WA0081300810004003028053043
B1950223726718N12151205WA0081200808004003028092050
B1950233726718N12151198WA0081200808004003039100079
B1950243726717N12151192WA0081100809004003039107088
B1950253726715N12151186WA0081100810004003033109089
B1950263726714N12151180WA0081000810004003033112092
B1950273726711N12151175WA0081000806004003033117101
B1950283726708N12151167WA0081000803004003039119102
B1950293726704N12151159WA0080900801004003048119093
B1950303726701N12151152WA0080800802004003044118081
B1950313726698N12151146WA0080800801004003044117089
B1950323726696N12151140WA0080700801004003037114109
B1950333726694N12151132WA0080500800004003037113102
B1950343726691N12151124WA0080400801004003051116112
B1950353726687N12151116WA0080400802004003051120114
B1950363726684N12151110WA0080300802004003046123112
B1950373726681N12151104WA0080200803004003040125124
B1950383726676N12151097WA0080200800004003045134126
B1950393726671N12151091WA0080200798004003047133138
B1950403726666N12151085WA0080100797004003047137150
B1950413726660N12151078WA0080100794004003051139147
B1950423726654N12151073WA0080000793004003051142139
B1950433726648N12151068WA0080000792004003048142133
B1950443726643N12151062WA0079800790004003048142135
B1950453726637N12151057WA0079600787004003048143131
B1950463726631N12151052WA0079300785004003048145139
B1950473726624N12151046WA0079300783004003049143145
B1950483726618N12151039WA0079100780004003053138123
B1950493726613N12151032WA0078800777004003053135124
B1950503726609N12151024WA0078600777004003051121127
B1950513726604N12151017WA0078600774004003050130133
B1950523726600N12151011WA0078400772004003048134138
B1950533726594N12151006WA0078100767004003049143144
B1950543726588N12150999WA0077800765004003051141143
B1950553726581N12150994WA0077800763004003051147139
B1950563726574N12150989WA0077400761004003051148151
B1950573726568N12150985WA0077100759004003051153153
B1950583726563N12150982WA0076800758004003041153151
B1950593726557N12150978WA0076800756004003044154156
B1951003726551N12150974WA0076500753004003044152158
B1951013726544N12150970WA0076200751004003046155161
B1951023726538N12150966WA0075900749004003047153159
B1951033726531N12150962WA0075900747004003049157160
B1951043726525N12150959WA0075600745004003049156158
B1951053726518N12150955WA0075300743004003047153158
B1951063726512N12150951WA0075000740004003047154155
B1951073726506N12150947WA0075000737004003046153163
B1951083726499N12150944WA0074700735004003050157162
B1951093726493N12150940WA0074400733004003050156168
B1951103726485N12150938WA0074100729004003049160179
B1951113726478N12150935WA0074100728004003049162167
B1951123726471N12150932WA0073800726004003051160157
B1951133726463N12150928WA0073500724004003054160161
B1951143726455N12150925WA0073200719004003056161159
B1951153726447N12150922WA0073200718004003056160157
B1951163726439N12150919WA0072800716004003056160162
B1951173726431N12150914WA0072500716004003056158167
B1951183726423N12150911WA0072200713004003053165172
B1951193726416N12150909WA0072200711004003054168172
B1951203726407N12150907WA0071900709004003054166168
B1951213726399N12150904WA0071600707004003056166167
B1951223726391N12150902WA0071400706004003057168171
B1951233726382N12150900WA0071400704004003056169176
B1951243726374N12150899WA0071100703004003056172169
B1951253726367N12150898WA0070900703004003053175175
B1951263726360N12150898WA0070700701004003049176176
B1951273726353N12150898WA0070700699004003048177176
B1951283726345N12150897WA0070500697004003049173171
B1951293726338N12150896WA0070300694004003049170173
B1951303726331N12150894WA0070100692004003049169176
B1951313726324N12150892WA0070100690004003048170175
B1951323726318N12150892WA0070000689004003048172171
B1951333726311N12150890WA0069700688004003047171169
B1951343726304N12150888WA0069500686004003047166166
B1951353726297N12150886WA0069500685004003047165163
B1951363726290N12150883WA0069200685004003048164162
B1951373726283N12150881WA0069000683004003048164161
B1951383726277N12150879WA0068800681004003046165166
B1951393726270N12150877WA0068800679004003048166164
B1951403726263N12150874WA0068600676004003048165165
B1951413726256N12150872WA0068400674004003048164168
B1951423726249N12150869WA0068100671004003049164167
B1951433726241N12150868WA0068100671004003051168162
B1951443726234N12150866WA0067900668004003051168164
B1951453726226N12150864WA0067600668004003050168168
B1951463726219N12150862WA0067400666004003049166166
B1951473726212N12150860WA0067400664004003048170168
B1951483726205N12150859WA0067100662004003049167162
B1951493726198N12150856WA0066900661004003050165159
B1951503726191N12150853WA0066600659004003050162167
B1951513726184N12150851WA0066600658004003050165169
B1951523726176N12150850WA0066400657004003050171174
B1951533726169N12150848WA0066200657004003046174170
B1951543726163N12150847WA0066000657004003046170161
B1951553726156N12150845WA0066000655004003045165163
B1951563726150N12150842WA0065900653022003045164165
B1951573726143N12150840WA0065800653022003046163160
B1951583726136N12150838WA0065700652022003047162155
B1951593726129N12150835WA0065700650022003048162159
B1952003726122N12150832WA0065500648022003048160158
B1952013726116N12150829WA0065400646022003048161158
B1952023726109N12150826WA0065200645022003048159154
B1952033726102N12150823WA0065200643022003049160154
B1952043726095N12150820WA0064900640022003049158157
B1952053726088N12150816WA0064700637022003049159160
B1952063726081N12150813WA0064400636022003048160159
B1952073726075N12150811WA0064400635022003048163160
B1952083726068N12150808WA0064200635022003047162164
B1952093726061N12150806WA0064000632022003047166165
B1952103726054N12150804WA0063800630022003047167163
B1952113726048N12150802WA0063800629022003047166164
B1952123726041N12150799WA0063600627022003048162165
B1952133726033N12150797WA0063400627022003048163164
B1952143726027N12150794WA0063200626022003048162166
B1952153726020N12150791WA0063200625022003047160159
B1952163726013N12150789WA0063000624022003047161156
B1952173726007N12150785WA0062900622022003047156156
B1952183726000N12150781WA0062700621022003049154152
B1952193725994N12150778WA0062700620022003049154155
B1952203725988N12150773WA0062500619022003048154155
B1952213725981N12150770WA0062300619022003048155158
B1952223725975N12150767WA0062200618022003046155155
B1952233725968N12150764WA0062200616022003043161153
B1952243725962N12150762WA0062000615022003043158158
B1952253725956N12150759WA0061900615022003043156148
B1952263725950N12150755WA0061800613022003043152144
B1952273725945N12150751WA0061800613022003043149144
B1952283725939N12150747WA0061600611022003044148147
B1952293725933N12150742WA0061500609022003047148142
B1952303725927N12150738WA0061400608022003047146143
B1952313725921N12150733WA0061400607022003047146146
B1952323725915N12150728WA0061300607022003047146145
B1952333725909N12150724WA0061100606022003046148145
B1952343725903N12150719WA0061000605022003048150149
B1952353725897N12150714WA0061000604022003048147140
B1952363725891N12150709WA0060800603022003048145147
B1952383725886N12150704WA0060700602022003044143145
B1952393725880N12150699WA0060600602004003046144146
B1952403725869N12150690WA0060500601004003046145150
B1952413725864N12150686WA0060300600004003041143154
B1952423725859N12150681WA0060300599004003041138142
B1952433725855N12150675WA0060300598004003045138144
B1952443725850N12150669WA0060200596004003045137143
B1952453725845N12150664WA0060000595004003046137142
B1952463725839N12150658WA0059900595004003047137138
B1952473725834N12150653WA0059900594004003044139144
B1952483725829N12150647WA0059700593004003044140143
B1952493725824N12150642WA0059600592004003044142133
B1952503725819N12150637WA0059400591004003043145151
B1952513725814N12150632WA0059400593004003043139139
B1952523725809N12150627WA0059200591004003047141159
B1952533725804N12150622WA0059100587004003047141139
B1952543725799N12150617WA0059000586004003040144150
B1952553725794N12150613WA0059000584004003040145134
B1952563725789N12150609WA0058900580004003040146130
B1952573725784N12150603WA0058700578004003041139122
B1952583725779N12150599WA0058500574004003041138144
B1952593725775N12150595WA0058500572004003038140151
B1953003725770N12150591WA0058200569004003038143145
B1953013725765N12150587WA0057900566004003039148148
B1953023725760N12150581WA0057600562004003044143140
B1953033725755N12150577WA0057600559004003044142144
B1953043725750N12150572WA0057200556004003042141143
B1953053725746N12150568WA0056800553004003039147150
B1953063725740N12150564WA0056500549004003039150156
B1953073725735N12150560WA0056500546004003042151147
B1953083725729N12150556WA0056100544004003044150137
B1953093725724N12150552WA0055700542004003042144110
B1953103725721N12150546WA0055300539004003041132096
B1953113725720N12150537WA0055300534004003041104085
B1953123725721N12150528WA0054900531004003050075059
B1953133725722N12150521WA0054500528004003050079042
B1953143725725N12150515WA0054100528004003042068047
B1953153725729N12150513WA0054100526004003038049036
B1953163725731N12150509WA0053700524004003023049022
B1953173725733N12150505WA0053400519004003023055020
B1953183725736N12150502WA0053100516004004027037016
B1953193725741N12150500WA0053100513004003027015003
B1953203725745N12150499WA0052800511004003035015000
B1953213725749N12150497WA0052500510004003035018000
B1953223725753N12150495WA0052100509004003025016355
B1953233725757N12150494WA0052100506004003025013347
B1953243725761N12150494WA0051800502004003025352347
B1953253725765N12150495WA0051400498004003029356349
B1953263725770N12150495WA0051000493004003029355347
B1953273725776N12150496WA0050600490004003035354340
B1953283725781N12150496WA0050600489004003036353341
B1953293725785N12150497WA0050200487004003035351355
B1953303725790N12150498WA0049800485004003031351340
B1953313725795N12150498WA0049500482004003030357002
B1953323725800N12150498WA0049500479004003033357350
B1953333725805N12150499WA0049100477004003034356345
B1953343725810N12150500WA0048800475004003034348331
B1953353725815N12150501WA0048800472004003034346336
B1953363725819N12150502WA0048600470004003033348339
B1953373725824N12150504WA0048300468004003032351334
B1953383725829N12150505WA0048000466004003032345321
B1953393725833N12150506WA0048000464004003030343321
B1953403725836N12150508WA0047600462004003027338323
B1953413725840N12150510WA0047300461004003026340318
B1953423725844N12150511WA0047000459004003028337320
B1953433725848N12150514WA0047000457004003029332324
B1953443725852N12150516WA0046800456004003029335331
B1953453725855N12150518WA0046600454004003029339320
B1953463725860N12150519WA0046400453004003029341328
B1953473725863N12150521WA0046400451004003026340317
B1953483725867N12150523WA0046200448004003027333318
B1953493725870N12150527WA0046000448004003027315316
B1953503725873N12150529WA0045700445004003027328315
B1953513725877N12150531WA0045700443004003025336318
B1953523725881N12150533WA0045500440004003028337320
B1953533725885N12150535WA0045200439004003028337317
B1953543725889N12150537WA0044800437004003028334314
B1953553725892N12150539WA0044800435004003027327310
B1953563725895N12150542WA0044500433004003024316316
B1953573725898N12150545WA0044200431004003025311313
B1953583725900N12150547WA0043900428004003025331316
B1953593725903N12150549WA0043600426004003024328308
B1954003725906N12150552WA0043600422004003024331315
B1954013725909N12150555WA0043300420004003025318321
B1954023725912N12150560WA0043000420004003031306308
B1954033725915N12150564WA0042700422004003031306254
B1954043725916N12150567WA0042700426004003025309307
B1954053725918N12150569WA0042400428004003019308303
B1954063725919N12150571WA0042400429004003010282281
B1954073725919N12150573WA0042400429004003013268277
B1954083725918N12150576WA0042400429004003016261266
B1954093725916N12150581WA0042500428004003016235250
B1954103725913N12150584WA0042700428004003030210229
B1954113725908N12150585WA0042900429004003035183203
B1954123725903N12150586WA0042900429004003034183177
B1954133725899N12150581WA0043000424004003035152175
B1954143725897N12150568WA0043000421004003035108142
B1954153725894N12150561WA0042900419004003046108089
B1954163725896N12150551WA0042900417004004054091090
B1954173725905N12150550WA0042800420004003053359071
B1954183725909N12150549WA0042700422004003053353339
B1954193725912N12150548WA0042600423004003028350331
B1954203725915N12150548WA0042600423004003018354325
B1954213725918N12150548WA0042500421004003018348316
B1954223725922N12150549WA0042500422004003027344306
B1954233725926N12150549WA0042500424004003027344321
B1954243725928N12150551WA0042500424004003022332306
B1954253725930N12150551WA0042500422004003011327307
B1954263725932N12150553WA0042500419004003011325302
B1954273725934N12150555WA0042500415004003024313313
B1954283725936N12150559WA0042500413004003027304296
B1954293725938N12150562WA0042400412004003024303313
B1954303725940N12150566WA0042200412004003023306308
B1954313725942N12150568WA0042000411004003022322311
B1954323725944N12150569WA0042000409004003016341315
B1954333725947N12150571WA0041700406004003019321314
B1954343725949N12150573WA0041400405004003019325318
B1954353725953N12150575WA0041100403004003021337316
B1954363725956N12150577WA0041100402004003021337305
B1954373725958N12150579WA0040900401004003021322306
B1954383725961N12150581WA0040800398004003021311305
B1954393725963N12150584WA0040600394004003021303315
B1954403725966N12150588WA0040600391004003025316317
B1954413725969N12150592WA0040300390004003029321320
B1954423725972N12150594WA0040000387004003026329319
B1954433725975N12150597WA0039600385004003026325312
B1954443725978N12150600WA0039600383004003024321316
B1954453725981N12150602WA0039300380004003024326322
B1954463725985N12150605WA0039000377004003029329321
B1954473725988N12150608WA0038700375004003032325321
B1954483725992N12150611WA0038700373004003032324321
B1954493725996N12150615WA0038400371004003032325323
B1954503726000N12150618WA0038200371004003028328331
B1954513726004N12150620WA0037900370004003028333324
B1954523726008N12150623WA0037900369004003028332330
B1954533726012N12150625WA0037700367004003029331328
B1954543726016N12150628WA0037400367004003029330327
B1954553726018N12150630WA0037200366004003025332324
B1954563726022N12150632WA0037200364004003025340313
B1954573726026N12150633WA0037100364004003025353327
B1954583726031N12150635WA0037000362004003029345312
B1954593726036N12150637WA0036900361004003033335300
B1955003726040N12150639WA0036900361004003031332305
B1955013726043N12150643WA0036800363004003031324297
B1955023726046N12150645WA0036700363004003026328301
B1955033726048N12150647WA0036700362004003018324312
B1955043726051N12150650WA0036700362004003018315300
B1955053726053N12150653WA0036600362004003025305303
B1955063726055N12150655WA0036600363004003025312312
B1955073726057N12150658WA0036600363004003016322319
B1955083726059N12150659WA0036600362004003016335310
B1955093726062N12150661WA0036600361004003017325313
B1955103726063N12150663WA0036600362004003017316293
B1955113726065N12150664WA0036600363004003017325304
B1955123726066N12150666WA0036600363004003011328304
B1955133726067N12150667WA0036600361004003010334302
B1955143726069N12150668WA0036600359004003010324302
B1955153726071N12150670WA0036600358004003019323311
B1955163726073N12150672WA0036600358004003019314327
B1955173726076N12150671WA0036500356004003019006330
B1955183726079N12150672WA0036500356004003023002331
B1955193726083N12150672WA0036400356004003023357321
B1955203726085N12150673WA0036400357004003019340319
B1955213726088N12150673WA0036200359004003019342325
B1955223726089N12150675WA0036100360004003016308317
B1955233726091N12150677WA0036100360004003016304320
B1955243726093N12150679WA0036100360004003016325319
B1955253726095N12150681WA0036100358004003019311320
B1955263726097N12150679WA0036100357004003019028310
B1955273726099N12150680WA0036100356004003017351318
B1955283726100N12150680WA0036100356004003014325293
B1955293726099N12150684WA0036100355004003014250269
B1955303726099N12150687WA0036100355004003021238245
B1955313726096N12150689WA0036100356004003027203229
B1955323726092N12150690WA0036100357004003026182219
B1955333726089N12150690WA0036000358004003026161207
B1955343726085N12150688WA0036000356004003026157196
B1955353726081N12150687WA0036000355004003033168196
B1955363726075N12150687WA0036000353004003038180203
B1955373726071N12150687WA0036000353004003034189214
B1955383726067N12150689WA0035900353004003034206239
B1955393726064N12150692WA0035900352004003028226262
B1955403726061N12150694WA0035900349004003019207284
B1955413726063N12150699WA0035800349004003027304291
B1955423726065N12150700WA0035600348004003025347329
B1955433726068N12150699WA0035500348004003027025348
B1955443726070N12150696WA0035500348004003028055012
B1955453726072N12150691WA0035400348004003028070016
B1955463726074N12150688WA0035300347004003028063023
B1955473726076N12150685WA0035200344004003025037016
B1955483726079N12150684WA0035200342004003020009353
B1955493726082N12150683WA0035200340004003019004333
B1955503726084N12150684WA0035000340004003013328325
B1955513726084N12150685WA0034900341004003013347293
B1955523726084N12150684WA0034900340004003004347241
B1955533726084N12150684WA0034700340004003001347256
B1955543726084N12150685WA0034500340004003000347260
B1955553726084N12150684WA0034400340004003003133001
B1955563726083N12150684WA0034400339004003004164271
B1955573726083N12150683WA0034300339004003003134274
B1955583726084N12150683WA0034300339004003001134290
B1955593726084N12150683WA0034300339004003000134296
B1956003726084N12150683WA0034300339004003000134301
B1956013726084N12150683WA0034300339004003000134305
B1956023726084N12150683WA0034300339004003000134309
B1956033726084N12150683WA0034300340004003000134312
B1956043726084N12150683WA0034300340004003000134315
B1956053726084N12150683WA0034300340004003000134317
B1956063726084N12150683WA0034300340004003000134331
B1956073726084N12150683WA0034300340004003000134321
B1956083726084N12150683WA0034300340004003000134322
B1956093726084N12150683WA0034300340004003000134324
B1956103726084N12150683WA0034300340004003000134325
B1956113726084N12150683WA0034300340004003000134326
B1956123726084N12150683WA0034300340004003000134327
B1956133726084N12150683WA0034300341004003000134328
B1956143726084N12150683WA0034300342004003000134329
B1956153726084N12150683WA0034300342004003000134329
B1956163726084N12150683WA0034300342004003000134330
B1956173726084N12150683WA0034300342004003000134331
B1956183726084N12150683WA0034300342004003000134331
B1956193726084N12150683WA0034300342004003000134332
B1956203726084N12150683WA0034300342004003000134332
B1956213726084N12150683WA0034300342004003000134332
B1956223726084N12150683WA0034300342004003000134333
B1956233726084N12150683WA0034300341004003000134334
B1956243726084N12150683WA0034300341004003000134334
B1956253726084N12150683WA0034300341004003000134334
B1956263726084N12150683WA0034300341004003000134334
B1956273726084N12150683WA0034300341004003000134335
GqHejA6y2MZfpGTV+1X1xO4FdMfwpI8O3RojAEwizCLca335/4SageAQjdyodEBXm
GTqkI4jnYTIfOsdh5LIGiN7YBFTBQKsTWP8BHtx69DCA7QOwfS2Dcg/BSUHmAWPNR
GaJT0CMuJsuta88as6IocHxFR+hvSl6W863UyVpwcKeM=

