AXFH000
HFDTE251025
HFPLTPILOT:Scott O’Brien
HFGTYGLIDERTYPE:Ozone Swift 6
HFDTM100GPSDATUM:WGS84
HFRFWFIRMWAREVERSION:9.3
HFRHWHARDWAREVERSION:iPhone 15
HFFTYFRTYPE:Flyskyhy,9.3
HFGPS:Internal
HFPRSVARIO:Internal Vario
HFCCLCOMPETITIONCLASS:Paraglider
HFTZNTIMEZONE:-7
HFSITSITE:Ed Levin 300ft,US
I053638FXA3941VXA4244GSP4547CCO4850HDT
C251025170414251025000100TASK
C0000000N00000000ETAKEOFF
C3731062N12153514W00000000000400000000360000STARTAREA 
C3726317N12149880W00000000000400000000360000FINISHAREA Big Dog Vineyards
C0000000N00000000ELANDING
E170442PEVBackground
B1704423727668N12151865WA0028900289022003000322003
B1704433727668N12151865WA0028900289022003000166358
B1704443727668N12151865WA0028900289022003001305301
B1704453727668N12151865WA0028900290022003001291240
B1704463727668N12151865WA0028900291022003005148249
B1704473727668N12151865WA0029000291022003005182264
B1704483727667N12151865WA0029000291022004002090234
B1704493727667N12151864WA0029000291022003002070235
B1704503727667N12151864WA0029000290022003000032230
B1704513727667N12151865WA0029000290022003002216228
B1704523727668N12151865WA0029000290022003002290229
B1704533727668N12151864WA0029000291022003002091226
B1704543727668N12151864WA0029000290022003001166228
B1704553727668N12151864WA0029000289022003001072229
B1704563727668N12151864WA0029000289022003000120230
B1704573727668N12151864WA0029000289022003001040227
B1704583727668N12151864WA0029000289022003000279235
B1704593727668N12151864WA0028900289022003001300232
B1705003727668N12151864WA0028900289022003000257230
B1705013727668N12151864WA0028900290022003000178219
B1705023727668N12151864WA0028900289022003001278222
B1705033727668N12151864WA0028900288022003001018222
B1705043727668N12151865WA0028900288022003001300222
B1705053727668N12151865WA0028900289022003001283222
B1705063727668N12151865WA0028900287022003000231244
B1705073727668N12151865WA0028900288022003001191257
B1705083727667N12151866WA0028800287022003001214250
B1705093727665N12151867WA0028800287022003010202231
B1705103727663N12151868WA0028800288022003015189317
B1705113727661N12151869WA0028800286004003014187047
B1705123727659N12151869WA0028700284004003014175193
B1705133727658N12151870WA0028600283004003013217013
B1705143727657N12151871WA0028600281004003011204000
B1705153727657N12151872WA0028500281004003006204000
B1705163727657N12151873WA0028400281004003002205000
B1705173727657N12151873WA0028300281004003002204359
B1705183727657N12151873WA0028300281004003002204000
B1705193727657N12151873WA0028300281004003001204004
B1705203727657N12151872WA0028200281004003002204014
B1705213727657N12151872WA0028200282004003002204359
B1705223727657N12151872WA0028200282004003000204358
B1705233727656N12151872WA0028200280004003001204010
B1705243727656N12151872WA0028200280004003000204010
B1705253727656N12151872WA0028200281004003000204012
B1705263727656N12151872WA0028200281004003000204020
B1705273727657N12151872WA0028200282004003000204015
B1705283727656N12151873WA0028200282004003001204009
B1705293727656N12151873WA0028200281004003000204009
B1705303727656N12151873WA0028200282004003000204009
B1705313727656N12151873WA0028200282004003000204005
B1705323727656N12151873WA0028200282004003001204359
B1705333727656N12151873WA0028200281004003000204001
B1705343727656N12151872WA0028200280004003001108002
B1705353727656N12151872WA0028200281004003000204005
B1705363727656N12151873WA0028200282004003000204007
B1705373727656N12151873WA0028200282004003001204007
B1705383727656N12151873WA0028200283004003000204359
B1705393727656N12151872WA0028200283004003001204350
B1705403727656N12151872WA0028200282004003001204000
B1705413727656N12151872WA0028200282004003000204003
B1705423727656N12151872WA0028200282004003000204357
B1705433727656N12151873WA0028200283004003000244357
B1705443727656N12151873WA0028200282004003001204034
Gco0WGt48XK3OtucVfCo11Wc5MeaF7DltQ1P7TtsIBgiaGE9dQyL5a5vSONUOH5M3
GogLM4SLCRRCBNVhJWMQ0NB4T74cIqgq2ytopL1thzGkvW/rw7LdZHI9YvnLVjYvO
GrzwKW1oYzXCj58MlTS4Ds6qb56z0gBDDYq8zVZ6idrM=

