AXFH000
HFDTE261024
HFPLTPILOT:Scott O’Brien
HFGTYGLIDERTYPE:Ozone Swift 6
HFDTM100GPSDATUM:WGS84
HFRFWFIRMWAREVERSION:8.2.5
HFRHWHARDWAREVERSION:iPhone 15
HFFTYFRTYPE:Flyskyhy,8.2.5
HFGPS:Internal
HFPRSVARIO:Internal Vario
HFCCLCOMPETITIONCLASS:Paraglider
HFTZNTIMEZONE:-7
HFSITSITE:Ed Levin 300ft,US
I053638FXA3941VXA4244GSP4547CCO4850HDT
C261024173828261024000105TASK
C0000000N00000000ETAKEOFF
C3832449N11204411W00000000001000000000360000STARTAREA T04
C3832449N11204411W00030009999999000000360000TURNAREA T04
C3833533N11148217W00000000002000000000360000TURNAREA P30
C3845304N11125100W00000000006000000000360000TURNAREA S08
C3913309N11109083W00000000002000000000360000TURNAREA F04
C3935774N11050460W00000000003000000000360000TURNAREA G14
C3935774N11050460W00000000000400000000360000FINISHAREA G14
C0000000N00000000ELANDING
E173857PEVBackground
B1738573727662N12151871WA0028300283004003000001231
B1738583727662N12151871WA0028300283004003001345232
B1738593727663N12151871WA0028300283004003000005232
B1739003727662N12151871WA0028300284004003000352233
B1739013727662N12151871WA0028300284004003000203233
B1739023727662N12151871WA0028300284004003000092235
B1739033727662N12151871WA0028400284004003000067235
B1739043727662N12151871WA0028400284004003000028230
B1739053727662N12151871WA0028400284004003000028235
B1739063727662N12151871WA0028400283004003000337231
B1739073727662N12151871WA0028400283004003000241238
B1739083727662N12151871WA0028400283004003001023217
B1739093727662N12151871WA0028300283004003001084236
B1739103727662N12151871WA0028300283004003001126233
B1739113727662N12151871WA0028300283004003001144236
B1739123727662N12151871WA0028300282004003001265250
B1739133727662N12151871WA0028300282004003001057235
B1739143727662N12151871WA0028300282004003001192245
B1739153727662N12151871WA0028300282004003001230243
B1739163727662N12151871WA0028300281004003001241353
B1739173727661N12151873WA0028200281004003014208275
B1739183727660N12151874WA0028200280004003014232331
B1739193727659N12151874WA0028200278004003011201306
B1739203727657N12151875WA0028100277004003011192181
B1739213727655N12151876WA0027900277004003013193358
B1739223727652N12151877WA0027900277004003023189212
B1739233727650N12151879WA0027800274004003023210189
B1739243727646N12151882WA0027600271004003023216212
B1739253727643N12151885WA0027400269004003028217225
B1739263727640N12151889WA0027100268004003029222229
B1739273727637N12151892WA0026900267004003026217228
B1739283727634N12151895WA0026700267004003026213244
B1739293727630N12151896WA0026500267004003026192268
B1739303727627N12151897WA0026400265004003025176279
B1739313727622N12151896WA0026300264004003026168294
B1739323727618N12151895WA0026300261004003028165301
B1739333727614N12151893WA0026200261004004028157310
B1739343727611N12151891WA0026000260004003028151319
B1739353727607N12151888WA0025900258004003026142324
B1739363727604N12151885WA0025800257004003026142331
B1739373727600N12151882WA0025700255004003034147336
B1739383727595N12151879WA0025600253004003036150340
B1739393727591N12151875WA0025600254004003034148016
B1739403727587N12151872WA0025500255004003034145347
B1739413727583N12151870WA0025300254004003028152349
B1739423727580N12151868WA0025200252004003026161351
B1739433727576N12151867WA0025200250004003030171353
B1739443727571N12151866WA0025100249004003030175354
B1739453727566N12151865WA0025000249004003032165355
B1739463727562N12151863WA0024900248004003032158356
B1739473727558N12151862WA0024800247004003026165356
B1739483727554N12151861WA0024700246004003026172357
B1739493727550N12151860WA0024500244004003026175358
B1739503727546N12151860WA0024400242004003028183358
B1739513727542N12151862WA0024300240004003030202359
B1739523727538N12151866WA0024200238004003033231359
B1739533727537N12151871WA0024000236004003034258359
B1739543727537N12151876WA0023800234004003033283359
B1739553727538N12151881WA0023500234004003032295359
B1739563727539N12151885WA0023500232004003028291359
B1739573727540N12151890WA0023300230004003025282359
B1739583727541N12151895WA0023200229004003029285359
B1739593727542N12151900WA0023000227004003029290359
B1740003727544N12151905WA0022900224004003029301359
B1740013727547N12151910WA0022700224004003030304359
B1740023727549N12151914WA0022600223004003030303359
B1740033727551N12151919WA0022400221004003030301359
B1740043727553N12151923WA0022300220004003027303359
B1740053727555N12151927WA0022200219004003027302359
B1740063727557N12151932WA0022000219004006026290359
B1740073727560N12151936WA0021900218004004031310359
B1740083727561N12151940WA0021800217004006026291359
B1740093727562N12151944WA0021600217005006026285359
B1740103727564N12151948WA0021500219005006021300359
B1740113727564N12151952WA0021500221005006025269359
B1740123727564N12151956WA0021400223004006023288359
B1740133727565N12151961WA0021400221005008023277359
B1740143727565N12151965WA0021400220004008025250359
B1740153727564N12151968WA0021300217005008025228359
B1740163727563N12151972WA0021300215006008025239359
B1740173727560N12151975WA0021200214007012023223359
B1740183727557N12151979WA0021000212009012027206359
B1740193727554N12151980WA0020900209010012027203359
B1740203727549N12151973WA0020700205009012030155000
B1740213727546N12151967WA0020600204008012030135000
B1740223727542N12151964WA0020400200007008030143000
B1740233727539N12151961WA0020300201008012028142359
B1740243727535N12151959WA0020200197009008026165359
B1740253727528N12151959WA0020000195008008036175359
B1740263727521N12151962WA0019800193009008032190359
B1740273727517N12151965WA0019700190007008032200359
B1740283727512N12151969WA0019500188008008031214359
B1740293727509N12151971WA0019300187006006024201359
B1740303727506N12151974WA0019300187006006027210359
B1740313727502N12151977WA0019200186006006027221359
B1740323727498N12151980WA0019100184006006033219359
B1740333727495N12151984WA0019000182006006033227359
B1740343727492N12151988WA0018800181005006026229359
B1740353727489N12151989WA0018700181004006026213359
B1740363727486N12151993WA0018600180004006026226359
B1740373727483N12151997WA0018500180004004030229359
B1740383727480N12152000WA0018400180004004030229359
B1740393727478N12152004WA0018300181004004023240359
B1740403727475N12152008WA0018300180004004027230359
B1740413727473N12152012WA0018200180004003025231359
B1740423727471N12152015WA0018100180004003025233359
B1740433727469N12152018WA0018000181004003023231359
B1740443727467N12152019WA0017900182004003011211359
B1740453727467N12152021WA0017800181004004011245001
B1740463727466N12152021WA0017800181004003008194006
B1740473727466N12152021WA0017800181004003005217000
B1740483727466N12152021WA0017800181004003001194000
B1740493727466N12152021WA0017800181004003002194000
B1740503727465N12152020WA0017800182004003007151000
B1740513727465N12152020WA0017800182004003006146000
B1740523727465N12152020WA0017800181004003006144000
B1740533727465N12152020WA0017800180004003003145356
B1740543727465N12152020WA0017800180004003005145000
B1740553727465N12152020WA0017800180022003005095358
B1740563727465N12152020WA0017800180022003000095358
B1740573727465N12152020WA0017800180022003000095358
B1740583727465N12152020WA0017800180022003001095359
B1740593727464N12152019WA0017800180022003006129357
B1741003727464N12152019WA0017800180022003006095355
B1741013727464N12152019WA0017800180022003000095355
B1741023727464N12152019WA0017800180022003000095356
B1741033727464N12152020WA0017800179022003000095003
B1741043727464N12152020WA0017800180022003003095357
B1741053727465N12152020WA0017800179022003003095011
B1741063727465N12152020WA0017800179022003002326000
B1741073727466N12152021WA0017800179022003002326000
B1741083727466N12152021WA0017800179022003000326000
B1741093727466N12152021WA0017800180022003000326000
B1741103727466N12152021WA0017800180022003000326000
B1741113727466N12152020WA0017800180022003000326000
B1741123727467N12152020WA0017800181022003000326000
B1741133727467N12152020WA0017800180022003000326000
B1741143727466N12152020WA0017800180022003000326000
B1741153727466N12152021WA0017800180022003000326000
B1741163727466N12152021WA0017800180022003000326000
B1741173727466N12152021WA0017800180022003001326000
B1741183727466N12152020WA0017800181022003000326003
B1741193727466N12152020WA0017800180022003000326004
B1741203727466N12152020WA0017800180022003000326006
B1741213727467N12152020WA0017800181022003000326007
B1741223727467N12152020WA0017800181022003000326013
B1741233727467N12152020WA0017800181022003000326020
B1741243727466N12152020WA0017800180022003002326039
B1741253727467N12152019WA0017800180022003002326000
B1741263727467N12152019WA0017800180022003002326000
B1741273727467N12152020WA0017800180022003002326000
B1741283727467N12152019WA0017800179022003000326000
B1741293727467N12152020WA0017800180022003001326000
B1741303727467N12152019WA0017800180022003001326002
B1741313727467N12152019WA0017800180022003001326357
GgFBaas8ovq8XmFeGa9ow5tH+TczJcFwIaq6kE3mOT3pbw8WoM/OojAVtpbzDckjm
GULQM5y/Fi4yek6lSdLcccSFbEt9d15INzdpCkc7aPnEI+0+cq8xE2FA1URpOYb9f
G0QX8XzmWQ1/fHiM7SR7gZ6BUisd3ni8prAgkNprfyfs=

