AXFH000
HFDTE080226
HFPLTPILOT:Scott O’Brien
HFGTYGLIDERTYPE:Ozone Swift 6
HFDTM100GPSDATUM:WGS84
HFRFWFIRMWAREVERSION:9.4
HFRHWHARDWAREVERSION:iPhone 15
HFFTYFRTYPE:Flyskyhy,9.4
HFGPS:Bluetooth vario
HFPRSVARIO:Bluetooth vario
HFCCLCOMPETITIONCLASS:Paraglider
HFTZNTIMEZONE:-6
HFSITSITE:Gravedad Cero, Tapalpa, Jalisco,MX
I053638FXA3941VXA4244GSP4547CCO4850HDT
C080226205505080226000100TASK
C0000000N00000000ETAKEOFF
C3731062N12153514W00000000000400000000360000STARTAREA 
C3726317N12149880W00000000000400000000360000FINISHAREA Big Dog Vineyards
C0000000N00000000ELANDING
B2055351956540N10339247WA0223702237001100000076282
B2055361956540N10339247WA0223702237001100000076283
B2055371956540N10339247WA0223702237001100000076282
B2055381956540N10339247WA0223702237001100000076282
B2055391956540N10339247WA0223702237001100000076283
B2055401956540N10339247WA0223702237001100000076272
B2055411956540N10339247WA0223702237001100000076250
B2055421956540N10339247WA0223702237001100000076251
B2055431956540N10339247WA0223702237001100000076252
B2055441956540N10339247WA0223702237001100000076255
B2055451956540N10339247WA0223702237001100000076266
B2055461956540N10339247WA0223702237001100000076287
B2055471956540N10339247WA0223702237001100000076283
B2055481956540N10339247WA0223702237001100000076286
B2055491956540N10339247WA0223702237001100000076281
B2055501956540N10339247WA0223702237001100000076278
B2055511956540N10339247WA0223702237001100000076290
B2055521956540N10339247WA0223702237001100000076310
B2055531956540N10339247WA0223702237001100000076357
B2055541956540N10339247WA0223602237001100000076230
B2055551956540N10339247WA0223602237001100000076281
B2055561956538N10339248WA0223702239001100002160049
B2055571956538N10339247WA0223702239001100002152234
B2055581956538N10339247WA0223502239001100002139290
B2055591956538N10339246WA0223402239001100004125234
B2056001956537N10339245WA0223502239001100007108193
B2056011956537N10339244WA0223502239001100007083235
B2056021956538N10339242WA0223302239001100010068145
B2056031956538N10339239WA0223102238001100016074223
B2056041956539N10339234WA0223002238001100022083189
B2056051956539N10339229WA0223102237001100027080165
B2056061956540N10339225WA0223102237001100029078122
B2056071956541N10339220WA0223202237001100028080154
B2056081956541N10339216WA0223302237001100024080155
B2056091956541N10339212WA0223402237001100020079139
B2056101956542N10339209WA0223602237001100019067081
B2056111956543N10339205WA0223702238001100020066071
B2056121956544N10339202WA0223702238001100021066070
B2056131956545N10339199WA0223602238001100017075070
B2056141956545N10339196WA0223602238001100012095077
B2056151956544N10339195WA0223502238001100012122092
B2056161956543N10339193WA0223402237001100013137112
B2056171956541N10339192WA0223302235001100015140124
B2056181956539N10339190WA0223102233001100018142126
B2056191956536N10339188WA0222902232001100019146133
B2056201956534N10339186WA0222802230001100021139137
B2056211956531N10339183WA0222702229001100024134136
B2056221956529N10339180WA0222602228001100028134138
B2056231956526N10339177WA0222602227001100027132137
B2056241956523N10339174WA0222802226001100028131140
B2056251956520N10339171WA0222802226001100023135140
B2056261956517N10339169WA0222902228001100023143138
B2056271956513N10339167WA0222902228001100024150142
B2056281956510N10339166WA0223102229001100021152149
B2056291956507N10339165WA0223202230001100018160148
B2056301956505N10339165WA0223302231001100012174153
B2056311956504N10339164WA0223402231001100012166166
B2056321956502N10339163WA0223202230001100016149147
B2056331956500N10339162WA0223302230001100020132146
B2056341956497N10339159WA0223302230001100021131145
B2056351956495N10339157WA0223302231001100019144143
B2056361956493N10339156WA0223302231001100018163149
B2056371956490N10339156WA0223202231001100018180160
B2056381956488N10339156WA0223202230001100018176170
B2056391956485N10339156WA0222902228001100016163165
B2056401956483N10339154WA0222702226001100017147158
B2056411956481N10339153WA0222602225001100018137143
B2056421956479N10339151WA0222502225001100020143138
B2056431956476N10339149WA0222402224001100021147141
B2056441956473N10339147WA0222302223001100021148144
B2056451956471N10339145WA0222302222001100019153142
B2056461956468N10339144WA0222302222001100018155145
B2056471956466N10339143WA0222302222001100018148145
B2056481956464N10339142WA0222402223001100017147140
B2056491956462N10339141WA0222502223001100014152138
B2056501956460N10339140WA0222502223001100012151140
B2056511956459N10339139WA0222502223001100012155137
B2056521956457N10339138WA0222402222001100015155139
B2056531956455N10339136WA0222402221001100017156141
B2056541956452N10339135WA0222402221001100019163144
B2056551956449N10339135WA0222402221001100019175150
B2056561956447N10339134WA0222402221001100019170159
B2056571956444N10339134WA0222302220001100021163153
B2056581956441N10339132WA0222302220001100023154149
B2056591956437N10339131WA0222302220001100025159154
B2057001956434N10339129WA0222302220001100026162155
B2057011956430N10339129WA0222502221001100022169157
B2057021956427N10339129WA0222702222001100020176147
B2057031956425N10339129WA0222702222001100016174146
B2057041956423N10339128WA0222602221001100016161143
B2057051956420N10339127WA0222502220001100018152145
B2057061956418N10339125WA0222302218001100021155153
B2057071956415N10339124WA0222302216001100021168159
B2057081956412N10339124WA0222202216001100023177145
B2057091956408N10339124WA0222102215001100023179142
B2057101956405N10339124WA0222102215001100022172138
B2057111956401N10339123WA0222102215001100021160151
B2057121956398N10339121WA0222202215001100021152162
B2057131956395N10339120WA0222302215001100021160165
B2057141956392N10339119WA0222202216001100024171146
B2057151956388N10339119WA0222302218001100028175156
B2057161956383N10339118WA0222702218001100027174174
B2057171956379N10339118WA0222902219001100026175164
B2057181956376N10339118WA0223202221001100024184170
B2057191956373N10339119WA0223502223001100021203178
B2057201956369N10339120WA0223502225001100023205158
B2057211956366N10339122WA0223502226001100026198147
B2057221956362N10339122WA0223602226001100027182144
B2057231956358N10339122WA0223602226001100024169120
B2057241956356N10339119WA0223602227001100022122112
B2057251956356N10339115WA0223702228001100024087085
B2057261956357N10339111WA0223702228001100023065060
B2057271956360N10339108WA0223602228001100022055047
B2057281956365N10339107WA0223602229001100022017041
B2057291956372N10339111WA0223702231001100030332013
B2057301956378N10339117WA0223802232001100034317333
B2057311956383N10339124WA0223802232001100039303320
B2057321956387N10339130WA0223902231001100044299310
B2057331956391N10339136WA0223902232001100044305317
B2057341956396N10339141WA0223702232001100040319328
B2057351956402N10339144WA0223802233001100039335345
B2057361956409N10339144WA0223602234001100040355005
B2057371956414N10339143WA0223602235001100035004023
B2057381956418N10339141WA0223602235001100027011033
B2057391956418N10339139WA0223502235001100015024041
B2057401956416N10339137WA0223702236001100000024059
B2057411956411N10339138WA0223702236001100015222057
B2057421956405N10339140WA0223702235001100024212183
B2057431956400N10339141WA0223602233001100028202186
B2057441956395N10339143WA0223602233001100031195179
B2057451956390N10339144WA0223602232001100026192174
B2057461956386N10339144WA0223802232001100020185170
B2057471956383N10339144WA0223902232001100018177161
B2057481956380N10339144WA0223802232001100020179150
B2057491956377N10339144WA0223802232001100024180151
B2057501956373N10339144WA0223902232001100024179151
B2057511956369N10339144WA0223902232001100024182145
B2057521956366N10339144WA0224002233001100020181145
B2057531956363N10339144WA0224202234001100017162138
B2057541956361N10339142WA0224202234001100015142130
B2057551956359N10339140WA0224202235001100018122121
B2057561956357N10339137WA0224302235001100019118107
B2057571956356N10339134WA0224302236001100020111096
B2057581956355N10339132WA0224402237001100018101090
B2057591956355N10339129WA0224302238001100016089084
B2058001956356N10339126WA0224002238001100017062076
B2058011956358N10339123WA0223902238001100021041059
B2058021956363N10339122WA0223702237001100031014045
B2058031956369N10339121WA0223602236001100033003022
B2058041956375N10339124WA0223602236001100040339012
B2058051956381N10339128WA0223602235001100043328347
B2058061956387N10339132WA0223702235001100046320335
B2058071956392N10339138WA0223702236001100045315326
B2058081956397N10339144WA0223702237001100045312323
B2058091956402N10339149WA0223602236001100049319325
B2058101956408N10339154WA0223602236001100049327332
B2058111956414N10339158WA0223702236001100050331340
B2058121956421N10339162WA0223802237001100048333350
B2058131956428N10339165WA0223902238001100043339009
B2058141956434N10339166WA0223902238001100037346002
B2058151956439N10339168WA0223802238001100036349009
B2058161956445N10339169WA0223502237001100039350348
B2058171956451N10339170WA0223602237001100045347347
B2058181956458N10339172WA0223602237001100044344334
B2058191956464N10339174WA0223702238001100041342345
B2058201956469N10339176WA0223702238001100038337354
B2058211956475N10339178WA0223702236001100040341353
B2058221956481N10339180WA0223702236001100041345332
B2058231956487N10339182WA0223702236001100040343329
B2058241956493N10339185WA0223702237001100039334337
B2058251956498N10339188WA0223602236001100036329339
B2058261956502N10339191WA0223502234001100036329342
B2058271956507N10339193WA0223302233001100038334341
B2058281956513N10339196WA0223202232001100041339330
B2058291956519N10339198WA0223202232001100042338336
B2058301956524N10339200WA0223302232001100039338342
B2058311956530N10339203WA0223102230001100038336355
B2058321956535N10339205WA0222902229001100039341358
B2058331956541N10339206WA0222802227001100041348015
B2058341956547N10339207WA0222802227001100044354030
B2058351956554N10339207WA0222802227001100044356053
B2058361956560N10339206WA0222802228001100038007055
B2058371956565N10339204WA0222602227001100033016064
B2058381956567N10339200WA0222502226001100023045069
B2058391956568N10339197WA0222302225001100021056079
B2058401956568N10339193WA0222302224001100019077086
B2058411956568N10339189WA0222202223001100022095082
B2058421956567N10339185WA0222202223001100021096101
B2058431956567N10339181WA0222102223001100020094090
B2058441956566N10339178WA0221902221001100022097091
B2058451956565N10339174WA0221702220001100025104103
B2058461956563N10339170WA0221502219001100027112100
B2058471956562N10339166WA0221502218001100027113088
B2058481956560N10339162WA0221402218001100024110098
B2058491956559N10339158WA0221302218001100023111105
B2058501956557N10339155WA0221202217001100024117107
B2058511956555N10339152WA0221202217001100026126125
B2058521956552N10339149WA0221202216001100027135119
B2058531956549N10339146WA0221202215001100026143123
B2058541956546N10339144WA0221202215001100023146121
B2058551956543N10339141WA0221202215001100021135104
B2058561956541N10339138WA0221102215001100022122114
B2058571956540N10339135WA0221102214001100022112106
B2058581956539N10339132WA0221002214001100020104142
B2058591956538N10339129WA0220802212001100017110116
B2059001956537N10339127WA0220702210001100017121123
B2059011956535N10339124WA0220402208001100019128120
B2059021956533N10339122WA0220102204001100023129108
B2059031956531N10339118WA0219802202001100025123101
B2059041956529N10339115WA0219702201001100027121103
B2059051956527N10339111WA0219502199001100027123107
B2059061956524N10339108WA0219302197001100028127108
B2059071956522N10339104WA0219102194001100029127105
B2059081956519N10339100WA0218902192001100031125105
B2059091956516N10339096WA0218702190001100031124110
B2059101956514N10339091WA0218502187001100031124102
B2059111956511N10339087WA0218302185001100031120097
B2059121956509N10339082WA0218102182001100034117089
B2059131956507N10339077WA0218002180001100037113094
B2059141956504N10339072WA0217902178001100036114095
B2059151956502N10339067WA0218102176001100034114098
B2059161956500N10339062WA0218302174001100028116117
B2059171956498N10339060WA0218302174001100021115108
B2059181956497N10339057WA0218102172001100021117105
B2059191956495N10339054WA0217902171001100025110095
B2059201956495N10339051WA0217602169001100023112079
B2059211956493N10339048WA0217402166001100026109068
B2059221956492N10339044WA0217302164001100028100066
B2059231956493N10339039WA0217302161001100032071062
B2059241956496N10339034WA0217202160001100034057058
B2059251956500N10339030WA0217102158001100035050055
B2059261956504N10339026WA0217002156001100035041054
B2059271956510N10339024WA0217002153001100037031054
B2059281956516N10339022WA0216702153001100034032050
B2059291956521N10339021WA0216602151001100033028053
B2059301956526N10339018WA0216502150001100035034060
B2059311956531N10339014WA0216502149001100036035067
B2059321956536N10339010WA0216402149001100033039074
B2059331956539N10339007WA0216302147001100031045069
B2059341956541N10339003WA0216202146001100030049067
B2059351956543N10338998WA0216002145001100029053067
B2059361956544N10338993WA0215902143001100032058061
B2059371956547N10338988WA0215902143001100035058077
B2059381956550N10338983WA0215802143001100034058079
B2059391956552N10338978WA0215702142001100033062074
B2059401956553N10338973WA0215702141001100033063075
B2059411956555N10338968WA0215602141001100035065077
B2059421956557N10338963WA0215602142001100035068093
B2059431956558N10338958WA0215502143001100031073103
B2059441956559N10338953WA0215502144001100028079103
B2059451956559N10338949WA0215402144001100027087094
B2059461956559N10338945WA0215402143001100026090094
B2059471956559N10338942WA0215402143001100024086081
B2059481956559N10338938WA0215202141001100025081087
B2059491956560N10338934WA0215102140001100026079084
B2059501956560N10338929WA0215102138001100029082094
B2059511956561N10338925WA0215002138001100029084085
B2059521956561N10338921WA0215102138001100025085103
B2059531956561N10338917WA0215002138001100022087105
B2059541956561N10338914WA0214802137001100020094105
B2059551956560N10338911WA0214702136001100024106097
B2059561956559N10338907WA0214702135001100026105109
B2059571956558N10338904WA0214702135001100025103106
B2059581956557N10338900WA0214702135001100021110117
B2059591956556N10338897WA0214602135001100021114113
B2100001956555N10338894WA0214702135001100021111116
B2100011956554N10338891WA0214502134001100021107119
B2100021956553N10338888WA0214502134001100020107116
B2100031956552N10338886WA0214302133001100020113112
B2100071956551N10338882WA0214202132001100023116103
B2100101956545N10338866WA0214102130001100028099101
B2100111956544N10338852WA0214502133001100025092088
B2100121956543N10338848WA0214602135001100024091064
B2100131956543N10338844WA0214502135001100025081062
B2100141956544N10338840WA0214602135001100026073054
B2100151956547N10338836WA0214602135001100030054046
B2100161956551N10338832WA0214702135001100032038035
B2100171956557N10338830WA0214602134001100034022022
B2100181956564N10338832WA0214502134001100033355012
B2100191956570N10338837WA0214502134001100040324353
B2100201956576N10338843WA0214502135001100042312320
B2100211956580N10338849WA0214502136001100041301305
B2100221956581N10338856WA0214602136001100034281291
B2100231956578N10338861WA0214502136001100031245263
B2100241956575N10338865WA0214502136001100029230216
B2100251956571N10338867WA0214502135001100025218199
B2100261956568N10338868WA0214602136001100022187186
B2100271956565N10338866WA0214702135001100019164163
B2100281956562N10338864WA0214702136001100019140150
B2100291956560N10338862WA0214802138001100021131132
B2100301956558N10338859WA0214802138001100022126127
B2100311956556N10338856WA0215002140001100023123127
B2100321956554N10338853WA0215002141001100022132127
B2100331956552N10338851WA0215102141001100023146139
B2100341956549N10338849WA0215102142001100023161139
B2100351956545N10338848WA0215302143001100024168149
B2100361956542N10338848WA0215402144001100022167152
B2100371956539N10338847WA0215602145001100020164139
B2100381956536N10338845WA0215802146001100022148127
B2100391956533N10338843WA0215902147001100022131115
B2100401956531N10338839WA0216102148001100024116096
B2100411956531N10338835WA0215902149001100024095088
B2100421956534N10338831WA0215902148001100022058078
B2100431956539N10338827WA0215702148001100033032054
B2100441956547N10338825WA0215702148001100040015025
B2100451956555N10338825WA0215802149001100039359009
B2100461956563N10338829WA0215702151001100041334350
B2100471956569N10338835WA0215702152001100040311323
B2100481956573N10338842WA0215602153001100040299297
B2100491956574N10338847WA0215702153001100033282283
B2100501956572N10338853WA0215902153001100029251261
B2100511956569N10338857WA0215702152001100027233228
B2100521956565N10338859WA0215902153001100023209212
B2100531956562N10338859WA0216102154001100020172191
B2100541956559N10338858WA0216402158001100019159162
B2100551956557N10338858WA0216702161001100018162153
B2100561956554N10338857WA0216802163001100014172161
B2100571956553N10338857WA0216902164001100014174155
B2100581956550N10338857WA0217002164001100015185168
B2100591956548N10338857WA0217102165001100017198165
B2101001956546N10338858WA0217102165001100017199158
B2101011956544N10338858WA0217302166001100018182163
B2101021956541N10338857WA0217302166001100020157149
B2101031956539N10338856WA0217302166001100018138145
B2101041956537N10338854WA0217302166001100016128139
B2101051956536N10338852WA0217102166001100013137129
B2101061956535N10338850WA0217102164001100016137123
B2101071956533N10338848WA0217002162001100019123119
B2101081956532N10338844WA0216702162001100026101106
B2101091956533N10338838WA0216702161001100032082093
B2101101956536N10338833WA0216702160001100038053078
B2101111956541N10338828WA0216702159001100040039055
B2101121956547N10338825WA0216802158001100040030041
B2101131956553N10338824WA0216802158001100038015032
B2101141956561N10338826WA0216602157001100040346016
B2101151956568N10338830WA0216702157001100042332341
B2101161956573N10338835WA0216502157001100042314322
B2101171956577N10338842WA0216502157001100040300300
B2101181956579N10338848WA0216402156001100034284282
B2101191956578N10338852WA0216302156001100026259262
B2101201956576N10338856WA0216402155001100024243233
B2101211956573N10338858WA0216402155001100020220218
B2101221956570N10338858WA0216502155001100016188199
B2101231956568N10338857WA0216502154001100017142177
B2101241956566N10338855WA0216302154001100018131147
B2101251956564N10338852WA0216302153001100019137144
B2101261956561N10338851WA0216202153001100019149145
B2101271956559N10338849WA0216202152001100019159154
B2101281956556N10338848WA0216202152001100019168159
B2101291956553N10338848WA0216202151001100017178169
B2101301956551N10338848WA0216102150001100016189160
B2101311956549N10338849WA0216002149001100016199166
B2101321956546N10338849WA0215802147001100019194156
B2101331956543N10338850WA0215702146001100021180144
B2101341956540N10338849WA0215802145001100021166143
B2101351956538N10338847WA0215902144001100020148140
B2101361956536N10338843WA0215902143001100023116141
B2101371956534N10338838WA0216102144001100028118129
B2101381956532N10338835WA0216002144001100029127129
B2101391956529N10338831WA0216202145001100029135129
B2101401956526N10338829WA0216502147001100027137125
B2101411956523N10338826WA0216602149001100024130133
B2101421956521N10338823WA0216802151001100023130131
B2101431956518N10338821WA0216902152001100025138142
B2101441956515N10338818WA0217002154001100024147161
B2101451956512N10338817WA0217102155001100023164172
B2101461956508N10338817WA0217002156001100024179193
B2101471956505N10338817WA0216702156001100026188218
B2101481956501N10338820WA0216602156001100029210227
B2101491956498N10338825WA0216502154001100028232242
B2101501956498N10338831WA0216302154001100034259254
B2101511956500N10338836WA0216002154001100035284272
B2101521956505N10338841WA0215902154001100036313290
B2101531956511N10338844WA0215802153001100038334314
B2101541956519N10338846WA0215802153001100042348339
B2101551956526N10338846WA0215602153001100044353001
B2101561956535N10338845WA0215702153001100047016011
B2101571956541N10338842WA0215902155001100041025036
B2101581956546N10338838WA0216002156001100034039046
B2101591956548N10338834WA0216102156001100029057062
B2102001956548N10338829WA0216402156001100027079082
B2102011956546N10338826WA0216602159001100020099105
B2102021956546N10338823WA0216702160001100021093124
B2102031956545N10338819WA0216702160001100021100125
B2102041956544N10338816WA0216702160001100022112132
B2102051956542N10338812WA0216802160001100024125135
B2102061956540N10338809WA0216802160001100021130137
B2102071956538N10338807WA0216802160001100017124154
B2102081956537N10338804WA0216702160001100017130154
B2102091956534N10338802WA0216602159001100019141165
B2102101956532N10338801WA0216402159001100018156182
B2102111956528N10338801WA0216302158001100024191194
B2102121956524N10338803WA0216302157001100026206208
B2102131956521N10338806WA0216402156001100026219212
B2102141956518N10338810WA0216502156001100026240217
B2102151956517N10338814WA0216602157001100024246228
B2102161956516N10338817WA0216602156001100025256239
B2102171956515N10338822WA0216502155001100027259256
B2102181956516N10338826WA0216302154001100030278280
B2102191956518N10338832WA0216102154001100036292297
B2102201956521N10338837WA0216202154001100035303314
B2102211956528N10338839WA0216302154001100035332329
B2102221956536N10338838WA0216402155001100035359356
B2102231956542N10338835WA0216302155001100035017026
B2102241956546N10338831WA0216302156001100025043046
B2102251956546N10338826WA0216402157001100023088079
B2102261956546N10338822WA0216402157001100022105117
B2102271956544N10338819WA0216502157001100020126130
B2102281956541N10338817WA0216602156001100019150144
B2102291956538N10338816WA0216702155001100020176159
B2102301956533N10338818WA0216802158001100026204180
B2102311956530N10338820WA0216902160001100026213206
B2102321956527N10338823WA0217002161001100028234218
B2102331956525N10338827WA0217002161001100028244238
B2102341956524N10338832WA0217002161001100033261247
B2102351956526N10338837WA0216902162001100031278262
B2102361956530N10338840WA0216902163001100029305277
B2102371956538N10338840WA0217002165001100032347302
B2102381956546N10338838WA0217202166001100035008356
B2102391956551N10338835WA0217402168001100032016022
B2102401956556N10338833WA0217302169001100030026033
B2102411956558N10338829WA0217302170001100019060046
B2102421956557N10338823WA0217502170001100024115092
B2102431956555N10338819WA0217502171001100026125135
B2102441956552N10338816WA0217602170001100024140141
B2102451956549N10338815WA0217802171001100022166151
B2102461956545N10338816WA0217802170001100024199170
B2102471956542N10338819WA0217902170001100028228196
B2102481956540N10338824WA0217902170001100034250225
B2102491956539N10338829WA0218002170001100036267248
B2102501956540N10338835WA0218002169001100040284272
B2102511956542N10338841WA0218002170001100040295295
B2102521956546N10338846WA0218002170001100040312305
B2102531956552N10338849WA0218102171001100041334327
B2102541956559N10338850WA0218002171001100042348352
B2102551956566N10338847WA0217902172001100039017009
B2102561956571N10338844WA0217802173001100033029041
B2102571956574N10338839WA0217802174001100025049058
B2102581956575N10338836WA0217902174001100019062083
B2102591956572N10338834WA0217802173001100008146101
B2103001956568N10338835WA0217902173001100014199157
B2103011956565N10338836WA0218102174001100018217183
B2103021956561N10338838WA0218202175001100018209186
B2103031956557N10338839WA0218402174001100016192185
B2103041956555N10338840WA0218502175001100017182174
B2103051956551N10338840WA0218502175001100020191176
B2103061956548N10338841WA0218602175001100023209200
B2103071956545N10338844WA0218502174001100026227213
B2103081956543N10338848WA0218602174001100030246236
B2103091956543N10338855WA0218502173001100038272259
B2103101956545N10338862WA0218602174001100041287283
B2103111956549N10338868WA0218802175001100045308304
B2103121956556N10338872WA0218802177001100044325327
B2103131956563N10338874WA0219002178001100040334346
B2103141956570N10338872WA0219202180001100035353355
B2103151956573N10338869WA0219502182001100026010014
B2103161956573N10338864WA0219602184001100012065037
B2103171956572N10338860WA0219802185001100012082107
B2103181956571N10338857WA0219902187001100013088116
B2103191956571N10338853WA0220002187001100019100115
B2103201956570N10338849WA0219902187001100022109130
B2103211956568N10338845WA0220002189001100025116131
B2103221956566N10338841WA0220302195001100024123137
B2103231956564N10338838WA0220502197001100020138164
B2103241956561N10338836WA0220602199001100018169172
B2103251956558N10338836WA0220602201001100022194187
B2103261956555N10338840WA0220602202001100032229204
B2103271956552N10338844WA0220702204001100034243235
B2103281956551N10338849WA0220802206001100036259251
B2103291956551N10338854WA0220702206001100035272266
B2103301956554N10338858WA0220402207001100023290280
B2103311956559N10338858WA0220202209001100022336292
B2103321956565N10338857WA0220002211001100019003355
B2103331956570N10338853WA0220002212001100018028038
B2103341956572N10338848WA0220102212001100014078069
B2103351956571N10338844WA0220402213001100014104112
B2103361956569N10338841WA0220702214001100016136126
B2103371956568N10338838WA0220902213001100015129136
B2103381956566N10338835WA0220902211001100017117134
B2103391956565N10338832WA0220902209001100020119132
B2103401956563N10338829WA0220902208001100022133140
B2103411956560N10338826WA0220902208001100024142150
B2103421956557N10338823WA0221102208001100025148150
B2103431956554N10338821WA0221302210001100021156158
B2103441956551N10338820WA0221402211001100018168155
B2103451956548N10338820WA0221602211001100016174153
B2103461956545N10338819WA0221602211001100020170169
B2103471956542N10338818WA0221702212001100024174184
B2103481956538N10338818WA0222002214001100026192206
B2103491956534N10338819WA0222202214001100026199227
B2103501956531N10338822WA0222402215001100025219242
B2103511956532N10338827WA0222502216001100027271251
B2103521956535N10338833WA0222602217001100035299287
B2103531956539N10338837WA0222602219001100033317321
B2103541956545N10338839WA0222602221001100031342342
B2103551956552N10338836WA0222602222001100031012011
B2103561956556N10338833WA0222802225001100024040045
B2103571956557N10338828WA0223202226001100022085072
B2103581956557N10338824WA0223502228001100025100111
B2103591956556N10338820WA0223702231001100023111124
B2104001956554N10338816WA0223802233001100022109122
B2104011956554N10338813WA0224002233001100024110124
B2104021956552N10338808WA0224002233001100028112128
B2104031956551N10338804WA0224202234001100032112118
B2104041956549N10338799WA0224302236001100033112135
B2104051956547N10338794WA0224602238001100033119141
B2104071956541N10338786WA0225002241001100026144166
B2104081956537N10338785WA0225302243001100024156163
B2104091956534N10338784WA0225402244001100022173172
B2104101956530N10338785WA0225602246001100020195180
B2104111956528N10338787WA0225802248001100016217192
B2104121956526N10338790WA0225802249001100019232206
B2104131956525N10338793WA0225702250001100024236224
B2104141956523N10338797WA0225802250001100027253239
B2104151956523N10338802WA0225802251001100031270260
B2104161956524N10338807WA0225602251001100031278280
B2104171956527N10338810WA0225502252001100026312291
B2104181956534N10338810WA0225402254001100028348328
B2104191956541N10338808WA0225302255001100032019014
B2104201956546N10338804WA0225602257001100027030045
B2104211956549N10338800WA0225802259001100027042059
B2104221956548N10338794WA0226202260001100025083065
B2104231956546N10338789WA0226502261001100025096101
B2104241956545N10338784WA0226602262001100026100109
B2104251956544N10338780WA0226702262001100028103111
B2104261956542N10338775WA0226602263001100029111123
B2104271956539N10338770WA0226502262001100033127128
B2104281956536N10338766WA0226602263001100036132137
B2104291956532N10338762WA0226802266001100033134143
B2104301956528N10338758WA0226902267001100029138156
B2104311956525N10338755WA0226802267001100025147174
B2104321956522N10338753WA0226802267001100025154181
B2104331956518N10338753WA0226802267001100023186180
B2104341956515N10338754WA0226802267001100023198192
B2104351956513N10338756WA0226802268001100020223185
B2104361956511N10338758WA0226902267001100017246201
B2104371956511N10338760WA0226702265001100015252204
B2104381956510N10338763WA0226402264001100018250224
B2104391956509N10338766WA0226202263001100020248240
B2104401956508N10338769WA0225902262001100024255253
B2104411956509N10338775WA0225802261001100032282271
B2104421956513N10338780WA0226102261001100034312298
B2104431956520N10338783WA0226202261001100042335320
B2104441956527N10338786WA0226502261001100044338346
B2104451956534N10338787WA0226702261001100045345000
B2104461956541N10338787WA0226702262001100043355006
B2104471956547N10338785WA0226802261001100044004020
B2104481956554N10338783WA0226602262001100042011036
B2104491956560N10338779WA0226702261001100041027046
B2104501956563N10338773WA0226602262001100034052061
B2104511956565N10338769WA0226502262001100025070080
B2104521956563N10338765WA0226302261001100025116098
B2104531956560N10338761WA0226302260001100027131134
B2104541956557N10338758WA0226102259001100026142146
B2104551956554N10338756WA0226102257001100024158164
B2104561956550N10338755WA0225902256001100022173181
B2104571956547N10338756WA0225602254001100022187184
B2104581956545N10338758WA0225202252001100020213190
B2104591956543N10338763WA0225002250001100026240205
B2105001956543N10338768WA0224902249001100029256228
B2105011956543N10338773WA0225202247001100030263233
B2105021956545N10338779WA0225202247001100031286250
B2105031956548N10338784WA0225202247001100032287247
B2105041956549N10338789WA0225202246001100035281251
B2105051956549N10338795WA0225202247001100038277254
B2105061956550N10338801WA0225402249001100038274252
B2105071956551N10338807WA0225502250001100035275243
B2105081956552N10338812WA0225802251001100034281244
B2105091956552N10338817WA0225902252001100030276235
B2105101956552N10338822WA0226202253001100026264235
B2105111956551N10338825WA0226202254001100024247223
B2105121956548N10338828WA0226302255001100025220214
B2105131956544N10338830WA0226502257001100023206193
B2105141956541N10338831WA0226702258001100023205179
B2105151956538N10338833WA0226702259001100022193175
B2105161956535N10338833WA0226702259001100022175164
B2105171956531N10338832WA0226702260001100023156152
B2105181956529N10338829WA0226702260001100023141142
B2105191956526N10338826WA0226602260001100024121131
B2105201956527N10338820WA0226502261001100033088120
B2105211956530N10338813WA0226502261001100040064091
B2105221956536N10338806WA0226902262001100050042070
B2105231956542N10338802WA0227102263001100049035046
B2105241956548N10338798WA0227302265001100045028041
B2105251956555N10338797WA0227602266001100041011034
B2105261956562N10338799WA0227702268001100040349016
B2105271956569N10338803WA0227902270001100044332349
B2105281956575N10338809WA0227902270001100045311328
B2105291956578N10338815WA0228102272001100039289302
B2105301956578N10338822WA0228202274001100035263276
B2105311956577N10338827WA0228302275001100033252247
B2105321956574N10338830WA0228402276001100028234236
B2105331956571N10338832WA0228502278001100022210218
B2105341956567N10338832WA0228802280001100022185196
B2105351956564N10338832WA0229002282001100024165178
B2105361956560N10338830WA0229102284001100025147164
B2105371956557N10338827WA0229302285001100026135151
B2105381956556N10338822WA0229302286001100028112142
B2105391956556N10338817WA0229402287001100028080124
B2105401956560N10338811WA0229502288001100036050097
B2105411956565N10338806WA0229702290001100041040065
B2105421956572N10338802WA0229802291001100042028052
B2105431956579N10338800WA0230002292001100041016038
B2105441956586N10338802WA0229902294001100037348025
B2105451956592N10338806WA0230102295001100036328349
B2105461956597N10338812WA0230402298001100036310322
B2105471956598N10338818WA0230602300001100029294300
B2105481956596N10338823WA0231002302001100021264277
B2105491956592N10338826WA0231202305001100022209239
B2105501956588N10338827WA0231402307001100022189193
B2105511956584N10338828WA0231602309001100021180178
B2105521956581N10338828WA0231702309001100019183173
B2105531956578N10338828WA0231702310001100020180161
B2105541956575N10338828WA0231902311001100021164157
B2105551956572N10338826WA0231902312001100025149149
B2105561956569N10338823WA0231802313001100030129133
B2105571956568N10338817WA0232102315001100037098121
B2105581956569N10338810WA0232202316001100041076096
B2105591956572N10338804WA0232202316001100045056076
B2106001956577N10338799WA0232402318001100045045058
B2106011956584N10338796WA0232402319001100044024045
B2106021956591N10338796WA0232402320001100041002024
B2106031956598N10338801WA0232502321001100040331359
B2106041956604N10338807WA0232802323001100043311322
B2106051956607N10338813WA0232902325001100034303299
B2106061956607N10338817WA0233002327001100025281287
B2106071956606N10338821WA0233202328001100020262258
B2106081956603N10338824WA0233002329001100020239235
B2106091956600N10338826WA0233002326001100026215213
B2106101956596N10338828WA0233002327001100029211197
B2106111956592N10338831WA0233302327001100028212193
B2106121956588N10338833WA0233502328001100026209187
B2106131956584N10338834WA0233802330001100022197180
B2106141956581N10338834WA0233902331001100020179167
B2106151956578N10338834WA0234002332001100022164160
B2106161956575N10338833WA0233902332001100024153147
B2106171956572N10338831WA0233902333001100026141140
B2106181956570N10338827WA0234002333001100027122128
B2106191956569N10338823WA0234202334001100030091118
B2106201956571N10338817WA0234202334001100035061093
B2106211956576N10338812WA0234402334001100043044067
B2106221956581N10338808WA0234402335001100043035047
B2106231956588N10338806WA0234502336001100044021038
B2106241956595N10338806WA0234502336001100043006022
B2106251956603N10338810WA0234402338001100044338003
B2106261956609N10338815WA0234702340001100044323330
B2106271956614N10338821WA0234702341001100042309311
B2106281956614N10338827WA0235002344001100029287295
B2106291956613N10338831WA0235202346001100026267266
B2106301956611N10338834WA0235202346001100019254244
B2106311956610N10338837WA0235202347001100019252225
B2106321956609N10338841WA0235102347001100024245218
B2106331956606N10338844WA0235202346001100028230219
B2106341956603N10338848WA0235302347001100029227206
B2106351956599N10338851WA0235602349001100027226209
B2106361956597N10338855WA0235902351001100024233205
B2106371956594N10338858WA0236202354001100028246215
B2106381956593N10338863WA0236302356001100028251202
B2106391956591N10338867WA0236302358001100026245210
B2106401956590N10338870WA0236502359001100023238205
B2106411956587N10338872WA0236302360001100020211193
B2106421956585N10338873WA0236202361001100017192184
B2106431956582N10338872WA0236202361001100016168173
B2106441956580N10338871WA0236102362001100016145164
B2106451956579N10338869WA0236102361001100016137152
B2106461956577N10338868WA0236202361001100017143147
B2106471956575N10338866WA0236102361001100017153151
B2106481956572N10338865WA0236102361001100016165155
B2106491956570N10338865WA0236202362001100014169149
B2106501956568N10338864WA0236302362001100012163146
B2106511956567N10338863WA0236202361001100013139138
B2106521956566N10338860WA0236102360001100017112134
B2106531956565N10338857WA0235802359001100022095112
B2106541956567N10338852WA0235702358001100035070105
B2106551956569N10338846WA0235702358001100038062075
B2106561956572N10338841WA0235702358001100036053062
B2106571956576N10338837WA0235702357001100034048052
B2106581956580N10338833WA0235702356001100035038042
B2106591956584N10338830WA0235402354001100039028027
B2107001956591N10338827WA0235302352001100043022017
B2107011956598N10338825WA0235202352001100048011008
B2107021956606N10338826WA0235102352001100049354353
B2107031956614N10338829WA0235102351001100048341336
B2107041956621N10338833WA0235102350001100046333322
B2107051956625N10338840WA0235002349001100039307313
B2107061956627N10338845WA0234902347001100034291285
B2107071956628N10338851WA0234802346001100031275267
B2107081956627N10338856WA0234702345001100029261251
B2107091956626N10338860WA0234702344001100026244238
B2107101956623N10338863WA0234802344001100023233224
B2107111956621N10338865WA0234902343001100017223214
B2107121956619N10338866WA0234802343001100014214205
B2107131956617N10338867WA0234802343001100012216193
B2107141956616N10338868WA0234602342001100012211190
B2107151956614N10338868WA0234402340001100014198183
B2107161956612N10338868WA0234202337001100018184179
B2107171956609N10338869WA0234102337001100020188183
B2107181956606N10338869WA0234002336001100019199184
B2107191956604N10338870WA0234002335001100018207179
B2107201956601N10338872WA0233702333001100019202178
B2107211956598N10338872WA0233502330001100022193154
B2107221956595N10338873WA0233202328001100025184179
B2107231956591N10338873WA0233002326001100027186190
B2107241956587N10338874WA0232702324001100029196188
B2107251956583N10338876WA0232402322001100032204198
B2107261956579N10338879WA0232202319001100034220201
B2107271956576N10338885WA0232102317001100037234203
B2107281956573N10338890WA0231902316001100036241196
B2107291956570N10338895WA0232002315001100032238200
B2107301956568N10338899WA0231902314001100030238206
B2107311956565N10338903WA0231802312001100031242207
B2107321956563N10338908WA0231502310001100035246210
B2107331956561N10338913WA0231502309001100036245205
B2107341956559N10338918WA0231502309001100033241203
B2107351956556N10338923WA0231502309001100030240208
B2107361956554N10338927WA0231502309001100029247205
B2107371956552N10338932WA0231302308001100033247215
B2107381956550N10338937WA0231402307001100038250212
B2107391956548N10338943WA0231202306001100040250213
B2107401956546N10338949WA0231202306001100039250216
B2107411956544N10338955WA0231202305001100038247220
B2107421956542N10338960WA0231202304001100035244220
B2107431956540N10338965WA0231002303001100035244217
B2107441956538N10338970WA0230702301001100038247219
B2107451956536N10338976WA0230602299001100041252216
B2107461956534N10338983WA0230502299001100040255219
B2107471956532N10338988WA0230502298001100037251221
B2107481956530N10338994WA0230602297001100034247223
B2107491956528N10338999WA0230402296001100034247218
B2107501956527N10339004WA0230202295001100036250217
B2107511956525N10339010WA0230002293001100039252216
B2107521956523N10339016WA0229902292001100039250217
B2107531956521N10339021WA0229702290001100037246219
B2107541956518N10339026WA0229602289001100036243219
B2107551956516N10339032WA0229502288001100035245219
B2107561956514N10339037WA0229402287001100036249216
B2107571956512N10339042WA0229302285001100038251221
B2107581956511N10339048WA0229102283001100039251224
B2107591956509N10339054WA0228902281001100039249228
B2108001956507N10339060WA0228802279001100040252227
B2108011956506N10339066WA0228502277001100042259227
B2108021956505N10339073WA0228302275001100043263227
B2108031956504N10339080WA0228202273001100042261231
B2108041956503N10339086WA0228002272001100040257223
B2108051956502N10339092WA0228002271001100036255229
B2108061956501N10339097WA0228002270001100033258231
B2108071956500N10339102WA0227902268001100032265229
B2108081956500N10339107WA0227702266001100033269232
B2108091956500N10339113WA0227502264001100036270239
B2108101956500N10339119WA0227402262001100036270240
B2108111956500N10339125WA0227402261001100036272236
B2108121956501N10339130WA0227302260001100035280236
B2108131956503N10339136WA0227202260001100035288247
B2108141956504N10339141WA0227302259001100036284254
B2108151956505N10339147WA0227102258001100038275250
B2108161956505N10339153WA0227202258001100039266248
B2108171956505N10339159WA0227302258001100036267244
B2108181956505N10339164WA0227502257001100032264242
B2108191956504N10339168WA0227802259001100026260240
B2108201956503N10339172WA0227802260001100023269230
B2108211956503N10339176WA0227702260001100025275237
B2108221956504N10339180WA0227502260001100028274243
B2108231956504N10339185WA0227302260001100031264247
B2108241956503N10339190WA0227202259001100034264239
B2108251956503N10339195WA0227202258001100035275255
B2108261956505N10339201WA0227302258001100037290265
B2108271956508N10339206WA0227302258001100041303274
B2108281956513N10339211WA0227302259001100040311274
B2108291956517N10339216WA0227302259001100041311284
B2108301956521N10339221WA0227202258001100042309276
B2108311956526N10339226WA0227102257001100041310268
B2108321956530N10339231WA0226902257001100039310281
B2108331956533N10339236WA0226902256001100041306278
B2108341956537N10339241WA0226802255001100046305279
B2108351956542N10339247WA0226702255001100046314316
B2108361956547N10339251WA0226502254001100046320337
B2108371956554N10339254WA0226302253001100046335351
B2108381956561N10339255WA0226102253001100040346012
B2108391956567N10339251WA0226002253001100035006032
B2108401956570N10339245WA0226002253001100026028054
B2108411956570N10339241WA0226002253001100015033085
B2108421956570N10339239WA0225902251001100007324109
B2108431956566N10339240WA0226102252001100016264193
B2108441956562N10339243WA0226402252001100019240206
B2108451956559N10339245WA0226202252001100017238189
B2108461956555N10339244WA0225802249001100012164193
B2108471956552N10339242WA0225402247001100017149162
B2108481956549N10339239WA0225302246001100023135152
B2108491956546N10339237WA0225302245001100022147142
B2108501956542N10339235WA0225302250001100022151158
B2108511956540N10339233WA0225302249001100017147134
B2108521956538N10339231WA0225302249001100012124140
B2108531956537N10339229WA0225102248001100012126138
B2108541956536N10339228WA0224802247001100014135136
B2108551956533N10339225WA0224602246001100020141133
B2108561956530N10339223WA0224502245001100025138120
B2108571956527N10339219WA0224502244001100025129128
B2108581956525N10339215WA0224502243001100025120117
B2108591956523N10339211WA0224302242001100026122119
B2109001956520N10339208WA0224302240001100026134132
B2109011956517N10339205WA0224002238001100027145124
B2109021956513N10339203WA0223902237001100029151128
B2109031956510N10339200WA0223902235001100027149131
B2109041956506N10339198WA0223802235001100026145134
B2109051956503N10339196WA0223602233001100026147137
B2109061956500N10339193WA0223502230001100027150132
B2109071956496N10339191WA0223202228001100027146127
B2109081956493N10339188WA0223002226001100027134128
B2109091956491N10339184WA0222802224001100028125112
B2109101956488N10339180WA0222502222001100031114116
B2109111956487N10339175WA0222402220001100034102121
B2109121956486N10339170WA0222102218001100034102112
B2109131956484N10339165WA0222102217001100031107121
B2109141956483N10339160WA0222102216001100029108115
B2109151956482N10339155WA0222102216001100031104117
B2109161956481N10339150WA0222102216001100033099089
B2109171956480N10339145WA0222402215001100033097080
B2109181956480N10339139WA0222602215001100033091101
B2109191956481N10339135WA0222702215001100027078115
B2109201956482N10339131WA0222802215001100025081108
B2109211956483N10339127WA0222602215001100024086123
B2109221956483N10339123WA0222302214001100028086088
B2109231956484N10339118WA0222502214001100031076105
B2109241956486N10339114WA0222402214001100029066104
B2109251956488N10339110WA0222302213001100023067119
B2109261956489N10339107WA0222102213001100020077113
B2109271956489N10339104WA0221802211001100020085116
B2109281956489N10339100WA0221502209001100023092117
B2109291956489N10339096WA0221202207001100027093124
B2109301956489N10339092WA0221002205001100027091116
B2109311956489N10339088WA0220802204001100026088084
B2109321956490N10339083WA0220702202001100025085114
B2109331956490N10339079WA0220602199001100026081098
B2109341956491N10339075WA0220302196001100029083097
B2109351956491N10339070WA0220102194001100032089088
B2109361956491N10339065WA0219902192001100033092090
B2109371956491N10339060WA0219802191001100033089088
B2109381956492N10339055WA0219702189001100032082083
B2109391956493N10339049WA0219502187001100033078090
B2109401956494N10339044WA0219402185001100035078088
B2109411956495N10339038WA0219202183001100037082094
B2109421956495N10339032WA0219102182001100038084089
B2109431956496N10339026WA0219002182001100038083085
B2109441956497N10339021WA0219002181001100037080086
B2109451956498N10339015WA0218902181001100035079092
B2109461956499N10339010WA0218902180001100034081093
B2109471956499N10339004WA0218702178001100034086096
B2109481956499N10338999WA0218502177001100036088089
B2109491956500N10338993WA0218302175001100039085079
B2109501956500N10338986WA0218202175001100040081080
B2109511956502N10338980WA0218302174001100040076078
B2109521956503N10338974WA0218202174001100039075082
B2109531956504N10338968WA0218102174001100037076083
B2109541956506N10338962WA0218002173001100038077081
B2109551956507N10338956WA0218002172001100040076078
B2109561956508N10338950WA0218002172001100042076074
B2109571956510N10338943WA0217902171001100043079095
B2109581956511N10338937WA0217802171001100042082092
B2109591956512N10338930WA0217702170001100041083092
B2110001956512N10338923WA0217702169001100042081085
B2110011956514N10338917WA0217602169001100044077081
B2110021956515N10338909WA0217602169001100047075078
B2110031956517N10338902WA0217702169001100046073073
B2110041956519N10338895WA0217602169001100046071088
B2110051956522N10338889WA0217702169001100045064073
B2110061956525N10338882WA0217902170001100045062087
B2110071956528N10338876WA0218002171001100043062103
B2110081956530N10338870WA0218202172001100040067106
B2110091956532N10338865WA0218302173001100035072107
B2110101956533N10338860WA0218402174001100030078108
B2110111956533N10338856WA0218402175001100025086110
B2110121956533N10338853WA0218302174001100021094114
B2110131956533N10338849WA0218202174001100022104118
B2110141956531N10338846WA0218102173001100024112119
B2110151956530N10338842WA0218002172001100026108113
B2110161956529N10338838WA0218102172001100029097108
B2110171956529N10338833WA0218002171001100033085084
B2110181956530N10338827WA0218202172001100035076097
B2110191956532N10338822WA0218202172001100037065085
B2110201956535N10338817WA0218202172001100035061094
B2110211956537N10338812WA0218102172001100035062089
B2110221956540N10338807WA0218002171001100035064086
B2110231956542N10338802WA0218002170001100034065103
B2110241956544N10338798WA0217902170001100030072101
B2110251956545N10338793WA0217802169001100028081105
B2110261956545N10338789WA0217702168001100027088114
B2110271956545N10338785WA0217602167001100026091120
B2110281956545N10338781WA0217502166001100024092116
B2110291956545N10338778WA0217202164001100023094120
B2110301956545N10338774WA0217002162001100024097122
B2110311956545N10338770WA0217102161001100025095099
B2110321956545N10338766WA0217102160001100025087074
B2110331956545N10338762WA0217102159001100026073087
B2110341956547N10338758WA0217002158001100027061082
B2110351956550N10338754WA0216902157001100031060086
B2110361956552N10338749WA0216802156001100036066103
B2110371956554N10338743WA0216702156001100036069113
B2110381956555N10338738WA0217002155001100033073110
B2110391956556N10338734WA0217102155001100031082129
B2110401956554N10338730WA0217302155001100021119140
B2110411956551N10338730WA0217302154001100015178153
B2110421956549N10338731WA0217102153001100018203189
B2110431956546N10338735WA0216902153001100021229200
B2110441956545N10338740WA0216902152001100026252222
B2110451956546N10338745WA0216802151001100032273242
B2110461956548N10338751WA0216702149001100036290250
B2110471956550N10338757WA0216602144001100037288257
B2110481956552N10338763WA0216502142001100041284263
B2110491956553N10338770WA0216302141001100043283258
B2110501956554N10338776WA0216302139001100040279256
B2110511956555N10338782WA0216202138001100033272248
B2110521956554N10338787WA0215902137001100028263237
B2110531956553N10338791WA0215602135001100024248227
B2110541956551N10338793WA0215302133001100020238213
B2110551956548N10338794WA0214902131001100015210201
B2110561956545N10338792WA0214702129001100016135182
B2110571956544N10338787WA0214502127001100027098143
B2110581956545N10338780WA0214202125001100040070116
B2110591956548N10338774WA0214202125001100040060089
B2111001956551N10338769WA0214002123001100034056085
B2111011956554N10338765WA0213602122001100032056079
B2111021956556N10338760WA0213202120001100033057082
B2111031956559N10338755WA0212702118001100038059084
B2111041956562N10338749WA0212502115001100044060096
B2111051956566N10338743WA0212402113001100043060098
B2111061956569N10338736WA0212602112001100042060110
B2111071956571N10338732WA0212702111001100035064107
B2111081956572N10338728WA0212602110001100026074108
B2111091956571N10338725WA0212502109001100020096115
B2111101956571N10338722WA0212302107001100026101118
B2111111956570N10338717WA0212102105001100031093111
B2111121956570N10338712WA0211902103001100034088110
B2111131956569N10338707WA0211802102001100036094115
B2111141956568N10338701WA0211702102001100039100117
B2111151956567N10338695WA0211802102001100038100104
B2111161956566N10338689WA0211902103001100035094092
B2111171956566N10338684WA0211902102001100033085100
B2111181956566N10338679WA0211702101001100031083098
B2111191956566N10338674WA0211502100001100030089107
B2111201956566N10338669WA0211202097001100035090109
B2111211956566N10338663WA0211102096001100041089107
B2111221956566N10338656WA0211002094001100041087095
B2111231956567N10338650WA0211202094001100038087125
B2111241956567N10338644WA0211402093001100035085114
B2111251956568N10338641WA0211402093001100026082116
B2111261956569N10338638WA0211202091001100020078112
B2111271956569N10338636WA0210902091001100019081113
B2111281956569N10338632WA0210602088001100026089106
B2111291956569N10338628WA0210302087001100030087118
B2111301956569N10338624WA0210202086001100029082110
B2111311956570N10338619WA0210102085001100027078118
B2111321956571N10338616WA0209902083001100024079117
B2111331956572N10338612WA0209602080001100025083104
B2111341956572N10338608WA0209202076001100027084094
B2111351956573N10338603WA0208902073001100033080086
B2111361956574N10338597WA0208802070001100038077085
B2111371956575N10338591WA0208402068001100040072073
B2111381956577N10338585WA0208302067001100041069078
B2111391956580N10338579WA0208302065001100044066079
B2111401956583N10338572WA0208002064001100046064062
B2111411956586N10338566WA0208202063001100046062063
B2111421956589N10338560WA0208402062001100043058059
B2111431956593N10338554WA0208502063001100038056080
B2111441956596N10338549WA0208402062001100038055073
B2111451956599N10338545WA0208202060001100037056078
B2111461956602N10338539WA0207902059001100041060083
B2111471956605N10338534WA0207802058001100042061092
B2111481956608N10338528WA0207702057001100040063082
B2111491956611N10338522WA0207502056001100038064089
B2111501956613N10338517WA0207302055001100038064088
B2111511956616N10338511WA0207202054001100038065095
B2111521956618N10338506WA0207202053001100037068090
B2111531956619N10338501WA0207202054001100035068100
B2111541956621N10338496WA0207102053001100031064091
B2111551956624N10338492WA0207002052001100030062103
B2111561956626N10338488WA0206702049001100030066115
B2111571956627N10338483WA0206402046001100033072103
B2111581956628N10338478WA0206202044001100034077102
B2111591956630N10338473WA0206102043001100034075105
B2112001956631N10338468WA0206002041001100031071107
B2112011956633N10338463WA0205702039001100031070102
B2112021956634N10338459WA0205502038001100032073105
B2112031956635N10338454WA0205402037001100035075102
B2112041956637N10338448WA0205402036001100036075098
B2112051956638N10338443WA0205402036001100032075109
B2112061956639N10338438WA0205402034001100030078113
B2112071956639N10338434WA0205302033001100027086112
B2112081956640N10338429WA0205002031001100029087102
B2112091956640N10338425WA0204802029001100032084099
B2112101956641N10338419WA0204602026001100036081084
B2112111956642N10338413WA0204202024001100040082088
B2112121956642N10338406WA0204002022001100041084092
B2112131956643N10338400WA0203802020001100042084086
B2112141956643N10338393WA0203702018001100045082080
B2112151956644N10338386WA0203502017001100046080081
B2112161956646N10338379WA0203502016001100046075076
B2112171956648N10338372WA0203602016001100042071077
B2112181956650N10338366WA0203502015001100041070084
B2112191956652N10338360WA0203302013001100039070076
B2112201956654N10338354WA0203102012001100039069079
B2112211956656N10338348WA0203002009001100041066076
B2112221956659N10338342WA0202802008001100044064074
B2112231956662N10338336WA0202702007001100044063074
B2112241956665N10338329WA0202602007001100043064072
B2112251956667N10338323WA0202502006001100040067083
B2112261956670N10338317WA0202402005001100040067082
B2112271956672N10338311WA0202302003001100042068075
B2112281956674N10338305WA0202302003001100045068063
B2112291956677N10338298WA0202302003001100046065071
B2112301956680N10338292WA0202402004001100045060057
B2112311956683N10338286WA0202602004001100043058067
B2112321956687N10338280WA0202702004001100038055082
B2112331956690N10338276WA0202702004001100035056092
B2112341956693N10338271WA0202702004001100035058078
B2112351956695N10338266WA0202602003001100039063098
B2112361956698N10338260WA0202402003001100042065066
B2112371956701N10338254WA0202402003001100042064084
B2112381956704N10338248WA0202402002001100043062092
B2112391956706N10338242WA0202402002001100044065085
B2112401956709N10338236WA0202202002001100044069075
B2112411956711N10338229WA0202402002001100041071095
B2112421956712N10338224WA0202402003001100036072087
B2112431956714N10338219WA0202302003001100032078086
B2112441956714N10338214WA0202202002001100032084096
B2112451956714N10338208WA0202102001001100034087085
B2112461956715N10338203WA0202102000001100038081086
B2112471956716N10338197WA0202102000001100039074087
B2112481956718N10338191WA0202002000001100036071098
B2112491956719N10338186WA0201902000001100033076094
B2112501956720N10338181WA0201801999001100032083090
B2112511956721N10338176WA0201601997001100035084096
B2112521956721N10338170WA0201501996001100038079099
B2112531956723N10338164WA0201401995001100040075093
B2112541956724N10338158WA0201301994001100040074100
B2112551956726N10338152WA0201001992001100039074096
B2112561956727N10338146WA0201001991001100038073088
B2112571956729N10338140WA0200901989001100038072090
B2112581956731N10338134WA0200701987001100038072088
B2112591956733N10338128WA0200501985001100038073089
B2113001956734N10338122WA0200201983001100038071083
B2113011956737N10338116WA0199901981001100039066063
B2113021956739N10338110WA0199701977001100041065078
B2113031956742N10338104WA0199401973001100044069086
B2113041956744N10338097WA0198901970001100046073090
B2113051956746N10338090WA0198601967001100047074081
B2113061956748N10338083WA0198401964001100046071072
B2113071956751N10338076WA0198201963001100046066074
B2113081956753N10338069WA0198101961001100044064082
B2113091956756N10338063WA0197901958001100043065086
B2113101956759N10338057WA0197601955001100043069084
B2113111956761N10338050WA0197301953001100044070078
B2113121956763N10338043WA0197101950001100046068075
B2113131956766N10338037WA0196901948001100047065090
B2113141956769N10338030WA0196701947001100044066093
B2113151956771N10338023WA0196401944001100043071083
B2113161956773N10338017WA0196001941001100044075057
B2113171956775N10338010WA0195501937001100046071053
B2113181956778N10338002WA0195201934001100053062064
B2113191956784N10337995WA0195001930001100064047064
B2113201956792N10337987WA0194801928001100067043061
B2113211956799N10337980WA0194701925001100063044059
B2113221956806N10337973WA0194601924001100056044059
B2113231956812N10337967WA0194401921001100053043056
B2113241956818N10337961WA0194101918001100055041058
B2113251956824N10337955WA0193701913001100059044068
B2113261956830N10337948WA0193401909001100061050074
B2113271956836N10337940WA0193201907001100061053064
B2113281956841N10337933WA0193101904001100063051057
B2113291956847N10337925WA0193201903001100062048066
B2113301956853N10337918WA0193201904001100059047081
B2113311956858N10337912WA0193101904001100051051094
B2113321956862N10337905WA0192901902001100050059075
B2113331956866N10337898WA0192601900001100053062064
B2113341956870N10337890WA0192701899001100057057051
B2113351956876N10337883WA0192801899001100059052118
B2113361956880N10337876WA0192801900001100052055113
B2113371956884N10337869WA0192601899001100047057105
B2113381956886N10337863WA0192401898001100036078080
B2113391956887N10337858WA0192301897001100039074078
B2113401956889N10337851WA0192301896001100043070090
B2113411956891N10337845WA0192201895001100046065108
B2113421956894N10337838WA0191901894001100042072115
B2113431956894N10337833WA0191901892001100033091091
B2113441956894N10337828WA0191901891001100033090096
B2113451956894N10337822WA0191701890001100034083093
B2113461956896N10337816WA0191601888001100039069099
B2113471956899N10337810WA0191501888001100042065090
B2113481956902N10337804WA0191501887001100042062082
B2113491956905N10337798WA0191501886001100038063070
B2113501956907N10337793WA0191301885001100038058070
B2113511956911N10337788WA0191101884001100040053074
B2113521956915N10337783WA0190901882001100043050074
B2113531956919N10337777WA0190601881001100047056075
B2113541956923N10337770WA0190401879001100046065077
B2113551956925N10337763WA0190201877001100045071073
B2113561956927N10337757WA0190201877001100043069075
B2113571956930N10337751WA0190101876001100043060080
B2113581956934N10337744WA0189901875001100044056087
B2113591956937N10337738WA0189801873001100044060089
B2114001956940N10337732WA0189501871001100043069090
B2114011956941N10337726WA0189301869001100042075088
B2114021956943N10337719WA0189201867001100042076087
B2114031956944N10337713WA0189101866001100043073091
B2114041956946N10337706WA0188901863001100041074119
B2114051956947N10337700WA0188601861001100038081123
B2114061956948N10337694WA0188501859001100034090117
B2114071956947N10337689WA0188301857001100033094109
B2114081956947N10337684WA0188201855001100034086105
B2114091956948N10337678WA0188101854001100033080119
B2114101956948N10337673WA0187901852001100032084115
B2114111956949N10337668WA0187701849001100032090102
B2114121956949N10337663WA0187501846001100036087090
B2114131956949N10337656WA0187201844001100042081084
B2114141956951N10337649WA0187101841001100046076085
B2114151956953N10337642WA0186901840001100048069092
B2114161956955N10337635WA0186801839001100043069084
B2114171956957N10337629WA0186601837001100040071088
B2114181956960N10337623WA0186401833001100042070080
B2114191956962N10337616WA0186001831001100048067069
B2114201956965N10337609WA0185801829001100052065086
B2114211956969N10337601WA0185701828001100052065079
B2114221956972N10337593WA0185701827001100049064067
B2114231956975N10337587WA0185601826001100046059069
B2114241956979N10337580WA0185401823001100047055067
B2114251956984N10337574WA0185201821001100047054068
B2114261956988N10337567WA0184901819001100046056074
B2114271956992N10337560WA0184701817001100053058048
B2114281956997N10337553WA0184701816001100050056048
B2114291957001N10337546WA0184601815001100050050058
B2114301957006N10337540WA0184601815001100048045065
B2114311957011N10337535WA0184301813001100047045069
B2114321957017N10337529WA0184101811001100048050067
B2114331957021N10337523WA0183901809001100047053071
B2114341957026N10337516WA0183801807001100053051048
B2114351957032N10337510WA0183601805001100053047059
B2114361957037N10337504WA0183501803001100053044062
B2114371957043N10337498WA0183301801001100053044062
B2114381957048N10337492WA0183201800001100051046061
B2114391957054N10337486WA0182901798001100053047050
B2114401957059N10337480WA0182801796001100052045053
B2114411957065N10337474WA0182601795001100052043042
B2114421957072N10337468WA0182501794001100056040041
B2114431957078N10337463WA0182601794001100054037060
B2114441957085N10337458WA0182501793001100055037048
B2114451957091N10337453WA0182401792001100049038066
B2114461957096N10337448WA0182301790001100052039066
B2114471957103N10337442WA0182101789001100052038063
B2114481957109N10337436WA0182101788001100059039075
B2114491957116N10337430WA0182101788001100059039077
B2114501957123N10337424WA0182301788001100058041074
B2114511957129N10337419WA0182301788001100060039071
B2114521957135N10337414WA0182401788001100048038080
B2114531957140N10337409WA0182401787001100044042107
B2114541957145N10337405WA0182301786001100041045108
B2114551957147N10337399WA0182201786001100036065116
B2114561957147N10337395WA0182001785001100028089129
B2114571957146N10337391WA0182001783001100024096144
B2114581957145N10337389WA0181901783001100017108148
B2114591957144N10337388WA0181801782001100010112157
B2115001957143N10337387WA0181701779001100008121163
B2115011957142N10337386WA0181501776001100011145159
B2115021957140N10337384WA0181401774001100016144147
B2115031957138N10337382WA0181301773001100020125133
B2115041957137N10337379WA0181301772001100022110123
B2115051957137N10337373WA0181301770001100033080117
B2115061957140N10337365WA0181101769001100043065098
B2115071957147N10337357WA0181301769001100054051091
B2115081957153N10337350WA0181401770001100053049076
B2115091957158N10337344WA0181401771001100046052076
B2115101957162N10337338WA0181401770001100044053072
B2115111957166N10337333WA0181301769001100046046066
B2115121957172N10337327WA0181101768001100050043051
B2115131957178N10337321WA0181201767001100056037056
B2115141957185N10337316WA0181101768001100058035050
B2115151957193N10337310WA0181101768001100057035051
B2115161957200N10337305WA0181201769001100059034056
B2115171957207N10337300WA0181201769001100054033038
B2115181957214N10337296WA0181201769001100054032049
B2115191957221N10337291WA0181201769001100053031046
B2115201957227N10337287WA0181101768001100053030048
B2115211957234N10337283WA0181001767001100052031045
B2115221957241N10337278WA0180801765001100052031045
B2115231957248N10337274WA0180501763001100058032040
B2115241957256N10337269WA0180401762001100058030039
B2115251957263N10337264WA0180401762001100056027029
B2115261957271N10337260WA0180301762001100058022033
B2115271957278N10337257WA0180201760001100051022044
B2115281957285N10337254WA0180001759001100055025046
B2115291957292N10337250WA0179801757001100053027040
B2115301957300N10337246WA0179701756001100053024032
B2115311957308N10337243WA0179601755001100056021035
B2115321957316N10337240WA0179501754001100055020048
B2115331957323N10337236WA0179401754001100054023047
B2115341957331N10337233WA0179401752001100053026047
B2115351957338N10337229WA0179201751001100054026043
B2115361957345N10337225WA0179101750001100056026047
B2115371957353N10337221WA0179001749001100057027058
B2115381957360N10337217WA0178901748001100056031072
B2115391957367N10337212WA0178901747001100056036071
B2115401957374N10337206WA0178901747001100054039062
B2115411957380N10337201WA0178801747001100052040070
B2115421957386N10337196WA0178801747001100050040057
B2115431957391N10337191WA0178701747001100047038063
B2115441957397N10337186WA0178601746001100048036050
B2115451957403N10337182WA0178501745001100051032049
B2115461957410N10337177WA0178301743001100049031030
B2115471957417N10337172WA0178601743001100057032028
B2115481957425N10337168WA0178701743001100056030003
B2115491957432N10337165WA0178901744001100048015350
B2115501957438N10337166WA0178901743001100044359342
B2115511957445N10337168WA0178701743001100043337325
B2115521957451N10337173WA0178701743001100044323296
B2115531957455N10337178WA0178801742001100039307275
B2115541957455N10337183WA0178901743001100027271250
B2115551957454N10337187WA0178901742001100023257218
B2115561957452N10337189WA0178801742001100012240208
B2115571957451N10337189WA0178801741001100006184195
B2115581957450N10337188WA0178801741001100008120179
B2115591957449N10337185WA0178701739001100013113161
B2116001957448N10337183WA0178501736001100018115149
B2116011957447N10337180WA0178201736001100022106144
B2116021957447N10337176WA0178201735001100027097138
B2116031957446N10337171WA0178101734001100028089125
B2116041957446N10337167WA0178101734001100027086121
B2116051957446N10337163WA0178001733001100026088117
B2116061957447N10337158WA0177901732001100029090113
B2116071957447N10337153WA0177701731001100034085105
B2116081957448N10337147WA0177601730001100038076096
B2116091957450N10337141WA0177501729001100042066086
B2116101957453N10337135WA0177501728001100047051074
B2116111957459N10337129WA0177601727001100050042062
B2116121957466N10337125WA0177501727001100050033053
B2116131957473N10337121WA0177401728001100050025041
B2116141957480N10337118WA0177301727001100049027031
B2116151957487N10337114WA0177301726001100051025026
B2116161957494N10337111WA0177301725001100051019016
B2116171957502N10337109WA0177401725001100058014017
B2116181957511N10337106WA0177301725001100055017028
B2116191957518N10337103WA0177301726001100051021021
B2116201957526N10337101WA0177401726001100047020011
B2116211957532N10337098WA0177401725001100046016019
B2116221957540N10337097WA0177301724001100051012019
B2116231957547N10337095WA0177201723001100054014020
B2116241957555N10337092WA0177201723001100054017027
B2116251957563N10337090WA0177401725001100054016026
B2116261957570N10337087WA0177501727001100052016026
B2116271957578N10337085WA0177601728001100054017045
B2116281957585N10337082WA0177801730001100048020046
B2116291957591N10337079WA0177801731001100048025065
B2116301957597N10337076WA0177701731001100048035084
B2116311957602N10337071WA0177801732001100043044097
B2116321957604N10337065WA0177701732001100034078112
B2116331957604N10337060WA0177801733001100027091143
B2116341957603N10337057WA0177801732001100018109157
B2116351957600N10337057WA0177901732001100010182171
B2116361957598N10337059WA0177901733001100012227195
B2116371957597N10337061WA0177901733001100017253206
B2116381957596N10337064WA0177901733001100016252218
B2116391957595N10337066WA0178001732001100014240215
B2116401957594N10337068WA0178001732001100015234212
B2116411957592N10337070WA0178001732001100016240218
B2116421957591N10337072WA0178001732001100017248225
B2116431957590N10337075WA0178001732001100019254236
B2116441957589N10337078WA0178101732001100022269241
B2116451957590N10337082WA0178101731001100027277240
B2116461957590N10337087WA0178001731001100028285237
B2116471957591N10337091WA0178001731001100026284218
B2116481957592N10337094WA0177901730001100023272220
B2116491957591N10337098WA0178001730001100022263215
B2116501957591N10337101WA0178001730001100021265233
B2116511957591N10337105WA0178101729001100025280251
B2116521957592N10337109WA0178101729001100030292268
B2116531957596N10337114WA0178001729001100041312285
B2116541957602N10337118WA0177901728001100049329315
B2116551957610N10337121WA0177901729001100055348340
B2116561957618N10337121WA0177901729001100058002006
B2116571957627N10337119WA0177901729001100059013024
B2116581957634N10337115WA0177901730001100051026040
B2116591957639N10337108WA0177901732001100042051058
B2117001957640N10337102WA0177901733001100032078092
B2117011957640N10337098WA0177901733001100024101124
B2117021957638N10337095WA0177801733001100019118147
B2117031957636N10337094WA0177801732001100016145163
B2117041957634N10337093WA0177701732001100015172176
B2117051957631N10337095WA0177701732001100015202186
B2117061957629N10337097WA0177701732001100018223201
B2117071957628N10337101WA0177801733001100022263209
B2117081957628N10337105WA0177901733001100022273226
B2117091957628N10337108WA0177801732001100021280213
B2117101957629N10337112WA0177801732001100021275220
B2117111957629N10337115WA0177801732001100021264212
B2117121957628N10337118WA0177801732001100020254208
B2117131957627N10337121WA0177801732001100020253208
B2117141957627N10337124WA0177901732001100018259203
B2117151957626N10337127WA0177901732001100017265208
B2117161957626N10337130WA0177801732001100016259202
B2117171957625N10337132WA0177701731001100018245206
B2117181957624N10337135WA0177501730001100022240198
B2117191957622N10337138WA0177501730001100023240189
B2117201957620N10337141WA0177701730001100022240190
B2117211957618N10337144WA0177801730001100016236181
B2117221957617N10337145WA0177701730001100012211184
B2117231957616N10337146WA0177701730001100013199183
B2117241957614N10337146WA0177601730001100015199178
B2117251957611N10337147WA0177601729001100016199182
B2117261957609N10337148WA0177501729001100016202182
B2117271957607N10337149WA0177601729001100013213185
B2117281957606N10337150WA0177501727001100010228181
B2117291957605N10337151WA0177301726001100010232176
B2117301957604N10337152WA0177101726001100011213173
B2117311957603N10337152WA0176801724001100014186163
B2117321957600N10337152WA0176601723001100017170159
B2117331957598N10337151WA0176501722001100019149157
B2117341957596N10337148WA0176501720001100021131154
B2117351957594N10337144WA0176301720001100025118152
B2117361957592N10337141WA0176201719001100027123151
B2117371957590N10337137WA0176101717001100025129153
B2117381957588N10337134WA0176001716001100023134155
B2117391957585N10337132WA0175801714001100021133142
B2117401957583N10337129WA0175601711001100021136148
B2117411957581N10337127WA0175301709001100024135142
B2117421957578N10337124WA0175201707001100026134143
B2117431957575N10337121WA0175001706001100026131140
B2117441957573N10337117WA0174901705001100025127138
B2117451957571N10337114WA0174801703001100025123136
B2117461957569N10337111WA0174701702001100025121137
B2117471957567N10337107WA0174601701001100025120135
B2117481957565N10337104WA0174501699001100027119133
B2117491957563N10337100WA0174301698001100027117128
B2117501957562N10337096WA0174201696001100027114134
B2117511957560N10337092WA0174101696001100028111131
B2117521957558N10337088WA0174101695001100029109133
B2117531957557N10337083WA0174101695001100029107127
B2117541957556N10337079WA0174101695001100028103123
B2117551957555N10337074WA0174101694001100028103127
B2117561957554N10337070WA0174001694001100030104129
B2117571957553N10337065WA0173901693001100031105125
B2117581957551N10337060WA0173901693001100032106125
B2117591957550N10337055WA0173801693001100033104120
B2118001957549N10337050WA0173801692001100033102119
B2118011957548N10337045WA0173701692001100033102125
B2118021957547N10337040WA0173601691001100032102120
B2118031957545N10337035WA0173501690001100033103116
B2118041957544N10337029WA0173401689001100036101116
B2118051957543N10337023WA0173101687001100039098109
B2118061957543N10337017WA0173201686001100038096122
B2118071957542N10337012WA0173001685001100035097138
B2118081957541N10337006WA0173001684001100030102145
B2118091957540N10337003WA0172701682001100024110152
B2118101957539N10336999WA0172601679001100022116145
B2118111957537N10336996WA0172301677001100021121154
B2118121957536N10336994WA0172101674001100021121153
B2118131957534N10336991WA0172001673001100019125162
B2118141957533N10336989WA0171901672001100017133170
B2118151957531N10336987WA0171801670001100014145173
B2118161957529N10336986WA0171601669001100012161180
B2118171957528N10336986WA0171501668001100012175174
B2118181957526N10336986WA0171301666001100011176168
B2118191957524N10336985WA0171201665001100010165167
B2118201957523N10336985WA0171101664001100008149170
B2118211957522N10336984WA0171101663001100007143170
B2118221957521N10336984WA0170901661001100007151170
B2118231957520N10336983WA0170701661001100009154171
B2118241957519N10336982WA0170501659001100010152176
B2118251957518N10336982WA0170401658001100009156178
B2118261957516N10336981WA0170401656001100006162174
B2118271957516N10336981WA0170201656001100006152172
B2118281957515N10336980WA0170001654001100007146170
B2118291957514N10336980WA0169801653001100009151175
B2118301957512N10336979WA0169701651001100009159176
B2118311957511N10336978WA0169601650001100009159173
B2118321957510N10336978WA0169501648001100008154170
B2118331957509N10336977WA0169401647001100009146172
B2118341957508N10336976WA0169201645001100009145173
B2118351957506N10336975WA0169101644001100009152180
B2118361957505N10336975WA0169001642001100008161180
B2118371957504N10336975WA0168801640001100008165176
B2118381957503N10336974WA0168601639001100008160175
B2118391957502N10336974WA0168501637001100008156178
B2118401957500N10336973WA0168301635001100009161181
B2118411957499N10336973WA0168101633001100011177185
B2118421957497N10336973WA0167901631001100016184184
B2118431957494N10336973WA0167701629001100018186188
B2118441957492N10336974WA0167701626001100018188201
B2118461957488N10336975WA0167601623001100010227216
B2118471957488N10336978WA0167401621001100013262219
B2118481957489N10336981WA0167201618001100020278219
B2118491957490N10336985WA0167101616001100024275203
B2118501957490N10336988WA0166901615001100020267199
B2118511957489N10336991WA0166901614001100015252191
B2118521957488N10336992WA0166701612001100010219183
B2118531957487N10336992WA0166501610001100011164173
B2118541957485N10336989WA0166301608001100018130161
B2118551957484N10336986WA0166101606001100021110148
B2118561957483N10336980WA0166001605001100030094139
B2118571957484N10336974WA0165901603001100035084124
B2118581957484N10336968WA0165701603001100036079111
B2118591957486N10336962WA0165501601001100038078107
B2119001957487N10336956WA0165401600001100040075105
B2119011957489N10336950WA0165301599001100042076105
B2119021957490N10336943WA0165201597001100044079111
B2119031957491N10336936WA0165101597001100044083124
B2119041957491N10336929WA0165101596001100042089132
B2119051957491N10336923WA0165201595001100040093139
B2119061957491N10336917WA0165101594001100037098139
B2119071957490N10336912WA0165101593001100032104150
B2119081957488N10336908WA0165001592001100027111171
B2119091957487N10336904WA0164801591001100023120178
B2119101957485N10336902WA0164701590001100019128175
B2119111957483N10336901WA0164501588001100018146175
B2119121957481N10336901WA0164401588001100013166171
B2119131957479N10336901WA0164401587001100009177178
B2119141957478N10336901WA0164301585001100008163170
B2119151957477N10336901WA0164101584001100011154169
B2119161957475N10336900WA0163901582001100015152160
B2119171957473N10336899WA0163701581001100019144151
B2119181957471N10336897WA0163701580001100022128143
B2119191957469N10336894WA0163601579001100024113135
B2119201957468N10336890WA0163401577001100026105135
B2119211957467N10336886WA0163201575001100026098135
B2119221957467N10336882WA0163001573001100027099133
B2119231957466N10336878WA0162901571001100029101134
B2119241957465N10336873WA0162601569001100031100136
B2119251957464N10336868WA0162401567001100029102154
B2119261957463N10336865WA0162201565001100024110173
B2119271957462N10336862WA0162001563001100018121195
B2119281957461N10336860WA0161601560001100014148208
B2119291957459N10336861WA0161201557001100012187209
B2119301957459N10336865WA0160901555001100014261213
B2119311957461N10336870WA0160801552001100022286225
B2119321957463N10336875WA0160801549001100025298234
B2119331957466N10336878WA0160701547001100022301251
B2119341957468N10336881WA0160401543001100022302253
B2119351957470N10336885WA0160101540001100029300252
B2119361957473N10336890WA0159801537001100035298260
B2119371957475N10336896WA0159601534001100035297240
B2119381957477N10336901WA0159601532001100032298260
B2119391957480N10336905WA0159501530001100028306263
B2119401957483N10336908WA0159301527001100028311261
B2119411957486N10336912WA0159001523001100031309263
B2119421957489N10336916WA0158801520001100034301254
B2119431957492N10336921WA0158501518001100033301239
B2119441957494N10336925WA0158501516001100030304250
B2119451957497N10336929WA0158401514001100025309238
B2119461957499N10336932WA0158301514001100022309248
B2119471957501N10336935WA0158101512001100024299242
B2119481957502N10336939WA0157901510001100027289234
B2119491957503N10336943WA0158001508001100026285251
B2119501957504N10336947WA0158101511001100027286235
B2119511957505N10336951WA0158201510001100023292246
B2119521957508N10336953WA0158201510001100020309239
B2119531957510N10336956WA0158001509001100022307223
B2119541957511N10336958WA0157801508001100021301227
B2119551957511N10336962WA0157701505001100025263225
B2119561957511N10336965WA0157701506001100021275232
B2119571957511N10336969WA0157801507001100019290222
B2119581957512N10336972WA0157701507001100019295228
B2119591957513N10336974WA0157701507001100021286232
B2120001957514N10336978WA0157601506001100023280227
B2120011957514N10336981WA0157601506001100024286241
B2120021957516N10336985WA0157601505001100024290236
B2120031957517N10336988WA0157601505001100022305236
B2120041957519N10336991WA0157501504001100022310231
B2120051957521N10336993WA0157401504001100022300229
B2120061957523N10336997WA0157201502001100022286230
B2120071957523N10337000WA0157201502001100021284224
B2120081957524N10337003WA0157201501001100018288226
B2120091957525N10337004WA0157301501001100013307225
B2120101957526N10337006WA0157101501001100010305217
B2120111957527N10337007WA0157001500001100007270213
B2120121957526N10337007WA0156801500001100008215202
B2120131957525N10337008WA0156601499001100011180190
B2120141957523N10337007WA0156501498001100015156185
B2120151957521N10337006WA0156401497001100015145173
B2120161957520N10337005WA0156301495001100011153176
B2120171957518N10337004WA0156101494001100011167176
B2120181957516N10337003WA0155901491001100014167172
B2120191957514N10337002WA0155601489001100019154168
B2120201957511N10337001WA0155501487001100022144168
B2120211957509N10336999WA0155501486001100019146187
B2120221957507N10336998WA0155301485001100014161182
B2120231957505N10336997WA0155201483001100012175176
B2120241957503N10336997WA0155001481001100014157161
B2120251957501N10336995WA0155001480001100017135165
B2120261957500N10336994WA0154801479001100015127167
B2120271957499N10336992WA0154701478001100012136191
B2120281957497N10336991WA0154401476001100009162180
B2120291957496N10336991WA0154201473001100011173171
B2120301957494N10336990WA0153901470001100013163177
B2120311957492N10336989WA0153601468001100017157170
B2120321957489N10336988WA0153401466001100018157176
B2120331957487N10336987WA0153201464001100020159177
B2120341957484N10336986WA0153101463001100019158172
B2120351957482N10336985WA0153101462001100017152175
B2120361957480N10336984WA0153001461001100015146179
B2120371957478N10336983WA0152901459001100014148185
B2120381957476N10336982WA0152801459001100014160177
B2120391957474N10336981WA0152801458001100015164154
B2120401957472N10336980WA0152901458001100015147145
B2120411957470N10336978WA0152901457001100015122144
B2120421957469N10336976WA0152801456001100019109153
B2120431957469N10336972WA0152801455001100019107167
B2120441957468N10336969WA0152501454001100020115176
B2120451957467N10336967WA0152201454001100019131185
B2120461957464N10336966WA0152101452001100016154187
B2120471957462N10336966WA0152101452001100013187206
B2120481957460N10336967WA0152201452001100011216214
B2120491957460N10336969WA0152201451001100011270210
B2120501957460N10336971WA0152201451001100013283211
B2120511957461N10336973WA0151901450001100013271215
B2120521957461N10336976WA0151701449001100016256220
B2120531957460N10336979WA0151501449001100019260232
B2120541957460N10336982WA0151501449001100020274230
B2120551957461N10336985WA0151501448001100019292216
B2120561957462N10336987WA0151401447001100015289205
B2120571957462N10336989WA0151201446001100012272205
B2120581957462N10336991WA0151001445001100011235202
B2120591957460N10336992WA0151001445001100009214193
B2121001957459N10336992WA0151201444001100007176191
B2121011957457N10336990WA0151201444001100008124184
B2121021957457N10336988WA0151001444001100012111183
B2121031957456N10336986WA0150801444001100012122173
B2121041957455N10336984WA0150401442001100015129181
B2121051957452N10336983WA0150101441001100017160158
B2121061957449N10336982WA0150101440001100019160160
B2121071957447N10336981WA0150201439001100017156159
B2121081957445N10336979WA0150401438001100016141169
B2121091957444N10336976WA0150301438001100016114162
B2121101957443N10336974WA0150101437001100016115159
B2121111957442N10336971WA0149901436001100019126167
B2121121957440N10336969WA0149801434001100021132158
B2121131957438N10336966WA0149801433001100020133160
B2121141957436N10336964WA0149801433001100019119156
B2121151957435N10336961WA0149701431001100019109158
B2121161957434N10336958WA0149501430001100020111163
B2121171957433N10336955WA0149301428001100019124177
B2121181957431N10336953WA0149001426001100017144193
B2121191957429N10336952WA0148901425001100016166213
B2121201957427N10336953WA0148801423001100012192218
B2121211957426N10336955WA0148701422001100011240226
B2121221957427N10336957WA0148601420001100014282231
B2121231957430N10336962WA0148501419001100026302237
B2121241957433N10336965WA0148501418001100027315251
B2121251957436N10336968WA0148401417001100025317258
B2121261957439N10336971WA0148201414001100023309257
B2121271957441N10336974WA0147901409001100020292249
B2121281957441N10336977WA0147701406001100016269237
B2121291957441N10336979WA0147601404001100014252219
B2121301957440N10336980WA0147501402001100006209212
B2121311957438N10336978WA0147401402001100010137196
B2121321957437N10336974WA0147201400001100021102174
B2121331957436N10336969WA0147201399001100028096148
B2121341957435N10336964WA0147101398001100029107141
B2121351957433N10336960WA0147001396001100026116150
B2121361957431N10336957WA0146901395001100020128157
B2121371957429N10336955WA0146801394001100017135170
B2121381957428N10336955WA0146601392001100010150174
B2121391957427N10336956WA0146301391001100007184189
B2121401957427N10336958WA0145901390001100010220196
B2121411957425N10336961WA0145601388001100015231204
B2121421957423N10336963WA0145501386001100020223211
B2121431957421N10336966WA0145201384001100019220202
B2121441957418N10336968WA0145001382001100018226176
B2121451957416N10336970WA0144801380001100020214198
B2121461957413N10336971WA0144701378001100021196223
B2121471957410N10336972WA0144401375001100023184212
B2121481957407N10336973WA0144101374001100022187211
B2121491957404N10336974WA0143901372001100021203211
B2121501957401N10336976WA0143701371001100022217222
B2121511957399N10336978WA0143701370001100023226216
B2121521957397N10336981WA0143801369001100019222217
B2121531957395N10336982WA0143801368001100014227223
B2121541957394N10336984WA0143801367001100008236266
B2121551957394N10336984WA0143901367001100000236321
B2121561957394N10336984WA0143901366001100000236317
B2121571957394N10336984WA0143801368001100000236288
B2121581957394N10336984WA0143901367001100000236277
B2121591957394N10336985WA0143901368001100000236263
B2122001957394N10336984WA0143901367001100000236253
B2122011957393N10336985WA0143901367001100000236251
B2122021957393N10336985WA0143901367001100000236244
B2122031957392N10336985WA0143901367001100000236240
B2122041957392N10336986WA0143901367001100000236238
B2122051957391N10336986WA0143901367001100004207234
B2122061957391N10336986WA0143901367001100006212195
B2122071957390N10336987WA0143901367001100005213198
B2122081957389N10336987WA0143901367001100005196218
B2122091957389N10336987WA0143901366001100006207212
B2122101957388N10336988WA0143901366001100005215213
B2122111957387N10336988WA0143901366001100005205215
B2122121957386N10336988WA0143901366001100006184204
B2122131957386N10336988WA0143901366001100005173198
B2122141957385N10336988WA0143901365001100007186196
B2122151957384N10336989WA0143901365001100006203199
B2122161957383N10336989WA0143901365001100005189205
B2122171957383N10336989WA0143901365001100004208202
B2122181957382N10336989WA0143901365001100004229207
B2122191957382N10336990WA0143901365001100004212213
B2122201957381N10336990WA0143901365001100003216208
B2122211957381N10336990WA0143901364001100004219208
B2122221957380N10336991WA0143901364001100004203210
B2122231957380N10336991WA0143901364001100004212207
B2122241957379N10336992WA0143901364001100004217209
B2122251957379N10336992WA0143901364001100005234210
B2122261957379N10336993WA0143901364001100003202216
B2122271957379N10336993WA0143901364001100000202216
B2122281957379N10336993WA0143901364001100000202216
B2122291957379N10336993WA0143901364001100000202216
B2122301957379N10336993WA0143901364001100000202216
B2122311957379N10336993WA0143901364001100000202216
B2122321957379N10336993WA0143901364001100000202216
B2122331957379N10336993WA0143901364001100000202216
B2122341957379N10336993WA0143901364001100000202216
B2122351957379N10336993WA0143901364001100000202215
B2122361957379N10336993WA0143901364001100000202215
B2122371957379N10336993WA0143901364001100000202215
B2122381957379N10336993WA0143901364001100000202215
B2122391957379N10336993WA0143901364001100000202215
B2122401957379N10336993WA0143901364001100000202215
B2122411957379N10336993WA0143901364001100000202215
B2122421957379N10336993WA0143901364001100000202215
B2122431957379N10336993WA0143901364001100000202215
B2122441957379N10336993WA0143901364001100000202215
B2122451957379N10336993WA0143901364001100000202215
B2122461957379N10336993WA0143901364001100000202215
B2122471957379N10336993WA0143901364001100000202215
B2122481957381N10336993WA0143901364001100002004215
B2122491957381N10336992WA0143901364001100002026215
B2122501957381N10336992WA0143901364001100002015215
GfY7FzAQ1gvAaCtzaUKkyaziUc/Sg9wpbzsAidai3ar0C8nyWPHrgaQF3pq697StH
G1O4z/XDwkDnBwkKX7KLIUZD/fANgGgoichoXhlVdPEy3Ezx9J0/ihleT2kO8GTag
GtcKbjAmb6qsebU0LmaFkiJpXqvOjm/vQ5Fd2OjU7lx0=

