AXFH000
HFDTE130724
HFPLTPILOT:Scott O’Brien
HFGTYGLIDERTYPE:BGD Epic
HFDTM100GPSDATUM:WGS84
HFRFWFIRMWAREVERSION:8.2.3
HFRHWHARDWAREVERSION:Unknown device (iPhone15,4)
HFFTYFRTYPE:Flyskyhy,8.2.3
HFGPS:Internal
HFPRSVARIO:Internal Vario
HFCCLCOMPETITIONCLASS:Paraglider
HFTZNTIMEZONE:-7
HFSITSITE:Ed Levin,US
I053638FXA3941VXA4244GSP4547CCO4850HDT
C130724190625130724000106TASK
C0000000N00000000ETAKEOFF
C3645916N11905906W00004009999999000000360000STARTAREA DNLNCH
C3645916N11905906W00000000000400000000360000TURNAREA DNLNCH
C3644815N11904600W00000000000400000000360000TURNAREA SONTAG
C3644227N11904778W00000000000400000000360000TURNAREA LASTCH
C3645916N11905906W00000000000400000000360000TURNAREA DNLNCH
C3645983N11907769W00000000000400000000360000TURNAREA BIGCAT
C3644130N11906307W00000000000400000000360000TURNAREA DNLPLZ
C3644130N11906307W00004009999999000000360000FINISHAREA DNLPLZ
C0000000N00000000ELANDING
B1906563728463N12151574WA0071300712004003000011003
B1906573728463N12151574WA0071300712004003000011005
B1906583728463N12151574WA0071200712004003000332006
B1906593728463N12151574WA0071200712004003001330014
B1907003728463N12151574WA0071200711004003001293005
B1907013728463N12151574WA0071200711004003000164014
B1907023728463N12151574WA0071200711004003000164007
B1907033728463N12151574WA0071200711004003000164002
B1907043728463N12151574WA0071100711004003000164008
B1907053728463N12151574WA0071100711004003000164000
B1907063728463N12151574WA0071100711004003000164357
B1907073728463N12151574WA0071100711004003000164344
B1907083728462N12151574WA0071100712004003001187342
B1907093728462N12151574WA0071100711004003002112020
B1907103728463N12151573WA0071100712004003002010353
B1907113728463N12151574WA0071100713004003003232227
B1907123728462N12151574WA0071200714004003009174188
B1907133728460N12151574WA0071200714004003009181199
B1907143728458N12151575WA0071200712004003009186198
B1907153728456N12151576WA0071200713004003016200209
B1907163728454N12151577WA0071200713004003017205195
B1907173728452N12151579WA0071200711004003017209178
B1907183728449N12151580WA0071100712004003017185179
B1907193728446N12151580WA0071100711004003019172160
B1907203728443N12151580WA0071100711004003022175152
B1907213728441N12151578WA0071100711004003022156153
B1907223728439N12151578WA0071200712004003015162134
B1907233728437N12151575WA0071200713004003015130129
B1907243728436N12151573WA0071300714004003017118126
B1907253728436N12151568WA0071300716004003024084144
B1907263728436N12151565WA0071400717004003018094152
B1907273728435N12151562WA0071500717004003018122159
B1907283728433N12151562WA0071500715004003012174169
B1907293728432N12151562WA0071600714004003013201195
B1907303728430N12151565WA0071700716004003013247211
B1907313728430N12151570WA0071700715004003022274236
B1907323728432N12151576WA0071700716004003040290260
B1907333728437N12151582WA0071700717004003047315282
B1907343728441N12151588WA0071700717004003044315293
B1907353728445N12151594WA0071600716004003044314292
B1907363728449N12151600WA0071600716004003038309294
B1907373728453N12151606WA0071600716004003042309290
B1907383728458N12151613WA0071600716004004042313288
B1907393728463N12151619WA0071600716004004046314280
B1907403728467N12151626WA0071500714004003044309282
B1907413728470N12151633WA0071500714004003044296286
B1907423728473N12151640WA0071500714004003044297277
B1907433728477N12151645WA0071400714004003043309283
B1907443728482N12151650WA0071300714004003039316272
B1907453728485N12151656WA0071300714004003039312273
B1907463728489N12151661WA0071300714004003039305277
B1907473728492N12151667WA0071300715004003039302293
B1907483728496N12151673WA0071300715004003041305293
B1907493728500N12151679WA0071400715004003041311296
B1907503728505N12151685WA0071400716004004041314288
B1907513728510N12151689WA0071400716004003043328290
B1907523728515N12151694WA0071400717004003041323290
B1907533728518N12151699WA0071500717004003041309263
B1907543728521N12151704WA0071500717004003034305247
B1907553728521N12151708WA0071500717004003029266246
B1907563728521N12151714WA0071600716004003028271210
B1907573728519N12151718WA0071600715004003029230205
B1907583728517N12151720WA0071600716004003028201184
B1907593728515N12151719WA0071600716004003019142169
B1908003728513N12151719WA0071600715004003012159149
B1908013728513N12151715WA0071600716004003018107160
B1908023728511N12151714WA0071600714004003014129147
B1908033728510N12151712WA0071600714004003014146146
B1908043728508N12151710WA0071600714004003016131138
B1908053728507N12151706WA0071600714004003019112138
B1908063728506N12151703WA0071600714004003018112138
B1908073728506N12151700WA0071500713004003019103146
B1908083728504N12151697WA0071500714004003019128144
B1908093728502N12151695WA0071500714004003019140142
B1908103728501N12151692WA0071500715004003017123140
B1908113728500N12151689WA0071500715004003017104144
B1908123728499N12151686WA0071500713004003022113150
B1908133728498N12151684WA0071500713004003022131148
B1908143728496N12151682WA0071500712004003017134143
B1908153728494N12151679WA0071500712004003016124134
B1908163728493N12151676WA0071500711004003017116137
B1908173728492N12151673WA0071400712004003019116146
B1908183728491N12151670WA0071400712004003018120152
B1908193728489N12151667WA0071400710004003018131147
B1908203728487N12151665WA0071400711004003017137148
B1908213728485N12151663WA0071300710004003019137150
B1908223728483N12151661WA0071300709004003018140146
B1908233728481N12151658WA0071200709004003019135149
B1908243728479N12151657WA0071100708004004016154149
B1908253728477N12151655WA0071100708004003016140150
B1908263728474N12151653WA0071100706004003016150147
B1908273728472N12151651WA0071000705004003020147147
B1908283728469N12151648WA0070900705004003026136133
B1908293728466N12151645WA0070900704004003026142144
B1908303728465N12151642WA0070900707004003025127159
B1908313728462N12151640WA0070800707004003018141158
B1908323728460N12151638WA0070800706004003020147154
B1908333728458N12151636WA0070800709004003020138147
B1908343728457N12151634WA0070800709004003016126147
B1908353728456N12151632WA0070800711004003013113149
B1908363728455N12151629WA0070900710004003015121156
B1908373728453N12151627WA0071000709004003016131155
B1908383728451N12151625WA0071000709004003016142158
B1908393728450N12151623WA0071000710004003016147152
B1908403728448N12151622WA0071000710004003012136147
B1908413728447N12151619WA0071000710004003014119143
B1908423728446N12151617WA0071000710004003014122151
B1908433728445N12151615WA0071000711004003014124151
B1908443728444N12151613WA0071000711004003012124145
B1908453728442N12151611WA0071000711004003014124143
B1908463728441N12151609WA0071100711004003014122137
B1908473728440N12151606WA0071100711004003015118131
B1908483728439N12151603WA0071100712004003017112128
B1908493728438N12151600WA0071100713004003017106129
B1908503728438N12151597WA0071200714004003017100133
B1908513728438N12151594WA0071200714004003016095137
B1908523728438N12151591WA0071300715004003014094140
B1908533728437N12151589WA0071300715004003014098141
B1908543728437N12151586WA0071400715004003014105133
B1908553728436N12151583WA0071500716004003016104144
B1908563728436N12151580WA0071500716004003015103158
B1908573728435N12151578WA0071600716004003015107171
B1908583728434N12151577WA0071600716004003012135179
B1908593728432N12151580WA0071600715004003012230186
B1909003728431N12151584WA0071600715004003024253214
B1909013728431N12151589WA0071600716004003034281240
B1909023728433N12151595WA0071600717004003034300273
B1909033728436N12151601WA0071600716004003036296292
B1909043728441N12151607WA0071600718004003039322286
B1909053728445N12151612WA0071600717004003041318300
B1909063728450N12151617WA0071600719004003044318304
B1909073728455N12151623WA0071700718004003041317288
B1909083728460N12151628WA0071700718004003043316293
B1909093728464N12151634WA0071700718004003042318296
B1909103728469N12151640WA0071700718004003043313295
B1909113728473N12151646WA0071700717004003043310292
B1909123728477N12151652WA0071700717004003043307288
B1909133728481N12151658WA0071700718004003042310290
B1909143728486N12151663WA0071700719004003042316288
B1909153728490N12151669WA0071700720004003041319291
B1909163728495N12151674WA0071700721004003043317292
B1909173728500N12151679WA0071700720004003043322300
B1909183728505N12151683WA0071700722004003043325309
B1909193728511N12151687WA0071800723004003042329307
B1909203728517N12151691WA0071800723004003042332299
B1909213728521N12151695WA0071900722004003042326312
B1909223728526N12151700WA0072000722004003042322300
B1909233728531N12151705WA0072000721004003044319291
B1909243728535N12151710WA0072000721004003044312287
B1909253728538N12151716WA0072100721004003039297269
B1909263728539N12151721WA0072100720004003035273253
B1909273728540N12151726WA0072100718004003026270228
B1909283728537N12151728WA0072100719004003026205218
B1909293728535N12151728WA0072000718004003018174179
B1909303728533N12151728WA0072000718004003014162162
B1909313728532N12151727WA0071900719004003008148161
B1909323728531N12151726WA0071900718004003011154157
B1909333728530N12151725WA0071900718004003011155154
B1909343728528N12151724WA0071900716004003013150147
B1909353728525N12151721WA0071800716004003021136144
B1909363728524N12151719WA0071800715004003021126150
B1909373728522N12151717WA0071700715004003017150158
B1909383728519N12151716WA0071700714004003016186167
B1909393728516N12151718WA0071700715004003024206166
B1909403728515N12151719WA0071600716004003024231174
B1909413728513N12151720WA0071500715004003013211175
B1909423728512N12151721WA0071500714004003011186163
B1909433728509N12151721WA0071500711004003017173154
B1909443728507N12151720WA0071400709004003017163149
B1909453728505N12151719WA0071400710004003016142144
B1909463728503N12151717WA0071300709004003015143147
B1909473728502N12151716WA0071200708004003012139145
B1909483728500N12151714WA0071100706004003017147147
B1909493728496N12151713WA0071000704004003017164151
B1909503728493N12151711WA0070900702004003023162146
B1909513728490N12151709WA0070800701004003023150143
B1909523728488N12151707WA0070600701004003023145148
B1909533728485N12151706WA0070500701004003019156157
B1909543728482N12151705WA0070400700004003019172161
B1909553728479N12151705WA0070300697004003020172157
B1909563728476N12151703WA0070300696004003021157155
B1909573728474N12151702WA0070200694004003021154153
B1909583728471N12151700WA0070100692004003022162161
B1909593728468N12151700WA0069900692004003021176162
B1910003728465N12151699WA0069800689004003021172153
B1910013728462N12151699WA0069600688004003020168146
B1910023728459N12151697WA0069400687004003020153143
B1910033728456N12151695WA0069300686004003023140133
B1910043728453N12151691WA0069100686004003025128131
B1910053728452N12151690WA0069000686004003023137132
B1910063728450N12151688WA0068900685004003015132143
B1910073728448N12151686WA0068900683004003020150129
B1910083728446N12151683WA0068800683004003022127127
B1910093728444N12151678WA0068800683004003022120120
B1910103728442N12151674WA0068700684004003025114125
B1910113728440N12151671WA0068600685004003023131130
B1910123728438N12151668WA0068600685004003023130129
B1910133728436N12151664WA0068600684004003022123131
B1910143728435N12151660WA0068600682004003022115129
B1910153728434N12151658WA0068600682004003016116130
B1910163728432N12151655WA0068600682004003019125133
B1910173728430N12151651WA0068600680004003019126128
B1910183728427N12151648WA0068600680004003023134124
B1910193728425N12151644WA0068600680004003025132131
B1910203728423N12151641WA0068500679004003025120144
B1910213728421N12151639WA0068400677004003021137155
B1910223728418N12151637WA0068300674004003021163164
B1910233728413N12151636WA0068200673004003034176160
B1910243728409N12151635WA0068100673004003035172157
B1910253728404N12151634WA0067900673004003034159146
B1910263728401N12151632WA0067800673004003028153151
B1910273728398N12151630WA0067700674004003016148165
B1910283728395N12151629WA0067600673004003023168162
B1910293728392N12151628WA0067600671004003023166159
B1910303728388N12151625WA0067600672004003025154144
B1910313728385N12151622WA0067600673004003028133134
B1910323728383N12151618WA0067600674004003028118129
B1910333728381N12151614WA0067600676004003026110120
B1910343728379N12151610WA0067600677004003025108116
B1910353728379N12151607WA0067600677004003020101121
B1910363728378N12151602WA0067700675004003023100113
B1910373728377N12151597WA0067800674004003023103108
B1910383728376N12151592WA0067800674004003029100104
B1910393728376N12151587WA0067800675004003023088109
B1910403728376N12151584WA0067800675004003023079118
B1910413728376N12151580WA0067800674004003018088122
B1910423728375N12151576WA0067700672004003018113134
B1910433728373N12151572WA0067700670004003030131146
B1910443728370N12151568WA0067600669004003030126151
B1910453728365N12151565WA0067500669004003030155159
B1910463728361N12151563WA0067500670004003030158162
B1910473728357N12151561WA0067400670004003024166168
B1910483728354N12151560WA0067300670004003024164168
B1910493728351N12151559WA0067200670004003021159173
B1910503728348N12151558WA0067200669004003020165178
B1910513728345N12151557WA0067200667004003024176189
B1910523728341N12151558WA0067200665004003028194187
B1910533728337N12151560WA0067100664004003028208187
B1910543728334N12151562WA0067100663004003028210189
B1910553728330N12151563WA0067000662004003024195180
B1910563728327N12151563WA0066800660004003024180179
B1910573728324N12151564WA0066700660004003024183176
B1910583728321N12151565WA0066600658004003022197182
B1910593728317N12151566WA0066400657004003024196184
B1911003728313N12151568WA0066300654004003028190172
B1911013728309N12151568WA0066100652004003027181169
B1911023728305N12151568WA0066100650004003028180170
B1911033728301N12151568WA0066000648004003030183174
B1911043728296N12151569WA0065800647004003032190177
B1911053728291N12151570WA0065600645004003031190170
B1911063728287N12151571WA0065400643004003032188178
B1911073728282N12151572WA0065200642004003032182174
B1911083728277N12151571WA0065000641004003035178175
B1911093728272N12151571WA0064900640004003035178171
B1911103728268N12151571WA0064700640004003033179171
B1911113728263N12151571WA0064600639004003029177170
B1911123728259N12151571WA0064400637004003028171161
B1911133728255N12151570WA0064300636004003026167161
B1911143728251N12151569WA0064300635004003026166158
B1911153728247N12151567WA0064200632004003026167164
B1911163728242N12151566WA0064100630004003029170158
B1911173728237N12151566WA0064000628004003034176172
B1911183728231N12151565WA0063800627004003038178170
B1911193728226N12151565WA0063800626004003038172158
B1911203728221N12151563WA0063600626004003037157152
B1911213728216N12151560WA0063500625004003036151154
B1911223728211N12151558WA0063300625004003034158159
B1911233728207N12151557WA0063200624004003031170164
B1911243728202N12151556WA0063100623004003031172162
B1911253728198N12151554WA0063100622004003031160149
B1911263728194N12151551WA0063000621004003031145134
B1911273728190N12151546WA0063000621004003034131124
B1911283728187N12151542WA0062900621004003034125122
B1911293728184N12151537WA0062800620004003031124120
B1911303728181N12151533WA0062800618004003031126122
B1911313728178N12151528WA0062800616004003034130127
B1911323728175N12151523WA0062700615004003035134129
B1911333728171N12151519WA0062500613004003035142140
B1911343728166N12151515WA0062400611004003036151147
B1911353728162N12151512WA0062400610004003036155149
B1911363728157N12151509WA0062300608004003037153146
B1911373728152N12151505WA0062100607004003037150148
B1911383728147N12151502WA0061900607004003037151150
B1911393728143N12151499WA0061900606004003036155155
B1911403728137N12151497WA0061700605004003037156156
B1911413728133N12151494WA0061500604004003036156152
B1911423728127N12151491WA0061400603004003036156162
B1911433728123N12151489WA0061400603004003036155167
B1911443728117N12151486WA0061300602004003038157166
B1911453728112N12151484WA0061200601004003037162172
B1911463728107N12151482WA0061100600004003037168174
B1911473728101N12151480WA0061100599004003037166171
B1911483728096N12151479WA0060900598004003037164173
B1911493728091N12151477WA0060800598004003036162172
B1911503728086N12151476WA0060700597004003034165175
B1911513728082N12151474WA0060700596004003031168184
B1911523728077N12151473WA0060600595004003031166170
B1911533728072N12151471WA0060500594004003031168172
B1911543728068N12151470WA0060400593004003030168171
B1911553728063N12151470WA0060400592004003031177173
B1911563728059N12151470WA0060200590004003032181176
B1911573728054N12151470WA0060100588004003032181174
B1911583728049N12151470WA0060000587004003034175172
B1911593728044N12151469WA0060000586004003033172171
B1912003728039N12151468WA0059800587004003033171179
B1912013728034N12151468WA0059700585004003033176177
B1912023728029N12151467WA0059500585004003033178174
B1912033728024N12151467WA0059500585004003036173166
B1912043728019N12151466WA0059400584004003036166163
B1912053728014N12151464WA0059200584004003035163160
B1912063728009N12151462WA0059200583004003035163166
B1912073728003N12151460WA0059100582004003037165167
B1912083727997N12151459WA0059000581004003039169164
B1912093727991N12151457WA0059000579004003039170167
B1912103727985N12151455WA0059000578004003041165162
B1912113727979N12151453WA0058900577004003044161162
B1912123727973N12151451WA0058800577004003044165171
B1912133727967N12151450WA0058800576004003041172172
B1912143727962N12151449WA0058600575004003038174175
B1912153727956N12151447WA0058500574004003040165168
B1912163727950N12151445WA0058400573004003041161169
B1912173727944N12151443WA0058400571004003040165180
B1912183727939N12151443WA0058300570004003039182190
B1912193727933N12151444WA0058200568004003035195206
B1912203727928N12151446WA0058000566004003036202212
B1912213727924N12151449WA0058000565004003036205225
B1912223727919N12151452WA0057900564004003036216233
B1912233727916N12151457WA0057700562004003035234245
B1912243727913N12151463WA0057500560004003036248248
B1912253727911N12151469WA0057500558004003036251253
B1912263727909N12151476WA0057300558004003036248254
B1912273727907N12151481WA0057100557004003031244256
B1912283727906N12151486WA0056900557004003031251254
B1912293727905N12151491WA0056900556004003028263258
B1912303727905N12151497WA0056700555004003028269258
B1912313727905N12151503WA0056600554004003030271264
B1912323727904N12151508WA0056500553004003030268266
B1912333727904N12151514WA0056500552004003029268267
B1912343727904N12151519WA0056400551004003029270268
B1912353727904N12151525WA0056300550004003030272270
B1912363727905N12151530WA0056100549004003030271267
B1912373727904N12151535WA0056100548004003028267263
B1912383727904N12151541WA0056000546004003028259254
B1912393727903N12151546WA0055800545004003030253251
B1912403727901N12151551WA0055700545004003030244251
B1912413727899N12151557WA0055700545004003030245251
B1912423727898N12151561WA0055500544004003029246247
B1912433727896N12151565WA0055400542004003024242240
B1912443727894N12151570WA0055300539004003030240232
B1912453727891N12151575WA0055200537004003030233230
B1912463727888N12151580WA0055100537004003034224224
B1912473727884N12151584WA0054900537004003029220219
B1912483727881N12151587WA0054700538004003029217219
B1912493727878N12151590WA0054600537004003026215228
B1912503727875N12151593WA0054500537004003026220234
B1912513727872N12151597WA0054500536004003030233246
B1912523727870N12151602WA0054500536004003030242247
B1912533727868N12151607WA0054500534004003030241248
B1912543727865N12151612WA0054500533004003030239247
B1912553727863N12151615WA0054500534004003027229249
B1912563727863N12151622WA0054400534004003034254247
B1912573727861N12151628WA0054400534004003029259258
B1912583727861N12151633WA0054300535004003029272262
B1912593727861N12151638WA0054200533004003026262264
B1913003727860N12151643WA0054200530004003029259271
B1913013727860N12151649WA0054200527004003029267275
B1913023727861N12151655WA0054100523004003033284276
B1913033727863N12151661WA0054000521004003034305283
B1913043727866N12151665WA0053800521004003034312295
B1913053727868N12151670WA0053500521004003032294293
B1913063727868N12151675WA0053300521004003027268274
B1913073727868N12151680WA0053100521004003030258265
B1913083727867N12151686WA0053000520004003030258261
B1913093727866N12151691WA0053000520004003029257260
B1913103727865N12151696WA0053000519004003029249255
B1913113727863N12151702WA0052900519004003031246253
B1913123727862N12151707WA0052900519004003031248256
B1913133727860N12151720WA0052800517004003033261263
B1913143727859N12151725WA0052800517004003033268265
B1913153727859N12151731WA0052800517004003030264261
B1913163727858N12151736WA0052800517004003030257254
B1913173727857N12151741WA0052700516004003026247247
B1913183727855N12151746WA0052700514004003026247246
B1913193727854N12151751WA0052600513004003031249252
B1913203727852N12151757WA0052500511004003032249253
B1913213727850N12151762WA0052400511004003032246251
B1913223727848N12151768WA0052300510004003032245249
B1913233727846N12151773WA0052200509004003029242244
B1913243727844N12151778WA0052100508004003032241242
B1913253727842N12151784WA0052100507004003032241241
B1913263727839N12151789WA0052000506004003033235242
B1913273727837N12151794WA0051900506004003031238245
B1913293727835N12151799WA0051800504004003031243247
B1913303727833N12151805WA0051700503004003031249248
B1913313727831N12151810WA0051700502004003032248247
B1913323727829N12151816WA0051600500004003034244246
B1913333727827N12151822WA0051400499004003035244253
B1913343727825N12151828WA0051300498004003034251260
B1913353727824N12151834WA0051300497004003034262261
B1913363727823N12151840WA0051100497004003034260259
B1913373727823N12151846WA0051000495004003034262257
B1913383727822N12151853WA0050800493004003034253251
B1913393727820N12151859WA0050600491004003035251257
B1913403727819N12151865WA0050500490004003037254257
B1913413727818N12151872WA0050300490004003037262261
B1913423727817N12151879WA0050200489004003036262257
B1913433727815N12151885WA0050100488004003035253247
B1913443727813N12151891WA0049900488004003036241240
B1913453727811N12151897WA0049800487004003037240236
B1913463727808N12151904WA0049700486004003037244241
B1913473727806N12151910WA0049700485004003037245240
B1913483727803N12151916WA0049700484004003037242237
B1913493727801N12151922WA0049600483004003037237238
B1913503727797N12151928WA0049500482004003037236237
B1913513727794N12151934WA0049400482004003038238238
B1913523727792N12151940WA0049400482004003036241240
B1913533727790N12151945WA0049400483004003036244247
B1913543727788N12151950WA0049300483004003031245244
B1913553727786N12151955WA0049200483004003028242242
B1913563727784N12151961WA0049200482004003034243243
B1913573727781N12151966WA0049200481004003037244245
B1913583727779N12151973WA0049200480004003037247252
B1913593727777N12151979WA0049100479004003037244252
B1914003727776N12151984WA0049100479004003031248251
B1914013727775N12151990WA0049000479004004031252255
B1914023727773N12151996WA0048900477004003031255257
B1914033727772N12152001WA0048900476004003032255254
B1914043727771N12152006WA0048800476004003029251250
B1914053727769N12152011WA0048700476004003029246242
B1914063727767N12152016WA0048700475004003028241238
B1914073727765N12152021WA0048700474004003028238229
B1914083727763N12152025WA0048600473004003030233226
B1914093727760N12152029WA0048500472004003031225223
B1914103727756N12152034WA0048500472004003031223231
B1914113727753N12152038WA0048400470004003032228227
B1914123727750N12152044WA0048400469004003037238236
B1914133727747N12152050WA0048300468004003038238232
B1914143727743N12152055WA0048200468004003038231227
B1914153727740N12152061WA0048100468004003038225223
B1914163727736N12152066WA0048000467004003037226225
B1914173727733N12152072WA0048000466004003037238235
B1914183727730N12152078WA0047900465004003037242239
B1914193727727N12152084WA0047800464004003037240234
B1914203727724N12152090WA0047800464004003039233229
B1914213727720N12152096WA0047800463004003040230227
B1914223727717N12152101WA0047700462004003039231225
B1914233727713N12152107WA0047600461004003040233228
B1914243727710N12152113WA0047600460004003039236227
B1914253727707N12152119WA0047500459004003039236229
B1914263727703N12152125WA0047400460004003039232226
B1914273727701N12152129WA0047300460004003034231230
B1914283727698N12152134WA0047300459004003025241241
B1914293727696N12152139WA0047200458004003029242237
B1914303727695N12152144WA0047100455004003029250231
B1914313727692N12152149WA0046900454004003031232220
B1914323727689N12152153WA0046900453004003035211196
B1914333727684N12152155WA0046800452004003035191177
B1914343727680N12152155WA0046700452004003032171155
B1914353727676N12152153WA0046500449004003031151135
B1914363727672N12152150WA0046500448004003032140120
B1914373727670N12152142WA0046400444004003044104107
B1914383727670N12152135WA0046200441004003044076080
B1914393727674N12152129WA0046000438004003045043055
B1914403727679N12152127WA0046000435004003043005024
B1914413727684N12152129WA0045700434004003043323343
B1914423727686N12152134WA0045400432004003040281300
B1914433727685N12152139WA0045100431004003038242258
B1914443727682N12152143WA0045100430004003033208223
B1914453727677N12152144WA0044800428004003035177193
B1914463727673N12152142WA0044500426004003035153169
B1914473727668N12152137WA0044300424004003038132147
B1914483727665N12152131WA0044300422004003041114131
B1914493727664N12152124WA0044100420004003041096115
B1914503727663N12152118WA0043800418004003040089100
B1914513727664N12152111WA0043600416004003039075094
B1914523727665N12152105WA0043600414004003036079078
B1914533727667N12152098WA0043400412004003042075078
B1914543727668N12152091WA0043100410004003040068070
B1914553727670N12152083WA0042900408004003042068068
B1914563727673N12152075WA0042900408004003044067063
B1914573727675N12152068WA0042600410004003044068063
B1914583727677N12152061WA0042400411004004042069060
B1914593727678N12152054WA0042300409004003040078061
B1915003727680N12152047WA0042300408004004037074058
B1915013727682N12152040WA0042200407004006041068059
B1915023727686N12152033WA0042100405004004041059056
B1915033727690N12152026WA0042100405004004046059058
B1915043727693N12152019WA0042100407004004042057051
B1915053727696N12152013WA0042000408004004042055046
B1915063727699N12152008WA0042000410004003034052047
B1915073727701N12152004WA0042000409004003029051049
B1915083727704N12152000WA0041900408004003028055066
B1915093727706N12151995WA0041900406004003030066074
B1915103727705N12151988WA0041900404004003030095091
B1915113727704N12151981WA0041900402004003038106102
B1915123727703N12151975WA0041900400004003036117115
B1915133727700N12151970WA0041800399004003036133128
B1915143727696N12151966WA0041600397004003034140140
B1915153727693N12151962WA0041600396004003034138141
B1915163727688N12151957WA0041400396004004039139137
B1915173727684N12151952WA0041200395004003039134130
B1915183727680N12151947WA0041100395004003039134129
B1915193727676N12151942WA0041100395004003039137140
B1915203727671N12151938WA0041000396004004039139129
B1915213727668N12151933WA0040900399004003035134130
B1915223727664N12151928WA0040900400004003035129127
B1915233727661N12151924WA0040900401004003033131140
B1915243727657N12151920WA0040900402004003033141159
B1915253727652N12151917WA0040900401004003034160184
B1915263727648N12151917WA0041000401004003034189205
B1915273727643N12151919WA0041000402004003034210225
B1915283727642N12151923WA0041100400004003034256241
B1915293727642N12151927WA0041200399004003029288272
B1915303727643N12151930WA0041200398004003021319296
B1915313727646N12151932WA0041200397004003021341318
B1915323727648N12151934WA0041200396004003019339328
B1915333727651N12151934WA0041100394004003019349331
B1915343727655N12151935WA0041000393004003025353341
B1915353727658N12151935WA0041000391004003026007346
B1915363727662N12151933WA0040900390004003026018348
B1915373727666N12151932WA0040700389004003026026352
B1915383727669N12151930WA0040600387004003023022358
B1915393727673N12151929WA0040600385004003026007358
B1915403727677N12151929WA0040400383004003026359347
B1915413727682N12151929WA0040200383004003030352337
B1915423727686N12151930WA0040000384004003026349330
B1915433727689N12151931WA0040000385004003026339321
B1915443727691N12151932WA0039900386004003017317315
B1915453727692N12151934WA0039800385004003016309305
B1915463727694N12151937WA0039700384004003018309302
B1915473727697N12151939WA0039700382004003022320302
B1915483727698N12151942WA0039700381004003018303287
B1915493727699N12151945WA0039700378004003018280280
B1915503727699N12151949WA0039700375004003024274274
B1915513727699N12151954WA0039700373004003032268265
B1915523727698N12151961WA0039500373004003032260260
B1915533727697N12151966WA0039300372004003032260255
B1915543727695N12151970WA0039000374004003025244249
B1915553727694N12151975WA0039000375004003025238249
B1915563727692N12151978WA0038800375004003022237246
B1915573727690N12151981WA0038600374004003020239243
B1915583727689N12151985WA0038500372004003024243243
B1915593727687N12151990WA0038500369004003028241242
B1916003727685N12151994WA0038400367004003028243249
B1916013727684N12151999WA0038400367004003028248253
B1916023727683N12152004WA0038300366004003023258256
B1916033727682N12152009WA0038300366004003027256262
B1916043727682N12152014WA0038200365004003027266265
B1916053727682N12152018WA0038100363004003027275270
B1916063727683N12152022WA0037900362004003022281269
B1916073727682N12152027WA0037900362004003026261263
B1916083727682N12152030WA0037800363004003022263255
B1916093727681N12152033WA0037700363004003018243251
B1916103727681N12152036WA0037600363004003016242251
B1916113727679N12152039WA0037600362004003018238256
B1916123727678N12152042WA0037600361004003018258265
B1916133727677N12152046WA0037500360004003022253262
B1916143727677N12152051WA0037500360004004024253265
B1916153727677N12152056WA0037500362004003024265266
B1916163727676N12152061WA0037500364004004024266268
B1916173727676N12152065WA0037500366004003024273262
B1916183727676N12152069WA0037500367004003021271254
B1916193727676N12152073WA0037500368004003021251227
B1916203727674N12152075WA0037500366004003021213216
B1916213727670N12152076WA0037600366004003021184192
B1916223727665N12152076WA0037700367004003034177174
B1916233727660N12152072WA0037700367004003037147159
B1916243727656N12152068WA0037800367004003034144133
B1916253727652N12152063WA0037900366004004037130128
B1916263727650N12152055WA0037900366004003044107115
B1916273727648N12152048WA0037900367004003044098093
B1916283727648N12152041WA0038000367004003042094082
B1916293727648N12152034WA0038000368004003038090078
B1916303727648N12152027WA0038000368004003036087075
B1916313727648N12152020WA0038000367004003037085070
B1916323727649N12152013WA0038000368004003036076061
B1916333727650N12152007WA0038000368004004035076050
B1916343727653N12152002WA0038000367004003030049047
B1916353727656N12151998WA0038000367004004031050027
B1916363727660N12151995WA0038000367004003031036016
B1916373727664N12151991WA0038000367004004033031003
B1916383727668N12151990WA0038000367004004027021358
B1916393727672N12151988WA0038000366004003027013352
B1916403727676N12151988WA0038000365004003027002342
B1916413727680N12151988WA0038000366004003027351336
B1916423727684N12151988WA0037900366004003023355325
B1916433727687N12151990WA0037900366004003023341315
B1916443727690N12151991WA0037900365004003020336312
B1916453727693N12151992WA0037900365004003019326306
B1916463727695N12151995WA0037900365004003024315295
B1916473727697N12151999WA0037900365004003024302284
B1916483727697N12152003WA0037900367004003024273266
B1916493727696N12152006WA0037900368004003022241242
B1916503727694N12152009WA0037900368004003026217223
B1916513727691N12152011WA0037900369004003029194211
B1916523727687N12152012WA0038000368004003029176195
B1916533727683N12152011WA0038000368004003030166192
B1916543727678N12152011WA0038000367004003031172196
B1916553727673N12152011WA0038000367004003034181194
B1916563727668N12152012WA0038000365004003031184210
B1916573727664N12152012WA0038000365004004031185211
B1916583727661N12152014WA0037900366004004025202222
B1916593727657N12152016WA0037900367004003028201211
B1917003727653N12152019WA0037900368004003028204224
B1917013727650N12152020WA0037800369004003028205236
B1917023727648N12152023WA0037800369004003019227251
B1917033727646N12152026WA0037800369004003019249265
B1917043727646N12152028WA0037900369004003015278284
B1917053727647N12152031WA0037900368004003015309308
B1917063727649N12152033WA0037900366004003019319333
B1917073727653N12152033WA0037900365004003035004345
B1917083727657N12152031WA0037900365004003035023018
B1917093727662N12152028WA0037900366004003036037035
B1917103727664N12152023WA0037900368004003033062054
B1917113727666N12152018WA0037900369004003033078077
B1917123727667N12152012WA0037800370004003033073089
B1917133727668N12152006WA0037800371004003033084094
B1917143727666N12151999WA0037900369004003041112110
B1917153727663N12151993WA0037900369004003043129135
B1917163727658N12151988WA0037900369004003041143163
B1917173727653N12151984WA0038000368004003039146182
B1917183727648N12151986WA0038100370004003035202182
B1917193727645N12151987WA0038100370004003035206220
B1917203727642N12151989WA0038100372004003022200232
B1917213727640N12151991WA0038100370004003021239248
B1917223727639N12151994WA0038100369004003018256265
B1917233727639N12151997WA0038100367004003022280280
B1917243727640N12152001WA0038100366004003022298295
B1917253727641N12152003WA0038100365004003022306305
B1917263727645N12152005WA0038000366004003022343308
B1917273727648N12152007WA0038000367004003022335310
B1917283727651N12152010WA0038000367004003029329300
B1917293727652N12152011WA0037900368004003022320291
B1917303727653N12152013WA0037900367004003011318295
B1917313727655N12152014WA0037900367004003011316296
B1917323727657N12152017WA0037900368004003020320293
B1917333727659N12152018WA0037900369004003020332294
B1917343727661N12152020WA0037900369004003018324289
B1917353727663N12152022WA0037900369004003018322288
B1917363727666N12152024WA0037900369004003018322295
B1917373727668N12152027WA0038000368004003022314289
B1917383727670N12152030WA0038000368004003022308293
B1917393727672N12152033WA0038000368004003022297289
B1917403727673N12152038WA0038000370004004023289286
B1917413727674N12152042WA0038000371004003024288283
B1917423727675N12152046WA0038000372004003020284271
B1917433727675N12152049WA0038000373004003020263259
B1917443727674N12152053WA0038100373004003019239243
B1917453727672N12152056WA0038200371004003019234232
B1917463727670N12152059WA0038200370004003021225217
B1917473727666N12152062WA0038200370004003030206209
B1917483727662N12152063WA0038200368004003030182191
B1917493727658N12152062WA0038200366004003030166168
B1917503727653N12152061WA0038200365004003032165163
B1917513727649N12152058WA0038200364004003033147147
B1917523727645N12152055WA0038000362004003033138132
B1917533727642N12152051WA0037800360004003032138119
B1917543727639N12152045WA0037600357004004032125118
B1917553727636N12152038WA0037600354004004039119109
B1917563727635N12152031WA0037400354004003039106101
B1917573727634N12152024WA0037300352004004038101089
B1917583727634N12152017WA0037100349004003038083081
B1917593727635N12152010WA0037100347004003042080069
B1918003727636N12152002WA0036900345004003043082068
B1918013727638N12151995WA0036600343004003042066064
B1918023727640N12151987WA0036400341004003042071066
B1918033727642N12151980WA0036400340004004040069065
B1918043727644N12151972WA0036200339004003042071062
B1918053727646N12151965WA0036000337004003042072060
B1918063727648N12151957WA0035800335004004044071063
B1918073727650N12151949WA0035800336004003046072057
B1918083727651N12151941WA0035500337004003046076071
B1918093727653N12151935WA0035300339004003042081081
B1918103727653N12151929WA0035200338004003032093098
B1918113727652N12151922WA0035200336004003035095112
B1918123727650N12151915WA0035100333004003046114126
B1918133727647N12151908WA0035100331004003043114142
B1918143727643N12151901WA0035100331004003044124149
B1918153727639N12151896WA0035100332004003038149155
B1918163727634N12151893WA0035000331004003038150170
B1918173727630N12151889WA0035000331004003036148168
B1918183727625N12151885WA0034900329004003036147165
B1918193727620N12151881WA0034900329004003040150166
B1918203727615N12151877WA0034700330004003040148162
B1918213727611N12151874WA0034700331004003036145160
B1918223727607N12151870WA0034600331004003032144163
B1918233727603N12151867WA0034600330004003033144162
B1918243727599N12151863WA0034500331004003033145159
B1918253727595N12151860WA0034500331004003032142162
B1918263727592N12151856WA0034500331004003030143164
B1918273727588N12151854WA0034500331004003025148177
B1918283727585N12151851WA0034600330004003025155179
B1918293727581N12151850WA0034600328004003025164181
B1918303727577N12151848WA0034500326004003027162174
B1918313727573N12151846WA0034500326004003032158169
B1918323727569N12151844WA0034500325004003032150160
B1918333727565N12151841WA0034300324004003029144153
B1918343727562N12151837WA0034200323004003029137144
B1918353727558N12151833WA0034200322004003034135143
B1918363727554N12151828WA0034000322004003038136136
B1918373727550N12151824WA0033900322004003035140135
B1918383727547N12151821WA0033800321004003035137145
B1918393727544N12151817WA0033800319004003027131144
B1918403727541N12151813WA0033700317004003029139157
B1918413727537N12151810WA0033600314004003029155175
B1918423727532N12151809WA0033500313004003032176193
B1918433727527N12151809WA0033500312004003034191213
B1918443727523N12151811WA0033300313004003034209226
B1918453727520N12151814WA0033200313004003027223237
B1918463727518N12151816WA0033000313004003021231246
B1918473727517N12151820WA0033000311004003021242256
B1918483727515N12151824WA0032800310004003023251264
B1918493727515N12151828WA0032700309004003023260267
B1918503727515N12151832WA0032600307004003023269271
B1918513727514N12151836WA0032600306004003021271269
B1918523727514N12151841WA0032500303004003023271268
B1918533727515N12151845WA0032400300004003023274270
B1918543727515N12151851WA0032200297004003027280274
B1918553727517N12151857WA0032200294004003034285283
B1918563727518N12151863WA0031900292004003034287284
B1918573727519N12151868WA0031600290004003032288286
B1918583727521N12151874WA0031300289004003032289288
B1918593727523N12151880WA0030900287004003032291289
B1919003727524N12151885WA0030700286004003032290289
B1919013727526N12151890WA0030500285004003030291291
B1919023727528N12151896WA0030300284004003030291292
B1919033727529N12151901WA0030200282004003029295296
B1919043727532N12151906WA0030200280004003030300295
B1919053727534N12151911WA0030000278004003030304296
B1919063727536N12151916WA0029900276004003031300298
B1919073727539N12151921WA0029700276004003031302299
B1919083727542N12151925WA0029500275004003031308299
B1919093727544N12151930WA0029300274004003031300288
B1919103727546N12151935WA0029200273004003029296287
B1919113727548N12151940WA0029000272004003030290292
B1919123727550N12151945WA0028900271004003033300299
B1919133727553N12151949WA0028800270004003031317308
B1919143727556N12151952WA0028700269004003031332306
B1919153727560N12151955WA0028600268004003025331302
B1919163727563N12151958WA0028500267004003025318299
B1919173727566N12151961WA0028400266004003025311301
B1919183727568N12151964WA0028300265004003025314302
B1919193727571N12151968WA0028200264004003029320304
B1919203727574N12151971WA0028200264004003029316300
B1919213727576N12151974WA0028200266004003026312297
B1919223727578N12151977WA0028100265004003022306292
B1919233727580N12151980WA0028100262004003020313293
B1919243727583N12151983WA0028000261004003024317290
B1919253727586N12151986WA0028000261004003024317294
B1919263727588N12151989WA0028000261004003024316289
B1919273727590N12151991WA0027900261004003019311291
B1919283727592N12151995WA0027900260004003023305297
B1919293727595N12151999WA0027800259004003023309296
B1919303727598N12152003WA0027700258004003029305293
B1919313727600N12152007WA0027600259004003029306290
B1919323727602N12152010WA0027600261004003019310284
B1919333727603N12152012WA0027600262004003019331278
B1919343727604N12152014WA0027600261004003010304279
B1919353727605N12152016WA0027700258004003010288268
B1919363727606N12152020WA0027700256004003017282267
B1919373727607N12152026WA0027700255004003030280263
B1919383727608N12152030WA0027700255004003030272250
B1919393727607N12152033WA0027600254004003021245242
B1919403727606N12152036WA0027400252004003017222226
B1919413727604N12152038WA0027200251004003015220218
B1919423727600N12152039WA0027100248004003028195207
B1919433727597N12152040WA0026900246004004028184186
B1919443727592N12152036WA0026800245004003028142175
B1919453727589N12152032WA0026700243004003034127144
B1919463727586N12152027WA0026500242004003036115124
B1919473727584N12152021WA0026400240004003036106111
B1919483727583N12152015WA0026200238004003037102103
B1919493727582N12152008WA0026000236004003037092096
B1919503727581N12152000WA0025900236004004037095095
B1919513727581N12151993WA0025700236004006039095103
B1919523727579N12151986WA0025500233004004039107116
B1919533727577N12151979WA0025300231004003039117126
B1919543727574N12151974WA0025200230004003038129141
B1919553727570N12151969WA0025200230004003036133148
B1919563727567N12151964WA0025000229004003034133156
B1919573727563N12151960WA0024900229004003032139171
B1919583727559N12151957WA0024800229004003032145183
B1919593727555N12151955WA0024800229004003030155176
B1920003727551N12151953WA0024700228004003030169187
B1920013727547N12151951WA0024600228004003030161196
B1920023727543N12151950WA0024500228004003024162197
B1920033727540N12151949WA0024500227004003024177205
B1920043727537N12151950WA0024500225004003023195213
B1920053727533N12151952WA0024400223004003023203218
B1920063727530N12151953WA0024300221004003028201220
B1920073727526N12151956WA0024300218004003029203218
B1920083727522N12151958WA0024200217004003028207224
B1920093727520N12151960WA0024000215004003025211226
B1920103727517N12151963WA0023700213004003023221226
B1920113727514N12151966WA0023700212004003025215224
B1920123727510N12151968WA0023500211004003025201219
B1920133727506N12151970WA0023200209004003025206224
B1920143727503N12151973WA0023000209004003024217228
B1920153727501N12151975WA0023000207004003024227229
B1920163727498N12151978WA0022800206004003021224230
B1920173727496N12151980WA0022600203004003020216225
B1920183727493N12151982WA0022400202004003021213230
B1920193727491N12151985WA0022400200004003022226238
B1920203727489N12151989WA0022200198004003022237242
B1920213727487N12151991WA0022100196004003022234249
B1920223727486N12151994WA0021900195004003020243246
B1920233727484N12151998WA0021900193004003022239248
B1920243727482N12152002WA0021700191004003022248257
B1920253727481N12152006WA0021500189004003022255260
B1920263727480N12152011WA0021200189004003025254243
B1920273727479N12152014WA0021200189004003025254240
B1920283727479N12152017WA0021000188004003019251249
B1920293727478N12152020WA0020800187004003016248252
B1920303727477N12152022WA0020600189004003011239243
B1920313727477N12152024WA0020600189004003011246250
B1920323727476N12152026WA0020400188004003010246282
B1920333727476N12152027WA0020400188004003010249013
B1920343727475N12152028WA0020300187004003005246348
B1920353727476N12152029WA0020300186004003005246331
B1920363727476N12152030WA0020300186004003004246341
B1920373727476N12152030WA0020300185004003003223337
B1920383727476N12152030WA0020300184004003000222334
B1920393727476N12152031WA0020300184004003000222346
B1920403727476N12152031WA0020300184004003001222343
B1920413727476N12152031WA0020300184004003000222342
B1920423727476N12152031WA0020300183004003000222346
B1920433727476N12152031WA0020300183004003000222347
B1920443727476N12152030WA0020300183004003000222348
B1920453727476N12152030WA0020300183004003000222348
B1920463727476N12152030WA0020300183004003000222350
B1920473727476N12152030WA0020300183004003001222351
B1920483727476N12152030WA0020300183004003000222349
B1920493727476N12152030WA0020300183004003000222351
B1920503727476N12152030WA0020300183004003000222351
B1920513727476N12152030WA0020300183004003000222351
B1920523727476N12152029WA0020300182004003000222352
B1920533727476N12152029WA0020300182004003000222352
B1920543727476N12152029WA0020300182004003000222352
B1920553727476N12152029WA0020300182004003000222352
B1920563727476N12152029WA0020300181004003000222352
B1920573727476N12152029WA0020300182004003000222352
B1920583727476N12152029WA0020300182004003000222352
B1920593727475N12152029WA0020300181004003002222352
B1921003727475N12152028WA0020300182004003002222349
B1921013727476N12152028WA0020300183004003003222349
B1921023727476N12152027WA0020300182004003002053347
B1921033727476N12152027WA0020300182004003003053359
B1921043727476N12152027WA0020300183004003002053007
B1921053727477N12152026WA0020300183004003002053011
B1921063727477N12152026WA0020300182004003002053014
GFJIDzYR1Wm8IT5WBgTqnsiuz6X83DdHNhOaVe3sCXTpusXt1UQ1CJeYgEeMKB6dq
GTtjv7Iz/6ohvCYnoeRGvj0LSv58zCTxnytYXvWdA6/IXzrZewYhVXsxS/iplXMaB
G5DsZ+5fjlkQqmaFAfgtVFZonnGEfSnuSSbrMyTq55yI=

